{
  "type": "Feature",
  "properties": {
    "relation": 12980693,
    "direction": "1",
    "fee": "yes",
    "from": "Serangoon Interchange",
    "name": "Svc 100A (Serangoon Interchange → Aljunied Station)",
    "name:en": "Svc 100A (Serangoon Interchange → Aljunied Station)",
    "network": "Land Transport Authority",
    "network:short": "LTA",
    "network:wikidata": "Q3299279",
    "network:wikipedia": "en:Land Transport Authority",
    "operator": "SBS Transit",
    "operator:wikidata": "Q2661305",
    "operator:wikipedia": "en:SBS Transit",
    "public_transport:version": "2",
    "ref": "100A",
    "route": "bus",
    "to": "Aljunied Station",
    "type": "route",
    "website": "https://www.sbstransit.com.sg/"
  },
  "geometry": {
    "type": "LineString",
    "coordinates": [
      [
        103.8720614,
        1.3506654
      ],
      [
        103.8721969,
        1.3506283
      ],
      [
        103.8722565,
        1.350442
      ],
      [
        103.871819,
        1.3503012
      ],
      [
        103.871561,
        1.3503592
      ],
      [
        103.8714697,
        1.3505998
      ],
      [
        103.8714094,
        1.3505852
      ],
      [
        103.8713595,
        1.3505774
      ],
      [
        103.8713297,
        1.3505678
      ],
      [
        103.8712986,
        1.3505594
      ],
      [
        103.8713028,
        1.3505476
      ],
      [
        103.871335,
        1.3504658
      ],
      [
        103.8713845,
        1.3502932
      ],
      [
        103.8714187,
        1.3501435
      ],
      [
        103.8714655,
        1.3498879
      ],
      [
        103.8714809,
        1.3498077
      ],
      [
        103.8715111,
        1.3496509
      ],
      [
        103.8716004,
        1.3490265
      ],
      [
        103.8716303,
        1.3488867
      ],
      [
        103.8716685,
        1.3488058
      ],
      [
        103.8717245,
        1.3487398
      ],
      [
        103.8717972,
        1.3486694
      ],
      [
        103.8718978,
        1.3486108
      ],
      [
        103.8722497,
        1.3484309
      ],
      [
        103.8724022,
        1.3483449
      ],
      [
        103.8724262,
        1.3483313
      ],
      [
        103.8726447,
        1.3482027
      ],
      [
        103.872613,
        1.3481462
      ],
      [
        103.8725747,
        1.3480807
      ],
      [
        103.8724776,
        1.347915
      ],
      [
        103.8722291,
        1.3474386
      ],
      [
        103.8719094,
        1.3467589
      ],
      [
        103.87181,
        1.3465476
      ],
      [
        103.8716,
        1.3462428
      ],
      [
        103.8715697,
        1.3461865
      ],
      [
        103.871551,
        1.3461472
      ],
      [
        103.8715207,
        1.3460865
      ],
      [
        103.87137,
        1.3457696
      ],
      [
        103.8710901,
        1.3451352
      ],
      [
        103.8709989,
        1.3449259
      ],
      [
        103.8709561,
        1.3448058
      ],
      [
        103.870907,
        1.3446599
      ],
      [
        103.8708778,
        1.3445659
      ],
      [
        103.8708322,
        1.344373
      ],
      [
        103.8707997,
        1.3441849
      ],
      [
        103.8708017,
        1.3440331
      ],
      [
        103.8707884,
        1.3434324
      ],
      [
        103.870787,
        1.3433679
      ],
      [
        103.8708058,
        1.3431339
      ],
      [
        103.8708294,
        1.3429235
      ],
      [
        103.8708338,
        1.3428407
      ],
      [
        103.8708413,
        1.3427018
      ],
      [
        103.8708513,
        1.3425332
      ],
      [
        103.8708575,
        1.3424883
      ],
      [
        103.8708607,
        1.3424327
      ],
      [
        103.8709259,
        1.3412878
      ],
      [
        103.8709265,
        1.3409978
      ],
      [
        103.8709175,
        1.3405859
      ],
      [
        103.8708837,
        1.3401454
      ],
      [
        103.8708801,
        1.3399771
      ],
      [
        103.8708778,
        1.3398678
      ],
      [
        103.8708753,
        1.3398075
      ],
      [
        103.8708602,
        1.3395252
      ],
      [
        103.8708224,
        1.3391503
      ],
      [
        103.8707595,
        1.3386391
      ],
      [
        103.8707397,
        1.3384785
      ],
      [
        103.8707127,
        1.3383053
      ],
      [
        103.8707487,
        1.3381546
      ],
      [
        103.8707679,
        1.3380939
      ],
      [
        103.8707876,
        1.3380333
      ],
      [
        103.8708163,
        1.3379827
      ],
      [
        103.8708429,
        1.3379471
      ],
      [
        103.8708816,
        1.337915
      ],
      [
        103.8709291,
        1.3378815
      ],
      [
        103.8709873,
        1.3378482
      ],
      [
        103.8710781,
        1.337822
      ],
      [
        103.8715245,
        1.3377957
      ],
      [
        103.8716703,
        1.3377855
      ],
      [
        103.8719362,
        1.3377566
      ],
      [
        103.8721644,
        1.3377316
      ],
      [
        103.87225,
        1.3377226
      ],
      [
        103.8723195,
        1.3377153
      ],
      [
        103.8724113,
        1.3377059
      ],
      [
        103.872495,
        1.3376954
      ],
      [
        103.8728735,
        1.337654
      ],
      [
        103.8729838,
        1.3376456
      ],
      [
        103.8732865,
        1.3376402
      ],
      [
        103.8734713,
        1.3376462
      ],
      [
        103.8736835,
        1.3376594
      ],
      [
        103.8740785,
        1.3377054
      ],
      [
        103.8746396,
        1.3377792
      ],
      [
        103.87511,
        1.3378411
      ],
      [
        103.8754884,
        1.3378885
      ],
      [
        103.8755471,
        1.3378959
      ],
      [
        103.8756331,
        1.3378987
      ],
      [
        103.8757114,
        1.3378994
      ],
      [
        103.8758593,
        1.3378846
      ],
      [
        103.8759557,
        1.3378684
      ],
      [
        103.8760414,
        1.3378536
      ],
      [
        103.8761272,
        1.3378319
      ],
      [
        103.8761962,
        1.3378047
      ],
      [
        103.8763265,
        1.3377624
      ],
      [
        103.8763851,
        1.3377427
      ],
      [
        103.8764685,
        1.3377062
      ],
      [
        103.8765743,
        1.337655
      ],
      [
        103.8767126,
        1.3375892
      ],
      [
        103.876912,
        1.3374965
      ],
      [
        103.8770008,
        1.3374428
      ],
      [
        103.8771159,
        1.3373495
      ],
      [
        103.8775704,
        1.3369538
      ],
      [
        103.877717,
        1.3368071
      ],
      [
        103.877776,
        1.3367302
      ],
      [
        103.8778118,
        1.3366188
      ],
      [
        103.8778409,
        1.3365202
      ],
      [
        103.8778638,
        1.3364343
      ],
      [
        103.8778904,
        1.3363121
      ],
      [
        103.8780079,
        1.3357845
      ],
      [
        103.8780363,
        1.3356572
      ],
      [
        103.8780673,
        1.3355265
      ],
      [
        103.8781118,
        1.3353314
      ],
      [
        103.8781335,
        1.3352547
      ],
      [
        103.8781483,
        1.3351759
      ],
      [
        103.8781899,
        1.3349965
      ],
      [
        103.8782165,
        1.3348685
      ],
      [
        103.8782452,
        1.3347479
      ],
      [
        103.8783567,
        1.334215
      ],
      [
        103.8783815,
        1.3341101
      ],
      [
        103.8784358,
        1.3337971
      ],
      [
        103.8784703,
        1.333639
      ],
      [
        103.878557,
        1.3333049
      ],
      [
        103.8785645,
        1.3332718
      ],
      [
        103.8785837,
        1.3332055
      ],
      [
        103.878599,
        1.3331377
      ],
      [
        103.8786224,
        1.3330395
      ],
      [
        103.878707,
        1.3326498
      ],
      [
        103.8787226,
        1.3325902
      ],
      [
        103.8787335,
        1.3325461
      ],
      [
        103.8787567,
        1.3324423
      ],
      [
        103.8788125,
        1.3322094
      ],
      [
        103.8788659,
        1.3319877
      ],
      [
        103.8789353,
        1.3317465
      ],
      [
        103.8790032,
        1.3315129
      ],
      [
        103.8790343,
        1.33142
      ],
      [
        103.8790493,
        1.3313621
      ],
      [
        103.8790978,
        1.3312227
      ],
      [
        103.8791233,
        1.3311405
      ],
      [
        103.8791508,
        1.3310516
      ],
      [
        103.8792313,
        1.3307256
      ],
      [
        103.8792823,
        1.330527
      ],
      [
        103.8795395,
        1.3295372
      ],
      [
        103.8797289,
        1.3289154
      ],
      [
        103.8797973,
        1.3286875
      ],
      [
        103.8798762,
        1.3284385
      ],
      [
        103.8799816,
        1.3281369
      ],
      [
        103.8800268,
        1.3280013
      ],
      [
        103.88011,
        1.3277865
      ],
      [
        103.8801697,
        1.327625
      ],
      [
        103.8802049,
        1.327533
      ],
      [
        103.8802421,
        1.3274127
      ],
      [
        103.8804062,
        1.3268815
      ],
      [
        103.8804811,
        1.3266244
      ],
      [
        103.8805819,
        1.3263425
      ],
      [
        103.8806451,
        1.3261646
      ],
      [
        103.8806609,
        1.3261276
      ],
      [
        103.8807041,
        1.3259736
      ],
      [
        103.8808125,
        1.3256225
      ],
      [
        103.8808483,
        1.3254921
      ],
      [
        103.880866,
        1.3254329
      ],
      [
        103.8808736,
        1.3253984
      ],
      [
        103.8809346,
        1.3251318
      ],
      [
        103.8811736,
        1.3241847
      ],
      [
        103.8812003,
        1.3240788
      ],
      [
        103.881329,
        1.3234232
      ],
      [
        103.8813959,
        1.3230925
      ],
      [
        103.8814418,
        1.3228688
      ],
      [
        103.881467,
        1.3227381
      ],
      [
        103.8814712,
        1.3227166
      ],
      [
        103.8815328,
        1.3223587
      ],
      [
        103.8815664,
        1.3221281
      ],
      [
        103.881595,
        1.3219199
      ],
      [
        103.8818029,
        1.3204059
      ],
      [
        103.8818713,
        1.3197722
      ],
      [
        103.8818823,
        1.3195596
      ],
      [
        103.8818959,
        1.3193819
      ],
      [
        103.8819173,
        1.3191924
      ],
      [
        103.8819325,
        1.3190391
      ],
      [
        103.8819578,
        1.3186465
      ],
      [
        103.8819657,
        1.3185827
      ],
      [
        103.8819793,
        1.3184721
      ],
      [
        103.8819885,
        1.318398
      ],
      [
        103.881995,
        1.3180956
      ],
      [
        103.8819783,
        1.3179075
      ],
      [
        103.8819568,
        1.3176846
      ],
      [
        103.8819497,
        1.3175071
      ],
      [
        103.8819424,
        1.3172468
      ],
      [
        103.8819015,
        1.3168151
      ],
      [
        103.8818909,
        1.3167183
      ],
      [
        103.8818844,
        1.3166598
      ],
      [
        103.8818612,
        1.3164481
      ],
      [
        103.8818468,
        1.316267
      ],
      [
        103.881841,
        1.3161317
      ]
    ]
  }
}