{
  "type": "Feature",
  "properties": {
    "relation": 5702943,
    "direction": "1",
    "distance": "23.3",
    "fee": "yes",
    "from": "Hougang Central Interchange",
    "name": "Svc 102 (Hougang Central Interchange ↺ Seletar Aerospace Avenue)",
    "name:en": "Svc 102 (Hougang Central Interchange ↺ Seletar Aerospace Avenue)",
    "network": "Land Transport Authority",
    "network:short": "LTA",
    "network:wikidata": "Q3299279",
    "network:wikipedia": "en:Land Transport Authority",
    "opening_hours": "Mo-Su 05:45-23:30",
    "operator": "SBS Transit",
    "operator:wikidata": "Q2661305",
    "operator:wikipedia": "en:SBS Transit",
    "public_transport:version": "2",
    "ref": "102",
    "roundtrip": "yes",
    "route": "bus",
    "to": "Hougang Central Interchange",
    "type": "route",
    "via": "Seletar Aerospace Avenue",
    "website": "https://www.sbstransit.com.sg/",
    "wheelchair": "yes"
  },
  "geometry": {
    "type": "LineString",
    "coordinates": [
      [
        103.891561,
        1.3711067
      ],
      [
        103.8915485,
        1.3711349
      ],
      [
        103.8915072,
        1.3712192
      ],
      [
        103.8915606,
        1.3712446
      ],
      [
        103.8915945,
        1.3712577
      ],
      [
        103.8917736,
        1.3713274
      ],
      [
        103.8920085,
        1.3713685
      ],
      [
        103.89258,
        1.3713712
      ],
      [
        103.8928736,
        1.371367
      ],
      [
        103.8930776,
        1.3713682
      ],
      [
        103.8931346,
        1.371362
      ],
      [
        103.893209,
        1.371334
      ],
      [
        103.8932828,
        1.3712895
      ],
      [
        103.8933002,
        1.371279
      ],
      [
        103.8937186,
        1.3708818
      ],
      [
        103.8938825,
        1.370715
      ],
      [
        103.8939912,
        1.3705587
      ],
      [
        103.8940235,
        1.3704521
      ],
      [
        103.8940333,
        1.3702747
      ],
      [
        103.8940411,
        1.3701954
      ],
      [
        103.8940439,
        1.3701487
      ],
      [
        103.8940512,
        1.3701026
      ],
      [
        103.8940892,
        1.3699867
      ],
      [
        103.8941503,
        1.3699074
      ],
      [
        103.8942188,
        1.3698111
      ],
      [
        103.8943827,
        1.3695999
      ],
      [
        103.8945722,
        1.3694854
      ],
      [
        103.8946339,
        1.3694779
      ],
      [
        103.8947007,
        1.3694818
      ],
      [
        103.8948216,
        1.3695244
      ],
      [
        103.8951999,
        1.3698786
      ],
      [
        103.8952401,
        1.3699202
      ],
      [
        103.8953118,
        1.3699908
      ],
      [
        103.8956099,
        1.3702648
      ],
      [
        103.8956795,
        1.3703288
      ],
      [
        103.8956885,
        1.3703371
      ],
      [
        103.8958937,
        1.3705257
      ],
      [
        103.8962522,
        1.3708557
      ],
      [
        103.8967005,
        1.3712553
      ],
      [
        103.8968399,
        1.3713897
      ],
      [
        103.8969058,
        1.3714532
      ],
      [
        103.897271,
        1.3718006
      ],
      [
        103.8977241,
        1.372211
      ],
      [
        103.8978041,
        1.372282
      ],
      [
        103.8983496,
        1.3727642
      ],
      [
        103.8986528,
        1.3730196
      ],
      [
        103.8987089,
        1.3730677
      ],
      [
        103.8987729,
        1.3731203
      ],
      [
        103.8988893,
        1.3732212
      ],
      [
        103.8989747,
        1.3733026
      ],
      [
        103.8992444,
        1.3735758
      ],
      [
        103.8992787,
        1.3736107
      ],
      [
        103.8993437,
        1.3736765
      ],
      [
        103.8993939,
        1.3737267
      ],
      [
        103.8996125,
        1.3739445
      ],
      [
        103.8997378,
        1.3740581
      ],
      [
        103.8999885,
        1.3742983
      ],
      [
        103.9000983,
        1.3744059
      ],
      [
        103.9004248,
        1.3747036
      ],
      [
        103.9005821,
        1.3748675
      ],
      [
        103.9006132,
        1.3749037
      ],
      [
        103.9008471,
        1.3751218
      ],
      [
        103.9010624,
        1.3753423
      ],
      [
        103.9012043,
        1.3754736
      ],
      [
        103.9020903,
        1.3763166
      ],
      [
        103.9022782,
        1.3765274
      ],
      [
        103.9024724,
        1.3767722
      ],
      [
        103.9027114,
        1.3770452
      ],
      [
        103.9028348,
        1.3772502
      ],
      [
        103.9028655,
        1.3773011
      ],
      [
        103.9029045,
        1.3773658
      ],
      [
        103.9029249,
        1.377399
      ],
      [
        103.9030197,
        1.3775519
      ],
      [
        103.9030416,
        1.377598
      ],
      [
        103.9031299,
        1.3777838
      ],
      [
        103.9032394,
        1.3780363
      ],
      [
        103.903296,
        1.3781922
      ],
      [
        103.9033498,
        1.3783691
      ],
      [
        103.9034156,
        1.3786231
      ],
      [
        103.9034485,
        1.3787625
      ],
      [
        103.9035185,
        1.3792704
      ],
      [
        103.9035282,
        1.3796459
      ],
      [
        103.9035288,
        1.3797847
      ],
      [
        103.9034482,
        1.3799902
      ],
      [
        103.903404,
        1.3800968
      ],
      [
        103.903372,
        1.3801353
      ],
      [
        103.9033054,
        1.3801897
      ],
      [
        103.9032131,
        1.3802304
      ],
      [
        103.900626,
        1.3798658
      ],
      [
        103.8998152,
        1.3797403
      ],
      [
        103.8996465,
        1.3797142
      ],
      [
        103.899615,
        1.3797097
      ],
      [
        103.8995828,
        1.3797051
      ],
      [
        103.897811,
        1.3794502
      ],
      [
        103.8975247,
        1.3794093
      ],
      [
        103.8973021,
        1.3793671
      ],
      [
        103.8970066,
        1.3793239
      ],
      [
        103.8969375,
        1.3793138
      ],
      [
        103.8968473,
        1.3793196
      ],
      [
        103.8967739,
        1.3793275
      ],
      [
        103.8964985,
        1.3793695
      ],
      [
        103.8955186,
        1.3797572
      ],
      [
        103.8953484,
        1.3798164
      ],
      [
        103.8952614,
        1.3798455
      ],
      [
        103.8950155,
        1.3799086
      ],
      [
        103.8947281,
        1.3799418
      ],
      [
        103.893224,
        1.3799665
      ],
      [
        103.8929557,
        1.379967
      ],
      [
        103.892901,
        1.3799661
      ],
      [
        103.892803,
        1.3799655
      ],
      [
        103.8928072,
        1.3800931
      ],
      [
        103.892812,
        1.3801741
      ],
      [
        103.8928205,
        1.3803719
      ],
      [
        103.892883,
        1.3809921
      ],
      [
        103.8929148,
        1.3813887
      ],
      [
        103.8929174,
        1.3814447
      ],
      [
        103.8929253,
        1.3815128
      ],
      [
        103.892928,
        1.3815495
      ],
      [
        103.8929442,
        1.3817623
      ],
      [
        103.8929555,
        1.3819842
      ],
      [
        103.8929609,
        1.3821105
      ],
      [
        103.893064,
        1.3830972
      ],
      [
        103.8930729,
        1.3831826
      ],
      [
        103.893112,
        1.3839156
      ],
      [
        103.8931199,
        1.383976
      ],
      [
        103.8931424,
        1.3841761
      ],
      [
        103.8932072,
        1.3846456
      ],
      [
        103.8933961,
        1.3852649
      ],
      [
        103.8934854,
        1.3856043
      ],
      [
        103.8935558,
        1.3859132
      ],
      [
        103.8936455,
        1.3863262
      ],
      [
        103.8936698,
        1.3864125
      ],
      [
        103.8937108,
        1.3865583
      ],
      [
        103.8937272,
        1.3866064
      ],
      [
        103.8937633,
        1.3867283
      ],
      [
        103.8937747,
        1.3867749
      ],
      [
        103.8938222,
        1.3869459
      ],
      [
        103.8942053,
        1.3882063
      ],
      [
        103.894277,
        1.3884171
      ],
      [
        103.8943721,
        1.3886649
      ],
      [
        103.8943992,
        1.3887355
      ],
      [
        103.8944304,
        1.3888278
      ],
      [
        103.8944479,
        1.3888204
      ],
      [
        103.8945345,
        1.3887894
      ],
      [
        103.894619,
        1.3887573
      ],
      [
        103.8946999,
        1.3887265
      ],
      [
        103.895045,
        1.3886243
      ],
      [
        103.8956456,
        1.3884109
      ],
      [
        103.8959889,
        1.3882889
      ],
      [
        103.8963116,
        1.3881742
      ],
      [
        103.8965059,
        1.3881994
      ],
      [
        103.8965505,
        1.3882128
      ],
      [
        103.896567,
        1.3882178
      ],
      [
        103.8966109,
        1.3882575
      ],
      [
        103.89672,
        1.3883582
      ],
      [
        103.8969044,
        1.3888473
      ],
      [
        103.8969639,
        1.3890007
      ],
      [
        103.8970197,
        1.3891624
      ],
      [
        103.8970974,
        1.3894132
      ],
      [
        103.8971972,
        1.3897002
      ],
      [
        103.8972176,
        1.3897571
      ],
      [
        103.897239,
        1.389826
      ],
      [
        103.8972652,
        1.3899023
      ],
      [
        103.8973084,
        1.390029
      ],
      [
        103.8973468,
        1.3901389
      ],
      [
        103.8975594,
        1.3907775
      ],
      [
        103.8976096,
        1.3909185
      ],
      [
        103.8976302,
        1.3909736
      ],
      [
        103.8976913,
        1.3911643
      ],
      [
        103.8977807,
        1.391432
      ],
      [
        103.8977846,
        1.3915692
      ],
      [
        103.8977818,
        1.3916934
      ],
      [
        103.8977667,
        1.3917311
      ],
      [
        103.8977341,
        1.3918126
      ],
      [
        103.8976604,
        1.3919
      ],
      [
        103.89752,
        1.391947
      ],
      [
        103.8972887,
        1.3920372
      ],
      [
        103.8966823,
        1.3922607
      ],
      [
        103.8961297,
        1.3924381
      ],
      [
        103.8955367,
        1.3926409
      ],
      [
        103.8954786,
        1.3926607
      ],
      [
        103.8954168,
        1.392682
      ],
      [
        103.8951649,
        1.3927684
      ],
      [
        103.8950718,
        1.3928003
      ],
      [
        103.8947519,
        1.3929146
      ],
      [
        103.8945345,
        1.3929952
      ],
      [
        103.8943537,
        1.3930584
      ],
      [
        103.8941311,
        1.3931317
      ],
      [
        103.8937658,
        1.3932541
      ],
      [
        103.8937054,
        1.3932743
      ],
      [
        103.893583,
        1.3933122
      ],
      [
        103.893505,
        1.3933394
      ],
      [
        103.893302,
        1.3934101
      ],
      [
        103.8927199,
        1.3935895
      ],
      [
        103.8923519,
        1.393715
      ],
      [
        103.8922643,
        1.3937478
      ],
      [
        103.8922337,
        1.3937593
      ],
      [
        103.891813,
        1.3939048
      ],
      [
        103.8913842,
        1.3940448
      ],
      [
        103.8911498,
        1.3940893
      ],
      [
        103.890893,
        1.3941188
      ],
      [
        103.8905934,
        1.3941503
      ],
      [
        103.8905587,
        1.3941538
      ],
      [
        103.8905062,
        1.3941593
      ],
      [
        103.8904711,
        1.3941629
      ],
      [
        103.8902506,
        1.394186
      ],
      [
        103.8882763,
        1.3943799
      ],
      [
        103.8880829,
        1.3943989
      ],
      [
        103.8878466,
        1.3944221
      ],
      [
        103.8875501,
        1.394451
      ],
      [
        103.88749,
        1.3944569
      ],
      [
        103.8874182,
        1.3944671
      ],
      [
        103.887355,
        1.3944745
      ],
      [
        103.8871163,
        1.3945023
      ],
      [
        103.8862635,
        1.3946062
      ],
      [
        103.8856657,
        1.394707
      ],
      [
        103.8826094,
        1.3952411
      ],
      [
        103.8823355,
        1.3952881
      ],
      [
        103.8822363,
        1.3953105
      ],
      [
        103.8820872,
        1.3953351
      ],
      [
        103.8820045,
        1.3953476
      ],
      [
        103.8817588,
        1.3953876
      ],
      [
        103.8814683,
        1.3954352
      ],
      [
        103.8813229,
        1.395459
      ],
      [
        103.880557,
        1.3956032
      ],
      [
        103.8801805,
        1.395668
      ],
      [
        103.8799059,
        1.3957282
      ],
      [
        103.8797289,
        1.3957532
      ],
      [
        103.8795286,
        1.3957726
      ],
      [
        103.8793328,
        1.395759
      ],
      [
        103.879173,
        1.395727
      ],
      [
        103.8791225,
        1.3957122
      ],
      [
        103.8790514,
        1.3956916
      ],
      [
        103.8789889,
        1.3956736
      ],
      [
        103.8786752,
        1.3956136
      ],
      [
        103.8782989,
        1.395515
      ],
      [
        103.8774453,
        1.3953087
      ],
      [
        103.8771597,
        1.3952378
      ],
      [
        103.8767452,
        1.3951445
      ],
      [
        103.8764866,
        1.3950863
      ],
      [
        103.8762291,
        1.3950284
      ],
      [
        103.8760756,
        1.3949119
      ],
      [
        103.8760233,
        1.3948425
      ],
      [
        103.8759709,
        1.394784
      ],
      [
        103.8759458,
        1.3946367
      ],
      [
        103.8759622,
        1.3942332
      ],
      [
        103.875952,
        1.3939424
      ],
      [
        103.8759271,
        1.3936294
      ],
      [
        103.8758399,
        1.3925981
      ],
      [
        103.8758284,
        1.3924981
      ],
      [
        103.875798,
        1.3921492
      ],
      [
        103.8757452,
        1.3916668
      ],
      [
        103.8757284,
        1.3915005
      ],
      [
        103.8757163,
        1.3913638
      ],
      [
        103.8756902,
        1.3911431
      ],
      [
        103.8756786,
        1.3910291
      ],
      [
        103.8756495,
        1.3907849
      ],
      [
        103.8756446,
        1.3907434
      ],
      [
        103.8756339,
        1.3906212
      ],
      [
        103.8755232,
        1.3906254
      ],
      [
        103.8754867,
        1.3906293
      ],
      [
        103.8752028,
        1.3906551
      ],
      [
        103.8745697,
        1.3907269
      ],
      [
        103.8744302,
        1.3907363
      ],
      [
        103.8740593,
        1.3907698
      ],
      [
        103.8737204,
        1.3908117
      ],
      [
        103.8736868,
        1.3908158
      ],
      [
        103.8736298,
        1.3908228
      ],
      [
        103.8735907,
        1.3908277
      ],
      [
        103.8733743,
        1.3908544
      ],
      [
        103.8724628,
        1.3909289
      ],
      [
        103.8723488,
        1.3909408
      ],
      [
        103.8722006,
        1.3909584
      ],
      [
        103.8715063,
        1.3910303
      ],
      [
        103.8714002,
        1.3910465
      ],
      [
        103.8712464,
        1.3910592
      ],
      [
        103.8711841,
        1.3910653
      ],
      [
        103.8704456,
        1.391137
      ],
      [
        103.8701922,
        1.3911617
      ],
      [
        103.8700139,
        1.391179
      ],
      [
        103.8697148,
        1.3912151
      ],
      [
        103.8693423,
        1.3912437
      ],
      [
        103.8692184,
        1.3912532
      ],
      [
        103.8690814,
        1.3912638
      ],
      [
        103.8690801,
        1.391361
      ],
      [
        103.8690803,
        1.3914311
      ],
      [
        103.8690809,
        1.3915728
      ],
      [
        103.8690813,
        1.3917092
      ],
      [
        103.8690761,
        1.3934396
      ],
      [
        103.8690526,
        1.3939533
      ],
      [
        103.8690314,
        1.3942183
      ],
      [
        103.8690244,
        1.3944272
      ],
      [
        103.8690193,
        1.3945826
      ],
      [
        103.8690144,
        1.3951978
      ],
      [
        103.8690018,
        1.3952904
      ],
      [
        103.8689866,
        1.3953978
      ],
      [
        103.8691454,
        1.3953911
      ],
      [
        103.8692305,
        1.3953873
      ],
      [
        103.8696066,
        1.3953687
      ],
      [
        103.8697458,
        1.3953556
      ],
      [
        103.8701474,
        1.3953229
      ],
      [
        103.8718954,
        1.3951805
      ],
      [
        103.8723247,
        1.3951322
      ],
      [
        103.8726363,
        1.3951846
      ],
      [
        103.8727308,
        1.3952336
      ],
      [
        103.872776,
        1.3952597
      ],
      [
        103.8728185,
        1.395284
      ],
      [
        103.8729304,
        1.3953644
      ],
      [
        103.8729667,
        1.3955923
      ],
      [
        103.8730664,
        1.3967096
      ],
      [
        103.873133,
        1.3974033
      ],
      [
        103.8731447,
        1.3976557
      ],
      [
        103.8731365,
        1.3977459
      ],
      [
        103.8731188,
        1.3978749
      ],
      [
        103.8730929,
        1.3979956
      ],
      [
        103.8730517,
        1.3981483
      ],
      [
        103.8730065,
        1.3982518
      ],
      [
        103.8729882,
        1.3982973
      ],
      [
        103.8729399,
        1.3984014
      ],
      [
        103.872795,
        1.3987093
      ],
      [
        103.8727355,
        1.3988304
      ],
      [
        103.8727301,
        1.3988411
      ],
      [
        103.8727047,
        1.3988931
      ],
      [
        103.8726539,
        1.3989951
      ],
      [
        103.8725982,
        1.3991059
      ],
      [
        103.8724847,
        1.3993268
      ],
      [
        103.8724695,
        1.3993565
      ],
      [
        103.8723725,
        1.3995444
      ],
      [
        103.8723062,
        1.3997158
      ],
      [
        103.8722595,
        1.3998532
      ],
      [
        103.8722182,
        1.4001298
      ],
      [
        103.8722302,
        1.4004322
      ],
      [
        103.8722358,
        1.4005851
      ],
      [
        103.872238,
        1.4006451
      ],
      [
        103.872234,
        1.4008123
      ],
      [
        103.8722355,
        1.4014774
      ],
      [
        103.8722349,
        1.401583
      ],
      [
        103.8722315,
        1.4016554
      ],
      [
        103.8722195,
        1.4017337
      ],
      [
        103.8721876,
        1.4018411
      ],
      [
        103.8721413,
        1.4019254
      ],
      [
        103.8720643,
        1.4019756
      ],
      [
        103.8719753,
        1.4019908
      ],
      [
        103.8717207,
        1.4019594
      ],
      [
        103.8716598,
        1.4019519
      ],
      [
        103.8715843,
        1.4019631
      ],
      [
        103.8715195,
        1.4020085
      ],
      [
        103.8714957,
        1.4020561
      ],
      [
        103.8714771,
        1.4020934
      ],
      [
        103.8714487,
        1.4021784
      ],
      [
        103.8714449,
        1.4022597
      ],
      [
        103.8714602,
        1.4023383
      ],
      [
        103.8714888,
        1.4023686
      ],
      [
        103.8715558,
        1.402426
      ],
      [
        103.8716325,
        1.4024513
      ],
      [
        103.8716679,
        1.4024472
      ],
      [
        103.8717146,
        1.4024418
      ],
      [
        103.8717782,
        1.402417
      ],
      [
        103.8719773,
        1.402246
      ],
      [
        103.872094,
        1.4020921
      ],
      [
        103.8721967,
        1.4020435
      ],
      [
        103.8722796,
        1.4019897
      ],
      [
        103.8723395,
        1.4019117
      ],
      [
        103.8723583,
        1.4018551
      ],
      [
        103.8723587,
        1.4016548
      ],
      [
        103.8723587,
        1.4015877
      ],
      [
        103.8723622,
        1.401476
      ],
      [
        103.872385,
        1.4008164
      ],
      [
        103.8723863,
        1.4006318
      ],
      [
        103.872238,
        1.4006451
      ],
      [
        103.872178,
        1.4006509
      ],
      [
        103.8720501,
        1.4006632
      ],
      [
        103.8709924,
        1.4007461
      ],
      [
        103.870441,
        1.4007437
      ],
      [
        103.8697839,
        1.4006902
      ],
      [
        103.8694426,
        1.4006526
      ],
      [
        103.8692409,
        1.4006268
      ],
      [
        103.8690938,
        1.400608
      ],
      [
        103.8690136,
        1.4005977
      ],
      [
        103.8688766,
        1.4005802
      ],
      [
        103.8688674,
        1.4007305
      ],
      [
        103.8688618,
        1.4009529
      ],
      [
        103.8688585,
        1.4010902
      ],
      [
        103.868848,
        1.4013939
      ],
      [
        103.8688452,
        1.4014709
      ],
      [
        103.86884,
        1.4015427
      ],
      [
        103.8688197,
        1.4015876
      ],
      [
        103.8688161,
        1.4022301
      ],
      [
        103.8687815,
        1.4024187
      ],
      [
        103.8687901,
        1.4031539
      ],
      [
        103.8687822,
        1.4034292
      ],
      [
        103.8687353,
        1.4045004
      ],
      [
        103.8686956,
        1.4048715
      ],
      [
        103.8685665,
        1.4053574
      ],
      [
        103.8683622,
        1.4059219
      ],
      [
        103.8682981,
        1.4060826
      ],
      [
        103.8682575,
        1.4061866
      ],
      [
        103.8682101,
        1.4063123
      ],
      [
        103.8680567,
        1.4067245
      ],
      [
        103.8680221,
        1.4068134
      ],
      [
        103.8679549,
        1.4069869
      ],
      [
        103.8680642,
        1.4070791
      ],
      [
        103.8681437,
        1.4071462
      ],
      [
        103.8683857,
        1.4073393
      ],
      [
        103.8687606,
        1.4076023
      ],
      [
        103.869009,
        1.4077552
      ],
      [
        103.869132,
        1.4078355
      ],
      [
        103.8692144,
        1.4078893
      ],
      [
        103.8695171,
        1.4080742
      ],
      [
        103.8696738,
        1.4081703
      ],
      [
        103.8709685,
        1.408949
      ],
      [
        103.8714283,
        1.4092414
      ],
      [
        103.8714888,
        1.4092787
      ],
      [
        103.8720147,
        1.4096264
      ],
      [
        103.8720847,
        1.4096917
      ],
      [
        103.8723489,
        1.4098957
      ],
      [
        103.8726049,
        1.4100842
      ],
      [
        103.872782,
        1.4102537
      ],
      [
        103.8728153,
        1.4102911
      ],
      [
        103.8728753,
        1.4103631
      ],
      [
        103.8730409,
        1.4105812
      ],
      [
        103.87342,
        1.4111199
      ],
      [
        103.8736671,
        1.4115167
      ],
      [
        103.8737253,
        1.411621
      ],
      [
        103.8737985,
        1.4117425
      ],
      [
        103.8738509,
        1.4118551
      ],
      [
        103.8739055,
        1.4119948
      ],
      [
        103.8739033,
        1.4121358
      ],
      [
        103.8738976,
        1.4122159
      ],
      [
        103.8738853,
        1.412269
      ],
      [
        103.8738812,
        1.4122946
      ],
      [
        103.8738544,
        1.4123492
      ],
      [
        103.8737377,
        1.4124226
      ],
      [
        103.8734096,
        1.4125329
      ],
      [
        103.8730173,
        1.4126748
      ],
      [
        103.8726755,
        1.4128778
      ],
      [
        103.8725197,
        1.4129767
      ],
      [
        103.8724594,
        1.4130164
      ],
      [
        103.8724961,
        1.4130671
      ],
      [
        103.8725984,
        1.413223
      ],
      [
        103.8726575,
        1.4133171
      ],
      [
        103.8727515,
        1.4134713
      ],
      [
        103.8728304,
        1.4135154
      ],
      [
        103.8730822,
        1.4139044
      ],
      [
        103.8738413,
        1.4150855
      ],
      [
        103.8738608,
        1.4151952
      ],
      [
        103.8738484,
        1.4152855
      ],
      [
        103.8738164,
        1.4153555
      ],
      [
        103.8737715,
        1.415415
      ],
      [
        103.8726418,
        1.41617
      ],
      [
        103.8725448,
        1.4161934
      ],
      [
        103.8724845,
        1.4161988
      ],
      [
        103.8723879,
        1.4161975
      ],
      [
        103.8722941,
        1.4162109
      ],
      [
        103.8722216,
        1.4162511
      ],
      [
        103.8722002,
        1.4163007
      ],
      [
        103.8722042,
        1.4163637
      ],
      [
        103.872231,
        1.4164012
      ],
      [
        103.8722847,
        1.4164227
      ],
      [
        103.8723517,
        1.416412
      ],
      [
        103.8724617,
        1.4163503
      ],
      [
        103.8725381,
        1.4162859
      ],
      [
        103.8726418,
        1.41617
      ],
      [
        103.8738484,
        1.4152855
      ],
      [
        103.8738164,
        1.4153555
      ],
      [
        103.8737715,
        1.415415
      ],
      [
        103.8726418,
        1.41617
      ],
      [
        103.8738413,
        1.4150855
      ],
      [
        103.8738608,
        1.4151952
      ],
      [
        103.8730822,
        1.4139044
      ],
      [
        103.8728199,
        1.4134393
      ],
      [
        103.8727146,
        1.4132787
      ],
      [
        103.8726576,
        1.4131875
      ],
      [
        103.8726525,
        1.4130954
      ],
      [
        103.8726563,
        1.4130384
      ],
      [
        103.872671,
        1.4129853
      ],
      [
        103.8727047,
        1.4129356
      ],
      [
        103.8730049,
        1.412745
      ],
      [
        103.8734284,
        1.4125957
      ],
      [
        103.8737541,
        1.4124862
      ],
      [
        103.8739874,
        1.4124125
      ],
      [
        103.8740656,
        1.4124116
      ],
      [
        103.8741979,
        1.4124236
      ],
      [
        103.8741804,
        1.4123501
      ],
      [
        103.8740943,
        1.4120927
      ],
      [
        103.8739709,
        1.4117935
      ],
      [
        103.8737918,
        1.4114417
      ],
      [
        103.8736424,
        1.4111773
      ],
      [
        103.8734204,
        1.4108431
      ],
      [
        103.8731829,
        1.4105411
      ],
      [
        103.8729852,
        1.4102749
      ],
      [
        103.8729245,
        1.4102059
      ],
      [
        103.8728422,
        1.410113
      ],
      [
        103.8725995,
        1.4099026
      ],
      [
        103.872325,
        1.4096829
      ],
      [
        103.8722344,
        1.4096064
      ],
      [
        103.8720398,
        1.4094694
      ],
      [
        103.8718381,
        1.4093403
      ],
      [
        103.8693393,
        1.4077903
      ],
      [
        103.8691271,
        1.4076492
      ],
      [
        103.8688405,
        1.4074541
      ],
      [
        103.8685134,
        1.4072042
      ],
      [
        103.8683744,
        1.407102
      ],
      [
        103.8683163,
        1.4069803
      ],
      [
        103.8682868,
        1.4069025
      ],
      [
        103.8682807,
        1.4068696
      ],
      [
        103.8682667,
        1.4068154
      ],
      [
        103.8682778,
        1.4065627
      ],
      [
        103.8685314,
        1.4059148
      ],
      [
        103.868687,
        1.4054276
      ],
      [
        103.868781,
        1.4050699
      ],
      [
        103.8688828,
        1.4044964
      ],
      [
        103.8689048,
        1.4037356
      ],
      [
        103.8689264,
        1.4029326
      ],
      [
        103.8689483,
        1.4024816
      ],
      [
        103.8689731,
        1.4021316
      ],
      [
        103.8690399,
        1.40196
      ],
      [
        103.8691022,
        1.4017954
      ],
      [
        103.8691315,
        1.4017187
      ],
      [
        103.8691319,
        1.4017161
      ],
      [
        103.8692615,
        1.4016094
      ],
      [
        103.8694384,
        1.4015261
      ],
      [
        103.8705122,
        1.4015306
      ],
      [
        103.8721514,
        1.4015798
      ],
      [
        103.8722349,
        1.401583
      ],
      [
        103.8722315,
        1.4016554
      ],
      [
        103.8722195,
        1.4017337
      ],
      [
        103.8721876,
        1.4018411
      ],
      [
        103.8721413,
        1.4019254
      ],
      [
        103.8720643,
        1.4019756
      ],
      [
        103.8719753,
        1.4019908
      ],
      [
        103.8717207,
        1.4019594
      ],
      [
        103.8716598,
        1.4019519
      ],
      [
        103.8715843,
        1.4019631
      ],
      [
        103.8715195,
        1.4020085
      ],
      [
        103.8714957,
        1.4020561
      ],
      [
        103.8714771,
        1.4020934
      ],
      [
        103.8714487,
        1.4021784
      ],
      [
        103.8714449,
        1.4022597
      ],
      [
        103.8714602,
        1.4023383
      ],
      [
        103.8714888,
        1.4023686
      ],
      [
        103.8715558,
        1.402426
      ],
      [
        103.8716325,
        1.4024513
      ],
      [
        103.8716679,
        1.4024472
      ],
      [
        103.8717146,
        1.4024418
      ],
      [
        103.8717782,
        1.402417
      ],
      [
        103.8719773,
        1.402246
      ],
      [
        103.872094,
        1.4020921
      ],
      [
        103.8721967,
        1.4020435
      ],
      [
        103.8722796,
        1.4019897
      ],
      [
        103.8723395,
        1.4019117
      ],
      [
        103.8723583,
        1.4018551
      ],
      [
        103.8723587,
        1.4016548
      ],
      [
        103.8723587,
        1.4015877
      ],
      [
        103.8723622,
        1.401476
      ],
      [
        103.872385,
        1.4008164
      ],
      [
        103.8723863,
        1.4006318
      ],
      [
        103.8723852,
        1.4005717
      ],
      [
        103.872381,
        1.4003406
      ],
      [
        103.8723833,
        1.4002271
      ],
      [
        103.8723866,
        1.4001194
      ],
      [
        103.8723947,
        1.3999343
      ],
      [
        103.8724186,
        1.3997928
      ],
      [
        103.8724644,
        1.3996568
      ],
      [
        103.8725675,
        1.3994012
      ],
      [
        103.8725796,
        1.3993725
      ],
      [
        103.8726186,
        1.399276
      ],
      [
        103.8726609,
        1.3991746
      ],
      [
        103.8727402,
        1.3989979
      ],
      [
        103.8727963,
        1.3988729
      ],
      [
        103.8728299,
        1.3988002
      ],
      [
        103.872979,
        1.3984183
      ],
      [
        103.8730246,
        1.3983136
      ],
      [
        103.8730854,
        1.3981642
      ],
      [
        103.8731326,
        1.3980028
      ],
      [
        103.8731589,
        1.3978901
      ],
      [
        103.8731732,
        1.3977711
      ],
      [
        103.8731821,
        1.3976637
      ],
      [
        103.8731766,
        1.3974671
      ],
      [
        103.8731701,
        1.3974014
      ],
      [
        103.8731456,
        1.3971186
      ],
      [
        103.873128,
        1.3969098
      ],
      [
        103.8731084,
        1.3966948
      ],
      [
        103.8730995,
        1.3965905
      ],
      [
        103.87308,
        1.3963872
      ],
      [
        103.8730605,
        1.3961893
      ],
      [
        103.8730478,
        1.3959883
      ],
      [
        103.8730413,
        1.3959079
      ],
      [
        103.8730283,
        1.3957714
      ],
      [
        103.8730174,
        1.3956721
      ],
      [
        103.8730113,
        1.395533
      ],
      [
        103.8730084,
        1.3954649
      ],
      [
        103.872996,
        1.395249
      ],
      [
        103.8729905,
        1.3951679
      ],
      [
        103.8729857,
        1.3950883
      ],
      [
        103.8729919,
        1.3949791
      ],
      [
        103.872891,
        1.3949754
      ],
      [
        103.8728271,
        1.3949742
      ],
      [
        103.8726164,
        1.3949849
      ],
      [
        103.8719722,
        1.3950426
      ],
      [
        103.8718412,
        1.3950543
      ],
      [
        103.8706724,
        1.3951417
      ],
      [
        103.870177,
        1.3951885
      ],
      [
        103.8696881,
        1.3952329
      ],
      [
        103.8695055,
        1.3951955
      ],
      [
        103.869433,
        1.3951603
      ],
      [
        103.8693702,
        1.395119
      ],
      [
        103.8693078,
        1.3950803
      ],
      [
        103.8692333,
        1.3950281
      ],
      [
        103.8691632,
        1.3949118
      ],
      [
        103.8691804,
        1.3943296
      ],
      [
        103.8692138,
        1.3933041
      ],
      [
        103.8692291,
        1.3926289
      ],
      [
        103.8692269,
        1.3922819
      ],
      [
        103.8692253,
        1.3921338
      ],
      [
        103.8692274,
        1.3920141
      ],
      [
        103.8693018,
        1.3919146
      ],
      [
        103.8693287,
        1.3918061
      ],
      [
        103.8693703,
        1.3916644
      ],
      [
        103.8694199,
        1.3915115
      ],
      [
        103.8694706,
        1.3914066
      ],
      [
        103.869572,
        1.3913093
      ],
      [
        103.8702607,
        1.3912471
      ],
      [
        103.8704619,
        1.3912257
      ],
      [
        103.8705619,
        1.3912214
      ],
      [
        103.8707523,
        1.3912029
      ],
      [
        103.8711923,
        1.3911731
      ],
      [
        103.8713172,
        1.3911647
      ],
      [
        103.8714456,
        1.3911474
      ],
      [
        103.8715191,
        1.391137
      ],
      [
        103.8717832,
        1.3910969
      ],
      [
        103.8721287,
        1.3910515
      ],
      [
        103.8723548,
        1.39103
      ],
      [
        103.8728169,
        1.3909878
      ],
      [
        103.8736021,
        1.3909276
      ],
      [
        103.8736368,
        1.390925
      ],
      [
        103.8736981,
        1.3909196
      ],
      [
        103.8737272,
        1.3909152
      ],
      [
        103.8747185,
        1.3908073
      ],
      [
        103.8748741,
        1.390794
      ],
      [
        103.8751608,
        1.3907673
      ],
      [
        103.8753017,
        1.3907978
      ],
      [
        103.8754245,
        1.3908732
      ],
      [
        103.8755164,
        1.3909868
      ],
      [
        103.8755648,
        1.3911246
      ],
      [
        103.8756021,
        1.3915207
      ],
      [
        103.8756703,
        1.3921653
      ],
      [
        103.8756769,
        1.3922278
      ],
      [
        103.8757068,
        1.3926049
      ],
      [
        103.8757225,
        1.3927916
      ],
      [
        103.8757526,
        1.3931526
      ],
      [
        103.8757629,
        1.393276
      ],
      [
        103.875768,
        1.3933739
      ],
      [
        103.8757831,
        1.3935386
      ],
      [
        103.8758223,
        1.393952
      ],
      [
        103.8758305,
        1.3940898
      ],
      [
        103.8758303,
        1.3943349
      ],
      [
        103.8758183,
        1.3945381
      ],
      [
        103.875776,
        1.3948481
      ],
      [
        103.875762,
        1.3949221
      ],
      [
        103.8757414,
        1.3950229
      ],
      [
        103.8758702,
        1.3950583
      ],
      [
        103.8759243,
        1.3950745
      ],
      [
        103.876198,
        1.3951456
      ],
      [
        103.877475,
        1.3954568
      ],
      [
        103.8777171,
        1.3955147
      ],
      [
        103.8782109,
        1.3956075
      ],
      [
        103.8783496,
        1.39564
      ],
      [
        103.8786345,
        1.3957143
      ],
      [
        103.8789612,
        1.3957948
      ],
      [
        103.8790186,
        1.3958134
      ],
      [
        103.8790869,
        1.395836
      ],
      [
        103.879141,
        1.3958544
      ],
      [
        103.8794048,
        1.395893
      ],
      [
        103.8795491,
        1.3958983
      ],
      [
        103.8797176,
        1.3958812
      ],
      [
        103.8798652,
        1.3958615
      ],
      [
        103.8806594,
        1.3957169
      ],
      [
        103.8809504,
        1.3956672
      ],
      [
        103.881614,
        1.3955482
      ],
      [
        103.8817895,
        1.3955237
      ],
      [
        103.8820222,
        1.3954812
      ],
      [
        103.8820903,
        1.3954693
      ],
      [
        103.8822492,
        1.39544
      ],
      [
        103.8823575,
        1.3954175
      ],
      [
        103.8825665,
        1.3953831
      ],
      [
        103.8826222,
        1.3953713
      ],
      [
        103.8856918,
        1.3948466
      ],
      [
        103.8865747,
        1.3947093
      ],
      [
        103.8867027,
        1.3946901
      ],
      [
        103.8868488,
        1.3946726
      ],
      [
        103.8870302,
        1.3946505
      ],
      [
        103.8873706,
        1.394603
      ],
      [
        103.8874306,
        1.3945946
      ],
      [
        103.8874987,
        1.3945867
      ],
      [
        103.8875663,
        1.3945804
      ],
      [
        103.8877992,
        1.3945585
      ],
      [
        103.8895111,
        1.3943752
      ],
      [
        103.8898232,
        1.3943464
      ],
      [
        103.8902309,
        1.3943086
      ],
      [
        103.8904841,
        1.3942856
      ],
      [
        103.8905223,
        1.3942822
      ],
      [
        103.8905703,
        1.394278
      ],
      [
        103.8906081,
        1.3942749
      ],
      [
        103.890809,
        1.3942472
      ],
      [
        103.891328,
        1.3941663
      ],
      [
        103.8915877,
        1.3941046
      ],
      [
        103.8920009,
        1.3939765
      ],
      [
        103.8922996,
        1.3938739
      ],
      [
        103.8927086,
        1.3937334
      ],
      [
        103.8932612,
        1.3935447
      ],
      [
        103.8935428,
        1.3934508
      ],
      [
        103.8936212,
        1.3934247
      ],
      [
        103.8937421,
        1.3933843
      ],
      [
        103.893803,
        1.3933639
      ],
      [
        103.8940561,
        1.393277
      ],
      [
        103.894466,
        1.3931388
      ],
      [
        103.8946608,
        1.3930745
      ],
      [
        103.8948325,
        1.3930152
      ],
      [
        103.8948715,
        1.3930021
      ],
      [
        103.895303,
        1.3928579
      ],
      [
        103.8955297,
        1.3927751
      ],
      [
        103.8960032,
        1.3926038
      ],
      [
        103.8969085,
        1.3922771
      ],
      [
        103.8973925,
        1.3920957
      ],
      [
        103.8975752,
        1.3920347
      ],
      [
        103.8976766,
        1.3919983
      ],
      [
        103.8978799,
        1.3919192
      ],
      [
        103.8979284,
        1.3919003
      ],
      [
        103.8980218,
        1.3918661
      ],
      [
        103.8979928,
        1.3917845
      ],
      [
        103.8979705,
        1.3917301
      ],
      [
        103.8979109,
        1.3915559
      ],
      [
        103.8978146,
        1.3912613
      ],
      [
        103.8977267,
        1.3910149
      ],
      [
        103.897634,
        1.3907509
      ],
      [
        103.8975907,
        1.390611
      ],
      [
        103.8974461,
        1.3902312
      ],
      [
        103.8973439,
        1.3898788
      ],
      [
        103.8973184,
        1.3897979
      ],
      [
        103.8972966,
        1.3897283
      ],
      [
        103.8972751,
        1.3896647
      ],
      [
        103.8970866,
        1.3891007
      ],
      [
        103.8970372,
        1.3889652
      ],
      [
        103.8969707,
        1.388777
      ],
      [
        103.8968929,
        1.388557
      ],
      [
        103.8968028,
        1.3883211
      ],
      [
        103.8967331,
        1.3881106
      ],
      [
        103.8967075,
        1.3880336
      ],
      [
        103.8966859,
        1.3879599
      ],
      [
        103.896597,
        1.3879904
      ],
      [
        103.8965158,
        1.3880181
      ],
      [
        103.8963329,
        1.3880804
      ],
      [
        103.8959162,
        1.3882217
      ],
      [
        103.8950666,
        1.3885012
      ],
      [
        103.8948315,
        1.3885837
      ],
      [
        103.894669,
        1.3885717
      ],
      [
        103.8945829,
        1.3885538
      ],
      [
        103.8945527,
        1.3885391
      ],
      [
        103.8944233,
        1.3884376
      ],
      [
        103.8941149,
        1.3873993
      ],
      [
        103.8939262,
        1.3867481
      ],
      [
        103.8939151,
        1.3867032
      ],
      [
        103.8938817,
        1.3865862
      ],
      [
        103.8938654,
        1.3865347
      ],
      [
        103.8938166,
        1.3863769
      ],
      [
        103.8937905,
        1.3862923
      ],
      [
        103.8937113,
        1.3860251
      ],
      [
        103.8936513,
        1.3858189
      ],
      [
        103.8935883,
        1.3856046
      ],
      [
        103.8933048,
        1.3846404
      ],
      [
        103.8932513,
        1.384259
      ],
      [
        103.8932444,
        1.3841618
      ],
      [
        103.8932306,
        1.3839678
      ],
      [
        103.8932233,
        1.3838656
      ],
      [
        103.8931936,
        1.3834831
      ],
      [
        103.8931384,
        1.3827091
      ],
      [
        103.8931084,
        1.3824192
      ],
      [
        103.8930729,
        1.3820545
      ],
      [
        103.8930454,
        1.3817626
      ],
      [
        103.8930272,
        1.3815372
      ],
      [
        103.893024,
        1.3814994
      ],
      [
        103.8930188,
        1.381436
      ],
      [
        103.8930168,
        1.3813954
      ],
      [
        103.8929915,
        1.3811789
      ],
      [
        103.8929607,
        1.3807974
      ],
      [
        103.892927,
        1.3804846
      ],
      [
        103.8929784,
        1.3803411
      ],
      [
        103.8930296,
        1.3802334
      ],
      [
        103.8931158,
        1.3801451
      ],
      [
        103.8932016,
        1.3800922
      ],
      [
        103.8944404,
        1.3800865
      ],
      [
        103.894662,
        1.3800853
      ],
      [
        103.8949559,
        1.3800562
      ],
      [
        103.8952116,
        1.3799904
      ],
      [
        103.8954392,
        1.3799103
      ],
      [
        103.8961328,
        1.3796577
      ],
      [
        103.8964513,
        1.3795502
      ],
      [
        103.8967976,
        1.379472
      ],
      [
        103.8968656,
        1.3794646
      ],
      [
        103.8969648,
        1.3794641
      ],
      [
        103.8970172,
        1.3794711
      ],
      [
        103.8973699,
        1.3795179
      ],
      [
        103.8987216,
        1.379713
      ],
      [
        103.8989995,
        1.3797509
      ],
      [
        103.8993941,
        1.3798144
      ],
      [
        103.8995665,
        1.3798386
      ],
      [
        103.8996362,
        1.3798484
      ],
      [
        103.8997943,
        1.3798725
      ],
      [
        103.9004243,
        1.3799686
      ],
      [
        103.9022395,
        1.3802363
      ],
      [
        103.9025141,
        1.3802768
      ],
      [
        103.9030882,
        1.3803562
      ],
      [
        103.9033766,
        1.3803919
      ],
      [
        103.9034708,
        1.3804035
      ],
      [
        103.9035888,
        1.3804216
      ],
      [
        103.9036105,
        1.3803008
      ],
      [
        103.903627,
        1.3802082
      ],
      [
        103.9036309,
        1.3801865
      ],
      [
        103.9036481,
        1.3800282
      ],
      [
        103.9036526,
        1.3799159
      ],
      [
        103.9036562,
        1.3796643
      ],
      [
        103.903653,
        1.3793726
      ],
      [
        103.9036488,
        1.3792627
      ],
      [
        103.9036166,
        1.379019
      ],
      [
        103.9036077,
        1.3789296
      ],
      [
        103.9035794,
        1.3787595
      ],
      [
        103.9034858,
        1.3783575
      ],
      [
        103.9034382,
        1.3781942
      ],
      [
        103.9033707,
        1.3780064
      ],
      [
        103.9032686,
        1.37773
      ],
      [
        103.9031842,
        1.3775568
      ],
      [
        103.9030647,
        1.3773148
      ],
      [
        103.9030439,
        1.3772727
      ],
      [
        103.9030068,
        1.3772172
      ],
      [
        103.9029697,
        1.3771657
      ],
      [
        103.9028828,
        1.3770451
      ],
      [
        103.9026657,
        1.3767437
      ],
      [
        103.9021788,
        1.3761946
      ],
      [
        103.9012432,
        1.3753279
      ],
      [
        103.9009226,
        1.375031
      ],
      [
        103.900821,
        1.3749333
      ],
      [
        103.9007136,
        1.3748332
      ],
      [
        103.9000801,
        1.3742185
      ],
      [
        103.8998287,
        1.3739746
      ],
      [
        103.8996852,
        1.3738371
      ],
      [
        103.8994906,
        1.3736476
      ],
      [
        103.8994537,
        1.3736129
      ],
      [
        103.8993783,
        1.3735276
      ],
      [
        103.8993446,
        1.3734971
      ],
      [
        103.8991252,
        1.3732989
      ],
      [
        103.899092,
        1.3732689
      ],
      [
        103.8987849,
        1.3729989
      ],
      [
        103.8982129,
        1.3724958
      ],
      [
        103.8981806,
        1.3724625
      ],
      [
        103.8979827,
        1.37228
      ],
      [
        103.8978116,
        1.3721239
      ],
      [
        103.8973492,
        1.3717087
      ],
      [
        103.8969759,
        1.3713773
      ],
      [
        103.8969121,
        1.3713176
      ],
      [
        103.8968376,
        1.3712479
      ],
      [
        103.8965088,
        1.3709474
      ],
      [
        103.8963562,
        1.3708019
      ],
      [
        103.8959697,
        1.3704358
      ],
      [
        103.8958983,
        1.370369
      ],
      [
        103.8957946,
        1.3702681
      ],
      [
        103.8953331,
        1.3698275
      ],
      [
        103.8952364,
        1.3697352
      ],
      [
        103.8951416,
        1.3696446
      ],
      [
        103.8949761,
        1.3694866
      ],
      [
        103.894775,
        1.3692946
      ],
      [
        103.8947538,
        1.3692746
      ],
      [
        103.8947125,
        1.3692363
      ],
      [
        103.8946465,
        1.3691787
      ],
      [
        103.8945606,
        1.369272
      ],
      [
        103.8945115,
        1.3693252
      ],
      [
        103.8944001,
        1.3694531
      ],
      [
        103.8942536,
        1.3696266
      ],
      [
        103.8941726,
        1.3697283
      ],
      [
        103.8941015,
        1.3698162
      ],
      [
        103.8940353,
        1.3699199
      ],
      [
        103.8940045,
        1.3699932
      ],
      [
        103.8939898,
        1.3700583
      ],
      [
        103.8939753,
        1.3701408
      ],
      [
        103.89397,
        1.3702743
      ],
      [
        103.8939656,
        1.3704298
      ],
      [
        103.8939392,
        1.3705321
      ],
      [
        103.8938891,
        1.3706188
      ],
      [
        103.8938346,
        1.370677
      ],
      [
        103.8936726,
        1.3708303
      ],
      [
        103.8932667,
        1.3712026
      ],
      [
        103.8932283,
        1.3712241
      ],
      [
        103.8931472,
        1.3712696
      ],
      [
        103.8930199,
        1.3712817
      ],
      [
        103.8924891,
        1.3712872
      ],
      [
        103.8920166,
        1.3712872
      ],
      [
        103.8918,
        1.3712425
      ],
      [
        103.8916257,
        1.3711689
      ],
      [
        103.8915933,
        1.3711551
      ],
      [
        103.8916019,
        1.3711249
      ],
      [
        103.8916352,
        1.3709915
      ],
      [
        103.8916793,
        1.3709204
      ],
      [
        103.8917208,
        1.3708917
      ],
      [
        103.8917995,
        1.3708373
      ],
      [
        103.8920408,
        1.3708381
      ],
      [
        103.8925391,
        1.3710094
      ],
      [
        103.8928442,
        1.3710118
      ],
      [
        103.8928812,
        1.3710002
      ],
      [
        103.8928981,
        1.3709805
      ],
      [
        103.8929055,
        1.3709381
      ],
      [
        103.892904,
        1.3707869
      ],
      [
        103.8929028,
        1.3706501
      ],
      [
        103.8928884,
        1.3706247
      ],
      [
        103.8928621,
        1.3706079
      ],
      [
        103.8928155,
        1.3705961
      ],
      [
        103.8917973,
        1.3705948
      ],
      [
        103.8916485,
        1.3706126
      ],
      [
        103.8915955,
        1.3706672
      ],
      [
        103.8915925,
        1.3709755
      ],
      [
        103.891561,
        1.3711067
      ]
    ]
  }
}