{
  "type": "Feature",
  "properties": {
    "relation": 20438192,
    "direction": "1",
    "distance": "26.8",
    "fee": "yes",
    "from": "Marina Centre Terminal",
    "name": "Svc 107M (Marina Centre Terminal → Hougang Central Interchange)",
    "name:en": "Svc 107M (Marina Centre Terminal → Hougang Central Interchange)",
    "network": "Land Transport Authority",
    "network:short": "LTA",
    "network:wikidata": "Q3299279",
    "network:wikipedia": "en:Land Transport Authority",
    "operator": "SBS Transit",
    "operator:wikidata": "Q2661305",
    "operator:wikipedia": "en:SBS Transit",
    "public_transport:version": "2",
    "ref": "107M",
    "roundtrip": "yes",
    "route": "bus",
    "to": "Hougang Central Interchange",
    "type": "route",
    "website": "https://www.sbstransit.com.sg/"
  },
  "geometry": {
    "type": "LineString",
    "coordinates": [
      [
        103.862347,
        1.2912552
      ],
      [
        103.8624205,
        1.2912445
      ],
      [
        103.8625173,
        1.2912146
      ],
      [
        103.8626973,
        1.2911682
      ],
      [
        103.8628533,
        1.2910903
      ],
      [
        103.8629373,
        1.2910314
      ],
      [
        103.8630066,
        1.2909718
      ],
      [
        103.8629816,
        1.2907619
      ],
      [
        103.8628918,
        1.2904885
      ],
      [
        103.8627595,
        1.2901331
      ],
      [
        103.862723,
        1.2900202
      ],
      [
        103.8626243,
        1.2897223
      ],
      [
        103.8625316,
        1.2896004
      ],
      [
        103.8624329,
        1.289514
      ],
      [
        103.862318,
        1.2894756
      ],
      [
        103.8620801,
        1.289501
      ],
      [
        103.8619737,
        1.2895066
      ],
      [
        103.8617904,
        1.2895164
      ],
      [
        103.8616793,
        1.2895223
      ],
      [
        103.8611045,
        1.2895529
      ],
      [
        103.8609857,
        1.2895592
      ],
      [
        103.8608765,
        1.289565
      ],
      [
        103.8608347,
        1.2895672
      ],
      [
        103.8605926,
        1.2895801
      ],
      [
        103.8603161,
        1.2895948
      ],
      [
        103.8599725,
        1.289613
      ],
      [
        103.8596687,
        1.2896305
      ],
      [
        103.8595101,
        1.2896398
      ],
      [
        103.8591787,
        1.2896553
      ],
      [
        103.8588597,
        1.2896723
      ],
      [
        103.8587507,
        1.289678
      ],
      [
        103.8586061,
        1.2896858
      ],
      [
        103.858293,
        1.2897023
      ],
      [
        103.8580786,
        1.2897137
      ],
      [
        103.8577561,
        1.2897309
      ],
      [
        103.8575749,
        1.2897405
      ],
      [
        103.8574822,
        1.2897454
      ],
      [
        103.8574561,
        1.2897468
      ],
      [
        103.8573305,
        1.2897535
      ],
      [
        103.8573058,
        1.2897548
      ],
      [
        103.8572552,
        1.2897557
      ],
      [
        103.8571045,
        1.2897751
      ],
      [
        103.8569869,
        1.289794
      ],
      [
        103.8568781,
        1.2898254
      ],
      [
        103.8567861,
        1.2898549
      ],
      [
        103.8567376,
        1.2898782
      ],
      [
        103.8566645,
        1.2899135
      ],
      [
        103.8565763,
        1.2899715
      ],
      [
        103.8565472,
        1.2899906
      ],
      [
        103.8564514,
        1.2900794
      ],
      [
        103.8563522,
        1.2901714
      ],
      [
        103.8562871,
        1.2902257
      ],
      [
        103.8561749,
        1.2903222
      ],
      [
        103.8560384,
        1.2904397
      ],
      [
        103.8559972,
        1.2904752
      ],
      [
        103.8558644,
        1.2905895
      ],
      [
        103.8557948,
        1.2906494
      ],
      [
        103.855802,
        1.2907201
      ],
      [
        103.8557908,
        1.2908212
      ],
      [
        103.8557768,
        1.2909298
      ],
      [
        103.8557902,
        1.2910344
      ],
      [
        103.8558124,
        1.2911075
      ],
      [
        103.8558321,
        1.291164
      ],
      [
        103.8558719,
        1.2912638
      ],
      [
        103.8558855,
        1.2912979
      ],
      [
        103.8559427,
        1.2914984
      ],
      [
        103.8559505,
        1.2915246
      ],
      [
        103.8559726,
        1.2916069
      ],
      [
        103.8560196,
        1.291761
      ],
      [
        103.8560857,
        1.291978
      ],
      [
        103.856107,
        1.2920508
      ],
      [
        103.8561247,
        1.2921064
      ],
      [
        103.8561314,
        1.2921271
      ],
      [
        103.856183,
        1.2922864
      ],
      [
        103.8562489,
        1.2923998
      ],
      [
        103.8563503,
        1.2924924
      ],
      [
        103.8564857,
        1.2925516
      ],
      [
        103.8565242,
        1.2925621
      ],
      [
        103.856637,
        1.292573
      ],
      [
        103.8568682,
        1.2925727
      ],
      [
        103.8569856,
        1.2925027
      ],
      [
        103.8570723,
        1.2924516
      ],
      [
        103.857176,
        1.2923891
      ],
      [
        103.8572319,
        1.2923557
      ],
      [
        103.8576827,
        1.292102
      ],
      [
        103.8577256,
        1.2920774
      ],
      [
        103.8578775,
        1.2919894
      ],
      [
        103.8578896,
        1.291982
      ],
      [
        103.8580435,
        1.2918934
      ],
      [
        103.8580705,
        1.2918776
      ],
      [
        103.8582423,
        1.291779
      ],
      [
        103.8582593,
        1.2917694
      ],
      [
        103.8583143,
        1.2917362
      ],
      [
        103.8585312,
        1.291612
      ],
      [
        103.858703,
        1.2915475
      ],
      [
        103.8587725,
        1.2915233
      ],
      [
        103.8588089,
        1.2915103
      ],
      [
        103.8590169,
        1.2914743
      ],
      [
        103.8591706,
        1.2914593
      ],
      [
        103.8592734,
        1.2914491
      ],
      [
        103.8593764,
        1.2914445
      ],
      [
        103.8596063,
        1.2914304
      ],
      [
        103.8597007,
        1.2914253
      ],
      [
        103.8599232,
        1.2914117
      ],
      [
        103.860022,
        1.2914054
      ],
      [
        103.8600553,
        1.2914033
      ],
      [
        103.86038,
        1.2913836
      ],
      [
        103.860753,
        1.2913364
      ],
      [
        103.8608319,
        1.2913301
      ],
      [
        103.8608313,
        1.2914252
      ],
      [
        103.8608296,
        1.2917228
      ],
      [
        103.8608255,
        1.2921193
      ],
      [
        103.860823,
        1.2923792
      ],
      [
        103.8608068,
        1.2928861
      ],
      [
        103.8607729,
        1.2933482
      ],
      [
        103.8607471,
        1.2934748
      ],
      [
        103.8607147,
        1.2935507
      ],
      [
        103.8606977,
        1.2935916
      ],
      [
        103.8606577,
        1.2936491
      ],
      [
        103.8606045,
        1.2937226
      ],
      [
        103.8605353,
        1.2937729
      ],
      [
        103.8604011,
        1.2938497
      ],
      [
        103.8602992,
        1.2939166
      ],
      [
        103.8599557,
        1.2941219
      ],
      [
        103.8598909,
        1.2941616
      ],
      [
        103.8593539,
        1.2944296
      ],
      [
        103.8593005,
        1.2944497
      ],
      [
        103.8592322,
        1.2944506
      ],
      [
        103.8591209,
        1.294424
      ],
      [
        103.8590571,
        1.2943915
      ],
      [
        103.8589885,
        1.294371
      ],
      [
        103.8589173,
        1.2943633
      ],
      [
        103.8588519,
        1.2943676
      ],
      [
        103.8587881,
        1.2943827
      ],
      [
        103.8587277,
        1.294408
      ],
      [
        103.8586724,
        1.294443
      ],
      [
        103.8586235,
        1.2944867
      ],
      [
        103.8585826,
        1.2945378
      ],
      [
        103.8585515,
        1.2945931
      ],
      [
        103.8585259,
        1.2946673
      ],
      [
        103.8585155,
        1.294745
      ],
      [
        103.8585207,
        1.2948233
      ],
      [
        103.8585357,
        1.2948837
      ],
      [
        103.8585601,
        1.2949409
      ],
      [
        103.8585931,
        1.2949936
      ],
      [
        103.858634,
        1.2950405
      ],
      [
        103.8586628,
        1.2950661
      ],
      [
        103.8587333,
        1.2951114
      ],
      [
        103.8588117,
        1.2951408
      ],
      [
        103.8588945,
        1.295153
      ],
      [
        103.8589781,
        1.2951475
      ],
      [
        103.8590397,
        1.2951593
      ],
      [
        103.8590786,
        1.295174
      ],
      [
        103.8591051,
        1.2952083
      ],
      [
        103.8591328,
        1.2952578
      ],
      [
        103.8593513,
        1.2956483
      ],
      [
        103.8595484,
        1.2959487
      ],
      [
        103.8596319,
        1.2961357
      ],
      [
        103.8596632,
        1.2962058
      ],
      [
        103.8597075,
        1.2963068
      ],
      [
        103.859712,
        1.2963773
      ],
      [
        103.8597102,
        1.2964504
      ],
      [
        103.8597031,
        1.2964849
      ],
      [
        103.8596822,
        1.2965349
      ],
      [
        103.8596328,
        1.2966532
      ],
      [
        103.8591376,
        1.2971174
      ],
      [
        103.8586122,
        1.2976373
      ],
      [
        103.8585985,
        1.2976519
      ],
      [
        103.8583693,
        1.2978965
      ],
      [
        103.858052,
        1.2982279
      ],
      [
        103.8580002,
        1.298285
      ],
      [
        103.8579147,
        1.2983935
      ],
      [
        103.8579977,
        1.2984764
      ],
      [
        103.8583977,
        1.298876
      ],
      [
        103.8586008,
        1.2990667
      ],
      [
        103.8586872,
        1.2991479
      ],
      [
        103.8589673,
        1.2994189
      ],
      [
        103.8590147,
        1.2994685
      ],
      [
        103.8592773,
        1.2997433
      ],
      [
        103.8593614,
        1.2998229
      ],
      [
        103.8594569,
        1.299907
      ],
      [
        103.8596429,
        1.3000725
      ],
      [
        103.8599148,
        1.3002979
      ],
      [
        103.8603249,
        1.3005985
      ],
      [
        103.8605063,
        1.3007183
      ],
      [
        103.8606944,
        1.3008318
      ],
      [
        103.8610544,
        1.3010226
      ],
      [
        103.8612729,
        1.3011347
      ],
      [
        103.8616441,
        1.3013006
      ],
      [
        103.8621797,
        1.3015692
      ],
      [
        103.8621607,
        1.3016033
      ],
      [
        103.8620163,
        1.3018624
      ],
      [
        103.86181,
        1.3022494
      ],
      [
        103.8616907,
        1.3024536
      ],
      [
        103.8616489,
        1.3025253
      ],
      [
        103.861558,
        1.3026792
      ],
      [
        103.8615138,
        1.3027494
      ],
      [
        103.8614511,
        1.302849
      ],
      [
        103.8613021,
        1.3030987
      ],
      [
        103.861213,
        1.3032486
      ],
      [
        103.8610605,
        1.3035016
      ],
      [
        103.860839,
        1.3038703
      ],
      [
        103.860737,
        1.3040401
      ],
      [
        103.8606779,
        1.3041384
      ],
      [
        103.8606286,
        1.3042188
      ],
      [
        103.8605136,
        1.3044065
      ],
      [
        103.8604157,
        1.304566
      ],
      [
        103.8602374,
        1.3048699
      ],
      [
        103.8601863,
        1.3049487
      ],
      [
        103.8601125,
        1.3050625
      ],
      [
        103.8601962,
        1.305135
      ],
      [
        103.8603091,
        1.3052362
      ],
      [
        103.8605216,
        1.3054094
      ],
      [
        103.8609546,
        1.3057794
      ],
      [
        103.8615462,
        1.3063202
      ],
      [
        103.8617711,
        1.3065294
      ],
      [
        103.8624943,
        1.3072114
      ],
      [
        103.8627197,
        1.3074487
      ],
      [
        103.8628954,
        1.3076176
      ],
      [
        103.8630661,
        1.3077727
      ],
      [
        103.8630932,
        1.3078
      ],
      [
        103.8631318,
        1.3078396
      ],
      [
        103.8631638,
        1.307868
      ],
      [
        103.8633964,
        1.3080743
      ],
      [
        103.8637483,
        1.3083951
      ],
      [
        103.8638674,
        1.3085135
      ],
      [
        103.8638158,
        1.3086919
      ],
      [
        103.863769,
        1.3088695
      ],
      [
        103.8636416,
        1.3092529
      ],
      [
        103.8635243,
        1.3094638
      ],
      [
        103.8634781,
        1.3095489
      ],
      [
        103.8633677,
        1.3097524
      ],
      [
        103.8632749,
        1.3099237
      ],
      [
        103.862945,
        1.3103648
      ],
      [
        103.8628605,
        1.3104721
      ],
      [
        103.8626553,
        1.3107355
      ],
      [
        103.8624246,
        1.3110607
      ],
      [
        103.8621747,
        1.3113847
      ],
      [
        103.8620659,
        1.3115328
      ],
      [
        103.8619083,
        1.3117377
      ],
      [
        103.8617675,
        1.3119078
      ],
      [
        103.8617519,
        1.3119292
      ],
      [
        103.8617212,
        1.311971
      ],
      [
        103.8616683,
        1.3120421
      ],
      [
        103.8617849,
        1.3121353
      ],
      [
        103.8618092,
        1.3121599
      ],
      [
        103.8619374,
        1.3122821
      ],
      [
        103.8624823,
        1.3129457
      ],
      [
        103.8626293,
        1.3131304
      ],
      [
        103.8627068,
        1.3132279
      ],
      [
        103.8627651,
        1.3133017
      ],
      [
        103.8636587,
        1.3144323
      ],
      [
        103.864025,
        1.3149163
      ],
      [
        103.8642842,
        1.3152726
      ],
      [
        103.8643542,
        1.3153688
      ],
      [
        103.8644232,
        1.3154622
      ],
      [
        103.8644477,
        1.315493
      ],
      [
        103.864671,
        1.3157744
      ],
      [
        103.8649787,
        1.3161622
      ],
      [
        103.8650855,
        1.3162968
      ],
      [
        103.8653108,
        1.3165854
      ],
      [
        103.8657363,
        1.3171291
      ],
      [
        103.8658815,
        1.3173165
      ],
      [
        103.8660471,
        1.3175287
      ],
      [
        103.8661096,
        1.3176088
      ],
      [
        103.8662068,
        1.3177193
      ],
      [
        103.8663269,
        1.317865
      ],
      [
        103.8664487,
        1.318013
      ],
      [
        103.8669861,
        1.3183847
      ],
      [
        103.867135,
        1.3184789
      ],
      [
        103.8678667,
        1.3189394
      ],
      [
        103.8680837,
        1.3190728
      ],
      [
        103.8694739,
        1.3199457
      ],
      [
        103.869529,
        1.3199784
      ],
      [
        103.8698335,
        1.3201716
      ],
      [
        103.8707429,
        1.3207468
      ],
      [
        103.8711295,
        1.3209917
      ],
      [
        103.8712098,
        1.3210421
      ],
      [
        103.8711547,
        1.3211333
      ],
      [
        103.8711405,
        1.3211532
      ],
      [
        103.8708025,
        1.3216825
      ],
      [
        103.8704441,
        1.322263
      ],
      [
        103.8700205,
        1.3229487
      ],
      [
        103.8696439,
        1.323566
      ],
      [
        103.8695073,
        1.3237674
      ],
      [
        103.8693987,
        1.3239075
      ],
      [
        103.8692115,
        1.3240669
      ],
      [
        103.8689548,
        1.3242498
      ],
      [
        103.8688195,
        1.3243362
      ],
      [
        103.8687713,
        1.3243656
      ],
      [
        103.8684736,
        1.3245587
      ],
      [
        103.8683323,
        1.324642
      ],
      [
        103.8681574,
        1.3247043
      ],
      [
        103.8680979,
        1.3247053
      ],
      [
        103.8680286,
        1.3247008
      ],
      [
        103.8679395,
        1.3246721
      ],
      [
        103.8678664,
        1.3246266
      ],
      [
        103.8677564,
        1.3244217
      ],
      [
        103.8676413,
        1.3242791
      ],
      [
        103.8675376,
        1.3241182
      ],
      [
        103.867147,
        1.3234641
      ],
      [
        103.8670952,
        1.3233919
      ],
      [
        103.8669373,
        1.3231722
      ],
      [
        103.8668847,
        1.3230917
      ],
      [
        103.8666751,
        1.3227711
      ],
      [
        103.8666125,
        1.3226753
      ],
      [
        103.8664631,
        1.3224467
      ],
      [
        103.8661408,
        1.3219536
      ],
      [
        103.8660947,
        1.3218831
      ],
      [
        103.8660281,
        1.3217852
      ],
      [
        103.8658927,
        1.3215863
      ],
      [
        103.8658086,
        1.3214627
      ],
      [
        103.8656597,
        1.3212547
      ],
      [
        103.8654353,
        1.3209213
      ],
      [
        103.8653378,
        1.3208721
      ],
      [
        103.865277,
        1.320846
      ],
      [
        103.8652175,
        1.3208266
      ],
      [
        103.8651714,
        1.3208162
      ],
      [
        103.865126,
        1.3208104
      ],
      [
        103.8650761,
        1.320812
      ],
      [
        103.8650538,
        1.3208158
      ],
      [
        103.8650301,
        1.3208227
      ],
      [
        103.8644661,
        1.3211747
      ],
      [
        103.8643529,
        1.3212474
      ],
      [
        103.8642668,
        1.3213053
      ],
      [
        103.8636544,
        1.321701
      ],
      [
        103.8636252,
        1.321782
      ],
      [
        103.8636055,
        1.3218591
      ],
      [
        103.8635963,
        1.3219215
      ],
      [
        103.8635957,
        1.3219591
      ],
      [
        103.8635978,
        1.3220059
      ],
      [
        103.8636057,
        1.3220648
      ],
      [
        103.8636256,
        1.3221452
      ],
      [
        103.8636723,
        1.3222027
      ],
      [
        103.8636865,
        1.3222203
      ],
      [
        103.8638347,
        1.3223915
      ],
      [
        103.8639879,
        1.3226097
      ],
      [
        103.8640344,
        1.3226776
      ],
      [
        103.8640838,
        1.3227473
      ],
      [
        103.8641076,
        1.3227773
      ],
      [
        103.8644936,
        1.3232687
      ],
      [
        103.8647284,
        1.3235675
      ],
      [
        103.8648929,
        1.3237769
      ],
      [
        103.8650243,
        1.3239441
      ],
      [
        103.8650463,
        1.3239717
      ],
      [
        103.8650697,
        1.3240027
      ],
      [
        103.8652525,
        1.3242416
      ],
      [
        103.8653279,
        1.3243401
      ],
      [
        103.8654066,
        1.3244438
      ],
      [
        103.8654367,
        1.3244835
      ],
      [
        103.865465,
        1.3245156
      ],
      [
        103.8656732,
        1.3247608
      ],
      [
        103.8657248,
        1.3248216
      ],
      [
        103.8657625,
        1.3248658
      ],
      [
        103.8658984,
        1.3250254
      ],
      [
        103.8660831,
        1.3252422
      ],
      [
        103.8661059,
        1.325269
      ],
      [
        103.8661535,
        1.3253248
      ],
      [
        103.8663018,
        1.3255086
      ],
      [
        103.8664777,
        1.3258185
      ],
      [
        103.866646,
        1.3260321
      ],
      [
        103.8667005,
        1.3261026
      ],
      [
        103.8667663,
        1.3261805
      ],
      [
        103.8668673,
        1.3263029
      ],
      [
        103.86697,
        1.3264397
      ],
      [
        103.8670718,
        1.3265744
      ],
      [
        103.8673091,
        1.326873
      ],
      [
        103.8673638,
        1.3269417
      ],
      [
        103.8674815,
        1.3270878
      ],
      [
        103.8675995,
        1.3272486
      ],
      [
        103.8676637,
        1.3273227
      ],
      [
        103.8677866,
        1.3274208
      ],
      [
        103.8678514,
        1.3275021
      ],
      [
        103.8679261,
        1.3276206
      ],
      [
        103.8679778,
        1.3277388
      ],
      [
        103.8679996,
        1.3278387
      ],
      [
        103.8680073,
        1.3279739
      ],
      [
        103.8680334,
        1.3280325
      ],
      [
        103.8680776,
        1.3281567
      ],
      [
        103.8681223,
        1.328273
      ],
      [
        103.8682385,
        1.3285729
      ],
      [
        103.8682763,
        1.3286508
      ],
      [
        103.8683513,
        1.3288322
      ],
      [
        103.8684549,
        1.3292135
      ],
      [
        103.8686822,
        1.3301762
      ],
      [
        103.8687643,
        1.3305016
      ],
      [
        103.8688262,
        1.3307314
      ],
      [
        103.8689569,
        1.3312116
      ],
      [
        103.8689645,
        1.3312381
      ],
      [
        103.8690108,
        1.3314226
      ],
      [
        103.8690604,
        1.3315826
      ],
      [
        103.8691581,
        1.3319138
      ],
      [
        103.8692503,
        1.3322864
      ],
      [
        103.8692858,
        1.3323613
      ],
      [
        103.8692999,
        1.33244
      ],
      [
        103.8693519,
        1.3326511
      ],
      [
        103.869492,
        1.3331977
      ],
      [
        103.8696185,
        1.333572
      ],
      [
        103.8697355,
        1.3339066
      ],
      [
        103.8697863,
        1.3340416
      ],
      [
        103.8699088,
        1.3344042
      ],
      [
        103.8699765,
        1.33461
      ],
      [
        103.8699927,
        1.3346592
      ],
      [
        103.870026,
        1.3347543
      ],
      [
        103.8701929,
        1.334709
      ],
      [
        103.8702822,
        1.3346926
      ],
      [
        103.870565,
        1.3346547
      ],
      [
        103.8707003,
        1.3346486
      ],
      [
        103.8708477,
        1.3346484
      ],
      [
        103.8708931,
        1.3346584
      ],
      [
        103.8711504,
        1.3347258
      ],
      [
        103.871225,
        1.334753
      ],
      [
        103.8713524,
        1.3348187
      ],
      [
        103.8714797,
        1.3349192
      ],
      [
        103.8716018,
        1.3350412
      ],
      [
        103.871701,
        1.3351445
      ],
      [
        103.8717882,
        1.3352558
      ],
      [
        103.8718414,
        1.335358
      ],
      [
        103.8718741,
        1.335438
      ],
      [
        103.8719129,
        1.3355307
      ],
      [
        103.8719599,
        1.3357009
      ],
      [
        103.8720055,
        1.3359007
      ],
      [
        103.8720782,
        1.336287
      ],
      [
        103.8720908,
        1.3363541
      ],
      [
        103.8721356,
        1.3366137
      ],
      [
        103.8721463,
        1.3366706
      ],
      [
        103.8721774,
        1.336854
      ],
      [
        103.8722081,
        1.3370005
      ],
      [
        103.8722401,
        1.3372452
      ],
      [
        103.8722856,
        1.3375132
      ],
      [
        103.8722964,
        1.3375766
      ],
      [
        103.8723195,
        1.3377153
      ],
      [
        103.872331,
        1.3378005
      ],
      [
        103.8723616,
        1.3380482
      ],
      [
        103.8724046,
        1.3383007
      ],
      [
        103.8725099,
        1.3389015
      ],
      [
        103.8725303,
        1.3390486
      ],
      [
        103.8726274,
        1.3395627
      ],
      [
        103.8726564,
        1.3397536
      ],
      [
        103.8727524,
        1.3402818
      ],
      [
        103.8727785,
        1.3404208
      ],
      [
        103.8728231,
        1.340623
      ],
      [
        103.8729154,
        1.3408136
      ],
      [
        103.8730297,
        1.3410157
      ],
      [
        103.8731104,
        1.3411196
      ],
      [
        103.8732658,
        1.3412659
      ],
      [
        103.8734008,
        1.3413646
      ],
      [
        103.8735544,
        1.341452
      ],
      [
        103.8737218,
        1.3415094
      ],
      [
        103.8740078,
        1.3415706
      ],
      [
        103.8742656,
        1.3416318
      ],
      [
        103.8745207,
        1.3416952
      ],
      [
        103.8746836,
        1.3417339
      ],
      [
        103.8748588,
        1.3417747
      ],
      [
        103.8750923,
        1.3418293
      ],
      [
        103.8751975,
        1.3418528
      ],
      [
        103.8753529,
        1.3418875
      ],
      [
        103.8757572,
        1.341978
      ],
      [
        103.8759449,
        1.3420327
      ],
      [
        103.876057,
        1.3420788
      ],
      [
        103.8761605,
        1.3421367
      ],
      [
        103.8761861,
        1.342151
      ],
      [
        103.876257,
        1.342193
      ],
      [
        103.8763159,
        1.3422418
      ],
      [
        103.8763843,
        1.3422984
      ],
      [
        103.876496,
        1.3424056
      ],
      [
        103.8765652,
        1.3425139
      ],
      [
        103.8766815,
        1.3427152
      ],
      [
        103.8769409,
        1.3433976
      ],
      [
        103.8770614,
        1.343744
      ],
      [
        103.8770413,
        1.3438392
      ],
      [
        103.877016,
        1.3439279
      ],
      [
        103.8769757,
        1.3440038
      ],
      [
        103.876899,
        1.3441103
      ],
      [
        103.8767336,
        1.3442018
      ],
      [
        103.8764882,
        1.3441935
      ],
      [
        103.8762214,
        1.3441546
      ],
      [
        103.8754617,
        1.3438872
      ],
      [
        103.8752432,
        1.3437932
      ],
      [
        103.8751527,
        1.3437535
      ],
      [
        103.8750627,
        1.3437177
      ],
      [
        103.8748056,
        1.3436201
      ],
      [
        103.8742143,
        1.343423
      ],
      [
        103.8740173,
        1.3433437
      ],
      [
        103.8739449,
        1.3433207
      ],
      [
        103.8738268,
        1.3433029
      ],
      [
        103.8736346,
        1.3432968
      ],
      [
        103.8732128,
        1.3433062
      ],
      [
        103.8729365,
        1.3433399
      ],
      [
        103.8724032,
        1.343353
      ],
      [
        103.8722115,
        1.3433659
      ],
      [
        103.8717963,
        1.3432788
      ],
      [
        103.8714851,
        1.3431887
      ],
      [
        103.8711634,
        1.3430704
      ],
      [
        103.8710954,
        1.3430401
      ],
      [
        103.8710061,
        1.3429991
      ],
      [
        103.8708929,
        1.3429507
      ],
      [
        103.8708294,
        1.3429235
      ],
      [
        103.8704947,
        1.3427468
      ],
      [
        103.8704943,
        1.3429855
      ],
      [
        103.8704939,
        1.3432243
      ],
      [
        103.8705004,
        1.3433124
      ],
      [
        103.8705123,
        1.3434736
      ],
      [
        103.870541,
        1.3438913
      ],
      [
        103.8706045,
        1.3442977
      ],
      [
        103.8706827,
        1.3446468
      ],
      [
        103.8709042,
        1.3453201
      ],
      [
        103.8710712,
        1.3456446
      ],
      [
        103.8711693,
        1.3458664
      ],
      [
        103.8713313,
        1.3461765
      ],
      [
        103.87137,
        1.3462505
      ],
      [
        103.871393,
        1.3462916
      ],
      [
        103.8714114,
        1.3463323
      ],
      [
        103.8717357,
        1.3470483
      ],
      [
        103.8717767,
        1.3471302
      ],
      [
        103.8718568,
        1.3472903
      ],
      [
        103.8718871,
        1.3473469
      ],
      [
        103.8720127,
        1.3475811
      ],
      [
        103.8722659,
        1.3480536
      ],
      [
        103.8723465,
        1.3481954
      ],
      [
        103.87239,
        1.3482721
      ],
      [
        103.8724262,
        1.3483313
      ],
      [
        103.8724566,
        1.3483744
      ],
      [
        103.8725598,
        1.3485208
      ],
      [
        103.8726573,
        1.3486591
      ],
      [
        103.8729692,
        1.3490554
      ],
      [
        103.8731111,
        1.3492132
      ],
      [
        103.8732808,
        1.3494019
      ],
      [
        103.8733075,
        1.3494319
      ],
      [
        103.8736373,
        1.3498834
      ],
      [
        103.8737115,
        1.3499705
      ],
      [
        103.8737403,
        1.350005
      ],
      [
        103.8738231,
        1.350103
      ],
      [
        103.8738614,
        1.3501385
      ],
      [
        103.8740103,
        1.3502868
      ],
      [
        103.8746053,
        1.3508737
      ],
      [
        103.8747311,
        1.3509899
      ],
      [
        103.8749776,
        1.3512173
      ],
      [
        103.8752526,
        1.3514729
      ],
      [
        103.8754334,
        1.3516418
      ],
      [
        103.8756318,
        1.3518393
      ],
      [
        103.8759003,
        1.3520882
      ],
      [
        103.8760386,
        1.3522325
      ],
      [
        103.8760835,
        1.3522852
      ],
      [
        103.87626,
        1.3524537
      ],
      [
        103.876361,
        1.3525576
      ],
      [
        103.8764365,
        1.3526386
      ],
      [
        103.8765181,
        1.3527218
      ],
      [
        103.8767221,
        1.3529088
      ],
      [
        103.8767578,
        1.3529384
      ],
      [
        103.8770917,
        1.3532337
      ],
      [
        103.8773067,
        1.353436
      ],
      [
        103.8775828,
        1.3536626
      ],
      [
        103.8776887,
        1.3537574
      ],
      [
        103.8778561,
        1.3539053
      ],
      [
        103.8780733,
        1.3540575
      ],
      [
        103.8783637,
        1.3542551
      ],
      [
        103.8785133,
        1.354337
      ],
      [
        103.8787304,
        1.3544986
      ],
      [
        103.8788545,
        1.354591
      ],
      [
        103.8789085,
        1.3546288
      ],
      [
        103.8789722,
        1.3546735
      ],
      [
        103.8792019,
        1.35486
      ],
      [
        103.8793233,
        1.3549609
      ],
      [
        103.8795102,
        1.3551255
      ],
      [
        103.8797025,
        1.3553095
      ],
      [
        103.8797978,
        1.3554006
      ],
      [
        103.8798517,
        1.3554522
      ],
      [
        103.8799432,
        1.3555295
      ],
      [
        103.8801113,
        1.3556715
      ],
      [
        103.8802022,
        1.3557472
      ],
      [
        103.8802296,
        1.3557701
      ],
      [
        103.8803445,
        1.3558657
      ],
      [
        103.880417,
        1.3559272
      ],
      [
        103.8806519,
        1.3561481
      ],
      [
        103.8807886,
        1.3562773
      ],
      [
        103.8808972,
        1.3563775
      ],
      [
        103.881061,
        1.3565422
      ],
      [
        103.8812093,
        1.3566913
      ],
      [
        103.8813604,
        1.3568131
      ],
      [
        103.8816331,
        1.3570133
      ],
      [
        103.8817034,
        1.3570825
      ],
      [
        103.8819401,
        1.3572964
      ],
      [
        103.8820919,
        1.3574336
      ],
      [
        103.88219,
        1.3575154
      ],
      [
        103.8823244,
        1.3576273
      ],
      [
        103.8824904,
        1.35779
      ],
      [
        103.8826052,
        1.3579167
      ],
      [
        103.8827243,
        1.3580644
      ],
      [
        103.8827991,
        1.3581549
      ],
      [
        103.8828639,
        1.358222
      ],
      [
        103.8829299,
        1.3582967
      ],
      [
        103.8830473,
        1.3584245
      ],
      [
        103.8831578,
        1.3585295
      ],
      [
        103.8834675,
        1.358785
      ],
      [
        103.8839708,
        1.3592212
      ],
      [
        103.8843303,
        1.359582
      ],
      [
        103.8847769,
        1.3599984
      ],
      [
        103.885039,
        1.3602106
      ],
      [
        103.8853241,
        1.3604457
      ],
      [
        103.8855749,
        1.3606621
      ],
      [
        103.8858594,
        1.3609081
      ],
      [
        103.886018,
        1.3610561
      ],
      [
        103.886072,
        1.3611065
      ],
      [
        103.8861528,
        1.3611841
      ],
      [
        103.8862292,
        1.3612561
      ],
      [
        103.886452,
        1.3614631
      ],
      [
        103.8866739,
        1.3616723
      ],
      [
        103.8867084,
        1.3617039
      ],
      [
        103.8867925,
        1.3617808
      ],
      [
        103.8870165,
        1.3619873
      ],
      [
        103.8872021,
        1.3621691
      ],
      [
        103.8872197,
        1.3621864
      ],
      [
        103.8872599,
        1.3622266
      ],
      [
        103.8873129,
        1.3622796
      ],
      [
        103.8876464,
        1.3625883
      ],
      [
        103.8879103,
        1.3628369
      ],
      [
        103.8879364,
        1.3628614
      ],
      [
        103.8879674,
        1.3628909
      ],
      [
        103.8880083,
        1.3629296
      ],
      [
        103.8881574,
        1.3630715
      ],
      [
        103.8885456,
        1.3634629
      ],
      [
        103.8886698,
        1.3635845
      ],
      [
        103.8888514,
        1.363753
      ],
      [
        103.8891322,
        1.3639882
      ],
      [
        103.8892468,
        1.3641043
      ],
      [
        103.8893527,
        1.3642062
      ],
      [
        103.8894711,
        1.3643151
      ],
      [
        103.889575,
        1.3644157
      ],
      [
        103.8896391,
        1.364477
      ],
      [
        103.8901952,
        1.3650318
      ],
      [
        103.890259,
        1.3650925
      ],
      [
        103.8903375,
        1.365167
      ],
      [
        103.8905507,
        1.3653669
      ],
      [
        103.8906451,
        1.3655853
      ],
      [
        103.8906556,
        1.3656272
      ],
      [
        103.8906578,
        1.3656534
      ],
      [
        103.8906617,
        1.3656989
      ],
      [
        103.8906548,
        1.3657583
      ],
      [
        103.890594,
        1.3658998
      ],
      [
        103.8903429,
        1.3661671
      ],
      [
        103.8899816,
        1.3665198
      ],
      [
        103.8897104,
        1.3667318
      ],
      [
        103.8895193,
        1.3668601
      ],
      [
        103.8893139,
        1.366971
      ],
      [
        103.8891427,
        1.3670505
      ],
      [
        103.8888216,
        1.3671799
      ],
      [
        103.888693,
        1.3672293
      ],
      [
        103.8885252,
        1.3672778
      ],
      [
        103.8876872,
        1.3675119
      ],
      [
        103.8875018,
        1.3675535
      ],
      [
        103.8872792,
        1.3676221
      ],
      [
        103.8869495,
        1.3677077
      ],
      [
        103.8868641,
        1.3677261
      ],
      [
        103.8867584,
        1.3677471
      ],
      [
        103.886789,
        1.3678907
      ],
      [
        103.886812,
        1.3679821
      ],
      [
        103.8868565,
        1.3681758
      ],
      [
        103.8868801,
        1.3682739
      ],
      [
        103.8869287,
        1.3684272
      ],
      [
        103.8870355,
        1.3686387
      ],
      [
        103.8871081,
        1.3687461
      ],
      [
        103.8872295,
        1.3688821
      ],
      [
        103.887332,
        1.3689739
      ],
      [
        103.8874676,
        1.3690817
      ],
      [
        103.8875311,
        1.3691293
      ],
      [
        103.8875792,
        1.3691653
      ],
      [
        103.8878784,
        1.3693838
      ],
      [
        103.8882373,
        1.3696581
      ],
      [
        103.888322,
        1.3697569
      ],
      [
        103.8883684,
        1.3698135
      ],
      [
        103.8885976,
        1.3701392
      ],
      [
        103.8887338,
        1.3703414
      ],
      [
        103.8888579,
        1.3705245
      ],
      [
        103.8888921,
        1.3705749
      ],
      [
        103.8889477,
        1.3706502
      ],
      [
        103.8890165,
        1.3705866
      ],
      [
        103.8890579,
        1.3705484
      ],
      [
        103.8891888,
        1.3704231
      ],
      [
        103.8892404,
        1.3703604
      ],
      [
        103.8892985,
        1.3702743
      ],
      [
        103.8893469,
        1.3701724
      ],
      [
        103.8894061,
        1.3700535
      ],
      [
        103.8895369,
        1.3697587
      ],
      [
        103.8897686,
        1.3693855
      ],
      [
        103.8897992,
        1.3693467
      ],
      [
        103.8898582,
        1.3693869
      ],
      [
        103.8900326,
        1.369486
      ],
      [
        103.8903035,
        1.3696556
      ],
      [
        103.8904002,
        1.3698032
      ],
      [
        103.8904964,
        1.3700174
      ],
      [
        103.8906587,
        1.3702479
      ],
      [
        103.8907003,
        1.370301
      ],
      [
        103.8907638,
        1.3703545
      ],
      [
        103.8908494,
        1.3704446
      ],
      [
        103.8909675,
        1.3705722
      ],
      [
        103.8911301,
        1.3707385
      ],
      [
        103.8911967,
        1.3708144
      ],
      [
        103.8912413,
        1.3708583
      ],
      [
        103.8912745,
        1.3709193
      ],
      [
        103.891357,
        1.3710399
      ],
      [
        103.8915072,
        1.3712192
      ],
      [
        103.8915606,
        1.3712446
      ],
      [
        103.8915933,
        1.3711551
      ],
      [
        103.8916019,
        1.3711249
      ],
      [
        103.8916352,
        1.3709915
      ],
      [
        103.8916793,
        1.3709204
      ],
      [
        103.8917208,
        1.3708917
      ],
      [
        103.8917995,
        1.3708373
      ],
      [
        103.8920408,
        1.3708381
      ],
      [
        103.8925391,
        1.3710094
      ],
      [
        103.8928442,
        1.3710118
      ],
      [
        103.8928812,
        1.3710002
      ],
      [
        103.8928981,
        1.3709805
      ],
      [
        103.8929055,
        1.3709381
      ],
      [
        103.892904,
        1.3707869
      ],
      [
        103.8929028,
        1.3706501
      ],
      [
        103.8928884,
        1.3706247
      ],
      [
        103.8928621,
        1.3706079
      ],
      [
        103.8928155,
        1.3705961
      ],
      [
        103.8917973,
        1.3705948
      ],
      [
        103.8916485,
        1.3706126
      ],
      [
        103.8915955,
        1.3706672
      ],
      [
        103.8915925,
        1.3709755
      ],
      [
        103.891561,
        1.3711067
      ]
    ]
  }
}