{
  "type": "Feature",
  "properties": {
    "relation": 6622936,
    "direction": "2",
    "distance": "31.9",
    "fee": "yes",
    "from": "Kent Ridge Terminal",
    "name": "Svc 10 (Kent Ridge Terminal → Tampines Interchange)",
    "name:en": "Svc 10 (Kent Ridge Terminal → Tampines Interchange)",
    "network": "Land Transport Authority",
    "network:short": "LTA",
    "network:wikidata": "Q3299279",
    "network:wikipedia": "en:Land Transport Authority",
    "operator": "Go-Ahead Singapore",
    "operator:wikidata": "Q24698874",
    "operator:wikipedia": "en:Go-Ahead Singapore",
    "public_transport:version": "2",
    "ref": "10",
    "route": "bus",
    "to": "Tampines Interchange",
    "type": "route",
    "website": "https://go-aheadsingapore.com/bus-services/"
  },
  "geometry": {
    "type": "LineString",
    "coordinates": [
      [
        103.7696875,
        1.2939472
      ],
      [
        103.7696189,
        1.2938999
      ],
      [
        103.7693844,
        1.2939075
      ],
      [
        103.7693528,
        1.293909
      ],
      [
        103.7693037,
        1.2939114
      ],
      [
        103.7692491,
        1.2939141
      ],
      [
        103.7691935,
        1.2938416
      ],
      [
        103.7690658,
        1.2936534
      ],
      [
        103.7690442,
        1.2936269
      ],
      [
        103.7689614,
        1.293528
      ],
      [
        103.7688913,
        1.293439
      ],
      [
        103.7688003,
        1.2933273
      ],
      [
        103.7687286,
        1.2932392
      ],
      [
        103.7686957,
        1.2931988
      ],
      [
        103.7685377,
        1.2930033
      ],
      [
        103.7683459,
        1.2927427
      ],
      [
        103.7681597,
        1.2924895
      ],
      [
        103.7681281,
        1.2924491
      ],
      [
        103.7681718,
        1.2924131
      ],
      [
        103.768271,
        1.2923315
      ],
      [
        103.768425,
        1.2922235
      ],
      [
        103.7684821,
        1.2921987
      ],
      [
        103.7686515,
        1.292127
      ],
      [
        103.7687896,
        1.2920705
      ],
      [
        103.7690696,
        1.2919693
      ],
      [
        103.7691853,
        1.2919275
      ],
      [
        103.7692137,
        1.2919172
      ],
      [
        103.7692338,
        1.2919113
      ],
      [
        103.7694553,
        1.2918462
      ],
      [
        103.7700669,
        1.2916683
      ],
      [
        103.7702163,
        1.2916288
      ],
      [
        103.7706043,
        1.2915228
      ],
      [
        103.7706811,
        1.2915018
      ],
      [
        103.7707649,
        1.2914789
      ],
      [
        103.7708218,
        1.2914633
      ],
      [
        103.7708872,
        1.2914514
      ],
      [
        103.7714005,
        1.2913038
      ],
      [
        103.7715378,
        1.2912731
      ],
      [
        103.7718813,
        1.2911819
      ],
      [
        103.7720475,
        1.2911462
      ],
      [
        103.7726068,
        1.2909868
      ],
      [
        103.7728821,
        1.2909052
      ],
      [
        103.7730841,
        1.2908465
      ],
      [
        103.7733906,
        1.290745
      ],
      [
        103.7734276,
        1.2907272
      ],
      [
        103.773463,
        1.2907089
      ],
      [
        103.7739268,
        1.2904779
      ],
      [
        103.7741795,
        1.290352
      ],
      [
        103.7743063,
        1.2902888
      ],
      [
        103.7744337,
        1.2902253
      ],
      [
        103.7747636,
        1.2900983
      ],
      [
        103.7752651,
        1.2899053
      ],
      [
        103.7753266,
        1.2898816
      ],
      [
        103.7754648,
        1.2898322
      ],
      [
        103.775565,
        1.289798
      ],
      [
        103.7759383,
        1.2896672
      ],
      [
        103.7762297,
        1.2895623
      ],
      [
        103.7763573,
        1.2895189
      ],
      [
        103.7765592,
        1.2894474
      ],
      [
        103.7767922,
        1.2893649
      ],
      [
        103.7768539,
        1.2893422
      ],
      [
        103.7772008,
        1.2892147
      ],
      [
        103.7774418,
        1.289128
      ],
      [
        103.7776118,
        1.2890669
      ],
      [
        103.7777219,
        1.2890238
      ],
      [
        103.777753,
        1.2890117
      ],
      [
        103.7778578,
        1.2889448
      ],
      [
        103.7779839,
        1.2888515
      ],
      [
        103.7780065,
        1.2888316
      ],
      [
        103.7780516,
        1.2887958
      ],
      [
        103.7780971,
        1.2887569
      ],
      [
        103.7781296,
        1.2887296
      ],
      [
        103.7781497,
        1.2887128
      ],
      [
        103.77823,
        1.2886159
      ],
      [
        103.7782575,
        1.2885833
      ],
      [
        103.7783771,
        1.2884418
      ],
      [
        103.7783824,
        1.2884355
      ],
      [
        103.7786335,
        1.2880542
      ],
      [
        103.7791152,
        1.28733
      ],
      [
        103.779249,
        1.2871359
      ],
      [
        103.7794285,
        1.286886
      ],
      [
        103.7795716,
        1.2867274
      ],
      [
        103.7797358,
        1.2865699
      ],
      [
        103.7797952,
        1.2865108
      ],
      [
        103.7805324,
        1.2857769
      ],
      [
        103.7805708,
        1.2857382
      ],
      [
        103.7806657,
        1.2856427
      ],
      [
        103.7808026,
        1.2854404
      ],
      [
        103.7809555,
        1.2851594
      ],
      [
        103.7810357,
        1.2850124
      ],
      [
        103.7810732,
        1.2848957
      ],
      [
        103.7810838,
        1.2848243
      ],
      [
        103.7810753,
        1.2847402
      ],
      [
        103.7810585,
        1.2847018
      ],
      [
        103.7809006,
        1.2844461
      ],
      [
        103.7808841,
        1.284413
      ],
      [
        103.7808714,
        1.2843628
      ],
      [
        103.7808748,
        1.2842883
      ],
      [
        103.7808929,
        1.284228
      ],
      [
        103.7809197,
        1.284171
      ],
      [
        103.7811739,
        1.2838234
      ],
      [
        103.7811904,
        1.2838008
      ],
      [
        103.7813039,
        1.2836488
      ],
      [
        103.7815887,
        1.2832802
      ],
      [
        103.7817741,
        1.2830712
      ],
      [
        103.7817868,
        1.2830546
      ],
      [
        103.7818124,
        1.283028
      ],
      [
        103.7820034,
        1.2828663
      ],
      [
        103.782168,
        1.2827322
      ],
      [
        103.7822976,
        1.2826267
      ],
      [
        103.7824218,
        1.2825512
      ],
      [
        103.782676,
        1.2823968
      ],
      [
        103.7827646,
        1.2823473
      ],
      [
        103.7828038,
        1.2822867
      ],
      [
        103.7828038,
        1.2822867
      ],
      [
        103.7830877,
        1.2821023
      ],
      [
        103.7832667,
        1.2819799
      ],
      [
        103.7833307,
        1.2819362
      ],
      [
        103.7836204,
        1.2817381
      ],
      [
        103.7834858,
        1.2818265
      ],
      [
        103.7837539,
        1.2816469
      ],
      [
        103.7839927,
        1.2814887
      ],
      [
        103.7841977,
        1.2813395
      ],
      [
        103.7843183,
        1.2812673
      ],
      [
        103.784368,
        1.2812348
      ],
      [
        103.784414,
        1.2812033
      ],
      [
        103.7845989,
        1.2810855
      ],
      [
        103.7849062,
        1.2808844
      ],
      [
        103.7847851,
        1.280964
      ],
      [
        103.7849701,
        1.2808284
      ],
      [
        103.7851925,
        1.2805394
      ],
      [
        103.7850779,
        1.2807262
      ],
      [
        103.7850339,
        1.2807717
      ],
      [
        103.7852609,
        1.2803808
      ],
      [
        103.7852893,
        1.2803
      ],
      [
        103.7853138,
        1.2802316
      ],
      [
        103.7853265,
        1.2801975
      ],
      [
        103.7855264,
        1.2797816
      ],
      [
        103.7855564,
        1.2797241
      ],
      [
        103.785567,
        1.2796968
      ],
      [
        103.7856893,
        1.2793369
      ],
      [
        103.7857687,
        1.2791078
      ],
      [
        103.7857851,
        1.2790583
      ],
      [
        103.7858042,
        1.2790065
      ],
      [
        103.7858264,
        1.2789467
      ],
      [
        103.7858331,
        1.2789252
      ],
      [
        103.7858444,
        1.2788891
      ],
      [
        103.7858494,
        1.2788513
      ],
      [
        103.7858905,
        1.2786953
      ],
      [
        103.785926,
        1.2786303
      ],
      [
        103.7859662,
        1.2785013
      ],
      [
        103.7859948,
        1.2784095
      ],
      [
        103.78611,
        1.278367
      ],
      [
        103.7861376,
        1.2783595
      ],
      [
        103.7863592,
        1.2782997
      ],
      [
        103.7865778,
        1.2782335
      ],
      [
        103.7867092,
        1.2781942
      ],
      [
        103.7869874,
        1.278105
      ],
      [
        103.7871332,
        1.2780549
      ],
      [
        103.7872441,
        1.2780168
      ],
      [
        103.7873784,
        1.2779706
      ],
      [
        103.7877384,
        1.2778488
      ],
      [
        103.7883346,
        1.277634
      ],
      [
        103.7885018,
        1.2775737
      ],
      [
        103.7887202,
        1.2774991
      ],
      [
        103.7888811,
        1.2774446
      ],
      [
        103.7895184,
        1.2772278
      ],
      [
        103.7897084,
        1.2771659
      ],
      [
        103.7898009,
        1.2771297
      ],
      [
        103.7899789,
        1.2770629
      ],
      [
        103.7903875,
        1.2769152
      ],
      [
        103.7905522,
        1.2768621
      ],
      [
        103.7906876,
        1.276812
      ],
      [
        103.7907493,
        1.2767892
      ],
      [
        103.7909423,
        1.2767184
      ],
      [
        103.7910656,
        1.2766755
      ],
      [
        103.7912578,
        1.2766073
      ],
      [
        103.7917662,
        1.2764431
      ],
      [
        103.7918399,
        1.2764193
      ],
      [
        103.7918918,
        1.2764025
      ],
      [
        103.792133,
        1.2763243
      ],
      [
        103.7924956,
        1.276207
      ],
      [
        103.792546,
        1.2761899
      ],
      [
        103.7927001,
        1.2761376
      ],
      [
        103.7927226,
        1.27613
      ],
      [
        103.7927654,
        1.2761155
      ],
      [
        103.7928585,
        1.2760839
      ],
      [
        103.7934688,
        1.2758737
      ],
      [
        103.7940853,
        1.275655
      ],
      [
        103.7941865,
        1.2756178
      ],
      [
        103.7943855,
        1.2755447
      ],
      [
        103.794401,
        1.2755396
      ],
      [
        103.79448,
        1.2755138
      ],
      [
        103.7951812,
        1.2752628
      ],
      [
        103.7953096,
        1.2752168
      ],
      [
        103.7955749,
        1.2751174
      ],
      [
        103.7956153,
        1.2751023
      ],
      [
        103.7957873,
        1.2750453
      ],
      [
        103.7961772,
        1.274916
      ],
      [
        103.7963071,
        1.2748729
      ],
      [
        103.7964061,
        1.2748388
      ],
      [
        103.796459,
        1.2748205
      ],
      [
        103.7968634,
        1.2746811
      ],
      [
        103.7969642,
        1.2746464
      ],
      [
        103.7975029,
        1.2744542
      ],
      [
        103.7975954,
        1.2744212
      ],
      [
        103.7979503,
        1.2742946
      ],
      [
        103.7992588,
        1.273853
      ],
      [
        103.7997351,
        1.2736748
      ],
      [
        103.8000015,
        1.2735464
      ],
      [
        103.8000798,
        1.2735087
      ],
      [
        103.8001461,
        1.2734844
      ],
      [
        103.8001692,
        1.2734759
      ],
      [
        103.8007901,
        1.2731824
      ],
      [
        103.8010079,
        1.273084
      ],
      [
        103.801458,
        1.272924
      ],
      [
        103.8016056,
        1.272877
      ],
      [
        103.801749,
        1.2728422
      ],
      [
        103.8018362,
        1.2728228
      ],
      [
        103.8020757,
        1.2727881
      ],
      [
        103.8021823,
        1.2727718
      ],
      [
        103.8022894,
        1.2727693
      ],
      [
        103.8023674,
        1.2727679
      ],
      [
        103.8026525,
        1.2727573
      ],
      [
        103.8028528,
        1.2727477
      ],
      [
        103.8033678,
        1.2727282
      ],
      [
        103.8039801,
        1.2726541
      ],
      [
        103.8041428,
        1.2726238
      ],
      [
        103.804598,
        1.2724735
      ],
      [
        103.8052512,
        1.2722579
      ],
      [
        103.8054385,
        1.2721961
      ],
      [
        103.8054985,
        1.2721763
      ],
      [
        103.805949,
        1.2720116
      ],
      [
        103.8061491,
        1.2719374
      ],
      [
        103.8063772,
        1.2718346
      ],
      [
        103.8065972,
        1.2717354
      ],
      [
        103.8068691,
        1.2716263
      ],
      [
        103.8069417,
        1.2715923
      ],
      [
        103.8072463,
        1.2714914
      ],
      [
        103.8074359,
        1.2714274
      ],
      [
        103.8080048,
        1.2713345
      ],
      [
        103.8084655,
        1.2712408
      ],
      [
        103.8094103,
        1.2711331
      ],
      [
        103.8098267,
        1.2710766
      ],
      [
        103.8099418,
        1.2710648
      ],
      [
        103.8100592,
        1.2710548
      ],
      [
        103.8106181,
        1.271045
      ],
      [
        103.8111983,
        1.2709624
      ],
      [
        103.8113304,
        1.2709323
      ],
      [
        103.8113968,
        1.2709148
      ],
      [
        103.811682,
        1.2708173
      ],
      [
        103.8118923,
        1.2707214
      ],
      [
        103.8121296,
        1.270587
      ],
      [
        103.8122031,
        1.2705407
      ],
      [
        103.8125391,
        1.2703183
      ],
      [
        103.8127662,
        1.2701587
      ],
      [
        103.8128353,
        1.2701085
      ],
      [
        103.8129096,
        1.2700542
      ],
      [
        103.8133638,
        1.2697436
      ],
      [
        103.8134146,
        1.2697089
      ],
      [
        103.8134685,
        1.2696721
      ],
      [
        103.8136073,
        1.269581
      ],
      [
        103.8138784,
        1.2694031
      ],
      [
        103.8141737,
        1.2692156
      ],
      [
        103.8143001,
        1.2691432
      ],
      [
        103.8145925,
        1.2689876
      ],
      [
        103.8147848,
        1.2688974
      ],
      [
        103.8149932,
        1.268803
      ],
      [
        103.8151582,
        1.268744
      ],
      [
        103.815444,
        1.2686321
      ],
      [
        103.8157011,
        1.2685367
      ],
      [
        103.8159243,
        1.2684441
      ],
      [
        103.816089,
        1.2683696
      ],
      [
        103.8161694,
        1.2683312
      ],
      [
        103.8163155,
        1.2682609
      ],
      [
        103.8163929,
        1.2682256
      ],
      [
        103.8164474,
        1.2681959
      ],
      [
        103.8165148,
        1.2681603
      ],
      [
        103.816765,
        1.2680208
      ],
      [
        103.8169942,
        1.2678881
      ],
      [
        103.8172509,
        1.2677121
      ],
      [
        103.817703,
        1.2673778
      ],
      [
        103.817844,
        1.26727
      ],
      [
        103.8180252,
        1.2671273
      ],
      [
        103.8181092,
        1.2670601
      ],
      [
        103.8181716,
        1.2670155
      ],
      [
        103.8183586,
        1.266882
      ],
      [
        103.8184126,
        1.2668423
      ],
      [
        103.8184917,
        1.2667881
      ],
      [
        103.8190594,
        1.26639
      ],
      [
        103.8195027,
        1.2661199
      ],
      [
        103.8196975,
        1.2660275
      ],
      [
        103.8198616,
        1.2659675
      ],
      [
        103.8199736,
        1.2659323
      ],
      [
        103.8200065,
        1.265922
      ],
      [
        103.8201576,
        1.2658853
      ],
      [
        103.8202944,
        1.265855
      ],
      [
        103.8203942,
        1.2658394
      ],
      [
        103.8206126,
        1.2658228
      ],
      [
        103.8206982,
        1.265817
      ],
      [
        103.820754,
        1.2658146
      ],
      [
        103.8208567,
        1.2658113
      ],
      [
        103.8209922,
        1.2658126
      ],
      [
        103.8210512,
        1.2658157
      ],
      [
        103.8214361,
        1.2658238
      ],
      [
        103.8215513,
        1.265829
      ],
      [
        103.8222411,
        1.2658638
      ],
      [
        103.8227349,
        1.2658872
      ],
      [
        103.8228863,
        1.2658943
      ],
      [
        103.8230906,
        1.265904
      ],
      [
        103.823491,
        1.2659277
      ],
      [
        103.8235502,
        1.2659328
      ],
      [
        103.8236206,
        1.2659374
      ],
      [
        103.8237372,
        1.2659448
      ],
      [
        103.8239425,
        1.2659579
      ],
      [
        103.8240448,
        1.2659654
      ],
      [
        103.8240605,
        1.2659667
      ],
      [
        103.824332,
        1.2659936
      ],
      [
        103.8245981,
        1.2660183
      ],
      [
        103.8247855,
        1.2660663
      ],
      [
        103.8249502,
        1.2661118
      ],
      [
        103.8250933,
        1.2661589
      ],
      [
        103.8252128,
        1.2662098
      ],
      [
        103.8253354,
        1.2662729
      ],
      [
        103.825472,
        1.2663736
      ],
      [
        103.8257605,
        1.266645
      ],
      [
        103.8258411,
        1.2667244
      ],
      [
        103.8261913,
        1.2670353
      ],
      [
        103.8262218,
        1.2670617
      ],
      [
        103.8263333,
        1.2671581
      ],
      [
        103.8264254,
        1.2672461
      ],
      [
        103.8266955,
        1.2674956
      ],
      [
        103.827115,
        1.267866
      ],
      [
        103.8274402,
        1.2681861
      ],
      [
        103.827753,
        1.2685049
      ],
      [
        103.8286288,
        1.2693213
      ],
      [
        103.8291303,
        1.2697068
      ],
      [
        103.8299154,
        1.2704108
      ],
      [
        103.830117,
        1.2706074
      ],
      [
        103.8302814,
        1.2707587
      ],
      [
        103.8304103,
        1.2708754
      ],
      [
        103.8306163,
        1.2711178
      ],
      [
        103.8309048,
        1.2713919
      ],
      [
        103.8311862,
        1.2716495
      ],
      [
        103.8318517,
        1.2722577
      ],
      [
        103.8320032,
        1.272391
      ],
      [
        103.8321507,
        1.2725055
      ],
      [
        103.832255,
        1.2725698
      ],
      [
        103.8324258,
        1.2726176
      ],
      [
        103.8325983,
        1.2726378
      ],
      [
        103.8327725,
        1.2726375
      ],
      [
        103.8332555,
        1.2726325
      ],
      [
        103.8334989,
        1.2726257
      ],
      [
        103.8337558,
        1.2726059
      ],
      [
        103.8348066,
        1.2725169
      ],
      [
        103.8354504,
        1.2725399
      ],
      [
        103.8357857,
        1.2725412
      ],
      [
        103.8362805,
        1.2725556
      ],
      [
        103.8367342,
        1.2725654
      ],
      [
        103.8369975,
        1.2725761
      ],
      [
        103.8373881,
        1.2725862
      ],
      [
        103.8385365,
        1.2726128
      ],
      [
        103.8391539,
        1.2726365
      ],
      [
        103.839296,
        1.2726426
      ],
      [
        103.8394354,
        1.2726486
      ],
      [
        103.8394744,
        1.2726503
      ],
      [
        103.8398205,
        1.2726596
      ],
      [
        103.8399313,
        1.2726623
      ],
      [
        103.8400471,
        1.2726654
      ],
      [
        103.8419374,
        1.2727185
      ],
      [
        103.8419772,
        1.2727201
      ],
      [
        103.8422598,
        1.2727252
      ],
      [
        103.8426709,
        1.272733
      ],
      [
        103.8430022,
        1.2727458
      ],
      [
        103.8431087,
        1.2727497
      ],
      [
        103.8437991,
        1.2727659
      ],
      [
        103.8439163,
        1.2727696
      ],
      [
        103.8440424,
        1.2729059
      ],
      [
        103.8444093,
        1.2733019
      ],
      [
        103.8444977,
        1.2733936
      ],
      [
        103.8445737,
        1.273488
      ],
      [
        103.8447389,
        1.2736864
      ],
      [
        103.8450042,
        1.2740074
      ],
      [
        103.8451084,
        1.2741343
      ],
      [
        103.8451722,
        1.2742177
      ],
      [
        103.8453993,
        1.2745021
      ],
      [
        103.8455683,
        1.2746965
      ],
      [
        103.8455766,
        1.2747026
      ],
      [
        103.8456729,
        1.2748147
      ],
      [
        103.8457074,
        1.2748549
      ],
      [
        103.8457569,
        1.274913
      ],
      [
        103.8458088,
        1.2749743
      ],
      [
        103.845941,
        1.275142
      ],
      [
        103.8461507,
        1.2753973
      ],
      [
        103.8464492,
        1.275764
      ],
      [
        103.8464915,
        1.2758152
      ],
      [
        103.8466158,
        1.2759542
      ],
      [
        103.8467313,
        1.276088
      ],
      [
        103.8468201,
        1.2761893
      ],
      [
        103.8470551,
        1.2764618
      ],
      [
        103.8472225,
        1.2766075
      ],
      [
        103.8472472,
        1.276629
      ],
      [
        103.8473591,
        1.2767092
      ],
      [
        103.8473692,
        1.2767176
      ],
      [
        103.8474051,
        1.276748
      ],
      [
        103.847606,
        1.2769185
      ],
      [
        103.8478131,
        1.2771797
      ],
      [
        103.848052,
        1.2775832
      ],
      [
        103.8486161,
        1.2785002
      ],
      [
        103.8487939,
        1.2787901
      ],
      [
        103.8488095,
        1.2788159
      ],
      [
        103.8493545,
        1.2796985
      ],
      [
        103.8497724,
        1.2803753
      ],
      [
        103.8497996,
        1.2804169
      ],
      [
        103.8498296,
        1.2804625
      ],
      [
        103.8502824,
        1.2811508
      ],
      [
        103.8503193,
        1.281207
      ],
      [
        103.850353,
        1.2812427
      ],
      [
        103.8504915,
        1.281394
      ],
      [
        103.8505867,
        1.2815174
      ],
      [
        103.8508374,
        1.2818628
      ],
      [
        103.8509877,
        1.2821088
      ],
      [
        103.8510427,
        1.2822089
      ],
      [
        103.8511701,
        1.282406
      ],
      [
        103.8512053,
        1.282457
      ],
      [
        103.851221,
        1.2824797
      ],
      [
        103.851264,
        1.2825266
      ],
      [
        103.8513125,
        1.2825625
      ],
      [
        103.851415,
        1.2825831
      ],
      [
        103.851522,
        1.2825869
      ],
      [
        103.8517499,
        1.2826224
      ],
      [
        103.851813,
        1.2826345
      ],
      [
        103.8519283,
        1.2826773
      ],
      [
        103.851983,
        1.2827056
      ],
      [
        103.8520169,
        1.2827296
      ],
      [
        103.8520458,
        1.2827494
      ],
      [
        103.8520852,
        1.2827725
      ],
      [
        103.8521898,
        1.2828369
      ],
      [
        103.8522917,
        1.2829441
      ],
      [
        103.8523937,
        1.2830675
      ],
      [
        103.8524714,
        1.2831935
      ],
      [
        103.8525573,
        1.2833933
      ],
      [
        103.8526794,
        1.2837647
      ],
      [
        103.8527823,
        1.2840274
      ],
      [
        103.8528261,
        1.2841389
      ],
      [
        103.852912,
        1.2843783
      ],
      [
        103.8529544,
        1.2844966
      ],
      [
        103.853272,
        1.2851604
      ],
      [
        103.8533936,
        1.2854364
      ],
      [
        103.8534574,
        1.2856009
      ],
      [
        103.853472,
        1.2856384
      ],
      [
        103.853531,
        1.2857906
      ],
      [
        103.8536248,
        1.2860695
      ],
      [
        103.8536591,
        1.2861982
      ],
      [
        103.8536934,
        1.2863268
      ],
      [
        103.8537113,
        1.2863939
      ],
      [
        103.8537625,
        1.2866054
      ],
      [
        103.8537699,
        1.2866461
      ],
      [
        103.8537803,
        1.2867007
      ],
      [
        103.854266,
        1.2892613
      ],
      [
        103.8543497,
        1.2896428
      ],
      [
        103.8544479,
        1.2901268
      ],
      [
        103.8545296,
        1.2904397
      ],
      [
        103.8545522,
        1.2905179
      ],
      [
        103.8547634,
        1.2911466
      ],
      [
        103.8548655,
        1.2914505
      ],
      [
        103.8549025,
        1.2915357
      ],
      [
        103.8549246,
        1.2915866
      ],
      [
        103.8550798,
        1.2918822
      ],
      [
        103.8552936,
        1.2922894
      ],
      [
        103.855412,
        1.2924992
      ],
      [
        103.8556295,
        1.2928507
      ],
      [
        103.8558226,
        1.293172
      ],
      [
        103.8558782,
        1.2932629
      ],
      [
        103.8560587,
        1.2935666
      ],
      [
        103.8560902,
        1.2936106
      ],
      [
        103.8563465,
        1.2940077
      ],
      [
        103.8565627,
        1.2943647
      ],
      [
        103.8565824,
        1.2943972
      ],
      [
        103.8567824,
        1.2947274
      ],
      [
        103.8568064,
        1.2947667
      ],
      [
        103.8570184,
        1.2951135
      ],
      [
        103.8570577,
        1.2951778
      ],
      [
        103.8570983,
        1.2952441
      ],
      [
        103.8572918,
        1.2955465
      ],
      [
        103.8573402,
        1.2956223
      ],
      [
        103.8574563,
        1.2957821
      ],
      [
        103.8575544,
        1.295901
      ],
      [
        103.8576815,
        1.2960535
      ],
      [
        103.857877,
        1.2962993
      ],
      [
        103.8583911,
        1.2968643
      ],
      [
        103.8584845,
        1.2969572
      ],
      [
        103.8593114,
        1.2977805
      ],
      [
        103.8595095,
        1.2979655
      ],
      [
        103.8597136,
        1.2981504
      ],
      [
        103.8599249,
        1.2983277
      ],
      [
        103.8599722,
        1.2983674
      ],
      [
        103.8605131,
        1.2987866
      ],
      [
        103.8615617,
        1.299543
      ],
      [
        103.8620786,
        1.2999357
      ],
      [
        103.8621612,
        1.2999924
      ],
      [
        103.8627931,
        1.3004728
      ],
      [
        103.8631535,
        1.3007442
      ],
      [
        103.8631798,
        1.3007631
      ],
      [
        103.8633113,
        1.3008612
      ],
      [
        103.8634966,
        1.300996
      ],
      [
        103.8644332,
        1.3016729
      ],
      [
        103.8652217,
        1.3022387
      ],
      [
        103.86639,
        1.3029812
      ],
      [
        103.8693997,
        1.3049602
      ],
      [
        103.8696242,
        1.3051053
      ],
      [
        103.8698439,
        1.3052472
      ],
      [
        103.8700221,
        1.3053709
      ],
      [
        103.8702145,
        1.3055044
      ],
      [
        103.8706494,
        1.3057745
      ],
      [
        103.8710355,
        1.3060308
      ],
      [
        103.8711847,
        1.3061367
      ],
      [
        103.8714887,
        1.3063273
      ],
      [
        103.8716404,
        1.3064059
      ],
      [
        103.8718622,
        1.3065184
      ],
      [
        103.8720272,
        1.3065919
      ],
      [
        103.8723735,
        1.3067038
      ],
      [
        103.8726042,
        1.3067641
      ],
      [
        103.872853,
        1.3068177
      ],
      [
        103.8731212,
        1.306862
      ],
      [
        103.8741565,
        1.3069049
      ],
      [
        103.8746828,
        1.3069474
      ],
      [
        103.8751355,
        1.306984
      ],
      [
        103.8757912,
        1.3070348
      ],
      [
        103.8759273,
        1.3070567
      ],
      [
        103.8761036,
        1.3071029
      ],
      [
        103.8762266,
        1.3071481
      ],
      [
        103.8763021,
        1.3071787
      ],
      [
        103.8763879,
        1.3072271
      ],
      [
        103.8767029,
        1.307455
      ],
      [
        103.8768241,
        1.3075599
      ],
      [
        103.8770304,
        1.3078127
      ],
      [
        103.877083,
        1.3078926
      ],
      [
        103.8773377,
        1.308298
      ],
      [
        103.8774692,
        1.3082471
      ],
      [
        103.8775724,
        1.3082149
      ],
      [
        103.8779975,
        1.3080822
      ],
      [
        103.8786263,
        1.307857
      ],
      [
        103.8797237,
        1.3074263
      ],
      [
        103.8800899,
        1.3072727
      ],
      [
        103.8802196,
        1.3072186
      ],
      [
        103.8809912,
        1.3068987
      ],
      [
        103.8811517,
        1.306827
      ],
      [
        103.8813552,
        1.3067412
      ],
      [
        103.8816693,
        1.3066115
      ],
      [
        103.8818626,
        1.3065638
      ],
      [
        103.8820746,
        1.3065388
      ],
      [
        103.8823675,
        1.3065076
      ],
      [
        103.8826969,
        1.3065102
      ],
      [
        103.8829301,
        1.306547
      ],
      [
        103.8830917,
        1.3065899
      ],
      [
        103.883234,
        1.3066135
      ],
      [
        103.8834062,
        1.3066938
      ],
      [
        103.8835354,
        1.3067613
      ],
      [
        103.8836205,
        1.3068015
      ],
      [
        103.8837796,
        1.3068767
      ],
      [
        103.8838652,
        1.3069172
      ],
      [
        103.8840278,
        1.3069941
      ],
      [
        103.8841655,
        1.3070592
      ],
      [
        103.8843926,
        1.3071665
      ],
      [
        103.884532,
        1.3072323
      ],
      [
        103.8845774,
        1.3072538
      ],
      [
        103.884712,
        1.3073175
      ],
      [
        103.8848598,
        1.3073896
      ],
      [
        103.8851071,
        1.3075068
      ],
      [
        103.8853667,
        1.3076298
      ],
      [
        103.885382,
        1.307637
      ],
      [
        103.8854525,
        1.307669
      ],
      [
        103.8855382,
        1.3077056
      ],
      [
        103.8855779,
        1.3077225
      ],
      [
        103.8859103,
        1.3078645
      ],
      [
        103.885978,
        1.3078934
      ],
      [
        103.8861379,
        1.3079476
      ],
      [
        103.8865585,
        1.3080206
      ],
      [
        103.8866537,
        1.3080371
      ],
      [
        103.8867523,
        1.3080609
      ],
      [
        103.8873983,
        1.3081773
      ],
      [
        103.8878475,
        1.3082619
      ],
      [
        103.888249,
        1.3083375
      ],
      [
        103.888985,
        1.3084767
      ],
      [
        103.889053,
        1.3084897
      ],
      [
        103.8894653,
        1.3085769
      ],
      [
        103.8896132,
        1.3086084
      ],
      [
        103.8898961,
        1.3086567
      ],
      [
        103.8899088,
        1.3086594
      ],
      [
        103.8910471,
        1.308898
      ],
      [
        103.8911533,
        1.3089202
      ],
      [
        103.8914661,
        1.3089856
      ],
      [
        103.8918923,
        1.3090731
      ],
      [
        103.8922736,
        1.3091501
      ],
      [
        103.8923592,
        1.3091697
      ],
      [
        103.8927433,
        1.3092503
      ],
      [
        103.8935272,
        1.3094121
      ],
      [
        103.8942906,
        1.3095791
      ],
      [
        103.8943703,
        1.3095923
      ],
      [
        103.8944492,
        1.3096148
      ],
      [
        103.8944888,
        1.3095157
      ],
      [
        103.8945114,
        1.3094672
      ],
      [
        103.8945496,
        1.3093811
      ],
      [
        103.8946646,
        1.3091142
      ],
      [
        103.8947806,
        1.3088178
      ],
      [
        103.8947758,
        1.3087098
      ],
      [
        103.8947758,
        1.3087098
      ],
      [
        103.8948623,
        1.308528
      ],
      [
        103.8948348,
        1.3085804
      ],
      [
        103.8950336,
        1.3081988
      ],
      [
        103.8950054,
        1.3082536
      ],
      [
        103.8949624,
        1.3083372
      ],
      [
        103.8950768,
        1.3081214
      ],
      [
        103.8950507,
        1.3081657
      ],
      [
        103.8952318,
        1.3078506
      ],
      [
        103.8952292,
        1.3078551
      ],
      [
        103.8952396,
        1.3078369
      ],
      [
        103.8953345,
        1.3076547
      ],
      [
        103.8954168,
        1.3074549
      ],
      [
        103.8955053,
        1.3072051
      ],
      [
        103.8955201,
        1.307163
      ],
      [
        103.8958406,
        1.3063143
      ],
      [
        103.895787,
        1.3064738
      ],
      [
        103.8956821,
        1.3067397
      ],
      [
        103.896022,
        1.3058764
      ],
      [
        103.8962601,
        1.3051788
      ],
      [
        103.8963564,
        1.3048612
      ],
      [
        103.8964055,
        1.3047068
      ],
      [
        103.8965793,
        1.3041507
      ],
      [
        103.8966,
        1.3040971
      ],
      [
        103.8966313,
        1.3039995
      ],
      [
        103.8967259,
        1.3036951
      ],
      [
        103.8967551,
        1.3036018
      ],
      [
        103.8967962,
        1.3034778
      ],
      [
        103.8968134,
        1.3034157
      ],
      [
        103.8968921,
        1.3031646
      ],
      [
        103.8970011,
        1.3027285
      ],
      [
        103.8970113,
        1.3026841
      ],
      [
        103.8970619,
        1.302459
      ],
      [
        103.8971002,
        1.3022713
      ],
      [
        103.8971827,
        1.3022364
      ],
      [
        103.8972355,
        1.3022155
      ],
      [
        103.897406,
        1.3021533
      ],
      [
        103.8975631,
        1.3021406
      ],
      [
        103.8982278,
        1.3023025
      ],
      [
        103.8985261,
        1.302374
      ],
      [
        103.8987607,
        1.3024558
      ],
      [
        103.8996285,
        1.3028098
      ],
      [
        103.8998068,
        1.3028882
      ],
      [
        103.9001622,
        1.3030444
      ],
      [
        103.900373,
        1.3031381
      ],
      [
        103.9003922,
        1.3031466
      ],
      [
        103.9004716,
        1.3031802
      ],
      [
        103.9005215,
        1.3032038
      ],
      [
        103.9005832,
        1.3032308
      ],
      [
        103.9007215,
        1.3032946
      ],
      [
        103.9009228,
        1.3033926
      ],
      [
        103.9010605,
        1.303457
      ],
      [
        103.9012241,
        1.3035507
      ],
      [
        103.901627,
        1.3038226
      ],
      [
        103.9018269,
        1.30395
      ],
      [
        103.9019121,
        1.3040043
      ],
      [
        103.9020361,
        1.3040832
      ],
      [
        103.9020661,
        1.3041039
      ],
      [
        103.9021923,
        1.3041846
      ],
      [
        103.9023875,
        1.3043112
      ],
      [
        103.9025911,
        1.3044561
      ],
      [
        103.9027509,
        1.3045605
      ],
      [
        103.9032699,
        1.3049051
      ],
      [
        103.903695,
        1.3051783
      ],
      [
        103.9037644,
        1.3052212
      ],
      [
        103.9043468,
        1.305597
      ],
      [
        103.9044386,
        1.305657
      ],
      [
        103.9048284,
        1.3059205
      ],
      [
        103.9049244,
        1.3059729
      ],
      [
        103.904997,
        1.3060186
      ],
      [
        103.905227,
        1.3061837
      ],
      [
        103.9054361,
        1.3063285
      ],
      [
        103.9054918,
        1.3063672
      ],
      [
        103.9057043,
        1.3065136
      ],
      [
        103.9057227,
        1.3065263
      ],
      [
        103.9057369,
        1.3065361
      ],
      [
        103.9060262,
        1.3067333
      ],
      [
        103.9061807,
        1.3068386
      ],
      [
        103.9062648,
        1.3068956
      ],
      [
        103.9064667,
        1.3070324
      ],
      [
        103.9068947,
        1.3073228
      ],
      [
        103.9069285,
        1.3073453
      ],
      [
        103.9069542,
        1.3073622
      ],
      [
        103.907035,
        1.3074152
      ],
      [
        103.9076705,
        1.3078087
      ],
      [
        103.9076932,
        1.3078232
      ],
      [
        103.9077264,
        1.3078455
      ],
      [
        103.9078775,
        1.3079434
      ],
      [
        103.9080127,
        1.308013
      ],
      [
        103.9080767,
        1.3080477
      ],
      [
        103.9084118,
        1.3081888
      ],
      [
        103.9084814,
        1.3082136
      ],
      [
        103.9086107,
        1.3082733
      ],
      [
        103.9086778,
        1.3082863
      ],
      [
        103.9090106,
        1.3083508
      ],
      [
        103.9091554,
        1.3083805
      ],
      [
        103.9093756,
        1.3084216
      ],
      [
        103.90972,
        1.3084779
      ],
      [
        103.9097751,
        1.3084891
      ],
      [
        103.9101133,
        1.3085506
      ],
      [
        103.9101929,
        1.3085684
      ],
      [
        103.9102912,
        1.3085884
      ],
      [
        103.9103862,
        1.3086081
      ],
      [
        103.9106686,
        1.3086655
      ],
      [
        103.9106886,
        1.3086701
      ],
      [
        103.9110966,
        1.3087579
      ],
      [
        103.9111707,
        1.3087742
      ],
      [
        103.9112878,
        1.3087979
      ],
      [
        103.9117518,
        1.3088913
      ],
      [
        103.9119761,
        1.3089327
      ],
      [
        103.912199,
        1.3089784
      ],
      [
        103.9122758,
        1.3089911
      ],
      [
        103.9123381,
        1.3090018
      ],
      [
        103.9123974,
        1.3090142
      ],
      [
        103.9128902,
        1.3091165
      ],
      [
        103.9129965,
        1.3091402
      ],
      [
        103.913227,
        1.3091844
      ],
      [
        103.9135067,
        1.3092448
      ],
      [
        103.9136105,
        1.3092659
      ],
      [
        103.9138198,
        1.309306
      ],
      [
        103.914151,
        1.3093712
      ],
      [
        103.9143992,
        1.3094205
      ],
      [
        103.9144966,
        1.3094418
      ],
      [
        103.9146337,
        1.3094667
      ],
      [
        103.9150409,
        1.3095551
      ],
      [
        103.9151179,
        1.3095706
      ],
      [
        103.9154711,
        1.3096452
      ],
      [
        103.9156328,
        1.3096773
      ],
      [
        103.9157871,
        1.30971
      ],
      [
        103.9160956,
        1.3097708
      ],
      [
        103.916184,
        1.3097889
      ],
      [
        103.9163087,
        1.3098144
      ],
      [
        103.9164609,
        1.309842
      ],
      [
        103.916629,
        1.3098737
      ],
      [
        103.9167998,
        1.3099076
      ],
      [
        103.9168352,
        1.3099148
      ],
      [
        103.9172075,
        1.3099953
      ],
      [
        103.9173572,
        1.3100384
      ],
      [
        103.9177098,
        1.3101771
      ],
      [
        103.9185087,
        1.3105464
      ],
      [
        103.9198467,
        1.3111136
      ],
      [
        103.9199632,
        1.3111691
      ],
      [
        103.9204654,
        1.3113981
      ],
      [
        103.9205556,
        1.3114279
      ],
      [
        103.9205986,
        1.3114338
      ],
      [
        103.9212777,
        1.3115272
      ],
      [
        103.9216005,
        1.3115689
      ],
      [
        103.9218081,
        1.3115974
      ],
      [
        103.9220146,
        1.311674
      ],
      [
        103.922143,
        1.3117288
      ],
      [
        103.9226845,
        1.3119576
      ],
      [
        103.9228066,
        1.312012
      ],
      [
        103.9231248,
        1.3121478
      ],
      [
        103.9232251,
        1.3121908
      ],
      [
        103.9233906,
        1.3122612
      ],
      [
        103.9236056,
        1.3123424
      ],
      [
        103.9237331,
        1.312386
      ],
      [
        103.9238521,
        1.3124246
      ],
      [
        103.9241072,
        1.3124766
      ],
      [
        103.9244504,
        1.3125427
      ],
      [
        103.9244844,
        1.3125493
      ],
      [
        103.9245907,
        1.3125715
      ],
      [
        103.9250127,
        1.3126441
      ],
      [
        103.9253269,
        1.3127019
      ],
      [
        103.9255505,
        1.3127406
      ],
      [
        103.9259027,
        1.31281
      ],
      [
        103.926101,
        1.3128473
      ],
      [
        103.9262808,
        1.3128763
      ],
      [
        103.9267237,
        1.3129564
      ],
      [
        103.9268175,
        1.3129745
      ],
      [
        103.9268764,
        1.312981
      ],
      [
        103.9271747,
        1.3130311
      ],
      [
        103.9271872,
        1.3130337
      ],
      [
        103.9272123,
        1.3130372
      ],
      [
        103.9273031,
        1.3130543
      ],
      [
        103.9275682,
        1.3130973
      ],
      [
        103.9277376,
        1.3131257
      ],
      [
        103.9280148,
        1.3131693
      ],
      [
        103.9280957,
        1.3131832
      ],
      [
        103.9281108,
        1.3131875
      ],
      [
        103.928407,
        1.3132273
      ],
      [
        103.9286242,
        1.3132625
      ],
      [
        103.9286715,
        1.3132702
      ],
      [
        103.9287148,
        1.3132789
      ],
      [
        103.9288039,
        1.3133045
      ],
      [
        103.929467,
        1.3134853
      ],
      [
        103.9295414,
        1.3135055
      ],
      [
        103.9295937,
        1.3135221
      ],
      [
        103.9297708,
        1.3135783
      ],
      [
        103.9301378,
        1.3136918
      ],
      [
        103.9302421,
        1.3137221
      ],
      [
        103.9304645,
        1.3137686
      ],
      [
        103.9305159,
        1.3137793
      ],
      [
        103.9305699,
        1.3137918
      ],
      [
        103.9307606,
        1.313836
      ],
      [
        103.9309879,
        1.3138853
      ],
      [
        103.9313596,
        1.3139378
      ],
      [
        103.9314554,
        1.3139493
      ],
      [
        103.9316431,
        1.3139728
      ],
      [
        103.931904,
        1.3140074
      ],
      [
        103.9319874,
        1.3140136
      ],
      [
        103.9320976,
        1.3140218
      ],
      [
        103.932266,
        1.3140334
      ],
      [
        103.9325938,
        1.3140543
      ],
      [
        103.932887,
        1.314073
      ],
      [
        103.9329223,
        1.3140753
      ],
      [
        103.9330543,
        1.3140881
      ],
      [
        103.9333612,
        1.3141342
      ],
      [
        103.9335243,
        1.3141604
      ],
      [
        103.9335975,
        1.3141696
      ],
      [
        103.9337166,
        1.3141864
      ],
      [
        103.9337953,
        1.3141949
      ],
      [
        103.9339752,
        1.3142161
      ],
      [
        103.9341415,
        1.3142296
      ],
      [
        103.9342578,
        1.3142433
      ],
      [
        103.9344715,
        1.3142684
      ],
      [
        103.9345355,
        1.3142759
      ],
      [
        103.9345765,
        1.3142811
      ],
      [
        103.9348364,
        1.3143106
      ],
      [
        103.9351094,
        1.3143476
      ],
      [
        103.935453,
        1.3143905
      ],
      [
        103.9357282,
        1.3144249
      ],
      [
        103.9361076,
        1.3144663
      ],
      [
        103.9361295,
        1.3144687
      ],
      [
        103.9363391,
        1.3144924
      ],
      [
        103.9364359,
        1.3145036
      ],
      [
        103.9372085,
        1.3145851
      ],
      [
        103.9375094,
        1.3146175
      ],
      [
        103.9380056,
        1.3146665
      ],
      [
        103.938506,
        1.3147146
      ],
      [
        103.9388999,
        1.3147566
      ],
      [
        103.9389812,
        1.3147644
      ],
      [
        103.9399312,
        1.31487
      ],
      [
        103.9401517,
        1.3148992
      ],
      [
        103.9402506,
        1.314909
      ],
      [
        103.9403676,
        1.3149256
      ],
      [
        103.9409442,
        1.3150201
      ],
      [
        103.9410369,
        1.3150342
      ],
      [
        103.9413008,
        1.3150783
      ],
      [
        103.9414493,
        1.3151031
      ],
      [
        103.9421536,
        1.3152286
      ],
      [
        103.9423117,
        1.3152651
      ],
      [
        103.94298,
        1.3154652
      ],
      [
        103.9433032,
        1.3155797
      ],
      [
        103.9436005,
        1.3156851
      ],
      [
        103.9436671,
        1.3157116
      ],
      [
        103.9439764,
        1.3159171
      ],
      [
        103.9441808,
        1.3160404
      ],
      [
        103.9443189,
        1.3161073
      ],
      [
        103.9444512,
        1.3161629
      ],
      [
        103.9445975,
        1.3162194
      ],
      [
        103.9447105,
        1.3162601
      ],
      [
        103.94501,
        1.3163587
      ],
      [
        103.9452439,
        1.3164226
      ],
      [
        103.9452929,
        1.316436
      ],
      [
        103.9454082,
        1.3164656
      ],
      [
        103.9454582,
        1.3164783
      ],
      [
        103.945773,
        1.3165585
      ],
      [
        103.9463863,
        1.3167569
      ],
      [
        103.9468319,
        1.3169224
      ],
      [
        103.9472138,
        1.3170651
      ],
      [
        103.9475653,
        1.3172092
      ],
      [
        103.9479889,
        1.3173243
      ],
      [
        103.9484021,
        1.3174088
      ],
      [
        103.9485582,
        1.3174526
      ],
      [
        103.9486305,
        1.3174744
      ],
      [
        103.9488438,
        1.3175312
      ],
      [
        103.9492354,
        1.3176121
      ],
      [
        103.94988,
        1.3177597
      ],
      [
        103.950366,
        1.3179063
      ],
      [
        103.9508787,
        1.3180869
      ],
      [
        103.9509835,
        1.3181325
      ],
      [
        103.9511639,
        1.3181875
      ],
      [
        103.9512975,
        1.3182282
      ],
      [
        103.9516213,
        1.3182907
      ],
      [
        103.9518539,
        1.3183486
      ],
      [
        103.9520813,
        1.318409
      ],
      [
        103.9521734,
        1.3184435
      ],
      [
        103.9522662,
        1.3184722
      ],
      [
        103.9528728,
        1.318658
      ],
      [
        103.9532748,
        1.3188194
      ],
      [
        103.9536841,
        1.3190282
      ],
      [
        103.9538031,
        1.3190784
      ],
      [
        103.9540592,
        1.3192059
      ],
      [
        103.9542428,
        1.3193005
      ],
      [
        103.954507,
        1.319424
      ],
      [
        103.9547642,
        1.3195452
      ],
      [
        103.9548232,
        1.3195722
      ],
      [
        103.9549413,
        1.3196338
      ],
      [
        103.9550071,
        1.3196632
      ],
      [
        103.9550849,
        1.3197081
      ],
      [
        103.9552026,
        1.319758
      ],
      [
        103.9553058,
        1.3198135
      ],
      [
        103.9554628,
        1.319916
      ],
      [
        103.955576,
        1.3199644
      ],
      [
        103.9556394,
        1.3199828
      ],
      [
        103.9557268,
        1.3200214
      ],
      [
        103.9558503,
        1.3200814
      ],
      [
        103.955894,
        1.3201738
      ],
      [
        103.9559197,
        1.3202374
      ],
      [
        103.9559011,
        1.3203401
      ],
      [
        103.9558742,
        1.3203947
      ],
      [
        103.9558488,
        1.3204338
      ],
      [
        103.9558019,
        1.3205171
      ],
      [
        103.9557542,
        1.3205935
      ],
      [
        103.9556323,
        1.3207532
      ],
      [
        103.9554963,
        1.3209229
      ],
      [
        103.9554614,
        1.3209648
      ],
      [
        103.9553471,
        1.3211058
      ],
      [
        103.9551658,
        1.3213295
      ],
      [
        103.955093,
        1.3214251
      ],
      [
        103.9550367,
        1.3215048
      ],
      [
        103.9549772,
        1.321589
      ],
      [
        103.9549494,
        1.3216284
      ],
      [
        103.9547668,
        1.3218556
      ],
      [
        103.954612,
        1.3220483
      ],
      [
        103.9545707,
        1.3220997
      ],
      [
        103.9540194,
        1.3228158
      ],
      [
        103.9539895,
        1.3228536
      ],
      [
        103.9539545,
        1.3229019
      ],
      [
        103.9538565,
        1.3230371
      ],
      [
        103.9537002,
        1.3232392
      ],
      [
        103.9535794,
        1.3233969
      ],
      [
        103.9535603,
        1.3234219
      ],
      [
        103.9532098,
        1.323874
      ],
      [
        103.9531977,
        1.3238897
      ],
      [
        103.9531219,
        1.323981
      ],
      [
        103.9529436,
        1.3242173
      ],
      [
        103.9526418,
        1.3245899
      ],
      [
        103.9525569,
        1.3247296
      ],
      [
        103.9524969,
        1.3248047
      ],
      [
        103.9524564,
        1.3248555
      ],
      [
        103.9524314,
        1.3248896
      ],
      [
        103.9520018,
        1.3254744
      ],
      [
        103.9515585,
        1.3260475
      ],
      [
        103.9514136,
        1.3262319
      ],
      [
        103.9512151,
        1.3265014
      ],
      [
        103.9510393,
        1.3267453
      ],
      [
        103.9507806,
        1.3270618
      ],
      [
        103.9506961,
        1.3271775
      ],
      [
        103.9506189,
        1.3272747
      ],
      [
        103.9503733,
        1.3275653
      ],
      [
        103.9503196,
        1.3276321
      ],
      [
        103.9502677,
        1.3277004
      ],
      [
        103.9501661,
        1.3278338
      ],
      [
        103.9501107,
        1.3279186
      ],
      [
        103.9500444,
        1.3280121
      ],
      [
        103.9499153,
        1.3282011
      ],
      [
        103.9498556,
        1.3282885
      ],
      [
        103.9497732,
        1.3283882
      ],
      [
        103.9495833,
        1.3286141
      ],
      [
        103.9495381,
        1.3286905
      ],
      [
        103.9493348,
        1.3289648
      ],
      [
        103.9487189,
        1.3297637
      ],
      [
        103.948517,
        1.3300309
      ],
      [
        103.9479964,
        1.3307025
      ],
      [
        103.9478762,
        1.3308594
      ],
      [
        103.9476817,
        1.3311133
      ],
      [
        103.9476267,
        1.331185
      ],
      [
        103.9475669,
        1.331263
      ],
      [
        103.9474647,
        1.3313964
      ],
      [
        103.9471444,
        1.3318176
      ],
      [
        103.9471211,
        1.3318503
      ],
      [
        103.9470755,
        1.331912
      ],
      [
        103.9470123,
        1.3320002
      ],
      [
        103.9469439,
        1.3320965
      ],
      [
        103.9469047,
        1.3321517
      ],
      [
        103.9468439,
        1.3322517
      ],
      [
        103.9467228,
        1.3324874
      ],
      [
        103.9467001,
        1.3325316
      ],
      [
        103.94666,
        1.3326174
      ],
      [
        103.9467455,
        1.3326599
      ],
      [
        103.9467849,
        1.3326773
      ],
      [
        103.9471368,
        1.3328331
      ],
      [
        103.9474257,
        1.3329561
      ],
      [
        103.9476599,
        1.3330596
      ],
      [
        103.9478149,
        1.3331264
      ],
      [
        103.9479285,
        1.3331753
      ],
      [
        103.9480697,
        1.3332339
      ],
      [
        103.9483191,
        1.3333374
      ],
      [
        103.9484833,
        1.3334055
      ],
      [
        103.9488441,
        1.3335651
      ],
      [
        103.9491003,
        1.333677
      ],
      [
        103.9492197,
        1.3337281
      ],
      [
        103.9495649,
        1.333885
      ],
      [
        103.9495795,
        1.3338912
      ],
      [
        103.9495826,
        1.3338926
      ],
      [
        103.9500085,
        1.3340703
      ],
      [
        103.9505122,
        1.3342793
      ],
      [
        103.9506133,
        1.3343242
      ],
      [
        103.9506964,
        1.3343611
      ],
      [
        103.9507749,
        1.3343968
      ],
      [
        103.9507992,
        1.3344081
      ],
      [
        103.9509211,
        1.3344645
      ],
      [
        103.9512066,
        1.3346059
      ],
      [
        103.9513927,
        1.3347016
      ],
      [
        103.9517942,
        1.3348698
      ],
      [
        103.9518574,
        1.3349212
      ],
      [
        103.9519383,
        1.3350459
      ],
      [
        103.9519627,
        1.3350957
      ],
      [
        103.951982,
        1.3351593
      ],
      [
        103.9519742,
        1.3352825
      ],
      [
        103.9518913,
        1.3355277
      ],
      [
        103.9516443,
        1.3358202
      ],
      [
        103.9507766,
        1.3368207
      ],
      [
        103.9498671,
        1.3378843
      ],
      [
        103.9495644,
        1.3382506
      ],
      [
        103.949343,
        1.3385211
      ],
      [
        103.9492633,
        1.338615
      ],
      [
        103.9491752,
        1.3387197
      ],
      [
        103.9491533,
        1.338745
      ],
      [
        103.9489973,
        1.3389256
      ],
      [
        103.9484766,
        1.3395671
      ],
      [
        103.9481718,
        1.3399441
      ],
      [
        103.9476686,
        1.3405337
      ],
      [
        103.9474131,
        1.340833
      ],
      [
        103.9470966,
        1.341218
      ],
      [
        103.9465478,
        1.3418541
      ],
      [
        103.9463711,
        1.3420815
      ],
      [
        103.9459347,
        1.3426428
      ],
      [
        103.9451908,
        1.3435252
      ],
      [
        103.9448013,
        1.3439539
      ],
      [
        103.9441559,
        1.3447354
      ],
      [
        103.9440015,
        1.3449223
      ],
      [
        103.9436325,
        1.3453729
      ],
      [
        103.9434759,
        1.3455641
      ],
      [
        103.9432648,
        1.3458192
      ],
      [
        103.9429632,
        1.3461832
      ],
      [
        103.9429306,
        1.3462242
      ],
      [
        103.9428212,
        1.3463552
      ],
      [
        103.9427876,
        1.3463955
      ],
      [
        103.9427696,
        1.3464171
      ],
      [
        103.9426145,
        1.3466099
      ],
      [
        103.9425015,
        1.3467507
      ],
      [
        103.9423609,
        1.3469971
      ],
      [
        103.9423433,
        1.347028
      ],
      [
        103.9422523,
        1.3472253
      ],
      [
        103.9421734,
        1.3474417
      ],
      [
        103.9420938,
        1.3476753
      ],
      [
        103.9420742,
        1.3477327
      ],
      [
        103.9419788,
        1.3481368
      ],
      [
        103.9419441,
        1.3482837
      ],
      [
        103.941644,
        1.3495631
      ],
      [
        103.9416236,
        1.3496499
      ],
      [
        103.9415742,
        1.3498226
      ],
      [
        103.941527,
        1.3500722
      ],
      [
        103.9414863,
        1.3503241
      ],
      [
        103.9414707,
        1.3504302
      ],
      [
        103.9414164,
        1.3510617
      ],
      [
        103.9414165,
        1.3511217
      ],
      [
        103.9414097,
        1.3514397
      ],
      [
        103.9414012,
        1.351626
      ],
      [
        103.9413999,
        1.351688
      ],
      [
        103.9413955,
        1.3517953
      ],
      [
        103.9413899,
        1.3518487
      ],
      [
        103.9413941,
        1.3521573
      ],
      [
        103.9413996,
        1.3532377
      ],
      [
        103.9413964,
        1.3533438
      ],
      [
        103.9413982,
        1.3539777
      ],
      [
        103.9413983,
        1.3540467
      ],
      [
        103.9413986,
        1.3541282
      ],
      [
        103.9415231,
        1.3541292
      ],
      [
        103.9416368,
        1.3541305
      ],
      [
        103.9424057,
        1.3541317
      ],
      [
        103.9424718,
        1.3541323
      ],
      [
        103.942541,
        1.3541344
      ],
      [
        103.9425411,
        1.354065
      ],
      [
        103.9425514,
        1.3539838
      ],
      [
        103.9425802,
        1.3538841
      ],
      [
        103.9426248,
        1.3537917
      ],
      [
        103.9426965,
        1.3536961
      ],
      [
        103.9427915,
        1.3535947
      ],
      [
        103.9429077,
        1.3534833
      ],
      [
        103.9429735,
        1.3534169
      ],
      [
        103.9430151,
        1.353455
      ],
      [
        103.9431651,
        1.3535938
      ],
      [
        103.9431999,
        1.3536257
      ],
      [
        103.9432187,
        1.3536431
      ],
      [
        103.9432932,
        1.3537066
      ],
      [
        103.9433999,
        1.3538498
      ],
      [
        103.9438699,
        1.354325
      ],
      [
        103.9439222,
        1.3543452
      ],
      [
        103.9439772,
        1.3543552
      ],
      [
        103.9440411,
        1.3543499
      ],
      [
        103.944129,
        1.3542595
      ],
      [
        103.9441945,
        1.3541922
      ],
      [
        103.9442088,
        1.3541233
      ],
      [
        103.9442052,
        1.3540633
      ],
      [
        103.9441728,
        1.3540033
      ],
      [
        103.9439273,
        1.3537543
      ],
      [
        103.9438736,
        1.3537252
      ],
      [
        103.9438246,
        1.3537022
      ],
      [
        103.9435622,
        1.3537044
      ],
      [
        103.9432932,
        1.3537066
      ]
    ]
  }
}