{
  "type": "Feature",
  "properties": {
    "relation": 9180848,
    "direction": "1",
    "fee": "yes",
    "from": "Buangkok Interchange",
    "name": "Svc 110 (Buangkok Interchange ↺ Changi Airport)",
    "name:en": "Svc 110 (Buangkok Interchange ↺ Changi Airport)",
    "network": "Land Transport Authority",
    "network:short": "LTA",
    "network:wikidata": "Q3299279",
    "network:wikipedia": "en:Land Transport Authority",
    "operator": "SMRT Buses",
    "operator:wikidata": "Q10852420",
    "operator:wikipedia": "en:SMRT Buses",
    "public_transport:version": "2",
    "ref": "110",
    "roundtrip": "yes",
    "route": "bus",
    "to": "Buangkok Interchange",
    "type": "route",
    "via": "Changi Airport",
    "website": "https://www.smrt.com.sg/"
  },
  "geometry": {
    "type": "LineString",
    "coordinates": [
      [
        103.8929253,
        1.3842122
      ],
      [
        103.8927422,
        1.3842476
      ],
      [
        103.8926016,
        1.3842379
      ],
      [
        103.8924862,
        1.3841641
      ],
      [
        103.89226,
        1.3839155
      ],
      [
        103.8921913,
        1.3838027
      ],
      [
        103.8920445,
        1.3831358
      ],
      [
        103.8930358,
        1.3841937
      ],
      [
        103.8929253,
        1.3842122
      ],
      [
        103.8932072,
        1.3846456
      ],
      [
        103.8933961,
        1.3852649
      ],
      [
        103.8934854,
        1.3856043
      ],
      [
        103.8935558,
        1.3859132
      ],
      [
        103.8936455,
        1.3863262
      ],
      [
        103.8936698,
        1.3864125
      ],
      [
        103.8937108,
        1.3865583
      ],
      [
        103.8937272,
        1.3866064
      ],
      [
        103.8937633,
        1.3867283
      ],
      [
        103.8939151,
        1.3867032
      ],
      [
        103.8940156,
        1.3866786
      ],
      [
        103.8940907,
        1.3866603
      ],
      [
        103.8941411,
        1.386648
      ],
      [
        103.8944587,
        1.3865708
      ],
      [
        103.8947419,
        1.3864764
      ],
      [
        103.8949203,
        1.3863984
      ],
      [
        103.8950423,
        1.3863391
      ],
      [
        103.8952147,
        1.3862391
      ],
      [
        103.895523,
        1.3860388
      ],
      [
        103.8956445,
        1.3860137
      ],
      [
        103.8957482,
        1.3860049
      ],
      [
        103.895792,
        1.386011
      ],
      [
        103.8959008,
        1.3860727
      ],
      [
        103.8959677,
        1.3861491
      ],
      [
        103.8960799,
        1.3864331
      ],
      [
        103.8961182,
        1.3865488
      ],
      [
        103.896313,
        1.3871285
      ],
      [
        103.8963801,
        1.3873363
      ],
      [
        103.896484,
        1.3876523
      ],
      [
        103.8964646,
        1.3877957
      ],
      [
        103.8964304,
        1.3879202
      ],
      [
        103.8964242,
        1.3879333
      ],
      [
        103.8964007,
        1.3879831
      ],
      [
        103.8963329,
        1.3880804
      ],
      [
        103.8959162,
        1.3882217
      ],
      [
        103.8950666,
        1.3885012
      ],
      [
        103.8948315,
        1.3885837
      ],
      [
        103.8946698,
        1.3886403
      ],
      [
        103.8945863,
        1.3886696
      ],
      [
        103.8945058,
        1.3886978
      ],
      [
        103.8943992,
        1.3887355
      ],
      [
        103.8943382,
        1.3887568
      ],
      [
        103.8941234,
        1.3888319
      ],
      [
        103.8939306,
        1.3888995
      ],
      [
        103.8934365,
        1.3890727
      ],
      [
        103.8932002,
        1.3891555
      ],
      [
        103.8929981,
        1.3892264
      ],
      [
        103.8927104,
        1.3893272
      ],
      [
        103.8924419,
        1.3894213
      ],
      [
        103.8924036,
        1.3894348
      ],
      [
        103.8922561,
        1.3894885
      ],
      [
        103.8921906,
        1.3895068
      ],
      [
        103.8919753,
        1.3895821
      ],
      [
        103.8915532,
        1.3897298
      ],
      [
        103.8910936,
        1.3898906
      ],
      [
        103.890907,
        1.3899558
      ],
      [
        103.8903274,
        1.3901586
      ],
      [
        103.8902391,
        1.3901895
      ],
      [
        103.8900964,
        1.3902394
      ],
      [
        103.8898161,
        1.3903375
      ],
      [
        103.889537,
        1.3904332
      ],
      [
        103.8894901,
        1.3904492
      ],
      [
        103.889401,
        1.3904795
      ],
      [
        103.8891694,
        1.3905585
      ],
      [
        103.8883421,
        1.3908392
      ],
      [
        103.8879968,
        1.3909968
      ],
      [
        103.8879428,
        1.391019
      ],
      [
        103.8877836,
        1.3910969
      ],
      [
        103.8875331,
        1.3912195
      ],
      [
        103.8874114,
        1.3912774
      ],
      [
        103.8872833,
        1.3913387
      ],
      [
        103.8871383,
        1.391417
      ],
      [
        103.8869247,
        1.39153
      ],
      [
        103.8866735,
        1.391691
      ],
      [
        103.8866297,
        1.3917225
      ],
      [
        103.8865646,
        1.3917572
      ],
      [
        103.8866011,
        1.3918144
      ],
      [
        103.8866248,
        1.3918571
      ],
      [
        103.8866934,
        1.3919972
      ],
      [
        103.8868526,
        1.3923134
      ],
      [
        103.8869713,
        1.3925619
      ],
      [
        103.8870554,
        1.392746
      ],
      [
        103.8871657,
        1.3930234
      ],
      [
        103.8872319,
        1.3932252
      ],
      [
        103.8872776,
        1.3934543
      ],
      [
        103.8873041,
        1.3936709
      ],
      [
        103.8873172,
        1.3937777
      ],
      [
        103.8873333,
        1.393909
      ],
      [
        103.88736,
        1.3941267
      ],
      [
        103.8874044,
        1.3943861
      ],
      [
        103.8874182,
        1.3944671
      ],
      [
        103.8874306,
        1.3945946
      ],
      [
        103.8874401,
        1.3946662
      ],
      [
        103.8874651,
        1.3949116
      ],
      [
        103.8875301,
        1.3954945
      ],
      [
        103.8875498,
        1.3956911
      ],
      [
        103.887638,
        1.3962462
      ],
      [
        103.8876722,
        1.3965027
      ],
      [
        103.8876857,
        1.3967615
      ],
      [
        103.8877183,
        1.3970292
      ],
      [
        103.8877376,
        1.3972448
      ],
      [
        103.8877429,
        1.3973041
      ],
      [
        103.8877548,
        1.3974381
      ],
      [
        103.8878035,
        1.3974331
      ],
      [
        103.8878614,
        1.3974264
      ],
      [
        103.888025,
        1.3974067
      ],
      [
        103.8892784,
        1.3972357
      ],
      [
        103.8898073,
        1.3971636
      ],
      [
        103.8908314,
        1.3970324
      ],
      [
        103.8908932,
        1.3970226
      ],
      [
        103.8909546,
        1.3970133
      ],
      [
        103.891871,
        1.3968777
      ],
      [
        103.8922024,
        1.3968083
      ],
      [
        103.8924041,
        1.3967599
      ],
      [
        103.8926321,
        1.3967027
      ],
      [
        103.8927109,
        1.396682
      ],
      [
        103.8928752,
        1.3966361
      ],
      [
        103.8929388,
        1.3966183
      ],
      [
        103.893023,
        1.3965959
      ],
      [
        103.893192,
        1.3965442
      ],
      [
        103.893687,
        1.396398
      ],
      [
        103.8939431,
        1.3963144
      ],
      [
        103.894163,
        1.3962518
      ],
      [
        103.8943566,
        1.3962779
      ],
      [
        103.8944438,
        1.3963012
      ],
      [
        103.894536,
        1.3963644
      ],
      [
        103.8946606,
        1.3965011
      ],
      [
        103.8949338,
        1.3973244
      ],
      [
        103.8952871,
        1.3982594
      ],
      [
        103.8953742,
        1.3985043
      ],
      [
        103.8954605,
        1.3987239
      ],
      [
        103.8955228,
        1.3988702
      ],
      [
        103.8955871,
        1.3990491
      ],
      [
        103.8957106,
        1.399368
      ],
      [
        103.8957329,
        1.3994308
      ],
      [
        103.8957795,
        1.3995766
      ],
      [
        103.8959395,
        1.400063
      ],
      [
        103.896094,
        1.4004692
      ],
      [
        103.8962338,
        1.4004388
      ],
      [
        103.8963025,
        1.4004185
      ],
      [
        103.8966835,
        1.4003058
      ],
      [
        103.8977419,
        1.3999277
      ],
      [
        103.8980199,
        1.3998056
      ],
      [
        103.8991289,
        1.3994677
      ],
      [
        103.9000306,
        1.3991104
      ],
      [
        103.9006137,
        1.3988773
      ],
      [
        103.9014547,
        1.3984837
      ],
      [
        103.9022782,
        1.3980405
      ],
      [
        103.9025183,
        1.3979077
      ],
      [
        103.9032391,
        1.3975681
      ],
      [
        103.9034091,
        1.3974762
      ],
      [
        103.9036633,
        1.3973455
      ],
      [
        103.9037373,
        1.3972956
      ],
      [
        103.903827,
        1.397235
      ],
      [
        103.903889,
        1.3971932
      ],
      [
        103.9042112,
        1.3969641
      ],
      [
        103.9043574,
        1.3968283
      ],
      [
        103.9045343,
        1.3966667
      ],
      [
        103.904897,
        1.396363
      ],
      [
        103.9053372,
        1.3959463
      ],
      [
        103.9059416,
        1.3953595
      ],
      [
        103.9060462,
        1.3951853
      ],
      [
        103.9064441,
        1.3948354
      ],
      [
        103.9069777,
        1.3943434
      ],
      [
        103.907186,
        1.3941345
      ],
      [
        103.9082255,
        1.393071
      ],
      [
        103.9088331,
        1.3923736
      ],
      [
        103.9095217,
        1.3915719
      ],
      [
        103.9097173,
        1.391345
      ],
      [
        103.9097619,
        1.3912943
      ],
      [
        103.9100165,
        1.391
      ],
      [
        103.9105877,
        1.3903421
      ],
      [
        103.9111708,
        1.3896819
      ],
      [
        103.9121552,
        1.3885384
      ],
      [
        103.9129309,
        1.3876257
      ],
      [
        103.9131814,
        1.3873309
      ],
      [
        103.9137876,
        1.3866261
      ],
      [
        103.9144594,
        1.3858453
      ],
      [
        103.9148964,
        1.3853374
      ],
      [
        103.9151807,
        1.3850111
      ],
      [
        103.9158047,
        1.3842662
      ],
      [
        103.9164311,
        1.38358
      ],
      [
        103.9168516,
        1.3831384
      ],
      [
        103.9174174,
        1.3825638
      ],
      [
        103.9178167,
        1.3821509
      ],
      [
        103.9181936,
        1.3818229
      ],
      [
        103.9184251,
        1.3815926
      ],
      [
        103.9188484,
        1.3811631
      ],
      [
        103.9195864,
        1.3805479
      ],
      [
        103.920098,
        1.3801797
      ],
      [
        103.9202763,
        1.3800685
      ],
      [
        103.9204621,
        1.3799573
      ],
      [
        103.9207032,
        1.3798298
      ],
      [
        103.921643,
        1.3793294
      ],
      [
        103.9221225,
        1.3791235
      ],
      [
        103.9230225,
        1.3787723
      ],
      [
        103.9235173,
        1.3786074
      ],
      [
        103.9240149,
        1.3784639
      ],
      [
        103.9255255,
        1.378103
      ],
      [
        103.9271998,
        1.3776671
      ],
      [
        103.9281991,
        1.3773868
      ],
      [
        103.9284515,
        1.3773129
      ],
      [
        103.9286443,
        1.37724
      ],
      [
        103.9289696,
        1.3771195
      ],
      [
        103.9298737,
        1.3767586
      ],
      [
        103.9325906,
        1.3755471
      ],
      [
        103.9339019,
        1.3749402
      ],
      [
        103.9340251,
        1.3748832
      ],
      [
        103.9345615,
        1.374635
      ],
      [
        103.9352,
        1.3743183
      ],
      [
        103.935618,
        1.3740963
      ],
      [
        103.9365283,
        1.3735891
      ],
      [
        103.9367729,
        1.3734506
      ],
      [
        103.9371387,
        1.3732495
      ],
      [
        103.9378308,
        1.3728848
      ],
      [
        103.9382857,
        1.3726457
      ],
      [
        103.9398155,
        1.371846
      ],
      [
        103.9404033,
        1.3715124
      ],
      [
        103.9407685,
        1.3712637
      ],
      [
        103.9410621,
        1.371039
      ],
      [
        103.9414067,
        1.3707733
      ],
      [
        103.9423605,
        1.3699186
      ],
      [
        103.9432491,
        1.3691015
      ],
      [
        103.9434618,
        1.3689025
      ],
      [
        103.9438763,
        1.3685934
      ],
      [
        103.9443739,
        1.3682312
      ],
      [
        103.9450194,
        1.3678622
      ],
      [
        103.9455014,
        1.3676302
      ],
      [
        103.9460166,
        1.3674109
      ],
      [
        103.9465043,
        1.3672465
      ],
      [
        103.9469178,
        1.3671277
      ],
      [
        103.9482032,
        1.3668253
      ],
      [
        103.9488759,
        1.3666836
      ],
      [
        103.9502325,
        1.3663309
      ],
      [
        103.9518283,
        1.3659577
      ],
      [
        103.9530472,
        1.3656777
      ],
      [
        103.9535324,
        1.3655569
      ],
      [
        103.9539275,
        1.3654419
      ],
      [
        103.9542892,
        1.365333
      ],
      [
        103.9550121,
        1.3650936
      ],
      [
        103.9555101,
        1.3648914
      ],
      [
        103.9557234,
        1.3647909
      ],
      [
        103.9560777,
        1.3646315
      ],
      [
        103.9569525,
        1.3641658
      ],
      [
        103.9573426,
        1.3639045
      ],
      [
        103.9578858,
        1.3635575
      ],
      [
        103.958385,
        1.3632009
      ],
      [
        103.95884,
        1.3628489
      ],
      [
        103.9591999,
        1.3625376
      ],
      [
        103.9596666,
        1.3620994
      ],
      [
        103.9601747,
        1.3615756
      ],
      [
        103.9607304,
        1.3609144
      ],
      [
        103.9610532,
        1.360501
      ],
      [
        103.9613081,
        1.3601388
      ],
      [
        103.9616699,
        1.3596251
      ],
      [
        103.9619267,
        1.3592129
      ],
      [
        103.9621063,
        1.3589023
      ],
      [
        103.9622951,
        1.3585271
      ],
      [
        103.9625166,
        1.3580657
      ],
      [
        103.9627503,
        1.3576082
      ],
      [
        103.9630536,
        1.3567783
      ],
      [
        103.9635191,
        1.3552435
      ],
      [
        103.9637563,
        1.3544368
      ],
      [
        103.9645111,
        1.3518581
      ],
      [
        103.9647729,
        1.3510453
      ],
      [
        103.9649343,
        1.3505117
      ],
      [
        103.9650882,
        1.350093
      ],
      [
        103.9653199,
        1.3496146
      ],
      [
        103.9656346,
        1.349097
      ],
      [
        103.9658385,
        1.3488088
      ],
      [
        103.9660598,
        1.3485478
      ],
      [
        103.9661502,
        1.348448
      ],
      [
        103.9663469,
        1.348202
      ],
      [
        103.966543,
        1.3479569
      ],
      [
        103.9668746,
        1.3474938
      ],
      [
        103.9669992,
        1.3472961
      ],
      [
        103.9674825,
        1.3464242
      ],
      [
        103.9675341,
        1.3463038
      ],
      [
        103.9678689,
        1.3457337
      ],
      [
        103.9686521,
        1.3445261
      ],
      [
        103.9689668,
        1.3440441
      ],
      [
        103.9697463,
        1.3428501
      ],
      [
        103.9700547,
        1.3423385
      ],
      [
        103.9702368,
        1.3420974
      ],
      [
        103.9704223,
        1.341872
      ],
      [
        103.9705873,
        1.3416868
      ],
      [
        103.970736,
        1.3415273
      ],
      [
        103.9710248,
        1.341233
      ],
      [
        103.9712797,
        1.3410183
      ],
      [
        103.9716246,
        1.3407196
      ],
      [
        103.9718681,
        1.3405518
      ],
      [
        103.9721221,
        1.3403892
      ],
      [
        103.9723847,
        1.3402458
      ],
      [
        103.9726419,
        1.3401185
      ],
      [
        103.9730049,
        1.3399935
      ],
      [
        103.973321,
        1.3398744
      ],
      [
        103.9743118,
        1.3394555
      ],
      [
        103.9748282,
        1.3392327
      ],
      [
        103.9752471,
        1.3390687
      ],
      [
        103.975486,
        1.3389691
      ],
      [
        103.9759001,
        1.3388139
      ],
      [
        103.9770292,
        1.3383613
      ],
      [
        103.9776051,
        1.338123
      ],
      [
        103.9782726,
        1.3378417
      ],
      [
        103.9784461,
        1.3377732
      ],
      [
        103.9785762,
        1.3377396
      ],
      [
        103.9787242,
        1.3377079
      ],
      [
        103.9789003,
        1.3376923
      ],
      [
        103.9790791,
        1.3376997
      ],
      [
        103.97925,
        1.3377265
      ],
      [
        103.9793852,
        1.3377588
      ],
      [
        103.9795408,
        1.3378134
      ],
      [
        103.9796848,
        1.337876
      ],
      [
        103.9798149,
        1.3379478
      ],
      [
        103.9799351,
        1.3380325
      ],
      [
        103.9800631,
        1.3381376
      ],
      [
        103.9801598,
        1.3382449
      ],
      [
        103.9803,
        1.3384077
      ],
      [
        103.9804085,
        1.3385766
      ],
      [
        103.9805114,
        1.3387987
      ],
      [
        103.9808868,
        1.3394883
      ],
      [
        103.9810118,
        1.339789
      ],
      [
        103.9816423,
        1.341325
      ],
      [
        103.9825058,
        1.3433997
      ],
      [
        103.9830779,
        1.3447708
      ],
      [
        103.9833071,
        1.345301
      ],
      [
        103.9835087,
        1.3457672
      ],
      [
        103.9836896,
        1.3461857
      ],
      [
        103.9838875,
        1.3466434
      ],
      [
        103.9841235,
        1.3471893
      ],
      [
        103.9843717,
        1.3477702
      ],
      [
        103.9844805,
        1.3480252
      ],
      [
        103.9845715,
        1.3484084
      ],
      [
        103.9846273,
        1.348557
      ],
      [
        103.9846598,
        1.3486634
      ],
      [
        103.9846784,
        1.348734
      ],
      [
        103.9846908,
        1.3487956
      ],
      [
        103.984695,
        1.3488582
      ],
      [
        103.9846911,
        1.3489198
      ],
      [
        103.9846501,
        1.3491101
      ],
      [
        103.9846177,
        1.349418
      ],
      [
        103.9846147,
        1.3495125
      ],
      [
        103.9846191,
        1.3495803
      ],
      [
        103.9846337,
        1.3496523
      ],
      [
        103.984649,
        1.3497023
      ],
      [
        103.9847137,
        1.3498462
      ],
      [
        103.9847111,
        1.3499698
      ],
      [
        103.9847133,
        1.3500088
      ],
      [
        103.9847073,
        1.3500516
      ],
      [
        103.9846944,
        1.3500828
      ],
      [
        103.9846754,
        1.3501076
      ],
      [
        103.9846432,
        1.3501276
      ],
      [
        103.9844874,
        1.3501941
      ],
      [
        103.9843922,
        1.3502332
      ],
      [
        103.9843264,
        1.3502866
      ],
      [
        103.9843074,
        1.3503162
      ],
      [
        103.9842905,
        1.350373
      ],
      [
        103.9842856,
        1.3504354
      ],
      [
        103.9842627,
        1.350486
      ],
      [
        103.9842257,
        1.350525
      ],
      [
        103.9840569,
        1.3506243
      ],
      [
        103.984042,
        1.3506564
      ],
      [
        103.9840465,
        1.3506938
      ],
      [
        103.9844626,
        1.3517279
      ],
      [
        103.9847865,
        1.3525357
      ],
      [
        103.9851493,
        1.3533725
      ],
      [
        103.9855389,
        1.3543894
      ],
      [
        103.9860309,
        1.3556967
      ],
      [
        103.9866814,
        1.3571691
      ],
      [
        103.9874211,
        1.3588296
      ],
      [
        103.9880004,
        1.3601652
      ],
      [
        103.9883239,
        1.3606952
      ],
      [
        103.9883552,
        1.3607622
      ],
      [
        103.9883959,
        1.3608416
      ],
      [
        103.9890465,
        1.3619994
      ],
      [
        103.9890549,
        1.362015
      ],
      [
        103.9890682,
        1.3620228
      ],
      [
        103.9890817,
        1.3620232
      ],
      [
        103.9890993,
        1.3620176
      ],
      [
        103.9896441,
        1.3617907
      ],
      [
        103.9897436,
        1.3617492
      ],
      [
        103.9898358,
        1.3617108
      ],
      [
        103.9899345,
        1.3616698
      ],
      [
        103.9900368,
        1.3616271
      ],
      [
        103.9901292,
        1.3615887
      ],
      [
        103.9902309,
        1.3615463
      ],
      [
        103.9915192,
        1.3609899
      ],
      [
        103.9915825,
        1.3609272
      ],
      [
        103.9916029,
        1.3608519
      ],
      [
        103.9916085,
        1.3607988
      ],
      [
        103.9915945,
        1.3607067
      ],
      [
        103.9911278,
        1.3595203
      ],
      [
        103.9909125,
        1.3589878
      ],
      [
        103.9908908,
        1.3589383
      ],
      [
        103.9907796,
        1.3586805
      ],
      [
        103.990648,
        1.358375
      ],
      [
        103.9900256,
        1.3569366
      ],
      [
        103.9897002,
        1.3561908
      ],
      [
        103.9884758,
        1.3533123
      ],
      [
        103.9876919,
        1.3513695
      ],
      [
        103.9875825,
        1.3512851
      ],
      [
        103.9873976,
        1.3511412
      ],
      [
        103.9873105,
        1.3509761
      ],
      [
        103.9872273,
        1.3507784
      ],
      [
        103.9871762,
        1.3506461
      ],
      [
        103.9871118,
        1.3505629
      ],
      [
        103.9871039,
        1.3505566
      ],
      [
        103.9870615,
        1.3505227
      ],
      [
        103.9869925,
        1.3504992
      ],
      [
        103.9869066,
        1.3505026
      ],
      [
        103.9867302,
        1.3505725
      ],
      [
        103.9865291,
        1.35069
      ],
      [
        103.9864081,
        1.3507094
      ],
      [
        103.9863069,
        1.3506941
      ],
      [
        103.9862425,
        1.3506371
      ],
      [
        103.9859632,
        1.3499676
      ],
      [
        103.9859352,
        1.3499068
      ],
      [
        103.9858925,
        1.3498349
      ],
      [
        103.985846,
        1.3497718
      ],
      [
        103.9857823,
        1.3496843
      ],
      [
        103.985715,
        1.3496298
      ],
      [
        103.985638,
        1.3495713
      ],
      [
        103.9855757,
        1.3495257
      ],
      [
        103.985517,
        1.349481
      ],
      [
        103.9854629,
        1.3494399
      ],
      [
        103.9854141,
        1.3493956
      ],
      [
        103.9853489,
        1.3493268
      ],
      [
        103.9853007,
        1.3492584
      ],
      [
        103.985243,
        1.3491565
      ],
      [
        103.9851584,
        1.3489324
      ],
      [
        103.9851401,
        1.3487755
      ],
      [
        103.9850608,
        1.3485258
      ],
      [
        103.9849399,
        1.3482766
      ],
      [
        103.9849242,
        1.3482258
      ],
      [
        103.9849153,
        1.3481878
      ],
      [
        103.9848463,
        1.3477158
      ],
      [
        103.9847828,
        1.3475581
      ],
      [
        103.9847303,
        1.3474907
      ],
      [
        103.9846516,
        1.3473524
      ],
      [
        103.9845523,
        1.3472118
      ],
      [
        103.9845335,
        1.3471737
      ],
      [
        103.9845123,
        1.3471203
      ],
      [
        103.984491,
        1.3470505
      ],
      [
        103.9844714,
        1.3469893
      ],
      [
        103.9844458,
        1.3469194
      ],
      [
        103.9843385,
        1.3466727
      ],
      [
        103.9842423,
        1.3464691
      ],
      [
        103.9840572,
        1.3460244
      ],
      [
        103.9838887,
        1.3456114
      ],
      [
        103.9836969,
        1.3451415
      ],
      [
        103.9836782,
        1.3450957
      ],
      [
        103.9835371,
        1.3446949
      ],
      [
        103.9835069,
        1.344579
      ],
      [
        103.9834925,
        1.3444996
      ],
      [
        103.9834832,
        1.3444194
      ],
      [
        103.9834814,
        1.3443279
      ],
      [
        103.9834838,
        1.3442321
      ],
      [
        103.9834951,
        1.3439749
      ],
      [
        103.9835049,
        1.3438914
      ],
      [
        103.9835083,
        1.3438009
      ],
      [
        103.9835018,
        1.3437324
      ],
      [
        103.9834935,
        1.3436177
      ],
      [
        103.9834795,
        1.343534
      ],
      [
        103.9834429,
        1.3434183
      ],
      [
        103.9834225,
        1.3433524
      ],
      [
        103.9833883,
        1.3432788
      ],
      [
        103.9833386,
        1.3431891
      ],
      [
        103.9832581,
        1.3430421
      ],
      [
        103.9832262,
        1.3429567
      ],
      [
        103.9831602,
        1.3427335
      ],
      [
        103.9829753,
        1.3422286
      ],
      [
        103.9828322,
        1.3418825
      ],
      [
        103.9826638,
        1.3414743
      ],
      [
        103.9825548,
        1.3412638
      ],
      [
        103.982477,
        1.3411036
      ],
      [
        103.9823971,
        1.3409841
      ],
      [
        103.9823309,
        1.3408662
      ],
      [
        103.9822545,
        1.3406996
      ],
      [
        103.982206,
        1.3405871
      ],
      [
        103.9821837,
        1.3405111
      ],
      [
        103.9821709,
        1.340442
      ],
      [
        103.9821667,
        1.3403742
      ],
      [
        103.982175,
        1.3402996
      ],
      [
        103.9821924,
        1.3402274
      ],
      [
        103.9822273,
        1.3401498
      ],
      [
        103.9822665,
        1.3400881
      ],
      [
        103.9823149,
        1.3400306
      ],
      [
        103.9823995,
        1.3399705
      ],
      [
        103.9825393,
        1.3398926
      ],
      [
        103.9826663,
        1.3398248
      ],
      [
        103.9829557,
        1.339696
      ],
      [
        103.9829989,
        1.3396748
      ],
      [
        103.9830269,
        1.3396481
      ],
      [
        103.9830443,
        1.3396084
      ],
      [
        103.9830476,
        1.3395675
      ],
      [
        103.9830379,
        1.3395236
      ],
      [
        103.9829484,
        1.3392927
      ],
      [
        103.9826547,
        1.3385674
      ],
      [
        103.9823688,
        1.3379014
      ],
      [
        103.9822671,
        1.3376619
      ],
      [
        103.9822523,
        1.3376296
      ],
      [
        103.9822353,
        1.3376018
      ],
      [
        103.9822043,
        1.3375745
      ],
      [
        103.9821683,
        1.3375557
      ],
      [
        103.9821305,
        1.3375484
      ],
      [
        103.9820962,
        1.337547
      ],
      [
        103.9820583,
        1.3375619
      ],
      [
        103.9820207,
        1.3375958
      ],
      [
        103.9818976,
        1.3377428
      ],
      [
        103.9817553,
        1.3380916
      ],
      [
        103.9816741,
        1.3383101
      ],
      [
        103.981646,
        1.3385158
      ],
      [
        103.9816179,
        1.3386046
      ],
      [
        103.9815948,
        1.3386825
      ],
      [
        103.9815807,
        1.3387536
      ],
      [
        103.9815757,
        1.3387971
      ],
      [
        103.9815943,
        1.338924
      ],
      [
        103.981632,
        1.3389555
      ],
      [
        103.9816712,
        1.3389742
      ],
      [
        103.9817205,
        1.3389848
      ],
      [
        103.9817847,
        1.338989
      ],
      [
        103.9818523,
        1.3389696
      ],
      [
        103.9824628,
        1.3387
      ],
      [
        103.9825132,
        1.3386778
      ],
      [
        103.982566,
        1.3386545
      ],
      [
        103.9826024,
        1.3386385
      ],
      [
        103.9826292,
        1.3386116
      ],
      [
        103.9826547,
        1.3385674
      ],
      [
        103.9823688,
        1.3379014
      ],
      [
        103.9822671,
        1.3376619
      ],
      [
        103.9822523,
        1.3376296
      ],
      [
        103.9822353,
        1.3376018
      ],
      [
        103.9822043,
        1.3375745
      ],
      [
        103.9821683,
        1.3375557
      ],
      [
        103.9821305,
        1.3375484
      ],
      [
        103.9820962,
        1.337547
      ],
      [
        103.9820583,
        1.3375619
      ],
      [
        103.9820207,
        1.3375958
      ],
      [
        103.9818976,
        1.3377428
      ],
      [
        103.9817553,
        1.3380916
      ],
      [
        103.9816741,
        1.3383101
      ],
      [
        103.98155,
        1.3385778
      ],
      [
        103.981532,
        1.3386213
      ],
      [
        103.9815085,
        1.3386625
      ],
      [
        103.9814808,
        1.3387045
      ],
      [
        103.9814392,
        1.3387542
      ],
      [
        103.9814026,
        1.3387876
      ],
      [
        103.9813494,
        1.3388322
      ],
      [
        103.9813164,
        1.3388657
      ],
      [
        103.981267,
        1.3389322
      ],
      [
        103.9812484,
        1.3389967
      ],
      [
        103.9812462,
        1.3390546
      ],
      [
        103.9812535,
        1.3391283
      ],
      [
        103.9812899,
        1.3392253
      ],
      [
        103.9814607,
        1.3396497
      ],
      [
        103.9820892,
        1.3410573
      ],
      [
        103.9821698,
        1.341263
      ],
      [
        103.9827443,
        1.3426802
      ],
      [
        103.982937,
        1.3431617
      ],
      [
        103.9830528,
        1.3434437
      ],
      [
        103.9831066,
        1.3435698
      ],
      [
        103.9831317,
        1.3436178
      ],
      [
        103.9831555,
        1.3436459
      ],
      [
        103.9831858,
        1.3436727
      ],
      [
        103.9832985,
        1.3437541
      ],
      [
        103.9833465,
        1.3437927
      ],
      [
        103.9833737,
        1.3438248
      ],
      [
        103.9833924,
        1.3438692
      ],
      [
        103.9834013,
        1.3439128
      ],
      [
        103.983398,
        1.3439552
      ],
      [
        103.9833858,
        1.343995
      ],
      [
        103.9833632,
        1.3440325
      ],
      [
        103.9833326,
        1.3440621
      ],
      [
        103.9832911,
        1.3440837
      ],
      [
        103.9832523,
        1.3440924
      ],
      [
        103.9832146,
        1.3440924
      ],
      [
        103.9831755,
        1.3440831
      ],
      [
        103.9831436,
        1.3440654
      ],
      [
        103.9831195,
        1.3440407
      ],
      [
        103.9831035,
        1.3440091
      ],
      [
        103.9830422,
        1.3438636
      ],
      [
        103.9828791,
        1.3436699
      ],
      [
        103.9818634,
        1.3412807
      ],
      [
        103.981651,
        1.3407815
      ],
      [
        103.9815076,
        1.3403593
      ],
      [
        103.9814412,
        1.3401956
      ],
      [
        103.9812062,
        1.3396035
      ],
      [
        103.9811001,
        1.3393068
      ],
      [
        103.9810509,
        1.3391364
      ],
      [
        103.9810152,
        1.3390218
      ],
      [
        103.9810018,
        1.338909
      ],
      [
        103.9809987,
        1.3387725
      ],
      [
        103.9810118,
        1.3386218
      ],
      [
        103.9810271,
        1.3385369
      ],
      [
        103.9810512,
        1.3384428
      ],
      [
        103.9810862,
        1.3383636
      ],
      [
        103.981129,
        1.338285
      ],
      [
        103.9811902,
        1.338192
      ],
      [
        103.9812505,
        1.3381142
      ],
      [
        103.98141,
        1.3379304
      ],
      [
        103.9814609,
        1.3378606
      ],
      [
        103.9815009,
        1.3377855
      ],
      [
        103.9815225,
        1.3377102
      ],
      [
        103.9815348,
        1.3376307
      ],
      [
        103.9815325,
        1.3375253
      ],
      [
        103.9815135,
        1.3374087
      ],
      [
        103.981488,
        1.337319
      ],
      [
        103.9814469,
        1.3372178
      ],
      [
        103.9813982,
        1.3371248
      ],
      [
        103.9813383,
        1.337047
      ],
      [
        103.9812772,
        1.3369768
      ],
      [
        103.9811855,
        1.3368981
      ],
      [
        103.9810808,
        1.3368354
      ],
      [
        103.9809693,
        1.3367835
      ],
      [
        103.9808663,
        1.3367434
      ],
      [
        103.9807538,
        1.336717
      ],
      [
        103.9806395,
        1.3366999
      ],
      [
        103.9805331,
        1.3366964
      ],
      [
        103.980406,
        1.3367042
      ],
      [
        103.9803062,
        1.3367248
      ],
      [
        103.9802249,
        1.3367502
      ],
      [
        103.9796563,
        1.3369959
      ],
      [
        103.978563,
        1.3374591
      ],
      [
        103.977859,
        1.3377574
      ],
      [
        103.9774681,
        1.337923
      ],
      [
        103.9771803,
        1.3380449
      ],
      [
        103.9767763,
        1.3381941
      ],
      [
        103.9760811,
        1.3384805
      ],
      [
        103.9752577,
        1.3388441
      ],
      [
        103.9748247,
        1.3390272
      ],
      [
        103.973531,
        1.3395852
      ],
      [
        103.973006,
        1.3397823
      ],
      [
        103.9723253,
        1.3401095
      ],
      [
        103.9718691,
        1.340372
      ],
      [
        103.9713226,
        1.3407414
      ],
      [
        103.9708626,
        1.3411388
      ],
      [
        103.9703651,
        1.3416564
      ],
      [
        103.9699403,
        1.3422465
      ],
      [
        103.969532,
        1.3428858
      ],
      [
        103.968426,
        1.3446173
      ],
      [
        103.9680759,
        1.3451653
      ],
      [
        103.9680272,
        1.345198
      ],
      [
        103.9679883,
        1.3452396
      ],
      [
        103.9679582,
        1.3452711
      ],
      [
        103.9679254,
        1.3453121
      ],
      [
        103.9674754,
        1.3459349
      ],
      [
        103.9668815,
        1.3467811
      ],
      [
        103.9665637,
        1.3472533
      ],
      [
        103.9663419,
        1.3475451
      ],
      [
        103.96599,
        1.3479686
      ],
      [
        103.9657729,
        1.3482388
      ],
      [
        103.9655636,
        1.3485086
      ],
      [
        103.9653289,
        1.3488795
      ],
      [
        103.9651492,
        1.3492718
      ],
      [
        103.9650118,
        1.3496407
      ],
      [
        103.964883,
        1.3500826
      ],
      [
        103.9646482,
        1.3509747
      ],
      [
        103.9644033,
        1.3517994
      ],
      [
        103.9636241,
        1.3543164
      ],
      [
        103.9632943,
        1.355173
      ],
      [
        103.963157,
        1.3556395
      ],
      [
        103.9629761,
        1.3562872
      ],
      [
        103.9628834,
        1.3566033
      ],
      [
        103.962777,
        1.356896
      ],
      [
        103.962619,
        1.3572954
      ],
      [
        103.9625356,
        1.3574308
      ],
      [
        103.9624437,
        1.3576709
      ],
      [
        103.962363,
        1.3578977
      ],
      [
        103.9621478,
        1.358383
      ],
      [
        103.9617802,
        1.3591236
      ],
      [
        103.9615219,
        1.3595449
      ],
      [
        103.9612142,
        1.3600156
      ],
      [
        103.9609385,
        1.3603973
      ],
      [
        103.960588,
        1.3608474
      ],
      [
        103.9600737,
        1.3614473
      ],
      [
        103.9595564,
        1.3619778
      ],
      [
        103.95911,
        1.3623961
      ],
      [
        103.9587298,
        1.3627417
      ],
      [
        103.9583615,
        1.363017
      ],
      [
        103.9580894,
        1.3632265
      ],
      [
        103.9580404,
        1.3632597
      ],
      [
        103.9576255,
        1.3635411
      ],
      [
        103.9568537,
        1.3640154
      ],
      [
        103.9562614,
        1.3643455
      ],
      [
        103.9556831,
        1.3646273
      ],
      [
        103.9549879,
        1.3649257
      ],
      [
        103.9542429,
        1.3651816
      ],
      [
        103.9538734,
        1.3652912
      ],
      [
        103.9534936,
        1.3653942
      ],
      [
        103.9529598,
        1.3655351
      ],
      [
        103.9517858,
        1.3657988
      ],
      [
        103.9502073,
        1.3661901
      ],
      [
        103.948175,
        1.3666216
      ],
      [
        103.9480761,
        1.3666476
      ],
      [
        103.9465362,
        1.367052
      ],
      [
        103.9459377,
        1.3672806
      ],
      [
        103.9454349,
        1.3674921
      ],
      [
        103.9449507,
        1.3677261
      ],
      [
        103.9442925,
        1.3681062
      ],
      [
        103.9439424,
        1.3683344
      ],
      [
        103.9433236,
        1.3688193
      ],
      [
        103.9429017,
        1.3691774
      ],
      [
        103.9422522,
        1.3698104
      ],
      [
        103.94178,
        1.3702583
      ],
      [
        103.9415043,
        1.3704809
      ],
      [
        103.9410444,
        1.3708321
      ],
      [
        103.9408408,
        1.3710007
      ],
      [
        103.9406533,
        1.3711586
      ],
      [
        103.9403083,
        1.3713821
      ],
      [
        103.9397304,
        1.3717208
      ],
      [
        103.938235,
        1.3725084
      ],
      [
        103.937761,
        1.372767
      ],
      [
        103.9369396,
        1.3732044
      ],
      [
        103.9367453,
        1.3733078
      ],
      [
        103.9364642,
        1.3734602
      ],
      [
        103.9353865,
        1.3739896
      ],
      [
        103.9351026,
        1.3741643
      ],
      [
        103.9344912,
        1.3744979
      ],
      [
        103.9339528,
        1.374746
      ],
      [
        103.9338083,
        1.3748125
      ],
      [
        103.932526,
        1.3754033
      ],
      [
        103.9312177,
        1.376016
      ],
      [
        103.9307181,
        1.3762316
      ],
      [
        103.9298126,
        1.3766222
      ],
      [
        103.9292057,
        1.3768854
      ],
      [
        103.9285152,
        1.3771378
      ],
      [
        103.9280103,
        1.3772976
      ],
      [
        103.9270692,
        1.3775292
      ],
      [
        103.9263805,
        1.3776969
      ],
      [
        103.9254981,
        1.3779036
      ],
      [
        103.9253205,
        1.377948
      ],
      [
        103.9239857,
        1.3782818
      ],
      [
        103.9234629,
        1.3784317
      ],
      [
        103.9229582,
        1.3785939
      ],
      [
        103.9221235,
        1.3789247
      ],
      [
        103.9211569,
        1.3793547
      ],
      [
        103.9207979,
        1.3795144
      ],
      [
        103.9201725,
        1.3799206
      ],
      [
        103.9196522,
        1.3802798
      ],
      [
        103.9191613,
        1.380646
      ],
      [
        103.9186983,
        1.3810513
      ],
      [
        103.9182442,
        1.3814794
      ],
      [
        103.9176142,
        1.3821329
      ],
      [
        103.9172936,
        1.3824654
      ],
      [
        103.9170228,
        1.3827463
      ],
      [
        103.9162684,
        1.3835502
      ],
      [
        103.9157682,
        1.3840883
      ],
      [
        103.915611,
        1.3842652
      ],
      [
        103.9154081,
        1.3845112
      ],
      [
        103.9153042,
        1.3845903
      ],
      [
        103.9147823,
        1.3852145
      ],
      [
        103.9136991,
        1.3864621
      ],
      [
        103.9135644,
        1.3866089
      ],
      [
        103.9131012,
        1.3871591
      ],
      [
        103.9120339,
        1.3884268
      ],
      [
        103.9110405,
        1.3895717
      ],
      [
        103.9104724,
        1.3902349
      ],
      [
        103.909899,
        1.3908993
      ],
      [
        103.9096577,
        1.3911781
      ],
      [
        103.909613,
        1.3912297
      ],
      [
        103.9092962,
        1.3915956
      ],
      [
        103.9087831,
        1.3921882
      ],
      [
        103.908216,
        1.392829
      ],
      [
        103.9080994,
        1.3929608
      ],
      [
        103.9075785,
        1.3935099
      ],
      [
        103.9070647,
        1.3940278
      ],
      [
        103.9069809,
        1.3941117
      ],
      [
        103.9065351,
        1.3945025
      ],
      [
        103.9059969,
        1.3948781
      ],
      [
        103.9053947,
        1.3952863
      ],
      [
        103.9046957,
        1.3956738
      ],
      [
        103.9044304,
        1.3959232
      ],
      [
        103.904243,
        1.3960123
      ],
      [
        103.9038377,
        1.3962275
      ],
      [
        103.903496,
        1.3964491
      ],
      [
        103.9034385,
        1.3964837
      ],
      [
        103.9033475,
        1.3965386
      ],
      [
        103.9032687,
        1.3965885
      ],
      [
        103.9029184,
        1.39681
      ],
      [
        103.9025961,
        1.3970569
      ],
      [
        103.9018796,
        1.3975026
      ],
      [
        103.9010835,
        1.397913
      ],
      [
        103.9007885,
        1.3980693
      ],
      [
        103.9002612,
        1.3982749
      ],
      [
        103.8993273,
        1.398601
      ],
      [
        103.898992,
        1.3986987
      ],
      [
        103.8986216,
        1.3988075
      ],
      [
        103.898091,
        1.3989362
      ],
      [
        103.8971458,
        1.399134
      ],
      [
        103.896865,
        1.3991954
      ],
      [
        103.8967276,
        1.3992253
      ],
      [
        103.8965781,
        1.3992581
      ],
      [
        103.8963242,
        1.3993143
      ],
      [
        103.8962026,
        1.3992911
      ],
      [
        103.8960739,
        1.3992545
      ],
      [
        103.8959663,
        1.3991997
      ],
      [
        103.8958722,
        1.399144
      ],
      [
        103.8958054,
        1.3990884
      ],
      [
        103.8957154,
        1.399011
      ],
      [
        103.8950139,
        1.3970165
      ],
      [
        103.8949694,
        1.3968898
      ],
      [
        103.8949132,
        1.3967301
      ],
      [
        103.894881,
        1.3966384
      ],
      [
        103.8948336,
        1.3965037
      ],
      [
        103.8947091,
        1.3961498
      ],
      [
        103.8946892,
        1.396094
      ],
      [
        103.8946429,
        1.3959525
      ],
      [
        103.8944939,
        1.3960007
      ],
      [
        103.8943901,
        1.3960338
      ],
      [
        103.8941975,
        1.3960938
      ],
      [
        103.893855,
        1.3962005
      ],
      [
        103.8934821,
        1.3963153
      ],
      [
        103.8929921,
        1.3964733
      ],
      [
        103.8929077,
        1.3965048
      ],
      [
        103.892828,
        1.3965254
      ],
      [
        103.8923646,
        1.3966444
      ],
      [
        103.8918188,
        1.3967517
      ],
      [
        103.8913024,
        1.3968533
      ],
      [
        103.8909419,
        1.3969031
      ],
      [
        103.8908787,
        1.3969122
      ],
      [
        103.8908168,
        1.3969195
      ],
      [
        103.8905986,
        1.3969479
      ],
      [
        103.8903395,
        1.3969777
      ],
      [
        103.8891797,
        1.3971286
      ],
      [
        103.8887867,
        1.3971704
      ],
      [
        103.8885211,
        1.3971971
      ],
      [
        103.8881707,
        1.3972369
      ],
      [
        103.8880807,
        1.3972217
      ],
      [
        103.887989,
        1.3971938
      ],
      [
        103.8879035,
        1.3971359
      ],
      [
        103.887857,
        1.3970935
      ],
      [
        103.8878169,
        1.3970351
      ],
      [
        103.887776,
        1.3969613
      ],
      [
        103.8877208,
        1.3964769
      ],
      [
        103.8876349,
        1.395723
      ],
      [
        103.8876106,
        1.395536
      ],
      [
        103.8875744,
        1.3952089
      ],
      [
        103.8875368,
        1.3949048
      ],
      [
        103.8875075,
        1.3946604
      ],
      [
        103.8874987,
        1.3945867
      ],
      [
        103.88749,
        1.3944569
      ],
      [
        103.8874798,
        1.3943781
      ],
      [
        103.8874504,
        1.3941521
      ],
      [
        103.887396,
        1.3937167
      ],
      [
        103.8873479,
        1.3933613
      ],
      [
        103.8873189,
        1.3932103
      ],
      [
        103.8872452,
        1.3929648
      ],
      [
        103.8871238,
        1.3926791
      ],
      [
        103.8870302,
        1.39247
      ],
      [
        103.8869079,
        1.3922196
      ],
      [
        103.8868219,
        1.3920448
      ],
      [
        103.8868111,
        1.3919335
      ],
      [
        103.8868228,
        1.391823
      ],
      [
        103.8868757,
        1.391711
      ],
      [
        103.8869754,
        1.3915948
      ],
      [
        103.8879805,
        1.3911037
      ],
      [
        103.888023,
        1.3910854
      ],
      [
        103.8883406,
        1.390944
      ],
      [
        103.8887513,
        1.390795
      ],
      [
        103.8889038,
        1.3907416
      ],
      [
        103.8890538,
        1.39069
      ],
      [
        103.8892547,
        1.3906224
      ],
      [
        103.8894263,
        1.3905605
      ],
      [
        103.8895164,
        1.390528
      ],
      [
        103.8895637,
        1.390511
      ],
      [
        103.8898062,
        1.3904216
      ],
      [
        103.8902168,
        1.3902797
      ],
      [
        103.8906132,
        1.3901427
      ],
      [
        103.8907239,
        1.3901068
      ],
      [
        103.8908678,
        1.3900555
      ],
      [
        103.890938,
        1.3900304
      ],
      [
        103.8916055,
        1.3898016
      ],
      [
        103.8919985,
        1.3896661
      ],
      [
        103.8922042,
        1.3895952
      ],
      [
        103.8922236,
        1.3895885
      ],
      [
        103.8922834,
        1.3895679
      ],
      [
        103.8924302,
        1.3895136
      ],
      [
        103.8924687,
        1.3895005
      ],
      [
        103.8927027,
        1.3894209
      ],
      [
        103.8929929,
        1.389322
      ],
      [
        103.8933777,
        1.389191
      ],
      [
        103.8934277,
        1.389174
      ],
      [
        103.8937742,
        1.389056
      ],
      [
        103.8941881,
        1.388915
      ],
      [
        103.894372,
        1.3888488
      ],
      [
        103.8944304,
        1.3888278
      ],
      [
        103.8944479,
        1.3888204
      ],
      [
        103.8945345,
        1.3887894
      ],
      [
        103.894619,
        1.3887573
      ],
      [
        103.8946999,
        1.3887265
      ],
      [
        103.895045,
        1.3886243
      ],
      [
        103.8956456,
        1.3884109
      ],
      [
        103.8959889,
        1.3882889
      ],
      [
        103.8963116,
        1.3881742
      ],
      [
        103.8965408,
        1.3880928
      ],
      [
        103.8966216,
        1.3880641
      ],
      [
        103.8967075,
        1.3880336
      ],
      [
        103.8966859,
        1.3879599
      ],
      [
        103.8966695,
        1.3879086
      ],
      [
        103.8966104,
        1.3877234
      ],
      [
        103.8966041,
        1.3877029
      ],
      [
        103.8963716,
        1.3870021
      ],
      [
        103.8962876,
        1.386749
      ],
      [
        103.8962101,
        1.3865155
      ],
      [
        103.8960917,
        1.3861806
      ],
      [
        103.8960602,
        1.3861116
      ],
      [
        103.8959824,
        1.3859373
      ],
      [
        103.8958794,
        1.3857966
      ],
      [
        103.8958556,
        1.3857641
      ],
      [
        103.8957639,
        1.3856622
      ],
      [
        103.8957193,
        1.3857062
      ],
      [
        103.8956821,
        1.3857389
      ],
      [
        103.8955626,
        1.3858443
      ],
      [
        103.8955186,
        1.3858787
      ],
      [
        103.8954267,
        1.3859476
      ],
      [
        103.895219,
        1.386089
      ],
      [
        103.8949831,
        1.3862278
      ],
      [
        103.8947736,
        1.3863238
      ],
      [
        103.8945495,
        1.3864018
      ],
      [
        103.8944501,
        1.3864327
      ],
      [
        103.8941615,
        1.3865222
      ],
      [
        103.8939925,
        1.3864952
      ],
      [
        103.8939604,
        1.386484
      ],
      [
        103.8939174,
        1.3864523
      ],
      [
        103.8938369,
        1.3863611
      ],
      [
        103.8937905,
        1.3862923
      ],
      [
        103.8937113,
        1.3860251
      ],
      [
        103.8936513,
        1.3858189
      ],
      [
        103.8935883,
        1.3856046
      ],
      [
        103.8933048,
        1.3846404
      ],
      [
        103.8932513,
        1.384259
      ],
      [
        103.8932444,
        1.3841618
      ],
      [
        103.8931424,
        1.3841761
      ],
      [
        103.8930358,
        1.3841937
      ],
      [
        103.8929253,
        1.3842122
      ],
      [
        103.8927422,
        1.3842476
      ],
      [
        103.8926016,
        1.3842379
      ],
      [
        103.8924862,
        1.3841641
      ],
      [
        103.89226,
        1.3839155
      ],
      [
        103.8921913,
        1.3838027
      ],
      [
        103.8920445,
        1.3831358
      ]
    ]
  }
}