{
  "type": "Feature",
  "properties": {
    "relation": 12980664,
    "direction": "1",
    "fee": "yes",
    "from": "Kovan Station Exit C",
    "name": "Svc 113A (Kovan Station Exit C → Kovan Station Exit B)",
    "name:en": "Svc 113A (Kovan Station Exit C → Kovan Station Exit B)",
    "network": "Land Transport Authority",
    "network:short": "LTA",
    "network:wikidata": "Q3299279",
    "network:wikipedia": "en:Land Transport Authority",
    "operator": "SBS Transit",
    "operator:wikidata": "Q2661305",
    "operator:wikipedia": "en:SBS Transit",
    "public_transport:version": "2",
    "ref": "113A",
    "route": "bus",
    "to": "Kovan Station Exit B",
    "type": "route",
    "website": "https://www.sbstransit.com.sg/"
  },
  "geometry": {
    "type": "LineString",
    "coordinates": [
      [
        103.8858161,
        1.3607039
      ],
      [
        103.8852291,
        1.3602086
      ],
      [
        103.8850316,
        1.3600419
      ],
      [
        103.8848907,
        1.3599131
      ],
      [
        103.8840107,
        1.3590831
      ],
      [
        103.8837804,
        1.3588701
      ],
      [
        103.8836571,
        1.3587791
      ],
      [
        103.883589,
        1.3587212
      ],
      [
        103.8833123,
        1.3584455
      ],
      [
        103.8830521,
        1.3581866
      ],
      [
        103.8829768,
        1.3581091
      ],
      [
        103.883063,
        1.3580219
      ],
      [
        103.8832294,
        1.3578416
      ],
      [
        103.8832935,
        1.3578077
      ],
      [
        103.8834183,
        1.3576653
      ],
      [
        103.883594,
        1.3574757
      ],
      [
        103.8837102,
        1.3573362
      ],
      [
        103.8837571,
        1.3572966
      ],
      [
        103.8838171,
        1.3572573
      ],
      [
        103.8838899,
        1.3572277
      ],
      [
        103.8840038,
        1.3572139
      ],
      [
        103.884092,
        1.3572248
      ],
      [
        103.8841878,
        1.3572605
      ],
      [
        103.8844101,
        1.3573729
      ],
      [
        103.8846507,
        1.3574884
      ],
      [
        103.8847755,
        1.3575529
      ],
      [
        103.8849372,
        1.3576394
      ],
      [
        103.8851875,
        1.3577691
      ],
      [
        103.8851712,
        1.3578071
      ],
      [
        103.8851177,
        1.3579393
      ],
      [
        103.8851111,
        1.3580031
      ],
      [
        103.8851316,
        1.358034
      ],
      [
        103.8859001,
        1.3587166
      ],
      [
        103.8859452,
        1.3587243
      ],
      [
        103.8860019,
        1.3586835
      ],
      [
        103.8860517,
        1.358625
      ],
      [
        103.8862162,
        1.3584122
      ],
      [
        103.8862579,
        1.3583387
      ],
      [
        103.8862821,
        1.3582969
      ],
      [
        103.8863797,
        1.358324
      ],
      [
        103.8864425,
        1.3583451
      ],
      [
        103.8867983,
        1.3585306
      ],
      [
        103.8870414,
        1.358647
      ],
      [
        103.8871381,
        1.3586667
      ],
      [
        103.8872685,
        1.35873
      ],
      [
        103.8872975,
        1.3587439
      ],
      [
        103.8873415,
        1.3587891
      ],
      [
        103.8874064,
        1.3588208
      ],
      [
        103.8879952,
        1.3591078
      ],
      [
        103.8882127,
        1.3592158
      ],
      [
        103.8883235,
        1.3592708
      ],
      [
        103.8886843,
        1.3594525
      ],
      [
        103.8887636,
        1.3594903
      ],
      [
        103.8888285,
        1.3595214
      ],
      [
        103.8888513,
        1.3594708
      ],
      [
        103.8888747,
        1.3594255
      ],
      [
        103.8889096,
        1.3593578
      ],
      [
        103.8892702,
        1.3586299
      ],
      [
        103.8894264,
        1.3582883
      ],
      [
        103.8895785,
        1.3579243
      ],
      [
        103.8896701,
        1.3576409
      ],
      [
        103.8897212,
        1.3574221
      ],
      [
        103.8897423,
        1.3573274
      ],
      [
        103.8897862,
        1.3570722
      ],
      [
        103.889854,
        1.3566891
      ],
      [
        103.8900185,
        1.3557681
      ],
      [
        103.8900345,
        1.3556989
      ],
      [
        103.8900426,
        1.3555814
      ],
      [
        103.8900472,
        1.3554611
      ],
      [
        103.8900342,
        1.3550461
      ],
      [
        103.8899753,
        1.3546592
      ],
      [
        103.8899299,
        1.3545288
      ],
      [
        103.8898969,
        1.3544338
      ],
      [
        103.8896523,
        1.3536421
      ],
      [
        103.8895246,
        1.3532287
      ],
      [
        103.8894063,
        1.3528762
      ],
      [
        103.8893329,
        1.3526397
      ],
      [
        103.8893136,
        1.3525748
      ],
      [
        103.8892832,
        1.3524833
      ],
      [
        103.8891971,
        1.3524915
      ],
      [
        103.8891229,
        1.3524953
      ],
      [
        103.8890035,
        1.3524952
      ],
      [
        103.8889063,
        1.3524943
      ],
      [
        103.8886381,
        1.3524883
      ],
      [
        103.8883722,
        1.3524645
      ],
      [
        103.8880719,
        1.3524114
      ],
      [
        103.888029,
        1.3524013
      ],
      [
        103.8879143,
        1.3523744
      ],
      [
        103.8875774,
        1.352287
      ],
      [
        103.8865384,
        1.352018
      ],
      [
        103.8865161,
        1.3520122
      ],
      [
        103.8863507,
        1.3519629
      ],
      [
        103.8858972,
        1.3517856
      ],
      [
        103.8851355,
        1.3514733
      ],
      [
        103.8850785,
        1.3514507
      ],
      [
        103.8848309,
        1.3513397
      ],
      [
        103.8848002,
        1.351326
      ],
      [
        103.8846138,
        1.3512614
      ],
      [
        103.8845518,
        1.3512458
      ],
      [
        103.8843617,
        1.3511957
      ],
      [
        103.8841724,
        1.3511604
      ],
      [
        103.8841196,
        1.3511508
      ],
      [
        103.8840702,
        1.351144
      ],
      [
        103.8838433,
        1.3511119
      ],
      [
        103.8835523,
        1.351077
      ],
      [
        103.8831902,
        1.3510261
      ],
      [
        103.882802,
        1.3509865
      ],
      [
        103.8818847,
        1.3508631
      ],
      [
        103.881832,
        1.3508643
      ],
      [
        103.881807,
        1.3508648
      ],
      [
        103.8813992,
        1.3508739
      ],
      [
        103.8812114,
        1.3509007
      ],
      [
        103.8810505,
        1.3509356
      ],
      [
        103.8809286,
        1.350958
      ],
      [
        103.8807876,
        1.3509839
      ],
      [
        103.88083,
        1.3511393
      ],
      [
        103.8808388,
        1.3511817
      ],
      [
        103.8808546,
        1.3512584
      ],
      [
        103.8808892,
        1.3514364
      ],
      [
        103.8809315,
        1.3516319
      ],
      [
        103.8809423,
        1.3516928
      ],
      [
        103.8809326,
        1.3517255
      ],
      [
        103.8809303,
        1.3518321
      ],
      [
        103.8809186,
        1.3519213
      ],
      [
        103.8808963,
        1.351974
      ],
      [
        103.8808497,
        1.3520196
      ],
      [
        103.8808102,
        1.3520371
      ],
      [
        103.8807966,
        1.3520403
      ],
      [
        103.8807792,
        1.3520408
      ],
      [
        103.880714,
        1.352038
      ],
      [
        103.8806412,
        1.3520473
      ],
      [
        103.8801668,
        1.3519604
      ],
      [
        103.8800569,
        1.3519431
      ],
      [
        103.8799664,
        1.3519318
      ],
      [
        103.8799103,
        1.3519282
      ],
      [
        103.8798195,
        1.3519244
      ],
      [
        103.8797359,
        1.3519598
      ],
      [
        103.8796707,
        1.3520035
      ],
      [
        103.8794759,
        1.3522085
      ],
      [
        103.8794074,
        1.3522776
      ],
      [
        103.8793656,
        1.3523667
      ],
      [
        103.8793188,
        1.3524114
      ],
      [
        103.8792789,
        1.3524506
      ],
      [
        103.8791474,
        1.352578
      ],
      [
        103.8790214,
        1.3526879
      ],
      [
        103.8789476,
        1.3527255
      ],
      [
        103.8788698,
        1.3527697
      ],
      [
        103.8787827,
        1.3527885
      ],
      [
        103.8786781,
        1.3527979
      ],
      [
        103.8785828,
        1.3527858
      ],
      [
        103.8784742,
        1.3527416
      ],
      [
        103.8784214,
        1.3526976
      ],
      [
        103.8783857,
        1.3526678
      ],
      [
        103.8783066,
        1.3525887
      ],
      [
        103.878115,
        1.3521843
      ],
      [
        103.8780684,
        1.3520672
      ],
      [
        103.8780169,
        1.3519557
      ],
      [
        103.8780168,
        1.3519556
      ],
      [
        103.8779954,
        1.351909
      ],
      [
        103.8780471,
        1.3518942
      ],
      [
        103.8783215,
        1.3518158
      ],
      [
        103.878375,
        1.351791
      ],
      [
        103.8785721,
        1.3517132
      ],
      [
        103.8787572,
        1.3515804
      ],
      [
        103.8789476,
        1.3514317
      ],
      [
        103.8791307,
        1.3512782
      ],
      [
        103.8792098,
        1.3512272
      ],
      [
        103.8792795,
        1.3511923
      ],
      [
        103.8793815,
        1.3511669
      ],
      [
        103.8794753,
        1.3511548
      ],
      [
        103.8796785,
        1.3512024
      ],
      [
        103.8798086,
        1.3512171
      ],
      [
        103.879936,
        1.3512171
      ],
      [
        103.880018,
        1.3512151
      ],
      [
        103.8806991,
        1.3511608
      ],
      [
        103.8807958,
        1.3511449
      ],
      [
        103.88083,
        1.3511393
      ],
      [
        103.8809339,
        1.351121
      ],
      [
        103.8809589,
        1.3511166
      ],
      [
        103.881088,
        1.3510938
      ],
      [
        103.881249,
        1.3510643
      ],
      [
        103.881426,
        1.3510402
      ],
      [
        103.8817559,
        1.3510187
      ],
      [
        103.8827182,
        1.3511296
      ],
      [
        103.8827564,
        1.351134
      ],
      [
        103.8831211,
        1.3511742
      ],
      [
        103.8835154,
        1.3512413
      ],
      [
        103.8838131,
        1.3512788
      ],
      [
        103.8840177,
        1.3512996
      ],
      [
        103.8843335,
        1.3513619
      ],
      [
        103.8845776,
        1.351429
      ],
      [
        103.8847602,
        1.3514921
      ],
      [
        103.8848095,
        1.3515097
      ],
      [
        103.8849987,
        1.3515872
      ],
      [
        103.8852477,
        1.3516922
      ],
      [
        103.8853117,
        1.3517192
      ],
      [
        103.8856111,
        1.3518407
      ],
      [
        103.8857698,
        1.3519076
      ],
      [
        103.8859115,
        1.351964
      ],
      [
        103.886036,
        1.3520059
      ],
      [
        103.8861501,
        1.3520426
      ],
      [
        103.8863337,
        1.3520924
      ],
      [
        103.886499,
        1.3521318
      ],
      [
        103.8873948,
        1.3523413
      ],
      [
        103.8880155,
        1.3524869
      ],
      [
        103.8880673,
        1.3524991
      ],
      [
        103.8883515,
        1.3525568
      ],
      [
        103.8886401,
        1.3525881
      ],
      [
        103.8888756,
        1.3525985
      ],
      [
        103.8890159,
        1.3525943
      ],
      [
        103.8891415,
        1.3525929
      ],
      [
        103.8892253,
        1.3525843
      ],
      [
        103.8892479,
        1.3526601
      ],
      [
        103.8893315,
        1.3529094
      ],
      [
        103.8897351,
        1.3541265
      ],
      [
        103.8898395,
        1.3544412
      ],
      [
        103.8898761,
        1.3545471
      ],
      [
        103.88992,
        1.3546742
      ],
      [
        103.8899776,
        1.3550472
      ],
      [
        103.8899779,
        1.355461
      ],
      [
        103.8899753,
        1.35558
      ],
      [
        103.8899612,
        1.3556962
      ],
      [
        103.8899451,
        1.3557623
      ],
      [
        103.8897948,
        1.3566787
      ],
      [
        103.8897254,
        1.3570631
      ],
      [
        103.8897224,
        1.3570814
      ],
      [
        103.8896659,
        1.3573929
      ],
      [
        103.8895476,
        1.3578138
      ],
      [
        103.8895145,
        1.3578973
      ],
      [
        103.8893683,
        1.3582667
      ],
      [
        103.8892165,
        1.3585993
      ],
      [
        103.8888503,
        1.3593294
      ],
      [
        103.8888118,
        1.3593959
      ],
      [
        103.8887873,
        1.3594381
      ],
      [
        103.8887039,
        1.3593994
      ],
      [
        103.8882357,
        1.3591647
      ],
      [
        103.888023,
        1.3590581
      ],
      [
        103.8874264,
        1.3587766
      ],
      [
        103.88736,
        1.3587453
      ],
      [
        103.8872975,
        1.3587439
      ],
      [
        103.8872975,
        1.3587439
      ],
      [
        103.8872685,
        1.35873
      ],
      [
        103.8870703,
        1.3586013
      ],
      [
        103.8868299,
        1.3584753
      ],
      [
        103.8863996,
        1.3582689
      ],
      [
        103.8862495,
        1.3581839
      ],
      [
        103.885777,
        1.3579531
      ],
      [
        103.8856811,
        1.3579226
      ],
      [
        103.8855902,
        1.3578894
      ],
      [
        103.8854537,
        1.3578064
      ],
      [
        103.88533,
        1.3577405
      ],
      [
        103.8849702,
        1.3575775
      ],
      [
        103.8846767,
        1.3574333
      ],
      [
        103.8844341,
        1.357321
      ],
      [
        103.8841599,
        1.3571915
      ],
      [
        103.8840753,
        1.3571689
      ],
      [
        103.8839608,
        1.357163
      ],
      [
        103.8838729,
        1.3571783
      ],
      [
        103.8837603,
        1.3572276
      ],
      [
        103.883549,
        1.3574393
      ],
      [
        103.8832426,
        1.3577746
      ],
      [
        103.8832294,
        1.3578416
      ],
      [
        103.883063,
        1.3580219
      ],
      [
        103.8832294,
        1.3578416
      ],
      [
        103.8829768,
        1.3581091
      ],
      [
        103.8829299,
        1.3582967
      ],
      [
        103.8830473,
        1.3584245
      ],
      [
        103.8831578,
        1.3585295
      ],
      [
        103.8834675,
        1.358785
      ],
      [
        103.8839708,
        1.3592212
      ],
      [
        103.8843303,
        1.359582
      ],
      [
        103.8847769,
        1.3599984
      ],
      [
        103.885039,
        1.3602106
      ],
      [
        103.8853241,
        1.3604457
      ],
      [
        103.8855749,
        1.3606621
      ]
    ]
  }
}