{
  "type": "Feature",
  "properties": {
    "relation": 12980624,
    "direction": "1",
    "fee": "yes",
    "from": "Blk 504A Carpark",
    "name": "Svc 116A (Blk 504A Carpark → Serangoon Station Exit C/Blk 201)",
    "name:en": "Svc 116A (Blk 504A Carpark → Serangoon Station Exit C/Blk 201)",
    "network": "Land Transport Authority",
    "network:short": "LTA",
    "network:wikidata": "Q3299279",
    "network:wikipedia": "en:Land Transport Authority",
    "operator": "SBS Transit",
    "operator:wikidata": "Q2661305",
    "operator:wikipedia": "en:SBS Transit",
    "public_transport:version": "2",
    "ref": "116A",
    "route": "bus",
    "to": "Serangoon Station Exit C/Blk 201",
    "type": "route",
    "website": "https://www.sbstransit.com.sg/"
  },
  "geometry": {
    "type": "LineString",
    "coordinates": [
      [
        103.8754462,
        1.3743115
      ],
      [
        103.8754058,
        1.3735885
      ],
      [
        103.8754005,
        1.373444
      ],
      [
        103.8753915,
        1.3732751
      ],
      [
        103.8753952,
        1.3728801
      ],
      [
        103.8753789,
        1.3726082
      ],
      [
        103.8753573,
        1.3725262
      ],
      [
        103.8753331,
        1.3724623
      ],
      [
        103.8753007,
        1.3723959
      ],
      [
        103.8752139,
        1.3723003
      ],
      [
        103.8751353,
        1.3722457
      ],
      [
        103.8750337,
        1.372198
      ],
      [
        103.8749289,
        1.3721799
      ],
      [
        103.8745109,
        1.3722003
      ],
      [
        103.8742616,
        1.3722132
      ],
      [
        103.8740603,
        1.3722222
      ],
      [
        103.8739783,
        1.3722384
      ],
      [
        103.8739022,
        1.3722705
      ],
      [
        103.8738459,
        1.3723046
      ],
      [
        103.8738034,
        1.3723408
      ],
      [
        103.873754,
        1.3723886
      ],
      [
        103.8737068,
        1.372457
      ],
      [
        103.873675,
        1.3725206
      ],
      [
        103.8736502,
        1.372598
      ],
      [
        103.8736369,
        1.3726808
      ],
      [
        103.8736393,
        1.3727544
      ],
      [
        103.8736537,
        1.3730525
      ],
      [
        103.8736548,
        1.3731906
      ],
      [
        103.873644,
        1.3732629
      ],
      [
        103.8736258,
        1.3733086
      ],
      [
        103.8736003,
        1.3733976
      ],
      [
        103.8729578,
        1.3736085
      ],
      [
        103.8732306,
        1.373602
      ],
      [
        103.8733019,
        1.3735959
      ],
      [
        103.873366,
        1.3735795
      ],
      [
        103.8734453,
        1.3735428
      ],
      [
        103.8735057,
        1.3735014
      ],
      [
        103.8735563,
        1.3734584
      ],
      [
        103.8736003,
        1.3733976
      ],
      [
        103.8728944,
        1.373612
      ],
      [
        103.8727262,
        1.3736115
      ],
      [
        103.8725889,
        1.373602
      ],
      [
        103.8725037,
        1.3735953
      ],
      [
        103.872436,
        1.3735779
      ],
      [
        103.8722945,
        1.3735081
      ],
      [
        103.8721962,
        1.373439
      ],
      [
        103.8721584,
        1.3734304
      ],
      [
        103.8721584,
        1.3734304
      ],
      [
        103.8716826,
        1.3730613
      ],
      [
        103.8719639,
        1.3732976
      ],
      [
        103.8717708,
        1.3729048
      ],
      [
        103.8718942,
        1.37276
      ],
      [
        103.8720135,
        1.3726099
      ],
      [
        103.8720095,
        1.3723565
      ],
      [
        103.8719907,
        1.372275
      ],
      [
        103.8719465,
        1.3720836
      ],
      [
        103.8718861,
        1.3718671
      ],
      [
        103.871868,
        1.371786
      ],
      [
        103.8718163,
        1.371555
      ],
      [
        103.8718526,
        1.3714222
      ],
      [
        103.8718689,
        1.3713838
      ],
      [
        103.8718878,
        1.3713394
      ],
      [
        103.8719331,
        1.3712825
      ],
      [
        103.8721561,
        1.3711524
      ],
      [
        103.8728182,
        1.3709902
      ],
      [
        103.8732697,
        1.3708747
      ],
      [
        103.8740967,
        1.3706611
      ],
      [
        103.8742016,
        1.3706456
      ],
      [
        103.8744398,
        1.3706103
      ],
      [
        103.8748333,
        1.3705113
      ],
      [
        103.8751378,
        1.37044
      ],
      [
        103.8753301,
        1.3703869
      ],
      [
        103.8756773,
        1.3702889
      ],
      [
        103.8760825,
        1.3701594
      ],
      [
        103.8762631,
        1.3701047
      ],
      [
        103.8762756,
        1.3701009
      ],
      [
        103.8763606,
        1.3700752
      ],
      [
        103.8765086,
        1.3700358
      ],
      [
        103.8764775,
        1.3698446
      ],
      [
        103.8764134,
        1.369493
      ],
      [
        103.8763601,
        1.3692507
      ],
      [
        103.8763454,
        1.3692002
      ],
      [
        103.8762811,
        1.3689804
      ],
      [
        103.8762356,
        1.3688227
      ],
      [
        103.8762129,
        1.3687368
      ],
      [
        103.8760887,
        1.368266
      ],
      [
        103.8760171,
        1.3680911
      ],
      [
        103.8759191,
        1.3678517
      ],
      [
        103.8759007,
        1.3678114
      ],
      [
        103.8757102,
        1.3673927
      ],
      [
        103.8756743,
        1.367311
      ],
      [
        103.8755255,
        1.3669729
      ],
      [
        103.875479,
        1.3668673
      ],
      [
        103.8753438,
        1.3665601
      ],
      [
        103.8752209,
        1.3662807
      ],
      [
        103.8751155,
        1.3660309
      ],
      [
        103.8749267,
        1.3656392
      ],
      [
        103.8744017,
        1.3645225
      ],
      [
        103.8743182,
        1.3643507
      ],
      [
        103.8741313,
        1.3639661
      ],
      [
        103.8740519,
        1.3638314
      ],
      [
        103.874024,
        1.3637744
      ],
      [
        103.8739726,
        1.3636801
      ],
      [
        103.873915,
        1.3635748
      ],
      [
        103.8737425,
        1.3632592
      ],
      [
        103.8736148,
        1.3630304
      ],
      [
        103.8735234,
        1.3628832
      ],
      [
        103.8734559,
        1.3627607
      ],
      [
        103.8734005,
        1.3626002
      ],
      [
        103.8733718,
        1.3624141
      ],
      [
        103.8733687,
        1.3623438
      ],
      [
        103.8733653,
        1.3622528
      ],
      [
        103.8733655,
        1.3622102
      ],
      [
        103.8733689,
        1.3620773
      ],
      [
        103.8733889,
        1.3619227
      ],
      [
        103.8734552,
        1.3616362
      ],
      [
        103.873496,
        1.3614947
      ],
      [
        103.8736009,
        1.3611118
      ],
      [
        103.8736084,
        1.3610859
      ],
      [
        103.8736679,
        1.360819
      ],
      [
        103.8736778,
        1.3607739
      ],
      [
        103.8737446,
        1.3604734
      ],
      [
        103.8737616,
        1.3603803
      ],
      [
        103.873913,
        1.3597183
      ],
      [
        103.87401,
        1.3593194
      ],
      [
        103.8741016,
        1.358973
      ],
      [
        103.8741624,
        1.3586926
      ],
      [
        103.8741787,
        1.3586187
      ],
      [
        103.8742052,
        1.358399
      ],
      [
        103.8742048,
        1.3582824
      ],
      [
        103.8741983,
        1.3582153
      ],
      [
        103.8741773,
        1.3579991
      ],
      [
        103.8741546,
        1.3577647
      ],
      [
        103.8741154,
        1.3573164
      ],
      [
        103.8740841,
        1.3570799
      ],
      [
        103.8740683,
        1.3569957
      ],
      [
        103.8740033,
        1.356643
      ],
      [
        103.8739317,
        1.3563613
      ],
      [
        103.8738953,
        1.3562556
      ],
      [
        103.8737945,
        1.3560351
      ],
      [
        103.8736041,
        1.3556795
      ],
      [
        103.8735732,
        1.3556228
      ],
      [
        103.8735038,
        1.3554911
      ],
      [
        103.8734713,
        1.3554211
      ],
      [
        103.8733303,
        1.355146
      ],
      [
        103.873163,
        1.3547847
      ],
      [
        103.8731012,
        1.3545664
      ],
      [
        103.8730408,
        1.3542392
      ],
      [
        103.8729262,
        1.3538382
      ],
      [
        103.8728906,
        1.3537108
      ],
      [
        103.8728338,
        1.3534606
      ],
      [
        103.872732,
        1.3527019
      ],
      [
        103.8727231,
        1.3526348
      ],
      [
        103.8726964,
        1.3524035
      ],
      [
        103.8726811,
        1.3522707
      ],
      [
        103.8726648,
        1.3519173
      ],
      [
        103.8726814,
        1.3517302
      ],
      [
        103.8727079,
        1.3516249
      ],
      [
        103.872741,
        1.3515319
      ],
      [
        103.8728051,
        1.3514011
      ],
      [
        103.8728756,
        1.3512964
      ],
      [
        103.8729208,
        1.3512267
      ],
      [
        103.8729804,
        1.3511473
      ],
      [
        103.8731549,
        1.3509147
      ],
      [
        103.8732229,
        1.3508262
      ],
      [
        103.8735912,
        1.3503872
      ]
    ]
  }
}