{
  "type": "Feature",
  "properties": {
    "relation": 1153145,
    "direction": "1",
    "fee": "yes",
    "from": "Punggol Interchange",
    "name": "Svc 119 (Punggol Interchange ↺ Hougang St 21)",
    "name:en": "Svc 119 (Punggol Interchange ↺ Hougang St 21)",
    "network": "Land Transport Authority",
    "network:short": "LTA",
    "network:wikidata": "Q3299279",
    "network:wikipedia": "en:Land Transport Authority",
    "operator": "Go-Ahead Singapore",
    "operator:wikidata": "Q24698874",
    "operator:wikipedia": "en:Go-Ahead Singapore",
    "public_transport:version": "2",
    "ref": "119",
    "roundtrip": "yes",
    "route": "bus",
    "to": "Punggol Interchange",
    "type": "route",
    "website": "https://go-aheadsingapore.com/bus-services/"
  },
  "geometry": {
    "type": "LineString",
    "coordinates": [
      [
        103.9026277,
        1.4033195
      ],
      [
        103.9024746,
        1.4034101
      ],
      [
        103.9023181,
        1.4034969
      ],
      [
        103.9022789,
        1.4035419
      ],
      [
        103.9022574,
        1.4035923
      ],
      [
        103.9022324,
        1.4036635
      ],
      [
        103.9022109,
        1.4037547
      ],
      [
        103.9022109,
        1.403819
      ],
      [
        103.9024009,
        1.4041775
      ],
      [
        103.9026193,
        1.4045984
      ],
      [
        103.9026671,
        1.4046228
      ],
      [
        103.9028788,
        1.4044948
      ],
      [
        103.9030541,
        1.4043904
      ],
      [
        103.9032301,
        1.4042818
      ],
      [
        103.9032565,
        1.4041477
      ],
      [
        103.9028245,
        1.4033906
      ],
      [
        103.9027784,
        1.403318
      ],
      [
        103.9029504,
        1.4032212
      ],
      [
        103.9030205,
        1.4031773
      ],
      [
        103.9031037,
        1.4031252
      ],
      [
        103.9030591,
        1.403051
      ],
      [
        103.9030087,
        1.4029672
      ],
      [
        103.9026624,
        1.4023914
      ],
      [
        103.9025116,
        1.4021538
      ],
      [
        103.9022905,
        1.4018145
      ],
      [
        103.9021388,
        1.4015483
      ],
      [
        103.902118,
        1.4015093
      ],
      [
        103.9020482,
        1.4013861
      ],
      [
        103.9019601,
        1.4014232
      ],
      [
        103.9019099,
        1.4014478
      ],
      [
        103.9017254,
        1.4015364
      ],
      [
        103.9009057,
        1.4019234
      ],
      [
        103.9007197,
        1.402011
      ],
      [
        103.9003584,
        1.4021475
      ],
      [
        103.9000663,
        1.4022556
      ],
      [
        103.899886,
        1.4023202
      ],
      [
        103.8997903,
        1.4023544
      ],
      [
        103.8995238,
        1.4024457
      ],
      [
        103.8994616,
        1.4024678
      ],
      [
        103.8993805,
        1.4024966
      ],
      [
        103.8993319,
        1.4025138
      ],
      [
        103.8990886,
        1.4026042
      ],
      [
        103.8982947,
        1.4028573
      ],
      [
        103.8981883,
        1.4028912
      ],
      [
        103.89775,
        1.4030329
      ],
      [
        103.8976461,
        1.4030654
      ],
      [
        103.8973869,
        1.403137
      ],
      [
        103.8971187,
        1.4031745
      ],
      [
        103.8970294,
        1.403175
      ],
      [
        103.8969563,
        1.4031471
      ],
      [
        103.8968717,
        1.4031005
      ],
      [
        103.8967898,
        1.4029922
      ],
      [
        103.8966328,
        1.4020675
      ],
      [
        103.8965874,
        1.4017879
      ],
      [
        103.8964918,
        1.4012468
      ],
      [
        103.8964498,
        1.4010544
      ],
      [
        103.896421,
        1.4009044
      ],
      [
        103.8962584,
        1.4005
      ],
      [
        103.8962338,
        1.4004388
      ],
      [
        103.8960573,
        1.3999934
      ],
      [
        103.8959023,
        1.39955
      ],
      [
        103.8958549,
        1.3994124
      ],
      [
        103.8958309,
        1.3993453
      ],
      [
        103.8957317,
        1.3990551
      ],
      [
        103.8957154,
        1.399011
      ],
      [
        103.8950139,
        1.3970165
      ],
      [
        103.8949694,
        1.3968898
      ],
      [
        103.8949132,
        1.3967301
      ],
      [
        103.894881,
        1.3966384
      ],
      [
        103.8948336,
        1.3965037
      ],
      [
        103.8947091,
        1.3961498
      ],
      [
        103.8946892,
        1.396094
      ],
      [
        103.8946429,
        1.3959525
      ],
      [
        103.8946108,
        1.3958804
      ],
      [
        103.8945288,
        1.3956358
      ],
      [
        103.8944401,
        1.3953898
      ],
      [
        103.8943843,
        1.3952348
      ],
      [
        103.894244,
        1.3948317
      ],
      [
        103.8940895,
        1.3944018
      ],
      [
        103.8939848,
        1.3940855
      ],
      [
        103.8938566,
        1.3937252
      ],
      [
        103.8938704,
        1.3935968
      ],
      [
        103.8939133,
        1.3934775
      ],
      [
        103.8939704,
        1.3933783
      ],
      [
        103.8940561,
        1.393277
      ],
      [
        103.894466,
        1.3931388
      ],
      [
        103.8946608,
        1.3930745
      ],
      [
        103.8948325,
        1.3930152
      ],
      [
        103.8948715,
        1.3930021
      ],
      [
        103.895303,
        1.3928579
      ],
      [
        103.8955297,
        1.3927751
      ],
      [
        103.8960032,
        1.3926038
      ],
      [
        103.8969085,
        1.3922771
      ],
      [
        103.8973925,
        1.3920957
      ],
      [
        103.8975752,
        1.3920347
      ],
      [
        103.8976766,
        1.3919983
      ],
      [
        103.8978799,
        1.3919192
      ],
      [
        103.8979284,
        1.3919003
      ],
      [
        103.8980218,
        1.3918661
      ],
      [
        103.8981186,
        1.3918307
      ],
      [
        103.8983144,
        1.3917592
      ],
      [
        103.8992217,
        1.3914416
      ],
      [
        103.8996657,
        1.3912782
      ],
      [
        103.8999054,
        1.3912123
      ],
      [
        103.9002789,
        1.3911259
      ],
      [
        103.9007865,
        1.391102
      ],
      [
        103.9010239,
        1.3910934
      ],
      [
        103.9013951,
        1.3910701
      ],
      [
        103.9014304,
        1.391069
      ],
      [
        103.9015477,
        1.391069
      ],
      [
        103.9015862,
        1.3910695
      ],
      [
        103.9018202,
        1.3910639
      ],
      [
        103.9019713,
        1.3910448
      ],
      [
        103.9020891,
        1.3910299
      ],
      [
        103.9025082,
        1.390954
      ],
      [
        103.9027012,
        1.390879
      ],
      [
        103.9028762,
        1.390811
      ],
      [
        103.9030593,
        1.3907415
      ],
      [
        103.9030975,
        1.390727
      ],
      [
        103.9031339,
        1.3907074
      ],
      [
        103.9035268,
        1.3904964
      ],
      [
        103.904143,
        1.3901313
      ],
      [
        103.9043476,
        1.390019
      ],
      [
        103.9044056,
        1.3899805
      ],
      [
        103.9045581,
        1.389885
      ],
      [
        103.9050891,
        1.3894736
      ],
      [
        103.9053493,
        1.3892565
      ],
      [
        103.9055419,
        1.3890965
      ],
      [
        103.9056777,
        1.3889761
      ],
      [
        103.9058389,
        1.3888444
      ],
      [
        103.9060125,
        1.3887008
      ],
      [
        103.9060385,
        1.3886771
      ],
      [
        103.9061196,
        1.3885868
      ],
      [
        103.9060275,
        1.3885107
      ],
      [
        103.9059877,
        1.3884765
      ],
      [
        103.9058829,
        1.3883854
      ],
      [
        103.9058209,
        1.3883316
      ],
      [
        103.9055935,
        1.3881018
      ],
      [
        103.9054386,
        1.3879359
      ],
      [
        103.9052501,
        1.3877385
      ],
      [
        103.9047318,
        1.3873278
      ],
      [
        103.904707,
        1.3873081
      ],
      [
        103.9045827,
        1.3872123
      ],
      [
        103.9042738,
        1.3869743
      ],
      [
        103.9040078,
        1.3867364
      ],
      [
        103.9039237,
        1.386637
      ],
      [
        103.9037248,
        1.3863924
      ],
      [
        103.9036227,
        1.3862508
      ],
      [
        103.9033372,
        1.3858359
      ],
      [
        103.9032063,
        1.3856287
      ],
      [
        103.903176,
        1.3855808
      ],
      [
        103.9031449,
        1.3855266
      ],
      [
        103.9031124,
        1.3854673
      ],
      [
        103.9029149,
        1.3851073
      ],
      [
        103.9028344,
        1.3849627
      ],
      [
        103.9026474,
        1.3846268
      ],
      [
        103.9023963,
        1.3841418
      ],
      [
        103.9020171,
        1.383485
      ],
      [
        103.9019231,
        1.383083
      ],
      [
        103.9018735,
        1.3826553
      ],
      [
        103.9018357,
        1.3822188
      ],
      [
        103.9018049,
        1.3819333
      ],
      [
        103.9017815,
        1.3816885
      ],
      [
        103.9017745,
        1.3816153
      ],
      [
        103.9017694,
        1.3815025
      ],
      [
        103.901675,
        1.3814885
      ],
      [
        103.9015994,
        1.3814747
      ],
      [
        103.9012684,
        1.3814144
      ],
      [
        103.9012174,
        1.3814009
      ],
      [
        103.9011464,
        1.3813875
      ],
      [
        103.9010441,
        1.3813852
      ],
      [
        103.9009047,
        1.3814036
      ],
      [
        103.9006561,
        1.3814556
      ],
      [
        103.900566,
        1.3814823
      ],
      [
        103.900406,
        1.3815297
      ],
      [
        103.9000546,
        1.3816426
      ],
      [
        103.8998917,
        1.3817344
      ],
      [
        103.8998306,
        1.3817655
      ],
      [
        103.8997198,
        1.3818471
      ],
      [
        103.8996132,
        1.3819245
      ],
      [
        103.8991628,
        1.3823013
      ],
      [
        103.8989839,
        1.3824547
      ],
      [
        103.8986598,
        1.3827389
      ],
      [
        103.8985407,
        1.3827574
      ],
      [
        103.8984529,
        1.3827623
      ],
      [
        103.898433,
        1.3827634
      ],
      [
        103.8983613,
        1.3827581
      ],
      [
        103.8982424,
        1.3827351
      ],
      [
        103.8980517,
        1.3825886
      ],
      [
        103.8978202,
        1.3823592
      ],
      [
        103.8976238,
        1.3820823
      ],
      [
        103.8974704,
        1.3818122
      ],
      [
        103.897466,
        1.3818
      ],
      [
        103.8974055,
        1.3816305
      ],
      [
        103.8973696,
        1.3815024
      ],
      [
        103.8972688,
        1.3810848
      ],
      [
        103.8972045,
        1.3808499
      ],
      [
        103.8971555,
        1.3806711
      ],
      [
        103.8970995,
        1.3804104
      ],
      [
        103.8970091,
        1.3799782
      ],
      [
        103.897001,
        1.3798738
      ],
      [
        103.8969693,
        1.3795147
      ],
      [
        103.8969648,
        1.3794641
      ],
      [
        103.8969375,
        1.3793138
      ],
      [
        103.8969281,
        1.3792565
      ],
      [
        103.8969003,
        1.3790861
      ],
      [
        103.8968399,
        1.3786483
      ],
      [
        103.8968103,
        1.3783047
      ],
      [
        103.8967984,
        1.3781432
      ],
      [
        103.8967844,
        1.3774866
      ],
      [
        103.8967299,
        1.3771887
      ],
      [
        103.8964592,
        1.3766457
      ],
      [
        103.8964378,
        1.3764507
      ],
      [
        103.8964459,
        1.3763903
      ],
      [
        103.8964646,
        1.3763112
      ],
      [
        103.8965252,
        1.3761802
      ],
      [
        103.8967878,
        1.3759328
      ],
      [
        103.8972461,
        1.3754418
      ],
      [
        103.8975254,
        1.3751188
      ],
      [
        103.8977591,
        1.3749013
      ],
      [
        103.8982668,
        1.3745075
      ],
      [
        103.8986796,
        1.3742241
      ],
      [
        103.8989658,
        1.3740176
      ],
      [
        103.8990313,
        1.3739718
      ],
      [
        103.8991308,
        1.3738893
      ],
      [
        103.8992772,
        1.3737336
      ],
      [
        103.8993437,
        1.3736765
      ],
      [
        103.8994537,
        1.3736129
      ],
      [
        103.8993783,
        1.3735276
      ],
      [
        103.8993446,
        1.3734971
      ],
      [
        103.8991252,
        1.3732989
      ],
      [
        103.899092,
        1.3732689
      ],
      [
        103.8987849,
        1.3729989
      ],
      [
        103.8982129,
        1.3724958
      ],
      [
        103.8981806,
        1.3724625
      ],
      [
        103.8979827,
        1.37228
      ],
      [
        103.8978116,
        1.3721239
      ],
      [
        103.8973492,
        1.3717087
      ],
      [
        103.8969759,
        1.3713773
      ],
      [
        103.8969121,
        1.3713176
      ],
      [
        103.8968376,
        1.3712479
      ],
      [
        103.8965088,
        1.3709474
      ],
      [
        103.8963562,
        1.3708019
      ],
      [
        103.8959697,
        1.3704358
      ],
      [
        103.8958983,
        1.370369
      ],
      [
        103.8957946,
        1.3702681
      ],
      [
        103.8953331,
        1.3698275
      ],
      [
        103.8952364,
        1.3697352
      ],
      [
        103.8951416,
        1.3696446
      ],
      [
        103.8949761,
        1.3694866
      ],
      [
        103.894775,
        1.3692946
      ],
      [
        103.8947538,
        1.3692746
      ],
      [
        103.8947125,
        1.3692363
      ],
      [
        103.8946465,
        1.3691787
      ],
      [
        103.8946095,
        1.3691452
      ],
      [
        103.8944354,
        1.3689867
      ],
      [
        103.8941807,
        1.3687566
      ],
      [
        103.894012,
        1.3686011
      ],
      [
        103.8937421,
        1.368333
      ],
      [
        103.8932042,
        1.3677805
      ],
      [
        103.8931888,
        1.3677648
      ],
      [
        103.8931157,
        1.3676875
      ],
      [
        103.8929475,
        1.3675104
      ],
      [
        103.8928072,
        1.3673607
      ],
      [
        103.8925962,
        1.3671534
      ],
      [
        103.8923797,
        1.3669408
      ],
      [
        103.8923322,
        1.3668942
      ],
      [
        103.8922766,
        1.3668397
      ],
      [
        103.8922058,
        1.3667703
      ],
      [
        103.8917238,
        1.3662977
      ],
      [
        103.8915521,
        1.3661371
      ],
      [
        103.8913002,
        1.3659035
      ],
      [
        103.8911605,
        1.3657735
      ],
      [
        103.8910616,
        1.3656819
      ],
      [
        103.8910133,
        1.3656374
      ],
      [
        103.8909255,
        1.3655549
      ],
      [
        103.8908803,
        1.3655125
      ],
      [
        103.8906989,
        1.3653353
      ],
      [
        103.8902915,
        1.3649342
      ],
      [
        103.8901392,
        1.3647861
      ],
      [
        103.8901213,
        1.3647693
      ],
      [
        103.8898092,
        1.3644753
      ],
      [
        103.8897848,
        1.3644502
      ],
      [
        103.8897158,
        1.3643828
      ],
      [
        103.8896627,
        1.3643332
      ],
      [
        103.8896482,
        1.3643191
      ],
      [
        103.8896334,
        1.3643048
      ],
      [
        103.8892946,
        1.363976
      ],
      [
        103.8890214,
        1.3637115
      ],
      [
        103.8888329,
        1.3635362
      ],
      [
        103.8886741,
        1.3633763
      ],
      [
        103.8886288,
        1.3633307
      ],
      [
        103.8882422,
        1.3629514
      ],
      [
        103.888202,
        1.3629101
      ],
      [
        103.8881084,
        1.3628233
      ],
      [
        103.8880661,
        1.3627841
      ],
      [
        103.8880327,
        1.3627517
      ],
      [
        103.8880085,
        1.3627298
      ],
      [
        103.8876696,
        1.362423
      ],
      [
        103.8873272,
        1.3621162
      ],
      [
        103.8872724,
        1.3620655
      ],
      [
        103.8869033,
        1.3617255
      ],
      [
        103.8868626,
        1.3616895
      ],
      [
        103.8866834,
        1.3615104
      ],
      [
        103.8865556,
        1.3613701
      ],
      [
        103.8863548,
        1.3611551
      ],
      [
        103.8862845,
        1.3610811
      ],
      [
        103.8861904,
        1.360998
      ],
      [
        103.8861256,
        1.3609471
      ],
      [
        103.8858161,
        1.3607039
      ],
      [
        103.8852291,
        1.3602086
      ],
      [
        103.8850316,
        1.3600419
      ],
      [
        103.8848907,
        1.3599131
      ],
      [
        103.8840107,
        1.3590831
      ],
      [
        103.8837804,
        1.3588701
      ],
      [
        103.8836571,
        1.3587791
      ],
      [
        103.883589,
        1.3587212
      ],
      [
        103.8833123,
        1.3584455
      ],
      [
        103.8830521,
        1.3581866
      ],
      [
        103.8829768,
        1.3581091
      ],
      [
        103.883063,
        1.3580219
      ],
      [
        103.8832294,
        1.3578416
      ],
      [
        103.8832935,
        1.3578077
      ],
      [
        103.8834183,
        1.3576653
      ],
      [
        103.883594,
        1.3574757
      ],
      [
        103.8837102,
        1.3573362
      ],
      [
        103.8837571,
        1.3572966
      ],
      [
        103.8838171,
        1.3572573
      ],
      [
        103.8838899,
        1.3572277
      ],
      [
        103.8840038,
        1.3572139
      ],
      [
        103.884092,
        1.3572248
      ],
      [
        103.8841878,
        1.3572605
      ],
      [
        103.8844101,
        1.3573729
      ],
      [
        103.8846507,
        1.3574884
      ],
      [
        103.8847755,
        1.3575529
      ],
      [
        103.8849372,
        1.3576394
      ],
      [
        103.8851875,
        1.3577691
      ],
      [
        103.8851712,
        1.3578071
      ],
      [
        103.8851177,
        1.3579393
      ],
      [
        103.8851111,
        1.3580031
      ],
      [
        103.8851316,
        1.358034
      ],
      [
        103.8859001,
        1.3587166
      ],
      [
        103.8859452,
        1.3587243
      ],
      [
        103.8860019,
        1.3586835
      ],
      [
        103.8860517,
        1.358625
      ],
      [
        103.8862162,
        1.3584122
      ],
      [
        103.8862579,
        1.3583387
      ],
      [
        103.8862821,
        1.3582969
      ],
      [
        103.8863797,
        1.358324
      ],
      [
        103.8864425,
        1.3583451
      ],
      [
        103.8867983,
        1.3585306
      ],
      [
        103.8870414,
        1.358647
      ],
      [
        103.8871381,
        1.3586667
      ],
      [
        103.8872685,
        1.35873
      ],
      [
        103.8872975,
        1.3587439
      ],
      [
        103.8873415,
        1.3587891
      ],
      [
        103.8874064,
        1.3588208
      ],
      [
        103.8879952,
        1.3591078
      ],
      [
        103.8882127,
        1.3592158
      ],
      [
        103.8883235,
        1.3592708
      ],
      [
        103.8886843,
        1.3594525
      ],
      [
        103.8887636,
        1.3594903
      ],
      [
        103.8884286,
        1.3601609
      ],
      [
        103.8884072,
        1.3603979
      ],
      [
        103.8883903,
        1.3605313
      ],
      [
        103.8883796,
        1.3606533
      ],
      [
        103.8883169,
        1.3606991
      ],
      [
        103.888289,
        1.360721
      ],
      [
        103.8882485,
        1.3607528
      ],
      [
        103.8881707,
        1.3607796
      ],
      [
        103.8880903,
        1.3608354
      ],
      [
        103.8874091,
        1.360761
      ],
      [
        103.8870557,
        1.3607193
      ],
      [
        103.8868716,
        1.360712
      ],
      [
        103.8866151,
        1.3607623
      ],
      [
        103.8864464,
        1.3608396
      ],
      [
        103.8862632,
        1.3609563
      ],
      [
        103.8861904,
        1.360998
      ],
      [
        103.886072,
        1.3611065
      ],
      [
        103.8861528,
        1.3611841
      ],
      [
        103.8862292,
        1.3612561
      ],
      [
        103.886452,
        1.3614631
      ],
      [
        103.8866739,
        1.3616723
      ],
      [
        103.8867084,
        1.3617039
      ],
      [
        103.8867925,
        1.3617808
      ],
      [
        103.8870165,
        1.3619873
      ],
      [
        103.8872021,
        1.3621691
      ],
      [
        103.8872197,
        1.3621864
      ],
      [
        103.8872599,
        1.3622266
      ],
      [
        103.8873129,
        1.3622796
      ],
      [
        103.8876464,
        1.3625883
      ],
      [
        103.8879103,
        1.3628369
      ],
      [
        103.8879364,
        1.3628614
      ],
      [
        103.8879674,
        1.3628909
      ],
      [
        103.8880083,
        1.3629296
      ],
      [
        103.8881574,
        1.3630715
      ],
      [
        103.8885456,
        1.3634629
      ],
      [
        103.8886698,
        1.3635845
      ],
      [
        103.8888514,
        1.363753
      ],
      [
        103.8891322,
        1.3639882
      ],
      [
        103.8892468,
        1.3641043
      ],
      [
        103.8893527,
        1.3642062
      ],
      [
        103.8894711,
        1.3643151
      ],
      [
        103.889575,
        1.3644157
      ],
      [
        103.8896391,
        1.364477
      ],
      [
        103.8901952,
        1.3650318
      ],
      [
        103.890259,
        1.3650925
      ],
      [
        103.8903375,
        1.365167
      ],
      [
        103.8905507,
        1.3653669
      ],
      [
        103.8907973,
        1.3656008
      ],
      [
        103.8908415,
        1.3656405
      ],
      [
        103.8909289,
        1.3657275
      ],
      [
        103.8909715,
        1.3657733
      ],
      [
        103.8911916,
        1.3659836
      ],
      [
        103.891623,
        1.3663921
      ],
      [
        103.8917959,
        1.3665559
      ],
      [
        103.8919533,
        1.3667049
      ],
      [
        103.8921003,
        1.3668496
      ],
      [
        103.8921571,
        1.3669036
      ],
      [
        103.8922242,
        1.3669722
      ],
      [
        103.892269,
        1.3670157
      ],
      [
        103.8924221,
        1.3671664
      ],
      [
        103.8924654,
        1.3672152
      ],
      [
        103.8926906,
        1.3674342
      ],
      [
        103.8930379,
        1.3677722
      ],
      [
        103.8931296,
        1.3678638
      ],
      [
        103.8938266,
        1.3685528
      ],
      [
        103.8939672,
        1.3686939
      ],
      [
        103.8941612,
        1.3688847
      ],
      [
        103.8943202,
        1.3690349
      ],
      [
        103.8944862,
        1.3692002
      ],
      [
        103.8945251,
        1.369238
      ],
      [
        103.8945606,
        1.369272
      ],
      [
        103.8946187,
        1.3693284
      ],
      [
        103.8946637,
        1.3693722
      ],
      [
        103.8948216,
        1.3695244
      ],
      [
        103.8951999,
        1.3698786
      ],
      [
        103.8952401,
        1.3699202
      ],
      [
        103.8953118,
        1.3699908
      ],
      [
        103.8956099,
        1.3702648
      ],
      [
        103.8956795,
        1.3703288
      ],
      [
        103.8956885,
        1.3703371
      ],
      [
        103.8958937,
        1.3705257
      ],
      [
        103.8962522,
        1.3708557
      ],
      [
        103.8967005,
        1.3712553
      ],
      [
        103.8968399,
        1.3713897
      ],
      [
        103.8969058,
        1.3714532
      ],
      [
        103.897271,
        1.3718006
      ],
      [
        103.8977241,
        1.372211
      ],
      [
        103.8978041,
        1.372282
      ],
      [
        103.8983496,
        1.3727642
      ],
      [
        103.8986528,
        1.3730196
      ],
      [
        103.8987089,
        1.3730677
      ],
      [
        103.8987729,
        1.3731203
      ],
      [
        103.8988893,
        1.3732212
      ],
      [
        103.8989747,
        1.3733026
      ],
      [
        103.8990491,
        1.3734748
      ],
      [
        103.8990545,
        1.3735793
      ],
      [
        103.8990473,
        1.3736446
      ],
      [
        103.8990438,
        1.3736759
      ],
      [
        103.8990062,
        1.373767
      ],
      [
        103.8989691,
        1.3738562
      ],
      [
        103.8986113,
        1.3741207
      ],
      [
        103.8981635,
        1.3744407
      ],
      [
        103.8981351,
        1.374461
      ],
      [
        103.8976711,
        1.3748354
      ],
      [
        103.8974476,
        1.3750439
      ],
      [
        103.896949,
        1.3756046
      ],
      [
        103.8968561,
        1.375708
      ],
      [
        103.8966545,
        1.3759072
      ],
      [
        103.8965115,
        1.3760477
      ],
      [
        103.8962419,
        1.3762425
      ],
      [
        103.8962226,
        1.3762564
      ],
      [
        103.8961322,
        1.3763161
      ],
      [
        103.8961843,
        1.3763969
      ],
      [
        103.8962291,
        1.3764735
      ],
      [
        103.8963414,
        1.3766654
      ],
      [
        103.8966641,
        1.3771953
      ],
      [
        103.8967152,
        1.3774914
      ],
      [
        103.8967188,
        1.3781454
      ],
      [
        103.8967307,
        1.3783098
      ],
      [
        103.8967604,
        1.3786547
      ],
      [
        103.8967922,
        1.3789588
      ],
      [
        103.8968382,
        1.3792554
      ],
      [
        103.8968473,
        1.3793196
      ],
      [
        103.8968656,
        1.3794646
      ],
      [
        103.8968725,
        1.37952
      ],
      [
        103.8969004,
        1.3797488
      ],
      [
        103.8969263,
        1.3798939
      ],
      [
        103.8969993,
        1.3803062
      ],
      [
        103.8970294,
        1.3804511
      ],
      [
        103.8970531,
        1.3805666
      ],
      [
        103.8970976,
        1.3807829
      ],
      [
        103.8971211,
        1.3809332
      ],
      [
        103.8971243,
        1.3809448
      ],
      [
        103.8971255,
        1.3809509
      ],
      [
        103.8971312,
        1.3809728
      ],
      [
        103.8971663,
        1.3811105
      ],
      [
        103.8972907,
        1.3815824
      ],
      [
        103.8973217,
        1.3816838
      ],
      [
        103.8973597,
        1.3818038
      ],
      [
        103.8974061,
        1.381912
      ],
      [
        103.8975352,
        1.382125
      ],
      [
        103.8976673,
        1.3822955
      ],
      [
        103.8977429,
        1.3823914
      ],
      [
        103.8977882,
        1.3824484
      ],
      [
        103.8978714,
        1.3825392
      ],
      [
        103.8980052,
        1.3826608
      ],
      [
        103.8981444,
        1.382775
      ],
      [
        103.8983425,
        1.3829191
      ],
      [
        103.8983965,
        1.3829563
      ],
      [
        103.8985127,
        1.3830445
      ],
      [
        103.8985761,
        1.3829876
      ],
      [
        103.8986238,
        1.3829465
      ],
      [
        103.8989036,
        1.3827054
      ],
      [
        103.8994615,
        1.3822528
      ],
      [
        103.8997311,
        1.3820228
      ],
      [
        103.899794,
        1.3819789
      ],
      [
        103.899917,
        1.3818973
      ],
      [
        103.8999756,
        1.3818588
      ],
      [
        103.9001308,
        1.3817674
      ],
      [
        103.9003708,
        1.381663
      ],
      [
        103.9004321,
        1.3816454
      ],
      [
        103.9008648,
        1.3815215
      ],
      [
        103.900971,
        1.3815162
      ],
      [
        103.9011609,
        1.3815189
      ],
      [
        103.901254,
        1.3815345
      ],
      [
        103.9014074,
        1.381629
      ],
      [
        103.9014712,
        1.3816846
      ],
      [
        103.9015298,
        1.3817416
      ],
      [
        103.901547,
        1.3817583
      ],
      [
        103.9015925,
        1.3818341
      ],
      [
        103.9016355,
        1.3819287
      ],
      [
        103.9016902,
        1.3820778
      ],
      [
        103.9017624,
        1.3827914
      ],
      [
        103.901797,
        1.3829354
      ],
      [
        103.9018511,
        1.3832761
      ],
      [
        103.9018995,
        1.3835119
      ],
      [
        103.9020357,
        1.3837498
      ],
      [
        103.9021497,
        1.3839628
      ],
      [
        103.902474,
        1.3845597
      ],
      [
        103.9025521,
        1.3847166
      ],
      [
        103.9026609,
        1.3849113
      ],
      [
        103.9028083,
        1.3851784
      ],
      [
        103.902951,
        1.3854514
      ],
      [
        103.9029948,
        1.3855311
      ],
      [
        103.9030273,
        1.3855923
      ],
      [
        103.9030572,
        1.3856427
      ],
      [
        103.9030882,
        1.385689
      ],
      [
        103.9035209,
        1.3863348
      ],
      [
        103.9036126,
        1.3864504
      ],
      [
        103.9037019,
        1.3865656
      ],
      [
        103.9038228,
        1.3866982
      ],
      [
        103.9038795,
        1.3867603
      ],
      [
        103.9041872,
        1.3870459
      ],
      [
        103.9044947,
        1.3872908
      ],
      [
        103.9045201,
        1.387307
      ],
      [
        103.904787,
        1.3875114
      ],
      [
        103.9051101,
        1.3877715
      ],
      [
        103.9052672,
        1.3879309
      ],
      [
        103.9054043,
        1.3880705
      ],
      [
        103.905447,
        1.3881149
      ],
      [
        103.9055263,
        1.3881919
      ],
      [
        103.9057594,
        1.3884183
      ],
      [
        103.9057783,
        1.3884929
      ],
      [
        103.9057878,
        1.3885304
      ],
      [
        103.9057868,
        1.3885725
      ],
      [
        103.9057851,
        1.3886416
      ],
      [
        103.9057656,
        1.3887455
      ],
      [
        103.9056694,
        1.3888384
      ],
      [
        103.9054037,
        1.3890723
      ],
      [
        103.9052099,
        1.3892428
      ],
      [
        103.9050154,
        1.3893824
      ],
      [
        103.9044978,
        1.3897737
      ],
      [
        103.9043386,
        1.3898852
      ],
      [
        103.9042845,
        1.3899131
      ],
      [
        103.9040991,
        1.3900158
      ],
      [
        103.9032952,
        1.3905232
      ],
      [
        103.902848,
        1.3907252
      ],
      [
        103.9024911,
        1.3908682
      ],
      [
        103.9023859,
        1.3908845
      ],
      [
        103.9021549,
        1.390924
      ],
      [
        103.9019322,
        1.3909628
      ],
      [
        103.9016137,
        1.3909676
      ],
      [
        103.9015774,
        1.3909671
      ],
      [
        103.9014441,
        1.3909671
      ],
      [
        103.9014105,
        1.3909696
      ],
      [
        103.9011263,
        1.3909822
      ],
      [
        103.9005558,
        1.391004
      ],
      [
        103.9002714,
        1.3910301
      ],
      [
        103.9000508,
        1.3910686
      ],
      [
        103.8997988,
        1.3911395
      ],
      [
        103.8996553,
        1.3911799
      ],
      [
        103.8991238,
        1.3913786
      ],
      [
        103.8988719,
        1.3914697
      ],
      [
        103.8986775,
        1.3915406
      ],
      [
        103.8983017,
        1.3916799
      ],
      [
        103.8980891,
        1.3917488
      ],
      [
        103.8979928,
        1.3917845
      ],
      [
        103.8978996,
        1.3918212
      ],
      [
        103.8978408,
        1.3918406
      ],
      [
        103.8976604,
        1.3919
      ],
      [
        103.89752,
        1.391947
      ],
      [
        103.8972887,
        1.3920372
      ],
      [
        103.8966823,
        1.3922607
      ],
      [
        103.8961297,
        1.3924381
      ],
      [
        103.8955367,
        1.3926409
      ],
      [
        103.8954786,
        1.3926607
      ],
      [
        103.8954168,
        1.392682
      ],
      [
        103.8951649,
        1.3927684
      ],
      [
        103.8950718,
        1.3928003
      ],
      [
        103.8947519,
        1.3929146
      ],
      [
        103.8945345,
        1.3929952
      ],
      [
        103.8943537,
        1.3930584
      ],
      [
        103.8941311,
        1.3931317
      ],
      [
        103.8937658,
        1.3932541
      ],
      [
        103.8937054,
        1.3932743
      ],
      [
        103.893583,
        1.3933122
      ],
      [
        103.8936212,
        1.3934247
      ],
      [
        103.8936431,
        1.3934872
      ],
      [
        103.8937255,
        1.3937341
      ],
      [
        103.894017,
        1.3946275
      ],
      [
        103.8940756,
        1.394807
      ],
      [
        103.894165,
        1.3950491
      ],
      [
        103.8943101,
        1.3954473
      ],
      [
        103.8943849,
        1.395654
      ],
      [
        103.8944705,
        1.3959231
      ],
      [
        103.8944939,
        1.3960007
      ],
      [
        103.8945352,
        1.3961382
      ],
      [
        103.8945545,
        1.3962024
      ],
      [
        103.8946606,
        1.3965011
      ],
      [
        103.8949338,
        1.3973244
      ],
      [
        103.8952871,
        1.3982594
      ],
      [
        103.8953742,
        1.3985043
      ],
      [
        103.8954605,
        1.3987239
      ],
      [
        103.8955228,
        1.3988702
      ],
      [
        103.8955871,
        1.3990491
      ],
      [
        103.8957106,
        1.399368
      ],
      [
        103.8957329,
        1.3994308
      ],
      [
        103.8957795,
        1.3995766
      ],
      [
        103.8959395,
        1.400063
      ],
      [
        103.896094,
        1.4004692
      ],
      [
        103.8961222,
        1.4005409
      ],
      [
        103.8962003,
        1.4007394
      ],
      [
        103.8962737,
        1.400972
      ],
      [
        103.8963235,
        1.4011694
      ],
      [
        103.8964902,
        1.4021816
      ],
      [
        103.896548,
        1.4024816
      ],
      [
        103.8965953,
        1.4027301
      ],
      [
        103.8966505,
        1.4030304
      ],
      [
        103.8966969,
        1.4032199
      ],
      [
        103.8967114,
        1.4032876
      ],
      [
        103.8967296,
        1.4033713
      ],
      [
        103.8968719,
        1.4033553
      ],
      [
        103.8969695,
        1.4033443
      ],
      [
        103.897208,
        1.4033126
      ],
      [
        103.8976461,
        1.403243
      ],
      [
        103.8982233,
        1.4030627
      ],
      [
        103.8982906,
        1.4030371
      ],
      [
        103.898615,
        1.4029259
      ],
      [
        103.8988618,
        1.4028402
      ],
      [
        103.8991207,
        1.4027527
      ],
      [
        103.8993809,
        1.4026579
      ],
      [
        103.8994288,
        1.4026409
      ],
      [
        103.8995087,
        1.4026105
      ],
      [
        103.8995752,
        1.4025862
      ],
      [
        103.8998082,
        1.4024975
      ],
      [
        103.8998621,
        1.4024768
      ],
      [
        103.9003002,
        1.4023087
      ],
      [
        103.9003685,
        1.4022825
      ],
      [
        103.9010121,
        1.4020164
      ],
      [
        103.9012375,
        1.4019232
      ],
      [
        103.9014741,
        1.4018208
      ],
      [
        103.9018035,
        1.4016806
      ],
      [
        103.9019146,
        1.4016712
      ],
      [
        103.9019726,
        1.4016866
      ],
      [
        103.9019856,
        1.40169
      ],
      [
        103.9020715,
        1.4017316
      ],
      [
        103.9021965,
        1.4018214
      ],
      [
        103.9025131,
        1.4023438
      ],
      [
        103.9029219,
        1.4030205
      ],
      [
        103.9029701,
        1.4031003
      ],
      [
        103.9029022,
        1.4031373
      ],
      [
        103.902696,
        1.4032531
      ],
      [
        103.9026277,
        1.4033195
      ]
    ]
  }
}