{
  "type": "Feature",
  "properties": {
    "relation": 2970976,
    "direction": "1",
    "fee": "yes",
    "from": "Kampong Bahru Terminal",
    "name": "Svc 120 (Kampong Bahru Terminal ↺ Telok Blangah Heights)",
    "name:en": "Svc 120 (Kampong Bahru Terminal ↺ Telok Blangah Heights)",
    "network": "Land Transport Authority",
    "network:short": "LTA",
    "network:wikidata": "Q3299279",
    "network:wikipedia": "en:Land Transport Authority",
    "operator": "SBS Transit",
    "operator:wikidata": "Q2661305",
    "operator:wikipedia": "en:SBS Transit",
    "public_transport:version": "2",
    "ref": "120",
    "roundtrip": "yes",
    "route": "bus",
    "to": "Kampong Bahru Terminal",
    "type": "route",
    "via": "Telok Blangah Heights",
    "website": "https://www.sbstransit.com.sg/"
  },
  "geometry": {
    "type": "LineString",
    "coordinates": [
      [
        103.8330205,
        1.2758106
      ],
      [
        103.8332977,
        1.2758643
      ],
      [
        103.8333405,
        1.2758623
      ],
      [
        103.8333846,
        1.2758544
      ],
      [
        103.8335445,
        1.2758108
      ],
      [
        103.8340906,
        1.2756948
      ],
      [
        103.8341935,
        1.2756589
      ],
      [
        103.8342637,
        1.2756077
      ],
      [
        103.834301,
        1.2754883
      ],
      [
        103.8343046,
        1.2754082
      ],
      [
        103.8329263,
        1.2751651
      ],
      [
        103.8330572,
        1.2751513
      ],
      [
        103.8332039,
        1.2751619
      ],
      [
        103.8333519,
        1.2751835
      ],
      [
        103.8335857,
        1.2752364
      ],
      [
        103.8343046,
        1.2754082
      ],
      [
        103.8327678,
        1.2752101
      ],
      [
        103.8325533,
        1.2752601
      ],
      [
        103.832438,
        1.2753413
      ],
      [
        103.8322912,
        1.2754753
      ],
      [
        103.8322024,
        1.275563
      ],
      [
        103.8321077,
        1.2756593
      ],
      [
        103.8320364,
        1.2757343
      ],
      [
        103.8319641,
        1.2758458
      ],
      [
        103.8319219,
        1.2759634
      ],
      [
        103.831898,
        1.2760474
      ],
      [
        103.8318754,
        1.2761437
      ],
      [
        103.8318539,
        1.2762292
      ],
      [
        103.8318312,
        1.2763198
      ],
      [
        103.8319065,
        1.2763335
      ],
      [
        103.8319765,
        1.2763461
      ],
      [
        103.8322911,
        1.2763812
      ],
      [
        103.8325576,
        1.2763962
      ],
      [
        103.8328134,
        1.2763967
      ],
      [
        103.8331078,
        1.2764125
      ],
      [
        103.83319,
        1.2764821
      ],
      [
        103.8332556,
        1.2765717
      ],
      [
        103.8332933,
        1.2766814
      ],
      [
        103.8332931,
        1.2767344
      ],
      [
        103.8332666,
        1.2767787
      ],
      [
        103.8332222,
        1.2768556
      ],
      [
        103.8331842,
        1.2768985
      ],
      [
        103.8331455,
        1.2769324
      ],
      [
        103.8331061,
        1.2769648
      ],
      [
        103.8330051,
        1.2770409
      ],
      [
        103.8325287,
        1.2772869
      ],
      [
        103.8323819,
        1.2773617
      ],
      [
        103.8321677,
        1.277474
      ],
      [
        103.8320958,
        1.2775117
      ],
      [
        103.8320125,
        1.2775539
      ],
      [
        103.8318844,
        1.2776184
      ],
      [
        103.831846,
        1.2776383
      ],
      [
        103.8317896,
        1.2776675
      ],
      [
        103.8317345,
        1.2776954
      ],
      [
        103.8316754,
        1.2777253
      ],
      [
        103.8315253,
        1.2778
      ],
      [
        103.831237,
        1.2779437
      ],
      [
        103.8309928,
        1.2780507
      ],
      [
        103.8306924,
        1.2781365
      ],
      [
        103.8304386,
        1.2782038
      ],
      [
        103.8299484,
        1.2784165
      ],
      [
        103.8298666,
        1.2784661
      ],
      [
        103.8295952,
        1.2786221
      ],
      [
        103.8294756,
        1.2786991
      ],
      [
        103.8291403,
        1.2788983
      ],
      [
        103.8290846,
        1.2789314
      ],
      [
        103.8290496,
        1.2789505
      ],
      [
        103.8289772,
        1.2790011
      ],
      [
        103.8281942,
        1.2794993
      ],
      [
        103.8280459,
        1.2795946
      ],
      [
        103.8275512,
        1.2799084
      ],
      [
        103.8274614,
        1.2799634
      ],
      [
        103.8273573,
        1.2800194
      ],
      [
        103.8273225,
        1.2800381
      ],
      [
        103.8271739,
        1.280117
      ],
      [
        103.826851,
        1.2802918
      ],
      [
        103.82632,
        1.280559
      ],
      [
        103.8262485,
        1.2806017
      ],
      [
        103.8260137,
        1.2807219
      ],
      [
        103.8257713,
        1.2808421
      ],
      [
        103.8253042,
        1.2810985
      ],
      [
        103.8250807,
        1.2812088
      ],
      [
        103.8250016,
        1.2812493
      ],
      [
        103.8247349,
        1.2813797
      ],
      [
        103.8245972,
        1.281447
      ],
      [
        103.8244056,
        1.2815384
      ],
      [
        103.8243123,
        1.2815821
      ],
      [
        103.8242173,
        1.2816289
      ],
      [
        103.8240053,
        1.2817171
      ],
      [
        103.823905,
        1.2817687
      ],
      [
        103.823755,
        1.2818302
      ],
      [
        103.8237883,
        1.2819635
      ],
      [
        103.8238199,
        1.2820927
      ],
      [
        103.8238384,
        1.2821701
      ],
      [
        103.8239906,
        1.2825463
      ],
      [
        103.8240235,
        1.282611
      ],
      [
        103.8240968,
        1.2827582
      ],
      [
        103.8244019,
        1.2833359
      ],
      [
        103.8245024,
        1.283545
      ],
      [
        103.8245459,
        1.2836356
      ],
      [
        103.8245511,
        1.2836464
      ],
      [
        103.8246207,
        1.2837913
      ],
      [
        103.8247391,
        1.2840376
      ],
      [
        103.8248728,
        1.2843785
      ],
      [
        103.8249806,
        1.2847755
      ],
      [
        103.825095,
        1.2853556
      ],
      [
        103.8251266,
        1.2855896
      ],
      [
        103.8251665,
        1.2858915
      ],
      [
        103.8251707,
        1.285923
      ],
      [
        103.8251089,
        1.2859888
      ],
      [
        103.8250673,
        1.2860344
      ],
      [
        103.8250124,
        1.2860762
      ],
      [
        103.8248872,
        1.286165
      ],
      [
        103.8248697,
        1.2861774
      ],
      [
        103.8246497,
        1.2863344
      ],
      [
        103.8244915,
        1.2864818
      ],
      [
        103.8243091,
        1.2867104
      ],
      [
        103.8242387,
        1.2867936
      ],
      [
        103.824158,
        1.2869189
      ],
      [
        103.8239787,
        1.287067
      ],
      [
        103.8234119,
        1.2875303
      ],
      [
        103.8232646,
        1.2876535
      ],
      [
        103.8229376,
        1.2879517
      ],
      [
        103.8227314,
        1.2881208
      ],
      [
        103.8226314,
        1.2882144
      ],
      [
        103.8225923,
        1.2882492
      ],
      [
        103.8225245,
        1.2882912
      ],
      [
        103.8223536,
        1.2883683
      ],
      [
        103.8222656,
        1.2884137
      ],
      [
        103.8221412,
        1.2884742
      ],
      [
        103.8220559,
        1.2885118
      ],
      [
        103.821971,
        1.2885399
      ],
      [
        103.8218701,
        1.2885642
      ],
      [
        103.8217317,
        1.2885825
      ],
      [
        103.8214924,
        1.2885961
      ],
      [
        103.8213269,
        1.2886083
      ],
      [
        103.8207326,
        1.2886336
      ],
      [
        103.8202369,
        1.2886536
      ],
      [
        103.8199873,
        1.2886585
      ],
      [
        103.8199721,
        1.2886578
      ],
      [
        103.8198921,
        1.2886625
      ],
      [
        103.8197492,
        1.2886695
      ],
      [
        103.8193719,
        1.2886934
      ],
      [
        103.8189245,
        1.2886744
      ],
      [
        103.818788,
        1.2886799
      ],
      [
        103.8185838,
        1.2886913
      ],
      [
        103.8180491,
        1.288723
      ],
      [
        103.8179342,
        1.2887291
      ],
      [
        103.8178542,
        1.2887364
      ],
      [
        103.8177629,
        1.288743
      ],
      [
        103.8177027,
        1.288755
      ],
      [
        103.8176011,
        1.2887867
      ],
      [
        103.817485,
        1.2888315
      ],
      [
        103.8173938,
        1.2888838
      ],
      [
        103.8172953,
        1.2889513
      ],
      [
        103.8171212,
        1.2890872
      ],
      [
        103.816948,
        1.2892211
      ],
      [
        103.8169166,
        1.2892446
      ],
      [
        103.8167256,
        1.2893784
      ],
      [
        103.8164964,
        1.2895239
      ],
      [
        103.8162653,
        1.2896551
      ],
      [
        103.8161843,
        1.2897006
      ],
      [
        103.81613,
        1.2897272
      ],
      [
        103.8161091,
        1.2897392
      ],
      [
        103.8160465,
        1.2897725
      ],
      [
        103.8158934,
        1.2898533
      ],
      [
        103.8156634,
        1.2899814
      ],
      [
        103.8156038,
        1.2900133
      ],
      [
        103.8154599,
        1.2901023
      ],
      [
        103.8153357,
        1.2902152
      ],
      [
        103.8152631,
        1.2903032
      ],
      [
        103.8152327,
        1.2903748
      ],
      [
        103.8152124,
        1.2904103
      ],
      [
        103.8152079,
        1.2904627
      ],
      [
        103.8152138,
        1.2905431
      ],
      [
        103.815225,
        1.290626
      ],
      [
        103.8152657,
        1.2909726
      ],
      [
        103.8152854,
        1.2911213
      ],
      [
        103.8152261,
        1.2912678
      ],
      [
        103.8151811,
        1.2913659
      ],
      [
        103.8151144,
        1.2914419
      ],
      [
        103.8149664,
        1.2915406
      ],
      [
        103.8146394,
        1.291594
      ],
      [
        103.8140762,
        1.2916989
      ],
      [
        103.8140065,
        1.2917089
      ],
      [
        103.8138301,
        1.2917328
      ],
      [
        103.8137453,
        1.2917462
      ],
      [
        103.8134513,
        1.2917977
      ],
      [
        103.8129754,
        1.2918784
      ],
      [
        103.812722,
        1.291916
      ],
      [
        103.8123451,
        1.2919759
      ],
      [
        103.8123216,
        1.2919794
      ],
      [
        103.8120372,
        1.2920217
      ],
      [
        103.8116758,
        1.2920859
      ],
      [
        103.8115121,
        1.2921128
      ],
      [
        103.8113822,
        1.2921345
      ],
      [
        103.8110956,
        1.2921813
      ],
      [
        103.8109936,
        1.292198
      ],
      [
        103.8109011,
        1.2922132
      ],
      [
        103.8100943,
        1.292348
      ],
      [
        103.810059,
        1.2923518
      ],
      [
        103.8099231,
        1.2923758
      ],
      [
        103.8097892,
        1.2924
      ],
      [
        103.8095516,
        1.2924268
      ],
      [
        103.8093902,
        1.2924284
      ],
      [
        103.8092471,
        1.2924176
      ],
      [
        103.8091382,
        1.2923937
      ],
      [
        103.8089377,
        1.2923043
      ],
      [
        103.8088461,
        1.2922525
      ],
      [
        103.8087683,
        1.2922004
      ],
      [
        103.8085589,
        1.2920167
      ],
      [
        103.8085046,
        1.2919688
      ],
      [
        103.8083833,
        1.2918361
      ],
      [
        103.8083418,
        1.2917941
      ],
      [
        103.8082591,
        1.2917106
      ],
      [
        103.8081846,
        1.2916316
      ],
      [
        103.8076301,
        1.2909435
      ],
      [
        103.8076096,
        1.2909197
      ],
      [
        103.8073123,
        1.2905693
      ],
      [
        103.8072709,
        1.2905247
      ],
      [
        103.807046,
        1.2902655
      ],
      [
        103.8069661,
        1.2901659
      ],
      [
        103.8069213,
        1.2901102
      ],
      [
        103.8066375,
        1.2897564
      ],
      [
        103.8065487,
        1.2896459
      ],
      [
        103.8062804,
        1.2893116
      ],
      [
        103.8062205,
        1.2892368
      ],
      [
        103.8061792,
        1.2891854
      ],
      [
        103.8058826,
        1.2888142
      ],
      [
        103.8058188,
        1.2887343
      ],
      [
        103.805599,
        1.2884543
      ],
      [
        103.8055398,
        1.2883902
      ],
      [
        103.8054145,
        1.2882495
      ],
      [
        103.8053355,
        1.2881553
      ],
      [
        103.8052925,
        1.2881054
      ],
      [
        103.8052583,
        1.2880743
      ],
      [
        103.805091,
        1.287907
      ],
      [
        103.8048988,
        1.2877497
      ],
      [
        103.8045974,
        1.2875841
      ],
      [
        103.8045282,
        1.2875458
      ],
      [
        103.8044064,
        1.2874562
      ],
      [
        103.8043463,
        1.2874193
      ],
      [
        103.8040823,
        1.2872571
      ],
      [
        103.8036051,
        1.2869685
      ],
      [
        103.803484,
        1.2868999
      ],
      [
        103.8031738,
        1.2866575
      ],
      [
        103.8030197,
        1.2864683
      ],
      [
        103.8029872,
        1.2864204
      ],
      [
        103.8028733,
        1.2862526
      ],
      [
        103.8026074,
        1.2857913
      ],
      [
        103.8023676,
        1.2853773
      ],
      [
        103.8023453,
        1.2853388
      ],
      [
        103.8023233,
        1.2853007
      ],
      [
        103.8022867,
        1.2852375
      ],
      [
        103.8022698,
        1.2852084
      ],
      [
        103.8022491,
        1.2851726
      ],
      [
        103.8021445,
        1.2849795
      ],
      [
        103.8020985,
        1.284898
      ],
      [
        103.8020027,
        1.2847282
      ],
      [
        103.8019863,
        1.2846999
      ],
      [
        103.8019615,
        1.2846571
      ],
      [
        103.8019193,
        1.284584
      ],
      [
        103.8018909,
        1.2845351
      ],
      [
        103.8018711,
        1.2845008
      ],
      [
        103.801557,
        1.2839032
      ],
      [
        103.8015247,
        1.2838417
      ],
      [
        103.8014627,
        1.2837125
      ],
      [
        103.8013814,
        1.2835406
      ],
      [
        103.8013147,
        1.2833136
      ],
      [
        103.801311,
        1.2830389
      ],
      [
        103.8013943,
        1.2827568
      ],
      [
        103.8016525,
        1.2822772
      ],
      [
        103.801774,
        1.2820154
      ],
      [
        103.8018722,
        1.2818384
      ],
      [
        103.8020808,
        1.281422
      ],
      [
        103.8021142,
        1.2813691
      ],
      [
        103.8021474,
        1.2813279
      ],
      [
        103.8022008,
        1.2812184
      ],
      [
        103.8023081,
        1.2810064
      ],
      [
        103.802463,
        1.2806964
      ],
      [
        103.8026098,
        1.2803987
      ],
      [
        103.802732,
        1.2801231
      ],
      [
        103.8028121,
        1.2799494
      ],
      [
        103.8029741,
        1.2795977
      ],
      [
        103.803141,
        1.2790967
      ],
      [
        103.8031587,
        1.2788376
      ],
      [
        103.803141,
        1.278573
      ],
      [
        103.8030446,
        1.278279
      ],
      [
        103.8029749,
        1.2780881
      ],
      [
        103.802863,
        1.277774
      ],
      [
        103.8028043,
        1.2776155
      ],
      [
        103.8027359,
        1.277456
      ],
      [
        103.8026988,
        1.2773364
      ],
      [
        103.8026704,
        1.2772445
      ],
      [
        103.8024331,
        1.2765869
      ],
      [
        103.8023328,
        1.2763257
      ],
      [
        103.8022761,
        1.2761686
      ],
      [
        103.8021745,
        1.2758763
      ],
      [
        103.8021408,
        1.2757509
      ],
      [
        103.802068,
        1.275399
      ],
      [
        103.8020413,
        1.275291
      ],
      [
        103.8020278,
        1.27518
      ],
      [
        103.8020246,
        1.2751156
      ],
      [
        103.8020943,
        1.2743788
      ],
      [
        103.8021114,
        1.2741715
      ],
      [
        103.8021223,
        1.2740596
      ],
      [
        103.802124,
        1.2740422
      ],
      [
        103.8021319,
        1.2739941
      ],
      [
        103.8021541,
        1.2738397
      ],
      [
        103.8022283,
        1.2733989
      ],
      [
        103.8023438,
        1.273028
      ],
      [
        103.8023816,
        1.2729397
      ],
      [
        103.8024789,
        1.2728455
      ],
      [
        103.8026525,
        1.2727573
      ],
      [
        103.8028528,
        1.2727477
      ],
      [
        103.8033678,
        1.2727282
      ],
      [
        103.8039801,
        1.2726541
      ],
      [
        103.8041428,
        1.2726238
      ],
      [
        103.804598,
        1.2724735
      ],
      [
        103.8052512,
        1.2722579
      ],
      [
        103.8054385,
        1.2721961
      ],
      [
        103.8054985,
        1.2721763
      ],
      [
        103.805949,
        1.2720116
      ],
      [
        103.8061491,
        1.2719374
      ],
      [
        103.8063772,
        1.2718346
      ],
      [
        103.8065972,
        1.2717354
      ],
      [
        103.8068691,
        1.2716263
      ],
      [
        103.8069417,
        1.2715923
      ],
      [
        103.8072463,
        1.2714914
      ],
      [
        103.8074359,
        1.2714274
      ],
      [
        103.8080048,
        1.2713345
      ],
      [
        103.8084655,
        1.2712408
      ],
      [
        103.8094103,
        1.2711331
      ],
      [
        103.8098267,
        1.2710766
      ],
      [
        103.8099418,
        1.2710648
      ],
      [
        103.8100592,
        1.2710548
      ],
      [
        103.8106181,
        1.271045
      ],
      [
        103.8108083,
        1.2711189
      ],
      [
        103.8109839,
        1.2712359
      ],
      [
        103.8111551,
        1.2713959
      ],
      [
        103.811361,
        1.2716162
      ],
      [
        103.8114389,
        1.2717913
      ],
      [
        103.8115042,
        1.2719331
      ],
      [
        103.8116277,
        1.2721738
      ],
      [
        103.8117484,
        1.272418
      ],
      [
        103.8118027,
        1.2725019
      ],
      [
        103.8118617,
        1.2725728
      ],
      [
        103.8119743,
        1.2727082
      ],
      [
        103.8122369,
        1.2729638
      ],
      [
        103.8125451,
        1.2732416
      ],
      [
        103.8126463,
        1.2733328
      ],
      [
        103.8127413,
        1.2734125
      ],
      [
        103.8133699,
        1.2738889
      ],
      [
        103.8138257,
        1.2742312
      ],
      [
        103.8141055,
        1.2744718
      ],
      [
        103.8141479,
        1.2745123
      ],
      [
        103.8143615,
        1.27474
      ],
      [
        103.814404,
        1.2749279
      ],
      [
        103.8144015,
        1.275049
      ],
      [
        103.8143737,
        1.275215
      ],
      [
        103.813979,
        1.2754951
      ],
      [
        103.8139286,
        1.2755289
      ],
      [
        103.8137389,
        1.2756559
      ],
      [
        103.8135941,
        1.2757317
      ],
      [
        103.8134699,
        1.2757958
      ],
      [
        103.8132423,
        1.2758965
      ],
      [
        103.812904,
        1.2760391
      ],
      [
        103.8126101,
        1.2761697
      ],
      [
        103.812583,
        1.2761817
      ],
      [
        103.8122906,
        1.2763041
      ],
      [
        103.8120568,
        1.2764019
      ],
      [
        103.8116793,
        1.2765592
      ],
      [
        103.8113909,
        1.2766734
      ],
      [
        103.8112993,
        1.2767133
      ],
      [
        103.8110534,
        1.2768177
      ],
      [
        103.8107834,
        1.2769302
      ],
      [
        103.8104026,
        1.2770869
      ],
      [
        103.8103658,
        1.277016
      ],
      [
        103.8102342,
        1.2767304
      ],
      [
        103.8100411,
        1.2763066
      ],
      [
        103.8100213,
        1.2762641
      ],
      [
        103.8098894,
        1.2759806
      ],
      [
        103.8098215,
        1.2758388
      ],
      [
        103.8097596,
        1.2757067
      ],
      [
        103.8095427,
        1.2752445
      ],
      [
        103.8094219,
        1.2750129
      ],
      [
        103.809414,
        1.2749866
      ],
      [
        103.809412,
        1.2749618
      ],
      [
        103.8093872,
        1.2747285
      ],
      [
        103.8093823,
        1.2741906
      ],
      [
        103.8093817,
        1.2740777
      ],
      [
        103.8093798,
        1.2737132
      ],
      [
        103.8093743,
        1.2733178
      ],
      [
        103.8093725,
        1.2729682
      ],
      [
        103.8093721,
        1.2728844
      ],
      [
        103.8093719,
        1.2728413
      ],
      [
        103.8093743,
        1.272751
      ],
      [
        103.8093403,
        1.2727505
      ],
      [
        103.8092123,
        1.2727518
      ],
      [
        103.8090824,
        1.2727532
      ],
      [
        103.808936,
        1.2727544
      ],
      [
        103.8086586,
        1.2727567
      ],
      [
        103.8084098,
        1.2727849
      ],
      [
        103.8083518,
        1.27279
      ],
      [
        103.8081607,
        1.272812
      ],
      [
        103.8078466,
        1.2728481
      ],
      [
        103.8073961,
        1.2729
      ],
      [
        103.8067228,
        1.2730927
      ],
      [
        103.8065663,
        1.2731747
      ],
      [
        103.8061584,
        1.2734054
      ],
      [
        103.8061244,
        1.2734217
      ],
      [
        103.8060353,
        1.2734818
      ],
      [
        103.8060801,
        1.2735666
      ],
      [
        103.8060952,
        1.2735914
      ],
      [
        103.8062638,
        1.2739436
      ],
      [
        103.8063728,
        1.2741502
      ],
      [
        103.8064437,
        1.2743214
      ],
      [
        103.8065256,
        1.2744653
      ],
      [
        103.8065921,
        1.2745952
      ],
      [
        103.8066287,
        1.2746858
      ],
      [
        103.8066738,
        1.274823
      ],
      [
        103.8067017,
        1.2749258
      ],
      [
        103.8067215,
        1.2751234
      ],
      [
        103.8067229,
        1.2751918
      ],
      [
        103.806726,
        1.2753566
      ],
      [
        103.8067147,
        1.2756248
      ],
      [
        103.8066722,
        1.2758944
      ],
      [
        103.8066015,
        1.2762843
      ],
      [
        103.8065624,
        1.2764889
      ],
      [
        103.8065423,
        1.2766583
      ],
      [
        103.8065341,
        1.2768404
      ],
      [
        103.8065421,
        1.2770213
      ],
      [
        103.8065556,
        1.2771515
      ],
      [
        103.8065884,
        1.2773609
      ],
      [
        103.8066297,
        1.2775341
      ],
      [
        103.8066365,
        1.2775619
      ],
      [
        103.8066497,
        1.2776117
      ],
      [
        103.8066743,
        1.2776787
      ],
      [
        103.8067018,
        1.2777665
      ],
      [
        103.8068047,
        1.2781002
      ],
      [
        103.806865,
        1.2781824
      ],
      [
        103.8069556,
        1.278226
      ],
      [
        103.8070622,
        1.278234
      ],
      [
        103.8077198,
        1.278092
      ],
      [
        103.8077926,
        1.2780874
      ],
      [
        103.8078639,
        1.2780931
      ],
      [
        103.80792,
        1.2780954
      ],
      [
        103.8079878,
        1.2780831
      ],
      [
        103.8080777,
        1.2780361
      ],
      [
        103.8081748,
        1.2780076
      ],
      [
        103.8086075,
        1.277854
      ],
      [
        103.8090252,
        1.2777031
      ],
      [
        103.8093585,
        1.2775849
      ],
      [
        103.81001,
        1.2773319
      ],
      [
        103.8104356,
        1.2771666
      ],
      [
        103.8111765,
        1.2768644
      ],
      [
        103.8112757,
        1.2768271
      ],
      [
        103.8113388,
        1.2768034
      ],
      [
        103.8117106,
        1.2766447
      ],
      [
        103.8120887,
        1.2765019
      ],
      [
        103.8125586,
        1.2762923
      ],
      [
        103.8127005,
        1.276233
      ],
      [
        103.8129355,
        1.2761278
      ],
      [
        103.8135216,
        1.275875
      ],
      [
        103.8136,
        1.2758353
      ],
      [
        103.8137852,
        1.2757416
      ],
      [
        103.8138748,
        1.2756853
      ],
      [
        103.8140341,
        1.2755854
      ],
      [
        103.8141704,
        1.2754808
      ],
      [
        103.814325,
        1.2753635
      ],
      [
        103.8145484,
        1.2751701
      ],
      [
        103.8145782,
        1.2751443
      ],
      [
        103.8146027,
        1.2751151
      ],
      [
        103.8146093,
        1.2750771
      ],
      [
        103.8146554,
        1.2749696
      ],
      [
        103.8146719,
        1.274899
      ],
      [
        103.8146619,
        1.2748118
      ],
      [
        103.8146523,
        1.2747096
      ],
      [
        103.814433,
        1.274462
      ],
      [
        103.8142074,
        1.2742385
      ],
      [
        103.8136913,
        1.2737943
      ],
      [
        103.8129467,
        1.2732534
      ],
      [
        103.8128848,
        1.2732084
      ],
      [
        103.8126825,
        1.2730544
      ],
      [
        103.8126053,
        1.2729965
      ],
      [
        103.8124867,
        1.2729006
      ],
      [
        103.812018,
        1.2724598
      ],
      [
        103.8119451,
        1.2723913
      ],
      [
        103.8119045,
        1.272321
      ],
      [
        103.8116907,
        1.2719254
      ],
      [
        103.811652,
        1.2718182
      ],
      [
        103.8115767,
        1.2715939
      ],
      [
        103.8115335,
        1.2714735
      ],
      [
        103.8114803,
        1.2713304
      ],
      [
        103.8113664,
        1.2710077
      ],
      [
        103.8113304,
        1.2709323
      ],
      [
        103.8112381,
        1.2707389
      ],
      [
        103.8111409,
        1.2707631
      ],
      [
        103.8108932,
        1.2707904
      ],
      [
        103.8106155,
        1.270821
      ],
      [
        103.8101539,
        1.2708491
      ],
      [
        103.8100945,
        1.2708527
      ],
      [
        103.8098401,
        1.2708646
      ],
      [
        103.8093407,
        1.2708927
      ],
      [
        103.8091832,
        1.2709016
      ],
      [
        103.8091771,
        1.2709019
      ],
      [
        103.8087413,
        1.2709531
      ],
      [
        103.8084602,
        1.2709877
      ],
      [
        103.8082305,
        1.2710159
      ],
      [
        103.8081185,
        1.2710325
      ],
      [
        103.807918,
        1.2710727
      ],
      [
        103.8073883,
        1.2711812
      ],
      [
        103.8068778,
        1.2713696
      ],
      [
        103.8065343,
        1.2715143
      ],
      [
        103.8060986,
        1.2716899
      ],
      [
        103.8055097,
        1.2719273
      ],
      [
        103.8046083,
        1.2722703
      ],
      [
        103.8041513,
        1.2723969
      ],
      [
        103.8038838,
        1.2724424
      ],
      [
        103.8033891,
        1.2724951
      ],
      [
        103.8028526,
        1.2725318
      ],
      [
        103.8027603,
        1.2725338
      ],
      [
        103.8024188,
        1.2725519
      ],
      [
        103.8023064,
        1.2725626
      ],
      [
        103.8022235,
        1.272566
      ],
      [
        103.8021823,
        1.2727718
      ],
      [
        103.8021599,
        1.2728562
      ],
      [
        103.802083,
        1.273283
      ],
      [
        103.8020495,
        1.2735287
      ],
      [
        103.8020173,
        1.273778
      ],
      [
        103.802006,
        1.2738472
      ],
      [
        103.8019965,
        1.2739608
      ],
      [
        103.8019901,
        1.2740381
      ],
      [
        103.8019945,
        1.2741045
      ],
      [
        103.8019868,
        1.2742012
      ],
      [
        103.8019586,
        1.2745033
      ],
      [
        103.801929,
        1.2747922
      ],
      [
        103.8019259,
        1.2749133
      ],
      [
        103.8019389,
        1.2752908
      ],
      [
        103.8019465,
        1.2753896
      ],
      [
        103.801974,
        1.275568
      ],
      [
        103.802024,
        1.2757792
      ],
      [
        103.8020655,
        1.2759116
      ],
      [
        103.8020924,
        1.2760016
      ],
      [
        103.8021119,
        1.2760585
      ],
      [
        103.8022527,
        1.2764701
      ],
      [
        103.8022847,
        1.27656
      ],
      [
        103.8024409,
        1.2769925
      ],
      [
        103.8025228,
        1.2772139
      ],
      [
        103.8025484,
        1.2772883
      ],
      [
        103.8025677,
        1.2773413
      ],
      [
        103.802601,
        1.2774329
      ],
      [
        103.8026796,
        1.2776459
      ],
      [
        103.8028448,
        1.2781154
      ],
      [
        103.8029343,
        1.2783626
      ],
      [
        103.8030164,
        1.2785892
      ],
      [
        103.8030452,
        1.2788472
      ],
      [
        103.8030245,
        1.2791046
      ],
      [
        103.8028559,
        1.2795489
      ],
      [
        103.8027524,
        1.2797668
      ],
      [
        103.8027069,
        1.2798626
      ],
      [
        103.802567,
        1.2801101
      ],
      [
        103.8024588,
        1.2803103
      ],
      [
        103.8023541,
        1.2805329
      ],
      [
        103.8022345,
        1.2807889
      ],
      [
        103.8020146,
        1.2812448
      ],
      [
        103.8019801,
        1.2813145
      ],
      [
        103.8019519,
        1.2813635
      ],
      [
        103.8018442,
        1.281564
      ],
      [
        103.8016252,
        1.2819719
      ],
      [
        103.8013591,
        1.2824832
      ],
      [
        103.8012565,
        1.2826806
      ],
      [
        103.8011697,
        1.2829155
      ],
      [
        103.8011399,
        1.2830817
      ],
      [
        103.8011437,
        1.2833648
      ],
      [
        103.801167,
        1.2834741
      ],
      [
        103.8011918,
        1.283581
      ],
      [
        103.8013512,
        1.2839195
      ],
      [
        103.8016834,
        1.2845839
      ],
      [
        103.8017007,
        1.2846089
      ],
      [
        103.8017399,
        1.2846876
      ],
      [
        103.8017892,
        1.2847649
      ],
      [
        103.8018403,
        1.2848451
      ],
      [
        103.8019941,
        1.2850862
      ],
      [
        103.8020826,
        1.2852225
      ],
      [
        103.8021684,
        1.2853545
      ],
      [
        103.8023499,
        1.2856468
      ],
      [
        103.8027779,
        1.2864068
      ],
      [
        103.8028599,
        1.2865231
      ],
      [
        103.8029087,
        1.2865799
      ],
      [
        103.8030614,
        1.2867608
      ],
      [
        103.8032823,
        1.2869305
      ],
      [
        103.8034282,
        1.2870193
      ],
      [
        103.803484,
        1.2870517
      ],
      [
        103.8035528,
        1.2870962
      ],
      [
        103.8036249,
        1.287142
      ],
      [
        103.8039422,
        1.2873454
      ],
      [
        103.8042286,
        1.2875366
      ],
      [
        103.8042843,
        1.2875738
      ],
      [
        103.8044049,
        1.2876667
      ],
      [
        103.804479,
        1.2877108
      ],
      [
        103.8047818,
        1.2879029
      ],
      [
        103.8048762,
        1.2879716
      ],
      [
        103.8050871,
        1.2881439
      ],
      [
        103.8051934,
        1.288249
      ],
      [
        103.8054205,
        1.2884944
      ],
      [
        103.8055035,
        1.2885918
      ],
      [
        103.8056909,
        1.2888118
      ],
      [
        103.805853,
        1.2890145
      ],
      [
        103.8060571,
        1.2892706
      ],
      [
        103.8066894,
        1.2900592
      ],
      [
        103.8067409,
        1.2901195
      ],
      [
        103.8068431,
        1.2902392
      ],
      [
        103.8068842,
        1.2902872
      ],
      [
        103.8069435,
        1.2903567
      ],
      [
        103.8069811,
        1.2904018
      ],
      [
        103.807126,
        1.2905755
      ],
      [
        103.8071519,
        1.2906065
      ],
      [
        103.8073046,
        1.2907747
      ],
      [
        103.8075304,
        1.2910194
      ],
      [
        103.8075941,
        1.2910987
      ],
      [
        103.8077667,
        1.2913435
      ],
      [
        103.8078393,
        1.2914368
      ],
      [
        103.8080296,
        1.2916953
      ],
      [
        103.8080979,
        1.2917726
      ],
      [
        103.8081194,
        1.2917962
      ],
      [
        103.8082129,
        1.2918988
      ],
      [
        103.8082596,
        1.2919474
      ],
      [
        103.8083829,
        1.2920764
      ],
      [
        103.8084433,
        1.2921214
      ],
      [
        103.808692,
        1.292307
      ],
      [
        103.8089473,
        1.2924469
      ],
      [
        103.808978,
        1.2924559
      ],
      [
        103.809193,
        1.2925187
      ],
      [
        103.80955,
        1.2925395
      ],
      [
        103.8099455,
        1.2924855
      ],
      [
        103.8101609,
        1.2924589
      ],
      [
        103.8103959,
        1.2924188
      ],
      [
        103.8106392,
        1.2923919
      ],
      [
        103.810923,
        1.2923442
      ],
      [
        103.8109879,
        1.2923343
      ],
      [
        103.812269,
        1.2921208
      ],
      [
        103.8123398,
        1.2921094
      ],
      [
        103.8127904,
        1.2920366
      ],
      [
        103.8130263,
        1.2919988
      ],
      [
        103.8137452,
        1.2918905
      ],
      [
        103.8139602,
        1.2918574
      ],
      [
        103.8140832,
        1.2918407
      ],
      [
        103.8142937,
        1.291802
      ],
      [
        103.8144989,
        1.2917685
      ],
      [
        103.8146888,
        1.2917375
      ],
      [
        103.8149849,
        1.2916856
      ],
      [
        103.8153101,
        1.291636
      ],
      [
        103.8153478,
        1.2916303
      ],
      [
        103.8154847,
        1.2916178
      ],
      [
        103.8154651,
        1.2914799
      ],
      [
        103.8154554,
        1.291426
      ],
      [
        103.8154121,
        1.2911873
      ],
      [
        103.8153711,
        1.2909439
      ],
      [
        103.8153621,
        1.2908906
      ],
      [
        103.8153483,
        1.2908085
      ],
      [
        103.8153327,
        1.2906472
      ],
      [
        103.8153337,
        1.2905318
      ],
      [
        103.8153487,
        1.2904352
      ],
      [
        103.8153893,
        1.2903379
      ],
      [
        103.8154465,
        1.2902515
      ],
      [
        103.8155249,
        1.2901614
      ],
      [
        103.8156038,
        1.2900133
      ],
      [
        103.8156038,
        1.2900133
      ],
      [
        103.8156634,
        1.2899814
      ],
      [
        103.8161091,
        1.2897392
      ],
      [
        103.8160465,
        1.2897725
      ],
      [
        103.8158934,
        1.2898533
      ],
      [
        103.81613,
        1.2897272
      ],
      [
        103.8162653,
        1.2896551
      ],
      [
        103.8161843,
        1.2897006
      ],
      [
        103.8164964,
        1.2895239
      ],
      [
        103.8167256,
        1.2893784
      ],
      [
        103.8169166,
        1.2892446
      ],
      [
        103.816948,
        1.2892211
      ],
      [
        103.8172953,
        1.2889513
      ],
      [
        103.8171212,
        1.2890872
      ],
      [
        103.817485,
        1.2888315
      ],
      [
        103.8173938,
        1.2888838
      ],
      [
        103.8177629,
        1.288743
      ],
      [
        103.8177027,
        1.288755
      ],
      [
        103.8176011,
        1.2887867
      ],
      [
        103.8178542,
        1.2887364
      ],
      [
        103.8185838,
        1.2886913
      ],
      [
        103.8180491,
        1.288723
      ],
      [
        103.8179342,
        1.2887291
      ],
      [
        103.818788,
        1.2886799
      ],
      [
        103.8189245,
        1.2886744
      ],
      [
        103.8193719,
        1.2886934
      ],
      [
        103.8199721,
        1.2886578
      ],
      [
        103.8198921,
        1.2886625
      ],
      [
        103.8197492,
        1.2886695
      ],
      [
        103.8199873,
        1.2886585
      ],
      [
        103.8213269,
        1.2886083
      ],
      [
        103.8207326,
        1.2886336
      ],
      [
        103.8202369,
        1.2886536
      ],
      [
        103.8214924,
        1.2885961
      ],
      [
        103.8218701,
        1.2885642
      ],
      [
        103.8217317,
        1.2885825
      ],
      [
        103.8221412,
        1.2884742
      ],
      [
        103.8220559,
        1.2885118
      ],
      [
        103.821971,
        1.2885399
      ],
      [
        103.8222656,
        1.2884137
      ],
      [
        103.8225245,
        1.2882912
      ],
      [
        103.8223536,
        1.2883683
      ],
      [
        103.8225923,
        1.2882492
      ],
      [
        103.8226314,
        1.2882144
      ],
      [
        103.8227314,
        1.2881208
      ],
      [
        103.8229376,
        1.2879517
      ],
      [
        103.8232646,
        1.2876535
      ],
      [
        103.8239787,
        1.287067
      ],
      [
        103.8234119,
        1.2875303
      ],
      [
        103.824158,
        1.2869189
      ],
      [
        103.824354,
        1.2867746
      ],
      [
        103.8247835,
        1.2865361
      ],
      [
        103.8244486,
        1.2867145
      ],
      [
        103.825143,
        1.2863875
      ],
      [
        103.8249683,
        1.2864563
      ],
      [
        103.8249208,
        1.286475
      ],
      [
        103.8252311,
        1.2863947
      ],
      [
        103.8253817,
        1.2863433
      ],
      [
        103.8253733,
        1.2862639
      ],
      [
        103.8253647,
        1.2862061
      ],
      [
        103.8253264,
        1.2858487
      ],
      [
        103.8252797,
        1.2854474
      ],
      [
        103.8252557,
        1.285241
      ],
      [
        103.8251965,
        1.284821
      ],
      [
        103.825174,
        1.284653
      ],
      [
        103.825076,
        1.2843789
      ],
      [
        103.8249446,
        1.2840002
      ],
      [
        103.8248206,
        1.2837038
      ],
      [
        103.8247135,
        1.2834849
      ],
      [
        103.8245984,
        1.2832526
      ],
      [
        103.8243172,
        1.2826767
      ],
      [
        103.8242451,
        1.282535
      ],
      [
        103.824193,
        1.2824326
      ],
      [
        103.8241652,
        1.282322
      ],
      [
        103.824157,
        1.2822342
      ],
      [
        103.8241635,
        1.2821752
      ],
      [
        103.8241752,
        1.2821176
      ],
      [
        103.8241844,
        1.282094
      ],
      [
        103.8242141,
        1.2820587
      ],
      [
        103.8242838,
        1.2819717
      ],
      [
        103.8246153,
        1.281668
      ],
      [
        103.8247257,
        1.281542
      ],
      [
        103.8249876,
        1.2814145
      ],
      [
        103.8251551,
        1.2813396
      ],
      [
        103.8259164,
        1.2809391
      ],
      [
        103.8263199,
        1.2807216
      ],
      [
        103.8263816,
        1.2806897
      ],
      [
        103.8269518,
        1.2803878
      ],
      [
        103.8273956,
        1.2801589
      ],
      [
        103.8275348,
        1.2800876
      ],
      [
        103.8276261,
        1.2800261
      ],
      [
        103.8279492,
        1.2798451
      ],
      [
        103.8281815,
        1.2797173
      ],
      [
        103.828519,
        1.2795311
      ],
      [
        103.828598,
        1.2794876
      ],
      [
        103.8287482,
        1.2793691
      ],
      [
        103.828882,
        1.2792549
      ],
      [
        103.8289817,
        1.2791689
      ],
      [
        103.8291862,
        1.279026
      ],
      [
        103.829212,
        1.2790125
      ],
      [
        103.8292673,
        1.2789836
      ],
      [
        103.8296092,
        1.2787872
      ],
      [
        103.8297889,
        1.2786571
      ],
      [
        103.8299404,
        1.278576
      ],
      [
        103.8300095,
        1.2785311
      ],
      [
        103.8301885,
        1.2784366
      ],
      [
        103.8303481,
        1.2783668
      ],
      [
        103.8304334,
        1.2783339
      ],
      [
        103.8305804,
        1.2782905
      ],
      [
        103.8307215,
        1.2782564
      ],
      [
        103.8309961,
        1.2781641
      ],
      [
        103.831221,
        1.2780737
      ],
      [
        103.8315384,
        1.2779435
      ],
      [
        103.8317344,
        1.2778429
      ],
      [
        103.8317931,
        1.2778128
      ],
      [
        103.8318542,
        1.2777846
      ],
      [
        103.8319396,
        1.2777405
      ],
      [
        103.8320669,
        1.2776736
      ],
      [
        103.8321625,
        1.2776237
      ],
      [
        103.8329876,
        1.2771912
      ],
      [
        103.832998,
        1.2771857
      ],
      [
        103.8331384,
        1.2771071
      ],
      [
        103.8332122,
        1.2770623
      ],
      [
        103.8333028,
        1.2770101
      ],
      [
        103.8333956,
        1.2769468
      ],
      [
        103.833592,
        1.2767862
      ],
      [
        103.8336504,
        1.2767395
      ],
      [
        103.8337199,
        1.2766859
      ],
      [
        103.8336177,
        1.2765817
      ],
      [
        103.8335598,
        1.2765327
      ],
      [
        103.8334977,
        1.2764793
      ],
      [
        103.8334354,
        1.2764461
      ],
      [
        103.8333586,
        1.2764055
      ],
      [
        103.8332276,
        1.2763423
      ],
      [
        103.8331342,
        1.2763142
      ],
      [
        103.8330129,
        1.2762954
      ],
      [
        103.8328245,
        1.2762832
      ],
      [
        103.8324642,
        1.2762693
      ],
      [
        103.8322096,
        1.2762072
      ],
      [
        103.8321427,
        1.2761681
      ],
      [
        103.8320881,
        1.2761164
      ],
      [
        103.8320563,
        1.2760516
      ],
      [
        103.8320333,
        1.2759833
      ],
      [
        103.8320273,
        1.2758985
      ],
      [
        103.8321008,
        1.2757764
      ],
      [
        103.8321778,
        1.2757007
      ],
      [
        103.8322718,
        1.2756024
      ],
      [
        103.8324548,
        1.2754269
      ],
      [
        103.8325968,
        1.2753139
      ],
      [
        103.8326775,
        1.2752432
      ],
      [
        103.8327678,
        1.2752101
      ],
      [
        103.8328689,
        1.2752744
      ],
      [
        103.8329869,
        1.2753899
      ],
      [
        103.8329573,
        1.2755546
      ],
      [
        103.8329292,
        1.2757335
      ],
      [
        103.8329491,
        1.2757722
      ],
      [
        103.8329788,
        1.2758004
      ],
      [
        103.8330205,
        1.2758106
      ]
    ]
  }
}