{
  "type": "Feature",
  "properties": {
    "relation": 7445363,
    "direction": "2",
    "fee": "yes",
    "from": "Saint Michael's Terminal",
    "name": "Svc 129 (Saint Michael's Terminal → Tampines North Interchange)",
    "name:en": "Svc 129 (Saint Michael's Terminal → Tampines North Interchange)",
    "network": "Land Transport Authority",
    "network:short": "LTA",
    "network:wikidata": "Q3299279",
    "network:wikipedia": "en:Land Transport Authority",
    "operator": "Go-Ahead Singapore",
    "operator:wikidata": "Q24698874",
    "operator:wikipedia": "en:Go-Ahead Singapore",
    "public_transport:version": "2",
    "ref": "129",
    "route": "bus",
    "to": "Tampines North Interchange",
    "type": "route",
    "website": "https://go-aheadsingapore.com/bus-services/"
  },
  "geometry": {
    "type": "LineString",
    "coordinates": [
      [
        103.8553209,
        1.325784
      ],
      [
        103.855361,
        1.3258104
      ],
      [
        103.8554605,
        1.325943
      ],
      [
        103.8550798,
        1.3259122
      ],
      [
        103.8551071,
        1.3258827
      ],
      [
        103.8552394,
        1.3257927
      ],
      [
        103.855277,
        1.3257809
      ],
      [
        103.8553209,
        1.325784
      ],
      [
        103.8551137,
        1.3260583
      ],
      [
        103.8550806,
        1.3259917
      ],
      [
        103.8550723,
        1.325953
      ],
      [
        103.8554921,
        1.3265687
      ],
      [
        103.855433,
        1.3264899
      ],
      [
        103.8555112,
        1.3265932
      ],
      [
        103.8563162,
        1.3260438
      ],
      [
        103.8570851,
        1.3254516
      ],
      [
        103.8576181,
        1.3250532
      ],
      [
        103.8576623,
        1.3250202
      ],
      [
        103.857714,
        1.3250942
      ],
      [
        103.8579286,
        1.3253783
      ],
      [
        103.8579673,
        1.3254078
      ],
      [
        103.8580164,
        1.3254236
      ],
      [
        103.8580527,
        1.3254275
      ],
      [
        103.8580903,
        1.3254265
      ],
      [
        103.8581278,
        1.3254169
      ],
      [
        103.8581641,
        1.3254007
      ],
      [
        103.8583148,
        1.325283
      ],
      [
        103.8583899,
        1.3252244
      ],
      [
        103.8584435,
        1.3251816
      ],
      [
        103.8585893,
        1.3250737
      ],
      [
        103.8587391,
        1.3249644
      ],
      [
        103.8587848,
        1.32494
      ],
      [
        103.858832,
        1.3249305
      ],
      [
        103.8588752,
        1.3249297
      ],
      [
        103.8589209,
        1.3249381
      ],
      [
        103.8589681,
        1.3249555
      ],
      [
        103.8590061,
        1.3249818
      ],
      [
        103.8590455,
        1.325008
      ],
      [
        103.8591384,
        1.3250777
      ],
      [
        103.8592582,
        1.3252007
      ],
      [
        103.859392,
        1.325317
      ],
      [
        103.8595355,
        1.3254559
      ],
      [
        103.8596342,
        1.3255474
      ],
      [
        103.8596675,
        1.325578
      ],
      [
        103.8597011,
        1.3256406
      ],
      [
        103.8597134,
        1.3257033
      ],
      [
        103.8597181,
        1.3257525
      ],
      [
        103.8597174,
        1.3258046
      ],
      [
        103.8597034,
        1.3258516
      ],
      [
        103.8596685,
        1.3259115
      ],
      [
        103.8596224,
        1.3259551
      ],
      [
        103.8594599,
        1.3260837
      ],
      [
        103.8593349,
        1.3261781
      ],
      [
        103.8592267,
        1.3262612
      ],
      [
        103.8590398,
        1.326414
      ],
      [
        103.8589843,
        1.3264567
      ],
      [
        103.8592119,
        1.3268096
      ],
      [
        103.8592652,
        1.3268922
      ],
      [
        103.8593065,
        1.3269202
      ],
      [
        103.8593794,
        1.3270116
      ],
      [
        103.8593065,
        1.3269202
      ],
      [
        103.8594456,
        1.3270686
      ],
      [
        103.8600455,
        1.3272824
      ],
      [
        103.8598998,
        1.3272308
      ],
      [
        103.8597683,
        1.3271867
      ],
      [
        103.8601803,
        1.3273596
      ],
      [
        103.8598549,
        1.328603
      ],
      [
        103.8600036,
        1.3286096
      ],
      [
        103.8600806,
        1.3286008
      ],
      [
        103.8601692,
        1.3285676
      ],
      [
        103.8602423,
        1.328521
      ],
      [
        103.8603011,
        1.3284619
      ],
      [
        103.8603594,
        1.3283751
      ],
      [
        103.8603881,
        1.3283063
      ],
      [
        103.8604352,
        1.3281574
      ],
      [
        103.8604745,
        1.3279832
      ],
      [
        103.8604718,
        1.3278722
      ],
      [
        103.8604636,
        1.3277877
      ],
      [
        103.8604452,
        1.3277221
      ],
      [
        103.8604184,
        1.3276498
      ],
      [
        103.8603855,
        1.3275841
      ],
      [
        103.8603381,
        1.3275133
      ],
      [
        103.859571,
        1.3285096
      ],
      [
        103.8597017,
        1.3285549
      ],
      [
        103.8593554,
        1.3284338
      ],
      [
        103.8589486,
        1.3282756
      ],
      [
        103.8588095,
        1.328224
      ],
      [
        103.858317,
        1.3280414
      ],
      [
        103.8582,
        1.3280003
      ],
      [
        103.8577456,
        1.3278376
      ],
      [
        103.8579017,
        1.327892
      ],
      [
        103.8575385,
        1.3277586
      ],
      [
        103.8574797,
        1.3277432
      ],
      [
        103.8574134,
        1.3277378
      ],
      [
        103.8573484,
        1.3277346
      ],
      [
        103.8572951,
        1.3277391
      ],
      [
        103.8572448,
        1.3277465
      ],
      [
        103.8571581,
        1.3277621
      ],
      [
        103.8565425,
        1.3278659
      ],
      [
        103.8563373,
        1.3279044
      ],
      [
        103.8562472,
        1.3279194
      ],
      [
        103.855859,
        1.3279864
      ],
      [
        103.8557961,
        1.3279777
      ],
      [
        103.8557519,
        1.3279551
      ],
      [
        103.8557284,
        1.3279272
      ],
      [
        103.8557046,
        1.3278852
      ],
      [
        103.8556709,
        1.3278284
      ],
      [
        103.8554432,
        1.327393
      ],
      [
        103.8553336,
        1.3271986
      ],
      [
        103.8552582,
        1.3272469
      ],
      [
        103.8553336,
        1.3271986
      ],
      [
        103.8549604,
        1.3274379
      ],
      [
        103.8547366,
        1.3275814
      ],
      [
        103.854562,
        1.3276934
      ],
      [
        103.8534381,
        1.3282956
      ],
      [
        103.8535677,
        1.3282806
      ],
      [
        103.8536252,
        1.3282655
      ],
      [
        103.853752,
        1.3282138
      ],
      [
        103.8541618,
        1.3279525
      ],
      [
        103.8543868,
        1.3278057
      ],
      [
        103.8530554,
        1.3281962
      ],
      [
        103.8531823,
        1.3282553
      ],
      [
        103.8533109,
        1.3282881
      ],
      [
        103.852874,
        1.3280251
      ],
      [
        103.8529565,
        1.3281164
      ],
      [
        103.8524111,
        1.327523
      ],
      [
        103.8524715,
        1.327558
      ],
      [
        103.852539,
        1.3276203
      ],
      [
        103.852697,
        1.3278068
      ],
      [
        103.851648,
        1.3277857
      ],
      [
        103.8521152,
        1.3275401
      ],
      [
        103.8522042,
        1.3275066
      ],
      [
        103.8522492,
        1.3274984
      ],
      [
        103.8523022,
        1.327499
      ],
      [
        103.8523425,
        1.327502
      ],
      [
        103.8509582,
        1.3281448
      ],
      [
        103.8497325,
        1.3287825
      ],
      [
        103.8505041,
        1.3283764
      ],
      [
        103.8491779,
        1.32871
      ],
      [
        103.8492799,
        1.3288341
      ],
      [
        103.8493518,
        1.3289163
      ],
      [
        103.8493854,
        1.3289365
      ],
      [
        103.849405,
        1.3289402
      ],
      [
        103.8494346,
        1.3289389
      ],
      [
        103.848896,
        1.3284395
      ],
      [
        103.8489498,
        1.3284132
      ],
      [
        103.848781,
        1.3284981
      ],
      [
        103.8479932,
        1.3286531
      ],
      [
        103.8480665,
        1.3286954
      ],
      [
        103.8481341,
        1.3287147
      ],
      [
        103.848226,
        1.3287243
      ],
      [
        103.8483286,
        1.3287023
      ],
      [
        103.8484116,
        1.3286637
      ],
      [
        103.8472241,
        1.327823
      ],
      [
        103.8473064,
        1.3278675
      ],
      [
        103.8473824,
        1.327924
      ],
      [
        103.8474416,
        1.3279855
      ],
      [
        103.847932,
        1.3285893
      ],
      [
        103.8470373,
        1.3277681
      ],
      [
        103.8467511,
        1.3276899
      ],
      [
        103.8462334,
        1.327579
      ],
      [
        103.8461294,
        1.3275721
      ],
      [
        103.8459958,
        1.3275698
      ],
      [
        103.8458263,
        1.327567
      ],
      [
        103.8456889,
        1.3275646
      ],
      [
        103.8454623,
        1.3275604
      ],
      [
        103.8453272,
        1.3275583
      ],
      [
        103.8451975,
        1.327556
      ],
      [
        103.8449682,
        1.3275537
      ],
      [
        103.8448987,
        1.3275517
      ],
      [
        103.84486,
        1.3275438
      ],
      [
        103.8448403,
        1.3275335
      ],
      [
        103.8448044,
        1.3275034
      ],
      [
        103.8447877,
        1.3274783
      ],
      [
        103.8447804,
        1.3274529
      ],
      [
        103.8447802,
        1.3273785
      ],
      [
        103.8447804,
        1.3273446
      ],
      [
        103.8448033,
        1.327307
      ],
      [
        103.844805,
        1.3271212
      ],
      [
        103.8448126,
        1.3266981
      ],
      [
        103.8448032,
        1.3266247
      ],
      [
        103.8447902,
        1.3265261
      ],
      [
        103.84473,
        1.3265355
      ],
      [
        103.8444457,
        1.3265722
      ],
      [
        103.8439388,
        1.3265419
      ],
      [
        103.8438355,
        1.3265334
      ],
      [
        103.8434582,
        1.3264991
      ],
      [
        103.8427892,
        1.3264437
      ],
      [
        103.842502,
        1.3264235
      ],
      [
        103.8423102,
        1.3263977
      ],
      [
        103.8421051,
        1.326344
      ],
      [
        103.8420494,
        1.3263288
      ],
      [
        103.8419118,
        1.3263004
      ],
      [
        103.8418468,
        1.3264357
      ],
      [
        103.841629,
        1.326873
      ],
      [
        103.8414722,
        1.3272112
      ],
      [
        103.8413424,
        1.3274365
      ],
      [
        103.8411446,
        1.3275288
      ],
      [
        103.8410179,
        1.3275459
      ],
      [
        103.8408423,
        1.3275296
      ],
      [
        103.8407136,
        1.3274517
      ],
      [
        103.8405838,
        1.3273592
      ],
      [
        103.8404206,
        1.3272707
      ],
      [
        103.8403047,
        1.3272418
      ],
      [
        103.8401796,
        1.3272473
      ],
      [
        103.840009,
        1.3273093
      ],
      [
        103.8398856,
        1.3274349
      ],
      [
        103.8398254,
        1.3276058
      ],
      [
        103.8398383,
        1.3278509
      ],
      [
        103.8398981,
        1.3279527
      ],
      [
        103.8399792,
        1.3280394
      ],
      [
        103.8402261,
        1.3281885
      ],
      [
        103.8403025,
        1.3282303
      ],
      [
        103.8403706,
        1.3282899
      ],
      [
        103.8404044,
        1.3283429
      ],
      [
        103.8404292,
        1.3283952
      ],
      [
        103.8404406,
        1.3284692
      ],
      [
        103.8404252,
        1.3286386
      ],
      [
        103.8402743,
        1.328959
      ],
      [
        103.8402159,
        1.3291326
      ],
      [
        103.8401866,
        1.3292679
      ],
      [
        103.8401614,
        1.3294501
      ],
      [
        103.8400407,
        1.3295728
      ],
      [
        103.839959,
        1.3296089
      ],
      [
        103.839822,
        1.3296259
      ],
      [
        103.8396958,
        1.3296198
      ],
      [
        103.8396196,
        1.329598
      ],
      [
        103.8395068,
        1.3295433
      ],
      [
        103.8394556,
        1.3295005
      ],
      [
        103.8394073,
        1.3294361
      ],
      [
        103.8393724,
        1.3293619
      ],
      [
        103.8393402,
        1.3292559
      ],
      [
        103.8393375,
        1.3291809
      ],
      [
        103.8393469,
        1.3291084
      ],
      [
        103.8393804,
        1.329016
      ],
      [
        103.8394354,
        1.3289502
      ],
      [
        103.8394837,
        1.328902
      ],
      [
        103.8395414,
        1.3288644
      ],
      [
        103.8396178,
        1.3288363
      ],
      [
        103.8396956,
        1.3288215
      ],
      [
        103.8397693,
        1.3288256
      ],
      [
        103.8398552,
        1.328843
      ],
      [
        103.8399343,
        1.3288672
      ],
      [
        103.8400162,
        1.3289007
      ],
      [
        103.8402758,
        1.3290708
      ],
      [
        103.8405297,
        1.3292092
      ],
      [
        103.8405747,
        1.3292335
      ],
      [
        103.8408159,
        1.3293668
      ],
      [
        103.8411136,
        1.3295084
      ],
      [
        103.8416161,
        1.3296918
      ],
      [
        103.8420348,
        1.3297809
      ],
      [
        103.8424758,
        1.3298246
      ],
      [
        103.843847,
        1.3298279
      ],
      [
        103.8443647,
        1.3298437
      ],
      [
        103.8444784,
        1.3298471
      ],
      [
        103.8446988,
        1.3298604
      ],
      [
        103.8450586,
        1.3299291
      ],
      [
        103.845457,
        1.3299888
      ],
      [
        103.845596,
        1.3300498
      ],
      [
        103.845701,
        1.3301113
      ],
      [
        103.8457619,
        1.330176
      ],
      [
        103.8458075,
        1.330236
      ],
      [
        103.8458501,
        1.3303096
      ],
      [
        103.8459389,
        1.3306891
      ],
      [
        103.8459951,
        1.3309157
      ],
      [
        103.8461377,
        1.3314383
      ],
      [
        103.8461621,
        1.3315251
      ],
      [
        103.8461895,
        1.3316519
      ],
      [
        103.8462033,
        1.3317156
      ],
      [
        103.8463223,
        1.3320875
      ],
      [
        103.8463922,
        1.3322877
      ],
      [
        103.8465185,
        1.3327005
      ],
      [
        103.8465469,
        1.3328141
      ],
      [
        103.8465906,
        1.3329833
      ],
      [
        103.8466235,
        1.333119
      ],
      [
        103.8466898,
        1.333403
      ],
      [
        103.8466944,
        1.3334196
      ],
      [
        103.8467735,
        1.3337039
      ],
      [
        103.846871,
        1.3340546
      ],
      [
        103.8468962,
        1.334145
      ],
      [
        103.8469038,
        1.3341725
      ],
      [
        103.8469118,
        1.3342383
      ],
      [
        103.8469117,
        1.3342516
      ],
      [
        103.8469106,
        1.3344057
      ],
      [
        103.8468941,
        1.3345774
      ],
      [
        103.8468744,
        1.3346758
      ],
      [
        103.8468411,
        1.3347995
      ],
      [
        103.8467797,
        1.3349382
      ],
      [
        103.8467044,
        1.335068
      ],
      [
        103.8466569,
        1.3351603
      ],
      [
        103.8466122,
        1.335247
      ],
      [
        103.8465738,
        1.3353141
      ],
      [
        103.8465173,
        1.3354127
      ],
      [
        103.8464537,
        1.3355216
      ],
      [
        103.8463992,
        1.3356382
      ],
      [
        103.8463652,
        1.3357119
      ],
      [
        103.8463192,
        1.3358212
      ],
      [
        103.8462696,
        1.3359392
      ],
      [
        103.8462536,
        1.3359725
      ],
      [
        103.8462392,
        1.3360091
      ],
      [
        103.846184,
        1.3361623
      ],
      [
        103.8461343,
        1.3363411
      ],
      [
        103.8460797,
        1.3366377
      ],
      [
        103.8460726,
        1.3366891
      ],
      [
        103.8460707,
        1.3367158
      ],
      [
        103.846067,
        1.3367641
      ],
      [
        103.8460578,
        1.3368848
      ],
      [
        103.8460482,
        1.337012
      ],
      [
        103.8460479,
        1.3370901
      ],
      [
        103.8460579,
        1.3372433
      ],
      [
        103.8460606,
        1.3373373
      ],
      [
        103.8460751,
        1.3374949
      ],
      [
        103.8460852,
        1.337576
      ],
      [
        103.8460896,
        1.3376108
      ],
      [
        103.8461093,
        1.3377184
      ],
      [
        103.8461358,
        1.337863
      ],
      [
        103.8461676,
        1.3379848
      ],
      [
        103.8462268,
        1.3381532
      ],
      [
        103.8462722,
        1.338283
      ],
      [
        103.8463194,
        1.3384111
      ],
      [
        103.8463564,
        1.3385014
      ],
      [
        103.8463681,
        1.3385299
      ],
      [
        103.8463818,
        1.3385634
      ],
      [
        103.8464194,
        1.338644
      ],
      [
        103.8464402,
        1.338699
      ],
      [
        103.8464813,
        1.3388074
      ],
      [
        103.8465103,
        1.3389049
      ],
      [
        103.8465316,
        1.3389603
      ],
      [
        103.8466734,
        1.339347
      ],
      [
        103.8467395,
        1.3395182
      ],
      [
        103.8468323,
        1.3397329
      ],
      [
        103.8468696,
        1.3398349
      ],
      [
        103.8469321,
        1.3400031
      ],
      [
        103.84697,
        1.3401195
      ],
      [
        103.847003,
        1.3402535
      ],
      [
        103.8470417,
        1.3404771
      ],
      [
        103.8470499,
        1.3406441
      ],
      [
        103.8470542,
        1.3407405
      ],
      [
        103.8470587,
        1.3408388
      ],
      [
        103.8470633,
        1.3409394
      ],
      [
        103.8471414,
        1.3409364
      ],
      [
        103.8472328,
        1.3409298
      ],
      [
        103.8476195,
        1.3409215
      ],
      [
        103.8477216,
        1.340917
      ],
      [
        103.8478418,
        1.3409116
      ],
      [
        103.8483948,
        1.3408888
      ],
      [
        103.8484302,
        1.3408873
      ],
      [
        103.8485084,
        1.3408859
      ],
      [
        103.8486949,
        1.3408787
      ],
      [
        103.8488328,
        1.3408734
      ],
      [
        103.8491734,
        1.3408512
      ],
      [
        103.8493464,
        1.3408399
      ],
      [
        103.8495647,
        1.3408104
      ],
      [
        103.8497807,
        1.3407478
      ],
      [
        103.8499898,
        1.340665
      ],
      [
        103.8501901,
        1.3405628
      ],
      [
        103.8503878,
        1.340448
      ],
      [
        103.8509105,
        1.3401585
      ],
      [
        103.8510937,
        1.3400597
      ],
      [
        103.8511108,
        1.3400509
      ],
      [
        103.8511573,
        1.3400268
      ],
      [
        103.8511863,
        1.3400115
      ],
      [
        103.8512271,
        1.3399896
      ],
      [
        103.8512589,
        1.3399727
      ],
      [
        103.8512642,
        1.3399699
      ],
      [
        103.8512902,
        1.3399561
      ],
      [
        103.851305,
        1.3399482
      ],
      [
        103.8513748,
        1.3399123
      ],
      [
        103.8514086,
        1.3398939
      ],
      [
        103.8517661,
        1.3396725
      ],
      [
        103.8520483,
        1.3395389
      ],
      [
        103.8521739,
        1.3394792
      ],
      [
        103.8522966,
        1.3394357
      ],
      [
        103.8524034,
        1.3394391
      ],
      [
        103.8524707,
        1.3394694
      ],
      [
        103.8525499,
        1.3395037
      ],
      [
        103.8527896,
        1.3398894
      ],
      [
        103.8528793,
        1.340038
      ],
      [
        103.8529691,
        1.340219
      ],
      [
        103.8530722,
        1.3404762
      ],
      [
        103.8531611,
        1.3407042
      ],
      [
        103.8532047,
        1.3408186
      ],
      [
        103.8533395,
        1.3411383
      ],
      [
        103.8533788,
        1.3412589
      ],
      [
        103.8534076,
        1.3413741
      ],
      [
        103.8534309,
        1.341471
      ],
      [
        103.8534738,
        1.3416626
      ],
      [
        103.8534953,
        1.3418931
      ],
      [
        103.8535105,
        1.3420974
      ],
      [
        103.8536074,
        1.3436002
      ],
      [
        103.8535957,
        1.3438041
      ],
      [
        103.8535627,
        1.3439151
      ],
      [
        103.8535229,
        1.3440066
      ],
      [
        103.8534806,
        1.3440629
      ],
      [
        103.8534211,
        1.3441141
      ],
      [
        103.8533489,
        1.3441546
      ],
      [
        103.8532752,
        1.3441705
      ],
      [
        103.8531921,
        1.3441727
      ],
      [
        103.8530936,
        1.3441505
      ],
      [
        103.853023,
        1.3441139
      ],
      [
        103.8529716,
        1.3440693
      ],
      [
        103.8529272,
        1.3440147
      ],
      [
        103.8528976,
        1.3439435
      ],
      [
        103.8528746,
        1.3438558
      ],
      [
        103.8528742,
        1.3437857
      ],
      [
        103.8528922,
        1.3437128
      ],
      [
        103.8529224,
        1.3436382
      ],
      [
        103.8529618,
        1.3435776
      ],
      [
        103.8530208,
        1.3435036
      ],
      [
        103.8531703,
        1.3434425
      ],
      [
        103.8533529,
        1.3433743
      ],
      [
        103.8535348,
        1.3433532
      ],
      [
        103.8538463,
        1.3433361
      ],
      [
        103.8540656,
        1.3433501
      ],
      [
        103.85436,
        1.3433875
      ],
      [
        103.8546397,
        1.3434393
      ],
      [
        103.8548589,
        1.3434654
      ],
      [
        103.8554149,
        1.3434898
      ],
      [
        103.8556539,
        1.3434938
      ],
      [
        103.8558791,
        1.3435044
      ],
      [
        103.8562097,
        1.3435136
      ],
      [
        103.8565318,
        1.343521
      ],
      [
        103.8569744,
        1.3434966
      ],
      [
        103.8573874,
        1.3434807
      ],
      [
        103.8575388,
        1.3434778
      ],
      [
        103.8576759,
        1.3434705
      ],
      [
        103.8580654,
        1.3434631
      ],
      [
        103.8582345,
        1.3434624
      ],
      [
        103.8583902,
        1.3434615
      ],
      [
        103.8585144,
        1.3434615
      ],
      [
        103.8585985,
        1.3434626
      ],
      [
        103.8587135,
        1.3434675
      ],
      [
        103.8591114,
        1.3434902
      ],
      [
        103.8591854,
        1.343498
      ],
      [
        103.859587,
        1.3435194
      ],
      [
        103.8597275,
        1.3435664
      ],
      [
        103.8600703,
        1.3436287
      ],
      [
        103.8603238,
        1.3436629
      ],
      [
        103.8606092,
        1.3436618
      ],
      [
        103.8607407,
        1.3436369
      ],
      [
        103.8609578,
        1.3435949
      ],
      [
        103.8611746,
        1.3435856
      ],
      [
        103.8614203,
        1.3436086
      ],
      [
        103.8614555,
        1.343612
      ],
      [
        103.8617794,
        1.3436428
      ],
      [
        103.8622258,
        1.3437205
      ],
      [
        103.8622815,
        1.3437302
      ],
      [
        103.8625036,
        1.3437767
      ],
      [
        103.8629518,
        1.3438706
      ],
      [
        103.8630987,
        1.343908
      ],
      [
        103.8631489,
        1.3439208
      ],
      [
        103.8632056,
        1.3439374
      ],
      [
        103.8635877,
        1.3440495
      ],
      [
        103.8636155,
        1.3440578
      ],
      [
        103.8636708,
        1.3440735
      ],
      [
        103.8639542,
        1.3441375
      ],
      [
        103.8641766,
        1.344215
      ],
      [
        103.8643782,
        1.3442754
      ],
      [
        103.8646266,
        1.3443269
      ],
      [
        103.8648035,
        1.3443436
      ],
      [
        103.8650331,
        1.3443544
      ],
      [
        103.8653045,
        1.3443387
      ],
      [
        103.8654203,
        1.3443271
      ],
      [
        103.8654626,
        1.3443156
      ],
      [
        103.8655253,
        1.3443031
      ],
      [
        103.8656864,
        1.3442623
      ],
      [
        103.8660326,
        1.3441484
      ],
      [
        103.8667918,
        1.3438558
      ],
      [
        103.8672071,
        1.3436809
      ],
      [
        103.8677505,
        1.3434745
      ],
      [
        103.868131,
        1.3432881
      ],
      [
        103.8688539,
        1.3429525
      ],
      [
        103.8692382,
        1.3428252
      ],
      [
        103.8695854,
        1.3427478
      ],
      [
        103.8698165,
        1.3427676
      ],
      [
        103.8701303,
        1.3428667
      ],
      [
        103.8703866,
        1.3429778
      ],
      [
        103.8705751,
        1.3430781
      ],
      [
        103.8707208,
        1.3431556
      ],
      [
        103.8709501,
        1.3432775
      ],
      [
        103.8711449,
        1.3433823
      ],
      [
        103.8714334,
        1.3434946
      ],
      [
        103.8718155,
        1.3435861
      ],
      [
        103.8722119,
        1.3436105
      ],
      [
        103.8726652,
        1.3435869
      ],
      [
        103.8731497,
        1.3435647
      ],
      [
        103.8737026,
        1.3435273
      ],
      [
        103.8739024,
        1.3435295
      ],
      [
        103.8740955,
        1.3435516
      ],
      [
        103.8741752,
        1.3435595
      ],
      [
        103.874429,
        1.3436071
      ],
      [
        103.8746246,
        1.3436574
      ],
      [
        103.8748871,
        1.3437566
      ],
      [
        103.8755144,
        1.3440059
      ],
      [
        103.8756445,
        1.3440599
      ],
      [
        103.8758335,
        1.3441341
      ],
      [
        103.8760576,
        1.344226
      ],
      [
        103.8762589,
        1.3443
      ],
      [
        103.8764612,
        1.3443579
      ],
      [
        103.8766899,
        1.3443846
      ],
      [
        103.8769498,
        1.3443832
      ],
      [
        103.8771706,
        1.344357
      ],
      [
        103.8772349,
        1.3443327
      ],
      [
        103.8773486,
        1.344288
      ],
      [
        103.8774522,
        1.3442325
      ],
      [
        103.8775713,
        1.3441599
      ],
      [
        103.8777709,
        1.3440429
      ],
      [
        103.878032,
        1.3438881
      ],
      [
        103.8782012,
        1.3438088
      ],
      [
        103.8782638,
        1.3437695
      ],
      [
        103.8783013,
        1.3437413
      ],
      [
        103.878542,
        1.3435844
      ],
      [
        103.8787875,
        1.3434323
      ],
      [
        103.8793318,
        1.3431205
      ],
      [
        103.8796439,
        1.3429448
      ],
      [
        103.8796665,
        1.3429338
      ],
      [
        103.8798155,
        1.342852
      ],
      [
        103.879966,
        1.3427789
      ],
      [
        103.8807267,
        1.3424099
      ],
      [
        103.8809894,
        1.3422832
      ],
      [
        103.8817231,
        1.3419353
      ],
      [
        103.8819054,
        1.3418514
      ],
      [
        103.8821009,
        1.3417588
      ],
      [
        103.8821539,
        1.3417321
      ],
      [
        103.8828106,
        1.3414379
      ],
      [
        103.8832184,
        1.3412552
      ],
      [
        103.8835698,
        1.3411302
      ],
      [
        103.8839232,
        1.3410339
      ],
      [
        103.8842481,
        1.340978
      ],
      [
        103.8845676,
        1.3409371
      ],
      [
        103.8848134,
        1.340922
      ],
      [
        103.8850439,
        1.340917
      ],
      [
        103.8853618,
        1.3409234
      ],
      [
        103.8856988,
        1.3409666
      ],
      [
        103.8858658,
        1.3409961
      ],
      [
        103.8860308,
        1.3410377
      ],
      [
        103.8863493,
        1.3411284
      ],
      [
        103.8868508,
        1.3413481
      ],
      [
        103.8873459,
        1.3415946
      ],
      [
        103.8884448,
        1.3422021
      ],
      [
        103.8887344,
        1.3423416
      ],
      [
        103.8891401,
        1.3425028
      ],
      [
        103.88948,
        1.3426369
      ],
      [
        103.88987,
        1.3427782
      ],
      [
        103.8904487,
        1.3429868
      ],
      [
        103.8911988,
        1.3432436
      ],
      [
        103.8917864,
        1.3433788
      ],
      [
        103.8920899,
        1.3433927
      ],
      [
        103.8923893,
        1.3433879
      ],
      [
        103.8928114,
        1.3432948
      ],
      [
        103.8932848,
        1.3430924
      ],
      [
        103.8937052,
        1.342786
      ],
      [
        103.8941284,
        1.3424743
      ],
      [
        103.8946239,
        1.3421304
      ],
      [
        103.8949464,
        1.341942
      ],
      [
        103.8955191,
        1.3416632
      ],
      [
        103.8974229,
        1.3406773
      ],
      [
        103.8983202,
        1.3401787
      ],
      [
        103.8993546,
        1.3396151
      ],
      [
        103.8997381,
        1.3394265
      ],
      [
        103.9001509,
        1.3392538
      ],
      [
        103.9005953,
        1.3390958
      ],
      [
        103.901002,
        1.3389738
      ],
      [
        103.9013484,
        1.3388883
      ],
      [
        103.9014843,
        1.3388724
      ],
      [
        103.9020615,
        1.3387677
      ],
      [
        103.9025698,
        1.338692
      ],
      [
        103.9029002,
        1.3386277
      ],
      [
        103.903083,
        1.3385921
      ],
      [
        103.9037768,
        1.338435
      ],
      [
        103.9039568,
        1.338391
      ],
      [
        103.9046351,
        1.3382325
      ],
      [
        103.904884,
        1.3381764
      ],
      [
        103.9064839,
        1.3378085
      ],
      [
        103.9070291,
        1.3376971
      ],
      [
        103.9073699,
        1.3376326
      ],
      [
        103.9077227,
        1.3375914
      ],
      [
        103.908165,
        1.3375681
      ],
      [
        103.9085947,
        1.3375733
      ],
      [
        103.9089209,
        1.3375975
      ],
      [
        103.90925,
        1.3376416
      ],
      [
        103.9096291,
        1.3377251
      ],
      [
        103.9100201,
        1.3378412
      ],
      [
        103.9105028,
        1.3380097
      ],
      [
        103.9109868,
        1.3382384
      ],
      [
        103.9126418,
        1.3390397
      ],
      [
        103.9130369,
        1.3392309
      ],
      [
        103.9133989,
        1.3394424
      ],
      [
        103.9137451,
        1.3396865
      ],
      [
        103.9140881,
        1.3399648
      ],
      [
        103.9143859,
        1.3402403
      ],
      [
        103.9147559,
        1.340646
      ],
      [
        103.9149528,
        1.3408784
      ],
      [
        103.9152282,
        1.3412761
      ],
      [
        103.9155163,
        1.3417758
      ],
      [
        103.915747,
        1.342233
      ],
      [
        103.9159937,
        1.3427264
      ],
      [
        103.9160702,
        1.342894
      ],
      [
        103.9161775,
        1.3429865
      ],
      [
        103.9162498,
        1.3430602
      ],
      [
        103.9163719,
        1.3432251
      ],
      [
        103.9165691,
        1.3434799
      ],
      [
        103.916793,
        1.3437158
      ],
      [
        103.9170036,
        1.343937
      ],
      [
        103.9173925,
        1.3442937
      ],
      [
        103.9177707,
        1.3446181
      ],
      [
        103.9183407,
        1.3450941
      ],
      [
        103.9188556,
        1.3455473
      ],
      [
        103.9191239,
        1.3457645
      ],
      [
        103.9194095,
        1.3459616
      ],
      [
        103.9197166,
        1.3461452
      ],
      [
        103.9200331,
        1.3462994
      ],
      [
        103.921375,
        1.346877
      ],
      [
        103.9220555,
        1.3471763
      ],
      [
        103.9225147,
        1.3473688
      ],
      [
        103.9236529,
        1.347846
      ],
      [
        103.9239665,
        1.3479801
      ],
      [
        103.9241169,
        1.348053
      ],
      [
        103.9242555,
        1.3481292
      ],
      [
        103.9244143,
        1.3482244
      ],
      [
        103.9245498,
        1.3483165
      ],
      [
        103.9247573,
        1.3484826
      ],
      [
        103.9250564,
        1.3487382
      ],
      [
        103.9252423,
        1.3489437
      ],
      [
        103.9253501,
        1.3491005
      ],
      [
        103.9254926,
        1.3493447
      ],
      [
        103.9258213,
        1.3499047
      ],
      [
        103.9260145,
        1.3502606
      ],
      [
        103.9260674,
        1.3504001
      ],
      [
        103.9262101,
        1.3503215
      ],
      [
        103.9263141,
        1.3502621
      ],
      [
        103.9263408,
        1.3502469
      ],
      [
        103.9264227,
        1.3502001
      ],
      [
        103.9265175,
        1.3501485
      ],
      [
        103.9269368,
        1.3499174
      ],
      [
        103.9271436,
        1.3498062
      ],
      [
        103.9275921,
        1.3495555
      ],
      [
        103.9277893,
        1.3494463
      ],
      [
        103.9281589,
        1.3492352
      ],
      [
        103.928286,
        1.349163
      ],
      [
        103.9284813,
        1.3490642
      ],
      [
        103.9285503,
        1.3490293
      ],
      [
        103.9286381,
        1.348983
      ],
      [
        103.9287105,
        1.3489427
      ],
      [
        103.9292988,
        1.3486162
      ],
      [
        103.9297942,
        1.3483444
      ],
      [
        103.9298428,
        1.3483165
      ],
      [
        103.9301186,
        1.3481655
      ],
      [
        103.9303784,
        1.3480317
      ],
      [
        103.930826,
        1.3478067
      ],
      [
        103.9311152,
        1.3476516
      ],
      [
        103.9313534,
        1.3475238
      ],
      [
        103.9316661,
        1.3473715
      ],
      [
        103.9317013,
        1.3473553
      ],
      [
        103.9327387,
        1.3469204
      ],
      [
        103.9338008,
        1.3464713
      ],
      [
        103.934225,
        1.3462972
      ],
      [
        103.9342898,
        1.3462698
      ],
      [
        103.934429,
        1.3462108
      ],
      [
        103.9344471,
        1.3462031
      ],
      [
        103.9345425,
        1.3461627
      ],
      [
        103.9347528,
        1.3460719
      ],
      [
        103.9349255,
        1.346007
      ],
      [
        103.9354479,
        1.3457914
      ],
      [
        103.9358109,
        1.3456403
      ],
      [
        103.9358712,
        1.3456153
      ],
      [
        103.9359692,
        1.3455635
      ],
      [
        103.9362299,
        1.3454602
      ],
      [
        103.9363672,
        1.3454051
      ],
      [
        103.9369371,
        1.345175
      ],
      [
        103.9371738,
        1.3450794
      ],
      [
        103.93732,
        1.3450204
      ],
      [
        103.9375479,
        1.3449438
      ],
      [
        103.9376778,
        1.3449023
      ],
      [
        103.9377959,
        1.3448778
      ],
      [
        103.9379205,
        1.3448587
      ],
      [
        103.9380727,
        1.3448427
      ],
      [
        103.9381808,
        1.3448444
      ],
      [
        103.9383309,
        1.3448481
      ],
      [
        103.9383339,
        1.3449278
      ],
      [
        103.9383182,
        1.3457136
      ],
      [
        103.9383141,
        1.3459861
      ],
      [
        103.9383056,
        1.3464738
      ],
      [
        103.9383054,
        1.3465438
      ],
      [
        103.9383043,
        1.3466282
      ],
      [
        103.9383033,
        1.3467071
      ],
      [
        103.9382996,
        1.3468196
      ],
      [
        103.9382909,
        1.3470636
      ],
      [
        103.938274,
        1.3474708
      ],
      [
        103.9382514,
        1.3477877
      ],
      [
        103.9382378,
        1.3479511
      ],
      [
        103.9381966,
        1.3484205
      ],
      [
        103.9381848,
        1.3485512
      ],
      [
        103.9381722,
        1.3486898
      ],
      [
        103.9381665,
        1.3487556
      ],
      [
        103.9381581,
        1.3488416
      ],
      [
        103.9381551,
        1.3488762
      ],
      [
        103.9380254,
        1.3495668
      ],
      [
        103.9379798,
        1.3499797
      ],
      [
        103.9379838,
        1.3501581
      ],
      [
        103.9379919,
        1.3502573
      ],
      [
        103.9380214,
        1.3504168
      ],
      [
        103.9380517,
        1.3505539
      ],
      [
        103.9381038,
        1.3506956
      ],
      [
        103.9381664,
        1.3508259
      ],
      [
        103.938177,
        1.3508444
      ],
      [
        103.9382314,
        1.3509383
      ],
      [
        103.9383125,
        1.3510641
      ],
      [
        103.938397,
        1.3511765
      ],
      [
        103.9385236,
        1.3513124
      ],
      [
        103.9386586,
        1.3514246
      ],
      [
        103.9387694,
        1.3515045
      ],
      [
        103.9389425,
        1.3516137
      ],
      [
        103.939107,
        1.3516986
      ],
      [
        103.9392476,
        1.3517538
      ],
      [
        103.9392703,
        1.3517592
      ],
      [
        103.9393391,
        1.3517757
      ],
      [
        103.9394271,
        1.351793
      ],
      [
        103.9395135,
        1.3518012
      ],
      [
        103.9395907,
        1.3518064
      ],
      [
        103.939689,
        1.3518074
      ],
      [
        103.9399958,
        1.3518058
      ],
      [
        103.9405439,
        1.3517984
      ],
      [
        103.9407089,
        1.3517991
      ],
      [
        103.9408471,
        1.3517978
      ],
      [
        103.9410306,
        1.3517987
      ],
      [
        103.9413348,
        1.3517985
      ],
      [
        103.9413955,
        1.3517953
      ],
      [
        103.9415453,
        1.3517928
      ],
      [
        103.9415925,
        1.3517936
      ],
      [
        103.9418173,
        1.3517757
      ],
      [
        103.9424323,
        1.3517736
      ],
      [
        103.942793,
        1.3517702
      ],
      [
        103.943013,
        1.3517689
      ],
      [
        103.9432076,
        1.3517683
      ],
      [
        103.9432755,
        1.3517687
      ],
      [
        103.9433491,
        1.3517691
      ],
      [
        103.9437039,
        1.351771
      ],
      [
        103.9438188,
        1.3517721
      ],
      [
        103.9440052,
        1.3517732
      ],
      [
        103.9441706,
        1.3517771
      ],
      [
        103.9443121,
        1.3517907
      ],
      [
        103.9443998,
        1.3518108
      ],
      [
        103.9445002,
        1.3518336
      ],
      [
        103.9445767,
        1.3518523
      ],
      [
        103.9446749,
        1.3518775
      ],
      [
        103.9449293,
        1.3519755
      ],
      [
        103.9451583,
        1.3521098
      ],
      [
        103.9452802,
        1.3521997
      ],
      [
        103.9454375,
        1.3523222
      ],
      [
        103.9455544,
        1.3524235
      ],
      [
        103.9455952,
        1.3524604
      ],
      [
        103.9456905,
        1.3525591
      ],
      [
        103.945815,
        1.3527085
      ],
      [
        103.945885,
        1.3528064
      ],
      [
        103.9459766,
        1.3529421
      ],
      [
        103.9460589,
        1.3531318
      ],
      [
        103.9461235,
        1.3533216
      ],
      [
        103.9461653,
        1.3534952
      ],
      [
        103.9461975,
        1.3536847
      ],
      [
        103.9462218,
        1.3538787
      ],
      [
        103.9462362,
        1.3540483
      ],
      [
        103.9462402,
        1.3543371
      ],
      [
        103.9462427,
        1.3544166
      ],
      [
        103.9462428,
        1.3544773
      ],
      [
        103.9462432,
        1.3548009
      ],
      [
        103.9462417,
        1.3552843
      ],
      [
        103.9462418,
        1.3553748
      ],
      [
        103.9462419,
        1.3555129
      ],
      [
        103.946242,
        1.3557171
      ],
      [
        103.9462407,
        1.3558696
      ],
      [
        103.9462396,
        1.3559916
      ],
      [
        103.9462387,
        1.3561753
      ],
      [
        103.9462365,
        1.3566002
      ],
      [
        103.9462362,
        1.3566594
      ],
      [
        103.9461147,
        1.3566608
      ],
      [
        103.9460532,
        1.3566597
      ],
      [
        103.9451057,
        1.3566572
      ],
      [
        103.9441307,
        1.3566516
      ],
      [
        103.9441292,
        1.3565915
      ],
      [
        103.9441048,
        1.3556207
      ],
      [
        103.9441035,
        1.3555579
      ],
      [
        103.9441042,
        1.3554823
      ],
      [
        103.9440322,
        1.3554822
      ],
      [
        103.9439342,
        1.3554828
      ],
      [
        103.9435426,
        1.3554845
      ],
      [
        103.9433157,
        1.3554592
      ],
      [
        103.9431621,
        1.3554193
      ],
      [
        103.9430654,
        1.3553575
      ],
      [
        103.9429772,
        1.3552755
      ],
      [
        103.9429401,
        1.3552385
      ],
      [
        103.9428826,
        1.3551813
      ],
      [
        103.9428309,
        1.355241
      ],
      [
        103.9427831,
        1.3552866
      ],
      [
        103.9426827,
        1.3553823
      ],
      [
        103.9424135,
        1.3556527
      ],
      [
        103.9422409,
        1.355836
      ],
      [
        103.9421009,
        1.3559824
      ],
      [
        103.9419948,
        1.3560934
      ],
      [
        103.9415126,
        1.3565358
      ],
      [
        103.941148,
        1.3568996
      ],
      [
        103.9410367,
        1.3570063
      ],
      [
        103.9410244,
        1.3570181
      ],
      [
        103.9409721,
        1.35707
      ],
      [
        103.9409122,
        1.3571294
      ],
      [
        103.9408504,
        1.3571941
      ],
      [
        103.9406855,
        1.3573705
      ],
      [
        103.9405531,
        1.3575153
      ],
      [
        103.9402889,
        1.3577889
      ],
      [
        103.9401281,
        1.3579685
      ],
      [
        103.9400828,
        1.3580191
      ],
      [
        103.9400155,
        1.358084
      ],
      [
        103.9399667,
        1.3581328
      ],
      [
        103.9397895,
        1.3583097
      ],
      [
        103.9395965,
        1.3584956
      ],
      [
        103.9394373,
        1.3586489
      ],
      [
        103.9393553,
        1.3587851
      ],
      [
        103.9393016,
        1.3589491
      ],
      [
        103.9392642,
        1.359298
      ],
      [
        103.9392859,
        1.3595329
      ],
      [
        103.9392827,
        1.3596678
      ],
      [
        103.9392991,
        1.3598875
      ],
      [
        103.9392969,
        1.3599583
      ],
      [
        103.9392972,
        1.36004
      ],
      [
        103.9392998,
        1.3602491
      ],
      [
        103.9393006,
        1.3603217
      ],
      [
        103.9393021,
        1.36044
      ],
      [
        103.9393822,
        1.3604422
      ],
      [
        103.9394675,
        1.3604445
      ],
      [
        103.9398602,
        1.3604553
      ],
      [
        103.9401862,
        1.3604647
      ],
      [
        103.9405001,
        1.3604663
      ],
      [
        103.9410495,
        1.3604658
      ],
      [
        103.9413577,
        1.3604586
      ],
      [
        103.9417744,
        1.3604552
      ],
      [
        103.9419081,
        1.3605451
      ],
      [
        103.9419573,
        1.3605826
      ],
      [
        103.9419972,
        1.3606572
      ],
      [
        103.9420429,
        1.3608207
      ],
      [
        103.9420431,
        1.3609595
      ],
      [
        103.9420496,
        1.3611168
      ],
      [
        103.9420695,
        1.3612515
      ],
      [
        103.9421317,
        1.361471
      ],
      [
        103.9422137,
        1.361682
      ],
      [
        103.9423114,
        1.361862
      ],
      [
        103.9424368,
        1.3620416
      ],
      [
        103.9426493,
        1.362233
      ],
      [
        103.9429913,
        1.3624786
      ],
      [
        103.9434527,
        1.3627735
      ],
      [
        103.9435145,
        1.362861
      ],
      [
        103.9435418,
        1.3629239
      ],
      [
        103.9435483,
        1.3629854
      ],
      [
        103.9435438,
        1.3631128
      ],
      [
        103.9430435,
        1.3638893
      ],
      [
        103.9427735,
        1.3643103
      ],
      [
        103.9427432,
        1.3643576
      ],
      [
        103.9426921,
        1.3644249
      ],
      [
        103.9426368,
        1.3645092
      ],
      [
        103.9423241,
        1.3649861
      ],
      [
        103.9421947,
        1.3651883
      ],
      [
        103.9418635,
        1.3656927
      ],
      [
        103.9416316,
        1.3659988
      ],
      [
        103.9414848,
        1.3661492
      ],
      [
        103.9413647,
        1.3662723
      ],
      [
        103.9409423,
        1.366637
      ],
      [
        103.9408119,
        1.3667334
      ],
      [
        103.9406295,
        1.3668471
      ],
      [
        103.9403227,
        1.3670071
      ],
      [
        103.9399039,
        1.3672293
      ],
      [
        103.9395885,
        1.3674052
      ],
      [
        103.9394939,
        1.3674508
      ],
      [
        103.9394141,
        1.3674984
      ],
      [
        103.9393109,
        1.367549
      ],
      [
        103.9390164,
        1.3676908
      ],
      [
        103.938792,
        1.3677982
      ],
      [
        103.9387234,
        1.3678772
      ],
      [
        103.9387136,
        1.3679183
      ],
      [
        103.9387221,
        1.367974
      ],
      [
        103.9387452,
        1.3680075
      ],
      [
        103.938764,
        1.3680861
      ],
      [
        103.9389943,
        1.368445
      ],
      [
        103.9393372,
        1.3689847
      ],
      [
        103.939395,
        1.369023
      ],
      [
        103.939465,
        1.3690091
      ],
      [
        103.9395824,
        1.3689335
      ],
      [
        103.9396968,
        1.3688461
      ],
      [
        103.9397265,
        1.3688118
      ],
      [
        103.9397,
        1.3687462
      ],
      [
        103.9393531,
        1.3681897
      ],
      [
        103.9393088,
        1.3681735
      ],
      [
        103.9392534,
        1.3681838
      ],
      [
        103.9391234,
        1.368262
      ],
      [
        103.9390511,
        1.3683155
      ],
      [
        103.9390004,
        1.3683677
      ],
      [
        103.9389943,
        1.368445
      ]
    ]
  }
}