{
  "type": "Feature",
  "properties": {
    "relation": 12980601,
    "direction": "1",
    "fee": "yes",
    "from": "Ang Mo Kio Interchange",
    "name": "Svc 130A (Ang Mo Kio Interchange → Blk 25)",
    "name:en": "Svc 130A (Ang Mo Kio Interchange → Blk 25)",
    "network": "Land Transport Authority",
    "network:short": "LTA",
    "network:wikidata": "Q3299279",
    "network:wikipedia": "en:Land Transport Authority",
    "operator": "SBS Transit",
    "operator:wikidata": "Q2661305",
    "operator:wikipedia": "en:SBS Transit",
    "public_transport:version": "2",
    "ref": "130A",
    "route": "bus",
    "to": "Blk 25",
    "type": "route",
    "website": "https://www.sbstransit.com.sg/"
  },
  "geometry": {
    "type": "LineString",
    "coordinates": [
      [
        103.84805,
        1.3698969
      ],
      [
        103.8480507,
        1.3699117
      ],
      [
        103.8480634,
        1.3699244
      ],
      [
        103.8482049,
        1.3699398
      ],
      [
        103.8482244,
        1.3699324
      ],
      [
        103.8482807,
        1.3698714
      ],
      [
        103.8483068,
        1.3698574
      ],
      [
        103.8483323,
        1.3698533
      ],
      [
        103.8485429,
        1.3698627
      ],
      [
        103.8487223,
        1.3698835
      ],
      [
        103.8489979,
        1.3700299
      ],
      [
        103.849065,
        1.3700672
      ],
      [
        103.8491698,
        1.3701314
      ],
      [
        103.849201,
        1.370086
      ],
      [
        103.8497207,
        1.369151
      ],
      [
        103.8497652,
        1.3690664
      ],
      [
        103.8498257,
        1.3689692
      ],
      [
        103.8497029,
        1.3689342
      ],
      [
        103.8495992,
        1.3689101
      ],
      [
        103.849163,
        1.3687975
      ],
      [
        103.8490109,
        1.3687656
      ],
      [
        103.848851,
        1.3687389
      ],
      [
        103.8486871,
        1.3687224
      ],
      [
        103.8484798,
        1.3687163
      ],
      [
        103.8484349,
        1.3687162
      ],
      [
        103.8482372,
        1.3687157
      ],
      [
        103.8479767,
        1.3687273
      ],
      [
        103.8474676,
        1.3687766
      ],
      [
        103.8472415,
        1.3688044
      ],
      [
        103.846925,
        1.3688408
      ],
      [
        103.8467876,
        1.368864
      ],
      [
        103.8464105,
        1.3689095
      ],
      [
        103.8462801,
        1.3689253
      ],
      [
        103.8457779,
        1.3689859
      ],
      [
        103.8456878,
        1.3689346
      ],
      [
        103.8456165,
        1.3688969
      ],
      [
        103.8455784,
        1.3688608
      ],
      [
        103.8454969,
        1.3688187
      ],
      [
        103.8452983,
        1.3685578
      ],
      [
        103.8452307,
        1.3683162
      ],
      [
        103.845024,
        1.3677944
      ],
      [
        103.8449024,
        1.3675783
      ],
      [
        103.8448027,
        1.3674108
      ],
      [
        103.8447713,
        1.3673652
      ],
      [
        103.8446033,
        1.3671138
      ],
      [
        103.8443684,
        1.3667891
      ],
      [
        103.8442983,
        1.3667036
      ],
      [
        103.8442425,
        1.3666193
      ],
      [
        103.8438913,
        1.3661521
      ],
      [
        103.8437603,
        1.3659839
      ],
      [
        103.8436149,
        1.365808
      ],
      [
        103.8435693,
        1.3657194
      ],
      [
        103.8436026,
        1.3653827
      ],
      [
        103.8434947,
        1.3647946
      ],
      [
        103.8434379,
        1.3645431
      ],
      [
        103.8433625,
        1.3641975
      ],
      [
        103.8433225,
        1.3640564
      ],
      [
        103.8432683,
        1.3639552
      ],
      [
        103.8431449,
        1.3636705
      ],
      [
        103.8430293,
        1.3634647
      ],
      [
        103.8429841,
        1.3633362
      ],
      [
        103.8428737,
        1.3630921
      ],
      [
        103.8427383,
        1.3628645
      ],
      [
        103.8426396,
        1.3626128
      ],
      [
        103.8426229,
        1.3625478
      ],
      [
        103.8425796,
        1.3623873
      ],
      [
        103.8425468,
        1.362261
      ],
      [
        103.842105,
        1.3611385
      ],
      [
        103.8419767,
        1.360779
      ],
      [
        103.8419429,
        1.3606966
      ],
      [
        103.8417893,
        1.360744
      ],
      [
        103.8413672,
        1.3609021
      ],
      [
        103.8408129,
        1.3611992
      ],
      [
        103.8407878,
        1.3612113
      ],
      [
        103.8404667,
        1.3613656
      ],
      [
        103.8397722,
        1.3616875
      ],
      [
        103.8393573,
        1.3618744
      ],
      [
        103.8392591,
        1.3618696
      ],
      [
        103.8391714,
        1.361863
      ],
      [
        103.8391182,
        1.3618552
      ],
      [
        103.839065,
        1.3618386
      ],
      [
        103.8389977,
        1.3618002
      ],
      [
        103.838934,
        1.3617592
      ],
      [
        103.8388783,
        1.3617123
      ],
      [
        103.8388227,
        1.3616627
      ],
      [
        103.8387837,
        1.3615583
      ],
      [
        103.8387428,
        1.3614792
      ],
      [
        103.8387012,
        1.3613985
      ],
      [
        103.8386671,
        1.3613315
      ],
      [
        103.8386004,
        1.361192
      ],
      [
        103.838535,
        1.361055
      ],
      [
        103.8384019,
        1.3607759
      ],
      [
        103.8383668,
        1.3607024
      ],
      [
        103.8382816,
        1.3605243
      ],
      [
        103.8382638,
        1.3604871
      ],
      [
        103.8383258,
        1.3604565
      ],
      [
        103.8387119,
        1.3602658
      ],
      [
        103.8388997,
        1.3601731
      ],
      [
        103.8391823,
        1.3600411
      ],
      [
        103.8394361,
        1.3599119
      ],
      [
        103.8398068,
        1.3597281
      ],
      [
        103.8398366,
        1.359707
      ],
      [
        103.8398534,
        1.3596951
      ],
      [
        103.8398669,
        1.3596856
      ],
      [
        103.8398764,
        1.3596789
      ],
      [
        103.8398472,
        1.3596229
      ],
      [
        103.8398311,
        1.359592
      ],
      [
        103.8396761,
        1.3592405
      ],
      [
        103.8396145,
        1.3591007
      ],
      [
        103.8394752,
        1.3587958
      ],
      [
        103.8393734,
        1.3585702
      ],
      [
        103.8393461,
        1.3585118
      ],
      [
        103.8393319,
        1.3584766
      ],
      [
        103.8392227,
        1.358214
      ],
      [
        103.8391334,
        1.35801
      ],
      [
        103.8390859,
        1.357892
      ],
      [
        103.8388879,
        1.3574878
      ],
      [
        103.8387838,
        1.3572972
      ],
      [
        103.8386009,
        1.3569677
      ],
      [
        103.8385871,
        1.3569403
      ],
      [
        103.8384937,
        1.3567557
      ],
      [
        103.8384322,
        1.3566512
      ],
      [
        103.8384125,
        1.3566195
      ],
      [
        103.8383691,
        1.3565811
      ],
      [
        103.8383325,
        1.3565287
      ],
      [
        103.837921,
        1.3559562
      ],
      [
        103.837822,
        1.3558245
      ],
      [
        103.8377188,
        1.3557051
      ],
      [
        103.83766,
        1.3556369
      ],
      [
        103.8375871,
        1.3555908
      ],
      [
        103.8375328,
        1.3555336
      ],
      [
        103.837439,
        1.3554454
      ],
      [
        103.8373663,
        1.3553919
      ],
      [
        103.8372451,
        1.3553071
      ],
      [
        103.8371889,
        1.3552595
      ],
      [
        103.836844,
        1.3549693
      ]
    ]
  }
}