{
  "type": "Feature",
  "properties": {
    "relation": 1153451,
    "direction": "1",
    "fee": "yes",
    "from": "Ang Mo Kio Interchange",
    "name": "Svc 135 (Ang Mo Kio Interchange → Kembangan Station)",
    "name:en": "Svc 135 (Ang Mo Kio Interchange → Kembangan Station)",
    "network": "Land Transport Authority",
    "network:short": "LTA",
    "network:wikidata": "Q3299279",
    "network:wikipedia": "en:Land Transport Authority",
    "operator": "SBS",
    "operator:wikidata": "Q2661305",
    "operator:wikipedia": "en:SBS Transit",
    "public_transport:version": "2",
    "ref": "135",
    "route": "bus",
    "to": "Kembangan Station",
    "type": "route",
    "website": "https://www.sbstransit.com.sg/"
  },
  "geometry": {
    "type": "LineString",
    "coordinates": [
      [
        103.8489514,
        1.3697347
      ],
      [
        103.8490249,
        1.3696195
      ],
      [
        103.8490203,
        1.3695524
      ],
      [
        103.848986,
        1.3695328
      ],
      [
        103.8488873,
        1.3695059
      ],
      [
        103.8484732,
        1.3694438
      ],
      [
        103.8482927,
        1.3694331
      ],
      [
        103.8482028,
        1.3694596
      ],
      [
        103.8481351,
        1.3696116
      ],
      [
        103.8480878,
        1.3697298
      ],
      [
        103.84805,
        1.3698969
      ],
      [
        103.8480507,
        1.3699117
      ],
      [
        103.8480634,
        1.3699244
      ],
      [
        103.8482049,
        1.3699398
      ],
      [
        103.8482244,
        1.3699324
      ],
      [
        103.8482807,
        1.3698714
      ],
      [
        103.8483068,
        1.3698574
      ],
      [
        103.8483323,
        1.3698533
      ],
      [
        103.8485429,
        1.3698627
      ],
      [
        103.8487223,
        1.3698835
      ],
      [
        103.8489979,
        1.3700299
      ],
      [
        103.849065,
        1.3700672
      ],
      [
        103.8491698,
        1.3701314
      ],
      [
        103.849201,
        1.370086
      ],
      [
        103.8497207,
        1.369151
      ],
      [
        103.8497652,
        1.3690664
      ],
      [
        103.8498257,
        1.3689692
      ],
      [
        103.8498681,
        1.3689114
      ],
      [
        103.8498834,
        1.3688854
      ],
      [
        103.8501091,
        1.368501
      ],
      [
        103.8506297,
        1.3676048
      ],
      [
        103.8509349,
        1.3670794
      ],
      [
        103.8513034,
        1.3663919
      ],
      [
        103.8513269,
        1.366344
      ],
      [
        103.8513635,
        1.3662709
      ],
      [
        103.8514136,
        1.3661905
      ],
      [
        103.8516488,
        1.3657931
      ],
      [
        103.8519014,
        1.3653317
      ],
      [
        103.8519607,
        1.3652316
      ],
      [
        103.8522331,
        1.3647601
      ],
      [
        103.8523114,
        1.3646272
      ],
      [
        103.8524329,
        1.3644134
      ],
      [
        103.8524531,
        1.3643776
      ],
      [
        103.8527152,
        1.3638653
      ],
      [
        103.8527751,
        1.3637235
      ],
      [
        103.8528212,
        1.3635975
      ],
      [
        103.8528642,
        1.36347
      ],
      [
        103.852929,
        1.3632458
      ],
      [
        103.8529492,
        1.363123
      ],
      [
        103.8529926,
        1.3627843
      ],
      [
        103.8530074,
        1.3624415
      ],
      [
        103.8530043,
        1.3622347
      ],
      [
        103.8529935,
        1.3620279
      ],
      [
        103.8529605,
        1.3618468
      ],
      [
        103.8529157,
        1.3616382
      ],
      [
        103.8528598,
        1.3614583
      ],
      [
        103.8528359,
        1.3614006
      ],
      [
        103.8527274,
        1.3611157
      ],
      [
        103.8526906,
        1.361019
      ],
      [
        103.8525135,
        1.3606107
      ],
      [
        103.8525234,
        1.3605022
      ],
      [
        103.8525255,
        1.360431
      ],
      [
        103.852536,
        1.3603865
      ],
      [
        103.8525522,
        1.3603304
      ],
      [
        103.8526288,
        1.3601744
      ],
      [
        103.8528892,
        1.3599406
      ],
      [
        103.8531498,
        1.3596919
      ],
      [
        103.8534196,
        1.3593505
      ],
      [
        103.8534902,
        1.3592428
      ],
      [
        103.8536257,
        1.3590189
      ],
      [
        103.8538105,
        1.3587224
      ],
      [
        103.8538729,
        1.3586251
      ],
      [
        103.8539052,
        1.3585752
      ],
      [
        103.8539489,
        1.3585074
      ],
      [
        103.8540065,
        1.3584134
      ],
      [
        103.8544611,
        1.3574225
      ],
      [
        103.854621,
        1.3571219
      ],
      [
        103.8547312,
        1.3569558
      ],
      [
        103.8548533,
        1.3567739
      ],
      [
        103.8550019,
        1.3566083
      ],
      [
        103.8553137,
        1.3563024
      ],
      [
        103.8555076,
        1.3561699
      ],
      [
        103.8555845,
        1.3561173
      ],
      [
        103.8560309,
        1.355855
      ],
      [
        103.8562158,
        1.3557676
      ],
      [
        103.8565897,
        1.3556521
      ],
      [
        103.8568808,
        1.3555802
      ],
      [
        103.8571826,
        1.3555153
      ],
      [
        103.8572365,
        1.3555029
      ],
      [
        103.8578316,
        1.3553658
      ],
      [
        103.8584008,
        1.3552124
      ],
      [
        103.8589551,
        1.3550636
      ],
      [
        103.8590781,
        1.3550313
      ],
      [
        103.8605424,
        1.354676
      ],
      [
        103.8606788,
        1.3546429
      ],
      [
        103.8607264,
        1.3546318
      ],
      [
        103.8609878,
        1.3545578
      ],
      [
        103.8613713,
        1.3544681
      ],
      [
        103.8616909,
        1.3543943
      ],
      [
        103.8622476,
        1.3542633
      ],
      [
        103.8625825,
        1.3541998
      ],
      [
        103.8627151,
        1.3541739
      ],
      [
        103.8627566,
        1.3541635
      ],
      [
        103.8630845,
        1.3540808
      ],
      [
        103.863547,
        1.3539882
      ],
      [
        103.863621,
        1.3539792
      ],
      [
        103.8636989,
        1.3539703
      ],
      [
        103.8637759,
        1.3539663
      ],
      [
        103.8638458,
        1.3539653
      ],
      [
        103.8639178,
        1.3539663
      ],
      [
        103.8639847,
        1.3539683
      ],
      [
        103.8640567,
        1.3539742
      ],
      [
        103.864131,
        1.3539836
      ],
      [
        103.8641786,
        1.3539897
      ],
      [
        103.8643116,
        1.3540225
      ],
      [
        103.8643736,
        1.3540397
      ],
      [
        103.8644904,
        1.3540722
      ],
      [
        103.8646352,
        1.3541124
      ],
      [
        103.8650948,
        1.3542721
      ],
      [
        103.8653864,
        1.3544038
      ],
      [
        103.8660467,
        1.3547085
      ],
      [
        103.8663458,
        1.354849
      ],
      [
        103.8664984,
        1.3549219
      ],
      [
        103.8668316,
        1.3550629
      ],
      [
        103.8673335,
        1.3552403
      ],
      [
        103.8674719,
        1.3552812
      ],
      [
        103.867722,
        1.3553551
      ],
      [
        103.867783,
        1.3553731
      ],
      [
        103.8678683,
        1.3554022
      ],
      [
        103.8678741,
        1.3552701
      ],
      [
        103.8678754,
        1.3552196
      ],
      [
        103.8679063,
        1.3549655
      ],
      [
        103.8679232,
        1.3548679
      ],
      [
        103.8679684,
        1.3545304
      ],
      [
        103.8679952,
        1.354301
      ],
      [
        103.8680199,
        1.3540898
      ],
      [
        103.8680585,
        1.3539339
      ],
      [
        103.868134,
        1.3536004
      ],
      [
        103.8682013,
        1.353323
      ],
      [
        103.8682426,
        1.3531588
      ],
      [
        103.8682783,
        1.3530145
      ],
      [
        103.8682934,
        1.3529538
      ],
      [
        103.868316,
        1.35286
      ],
      [
        103.8683338,
        1.3527924
      ],
      [
        103.8683575,
        1.3527195
      ],
      [
        103.8683871,
        1.3526455
      ],
      [
        103.8684384,
        1.3525482
      ],
      [
        103.8685083,
        1.3524205
      ],
      [
        103.868581,
        1.3523226
      ],
      [
        103.8686564,
        1.3522294
      ],
      [
        103.8687433,
        1.3521407
      ],
      [
        103.8688685,
        1.3520534
      ],
      [
        103.8691143,
        1.3519342
      ],
      [
        103.8692965,
        1.3518367
      ],
      [
        103.8697786,
        1.3515982
      ],
      [
        103.8698281,
        1.3515748
      ],
      [
        103.8699277,
        1.3515258
      ],
      [
        103.8699888,
        1.3514956
      ],
      [
        103.8701016,
        1.3514401
      ],
      [
        103.8702549,
        1.3513646
      ],
      [
        103.8703808,
        1.3512964
      ],
      [
        103.8706244,
        1.3511862
      ],
      [
        103.8707823,
        1.3511005
      ],
      [
        103.870887,
        1.3510284
      ],
      [
        103.8709839,
        1.3509551
      ],
      [
        103.8710739,
        1.3508743
      ],
      [
        103.8711432,
        1.3508043
      ],
      [
        103.8711763,
        1.3507641
      ],
      [
        103.8712106,
        1.3507134
      ],
      [
        103.8712404,
        1.3506692
      ],
      [
        103.8712986,
        1.3505594
      ],
      [
        103.8713028,
        1.3505476
      ],
      [
        103.871335,
        1.3504658
      ],
      [
        103.8713845,
        1.3502932
      ],
      [
        103.8714187,
        1.3501435
      ],
      [
        103.8714655,
        1.3498879
      ],
      [
        103.8714809,
        1.3498077
      ],
      [
        103.8715111,
        1.3496509
      ],
      [
        103.8716004,
        1.3490265
      ],
      [
        103.8716303,
        1.3488867
      ],
      [
        103.8716685,
        1.3488058
      ],
      [
        103.8717245,
        1.3487398
      ],
      [
        103.8717972,
        1.3486694
      ],
      [
        103.8718978,
        1.3486108
      ],
      [
        103.8722497,
        1.3484309
      ],
      [
        103.8724022,
        1.3483449
      ],
      [
        103.8724262,
        1.3483313
      ],
      [
        103.8726447,
        1.3482027
      ],
      [
        103.872613,
        1.3481462
      ],
      [
        103.8725747,
        1.3480807
      ],
      [
        103.8724776,
        1.347915
      ],
      [
        103.8722291,
        1.3474386
      ],
      [
        103.8719094,
        1.3467589
      ],
      [
        103.87181,
        1.3465476
      ],
      [
        103.8716,
        1.3462428
      ],
      [
        103.8715697,
        1.3461865
      ],
      [
        103.871551,
        1.3461472
      ],
      [
        103.8715207,
        1.3460865
      ],
      [
        103.87137,
        1.3457696
      ],
      [
        103.8710901,
        1.3451352
      ],
      [
        103.8709989,
        1.3449259
      ],
      [
        103.8709561,
        1.3448058
      ],
      [
        103.870907,
        1.3446599
      ],
      [
        103.8708778,
        1.3445659
      ],
      [
        103.8708322,
        1.344373
      ],
      [
        103.8707997,
        1.3441849
      ],
      [
        103.8708017,
        1.3440331
      ],
      [
        103.8707884,
        1.3434324
      ],
      [
        103.870787,
        1.3433679
      ],
      [
        103.8708058,
        1.3431339
      ],
      [
        103.8708294,
        1.3429235
      ],
      [
        103.8708338,
        1.3428407
      ],
      [
        103.8708413,
        1.3427018
      ],
      [
        103.8708513,
        1.3425332
      ],
      [
        103.8708575,
        1.3424883
      ],
      [
        103.8708607,
        1.3424327
      ],
      [
        103.8709259,
        1.3412878
      ],
      [
        103.8709265,
        1.3409978
      ],
      [
        103.8709175,
        1.3405859
      ],
      [
        103.8708837,
        1.3401454
      ],
      [
        103.8708801,
        1.3399771
      ],
      [
        103.8708778,
        1.3398678
      ],
      [
        103.8708753,
        1.3398075
      ],
      [
        103.8708602,
        1.3395252
      ],
      [
        103.8708224,
        1.3391503
      ],
      [
        103.8707595,
        1.3386391
      ],
      [
        103.8707397,
        1.3384785
      ],
      [
        103.8707127,
        1.3383053
      ],
      [
        103.8707487,
        1.3381546
      ],
      [
        103.8707679,
        1.3380939
      ],
      [
        103.8707876,
        1.3380333
      ],
      [
        103.8708163,
        1.3379827
      ],
      [
        103.8708429,
        1.3379471
      ],
      [
        103.8708816,
        1.337915
      ],
      [
        103.8709291,
        1.3378815
      ],
      [
        103.8709873,
        1.3378482
      ],
      [
        103.8710781,
        1.337822
      ],
      [
        103.8715245,
        1.3377957
      ],
      [
        103.8716703,
        1.3377855
      ],
      [
        103.8719362,
        1.3377566
      ],
      [
        103.8721644,
        1.3377316
      ],
      [
        103.87225,
        1.3377226
      ],
      [
        103.8723195,
        1.3377153
      ],
      [
        103.8724113,
        1.3377059
      ],
      [
        103.872495,
        1.3376954
      ],
      [
        103.8728735,
        1.337654
      ],
      [
        103.8729838,
        1.3376456
      ],
      [
        103.8732865,
        1.3376402
      ],
      [
        103.8734713,
        1.3376462
      ],
      [
        103.8736835,
        1.3376594
      ],
      [
        103.8740785,
        1.3377054
      ],
      [
        103.8746396,
        1.3377792
      ],
      [
        103.87511,
        1.3378411
      ],
      [
        103.8754884,
        1.3378885
      ],
      [
        103.8755471,
        1.3378959
      ],
      [
        103.8756331,
        1.3378987
      ],
      [
        103.8757114,
        1.3378994
      ],
      [
        103.8758593,
        1.3378846
      ],
      [
        103.8759557,
        1.3378684
      ],
      [
        103.8760414,
        1.3378536
      ],
      [
        103.8761272,
        1.3378319
      ],
      [
        103.8761962,
        1.3378047
      ],
      [
        103.8763265,
        1.3377624
      ],
      [
        103.8763851,
        1.3377427
      ],
      [
        103.8764685,
        1.3377062
      ],
      [
        103.8765743,
        1.337655
      ],
      [
        103.8767126,
        1.3375892
      ],
      [
        103.876912,
        1.3374965
      ],
      [
        103.8770008,
        1.3374428
      ],
      [
        103.8771159,
        1.3373495
      ],
      [
        103.8775704,
        1.3369538
      ],
      [
        103.877717,
        1.3368071
      ],
      [
        103.877776,
        1.3367302
      ],
      [
        103.8778118,
        1.3366188
      ],
      [
        103.8778409,
        1.3365202
      ],
      [
        103.8778638,
        1.3364343
      ],
      [
        103.8778904,
        1.3363121
      ],
      [
        103.8780079,
        1.3357845
      ],
      [
        103.8780363,
        1.3356572
      ],
      [
        103.8780673,
        1.3355265
      ],
      [
        103.8781118,
        1.3353314
      ],
      [
        103.8781335,
        1.3352547
      ],
      [
        103.8781483,
        1.3351759
      ],
      [
        103.8781899,
        1.3349965
      ],
      [
        103.8782165,
        1.3348685
      ],
      [
        103.8782452,
        1.3347479
      ],
      [
        103.8783567,
        1.334215
      ],
      [
        103.8783815,
        1.3341101
      ],
      [
        103.8784358,
        1.3337971
      ],
      [
        103.8784703,
        1.333639
      ],
      [
        103.878557,
        1.3333049
      ],
      [
        103.8785645,
        1.3332718
      ],
      [
        103.8785837,
        1.3332055
      ],
      [
        103.878599,
        1.3331377
      ],
      [
        103.8786224,
        1.3330395
      ],
      [
        103.878707,
        1.3326498
      ],
      [
        103.8787226,
        1.3325902
      ],
      [
        103.8787335,
        1.3325461
      ],
      [
        103.8787567,
        1.3324423
      ],
      [
        103.8788125,
        1.3322094
      ],
      [
        103.8788659,
        1.3319877
      ],
      [
        103.8789353,
        1.3317465
      ],
      [
        103.8790032,
        1.3315129
      ],
      [
        103.8790343,
        1.33142
      ],
      [
        103.8790493,
        1.3313621
      ],
      [
        103.8790978,
        1.3312227
      ],
      [
        103.8791233,
        1.3311405
      ],
      [
        103.8791508,
        1.3310516
      ],
      [
        103.8792313,
        1.3307256
      ],
      [
        103.8792823,
        1.330527
      ],
      [
        103.8795395,
        1.3295372
      ],
      [
        103.8797289,
        1.3289154
      ],
      [
        103.8797973,
        1.3286875
      ],
      [
        103.8798762,
        1.3284385
      ],
      [
        103.8799816,
        1.3281369
      ],
      [
        103.8800268,
        1.3280013
      ],
      [
        103.88011,
        1.3277865
      ],
      [
        103.8801523,
        1.3277452
      ],
      [
        103.8801879,
        1.3277152
      ],
      [
        103.8802301,
        1.3277059
      ],
      [
        103.8803131,
        1.3276877
      ],
      [
        103.8803638,
        1.3276797
      ],
      [
        103.8804745,
        1.3276577
      ],
      [
        103.8805358,
        1.3276564
      ],
      [
        103.8811666,
        1.3276102
      ],
      [
        103.8814171,
        1.3276035
      ],
      [
        103.8815781,
        1.327571
      ],
      [
        103.8819726,
        1.3274913
      ],
      [
        103.8821973,
        1.3273961
      ],
      [
        103.8825894,
        1.3271978
      ],
      [
        103.88282,
        1.3270812
      ],
      [
        103.8831144,
        1.3269462
      ],
      [
        103.8835965,
        1.3268139
      ],
      [
        103.8839868,
        1.3267251
      ],
      [
        103.8840229,
        1.3267433
      ],
      [
        103.8840482,
        1.3267565
      ],
      [
        103.8840732,
        1.3267774
      ],
      [
        103.8840909,
        1.3268065
      ],
      [
        103.8841483,
        1.327047
      ],
      [
        103.884213,
        1.327202
      ],
      [
        103.88429,
        1.3273045
      ],
      [
        103.8843718,
        1.3273595
      ],
      [
        103.8844374,
        1.3273818
      ],
      [
        103.8846783,
        1.3273664
      ],
      [
        103.8849435,
        1.3273513
      ],
      [
        103.8849812,
        1.3273505
      ],
      [
        103.885199,
        1.3273462
      ],
      [
        103.8852443,
        1.327352
      ],
      [
        103.8852954,
        1.3273719
      ],
      [
        103.8853271,
        1.3274026
      ],
      [
        103.8853714,
        1.3275063
      ],
      [
        103.8853964,
        1.3276032
      ],
      [
        103.8854428,
        1.3277309
      ],
      [
        103.8854562,
        1.3278587
      ],
      [
        103.8854954,
        1.3281432
      ],
      [
        103.885535,
        1.3283584
      ],
      [
        103.8855659,
        1.32846
      ],
      [
        103.8856017,
        1.3285348
      ],
      [
        103.8856606,
        1.3286273
      ],
      [
        103.8857218,
        1.3287102
      ],
      [
        103.8857999,
        1.3287738
      ],
      [
        103.8859149,
        1.3288609
      ],
      [
        103.8860335,
        1.3289224
      ],
      [
        103.8861653,
        1.3289648
      ],
      [
        103.886265,
        1.3289772
      ],
      [
        103.8863717,
        1.3289817
      ],
      [
        103.8864607,
        1.3289744
      ],
      [
        103.8866167,
        1.3289423
      ],
      [
        103.8867622,
        1.32887
      ],
      [
        103.8868723,
        1.3287928
      ],
      [
        103.8869563,
        1.3287063
      ],
      [
        103.8870222,
        1.3286268
      ],
      [
        103.8870534,
        1.3285764
      ],
      [
        103.8871117,
        1.3284932
      ],
      [
        103.8871862,
        1.3283698
      ],
      [
        103.8872191,
        1.3283153
      ],
      [
        103.8874155,
        1.3279811
      ],
      [
        103.8874882,
        1.3278845
      ],
      [
        103.8878807,
        1.3272615
      ],
      [
        103.8880898,
        1.3269051
      ],
      [
        103.8881384,
        1.3268179
      ],
      [
        103.888182,
        1.3267396
      ],
      [
        103.8882676,
        1.3265711
      ],
      [
        103.8883999,
        1.326177
      ],
      [
        103.8884302,
        1.3260611
      ],
      [
        103.8884468,
        1.3259974
      ],
      [
        103.8884979,
        1.325878
      ],
      [
        103.8886363,
        1.3259133
      ],
      [
        103.8888006,
        1.3259501
      ],
      [
        103.8890717,
        1.326035
      ],
      [
        103.8892912,
        1.326133
      ],
      [
        103.8895468,
        1.3262741
      ],
      [
        103.8898181,
        1.3264022
      ],
      [
        103.8898378,
        1.3264166
      ],
      [
        103.890073,
        1.3265083
      ],
      [
        103.8901015,
        1.32652
      ],
      [
        103.8901917,
        1.326557
      ],
      [
        103.8903998,
        1.3266416
      ],
      [
        103.8904187,
        1.3265397
      ],
      [
        103.8904274,
        1.3264874
      ],
      [
        103.8904625,
        1.3263026
      ],
      [
        103.8905141,
        1.3259644
      ],
      [
        103.8905503,
        1.3256917
      ],
      [
        103.8905779,
        1.3255365
      ],
      [
        103.8906053,
        1.3253825
      ],
      [
        103.8906259,
        1.3252622
      ],
      [
        103.8906643,
        1.3250374
      ],
      [
        103.890708,
        1.3247814
      ],
      [
        103.8907487,
        1.3245497
      ],
      [
        103.8907919,
        1.3242905
      ],
      [
        103.8908963,
        1.3237683
      ],
      [
        103.8910022,
        1.3232199
      ],
      [
        103.8910338,
        1.3230596
      ],
      [
        103.8910913,
        1.3227865
      ],
      [
        103.8911138,
        1.3226823
      ],
      [
        103.8912633,
        1.3219893
      ],
      [
        103.8913157,
        1.321736
      ],
      [
        103.8914014,
        1.3213221
      ],
      [
        103.8914636,
        1.3210117
      ],
      [
        103.8915315,
        1.3207093
      ],
      [
        103.8915916,
        1.3204698
      ],
      [
        103.8916696,
        1.3201068
      ],
      [
        103.891684,
        1.320045
      ],
      [
        103.8917087,
        1.3199218
      ],
      [
        103.8917211,
        1.3198702
      ],
      [
        103.8918142,
        1.3194833
      ],
      [
        103.8918257,
        1.3194296
      ],
      [
        103.8919594,
        1.3188786
      ],
      [
        103.8920273,
        1.3185071
      ],
      [
        103.8920627,
        1.3182923
      ],
      [
        103.8920781,
        1.3181625
      ],
      [
        103.8921409,
        1.3178516
      ],
      [
        103.8922766,
        1.3173167
      ],
      [
        103.8923925,
        1.317181
      ],
      [
        103.892512,
        1.3170941
      ],
      [
        103.8925297,
        1.3170813
      ],
      [
        103.892712,
        1.3169828
      ],
      [
        103.8927954,
        1.316995
      ],
      [
        103.8928912,
        1.3170109
      ],
      [
        103.8931312,
        1.3170404
      ],
      [
        103.8933148,
        1.3170664
      ],
      [
        103.8933724,
        1.3170745
      ],
      [
        103.8935253,
        1.3170912
      ],
      [
        103.8936257,
        1.3171021
      ],
      [
        103.8936918,
        1.3171093
      ],
      [
        103.893709,
        1.3171129
      ],
      [
        103.8938035,
        1.3171273
      ],
      [
        103.8938368,
        1.3169836
      ],
      [
        103.8939433,
        1.3164974
      ],
      [
        103.8940891,
        1.3156053
      ],
      [
        103.8941159,
        1.31548
      ],
      [
        103.89414,
        1.3154001
      ],
      [
        103.8941662,
        1.3151241
      ],
      [
        103.8941784,
        1.3148103
      ],
      [
        103.894184,
        1.3145293
      ],
      [
        103.8941871,
        1.3143362
      ],
      [
        103.8941912,
        1.3140745
      ],
      [
        103.8941976,
        1.3138028
      ],
      [
        103.8942065,
        1.3134953
      ],
      [
        103.8942117,
        1.3131261
      ],
      [
        103.8941789,
        1.3130051
      ],
      [
        103.8941812,
        1.3124833
      ],
      [
        103.8941801,
        1.3125658
      ],
      [
        103.8941858,
        1.3127635
      ],
      [
        103.8941789,
        1.3130051
      ],
      [
        103.8941802,
        1.3123707
      ],
      [
        103.8941816,
        1.3124528
      ],
      [
        103.8941833,
        1.3122311
      ],
      [
        103.8941823,
        1.3122658
      ],
      [
        103.8941957,
        1.3117945
      ],
      [
        103.894193,
        1.3118899
      ],
      [
        103.8942029,
        1.3115388
      ],
      [
        103.8941996,
        1.3116559
      ],
      [
        103.8942107,
        1.3112659
      ],
      [
        103.8942047,
        1.3114774
      ],
      [
        103.8942038,
        1.3115078
      ],
      [
        103.894212,
        1.3111773
      ],
      [
        103.8942116,
        1.3112336
      ],
      [
        103.8942104,
        1.3110485
      ],
      [
        103.8942103,
        1.3106451
      ],
      [
        103.8942103,
        1.3107435
      ],
      [
        103.8942103,
        1.3106183
      ],
      [
        103.8942139,
        1.3104763
      ],
      [
        103.8942542,
        1.3102222
      ],
      [
        103.8942852,
        1.3100329
      ],
      [
        103.8943909,
        1.3097155
      ],
      [
        103.8944492,
        1.3096148
      ],
      [
        103.8945618,
        1.3096398
      ],
      [
        103.8947251,
        1.3096378
      ],
      [
        103.8949825,
        1.3096399
      ],
      [
        103.8950131,
        1.3096401
      ],
      [
        103.895122,
        1.3096368
      ],
      [
        103.895297,
        1.3096347
      ],
      [
        103.8953864,
        1.3096307
      ],
      [
        103.8955434,
        1.3096236
      ],
      [
        103.8957315,
        1.3096097
      ],
      [
        103.8961917,
        1.309593
      ],
      [
        103.8965283,
        1.3095738
      ],
      [
        103.8965877,
        1.3095735
      ],
      [
        103.8968141,
        1.3095672
      ],
      [
        103.8972021,
        1.3095563
      ],
      [
        103.8976205,
        1.3095691
      ],
      [
        103.8976809,
        1.309571
      ],
      [
        103.8977255,
        1.3094734
      ],
      [
        103.8977646,
        1.3093892
      ],
      [
        103.8980632,
        1.3087454
      ],
      [
        103.8980938,
        1.3086797
      ],
      [
        103.8981066,
        1.3086495
      ],
      [
        103.8981963,
        1.3084373
      ],
      [
        103.8985391,
        1.3076264
      ],
      [
        103.8985514,
        1.3075973
      ],
      [
        103.8985666,
        1.3075612
      ],
      [
        103.8987684,
        1.3070825
      ],
      [
        103.8988678,
        1.3068436
      ],
      [
        103.8989074,
        1.3067482
      ],
      [
        103.8989817,
        1.3065697
      ],
      [
        103.8989978,
        1.3065309
      ],
      [
        103.8990099,
        1.3065028
      ],
      [
        103.8990788,
        1.3063427
      ],
      [
        103.8991417,
        1.3061965
      ],
      [
        103.8991753,
        1.3061184
      ],
      [
        103.8992344,
        1.3059811
      ],
      [
        103.8992625,
        1.3059076
      ],
      [
        103.8994569,
        1.3055007
      ],
      [
        103.8994729,
        1.3054665
      ],
      [
        103.8994883,
        1.3054319
      ],
      [
        103.8996331,
        1.3050925
      ],
      [
        103.8997352,
        1.3048579
      ],
      [
        103.8998294,
        1.3046344
      ],
      [
        103.8999874,
        1.3042929
      ],
      [
        103.900016,
        1.3042263
      ],
      [
        103.9000452,
        1.3041581
      ],
      [
        103.9000687,
        1.3041072
      ],
      [
        103.9002154,
        1.3037898
      ],
      [
        103.9002271,
        1.303765
      ],
      [
        103.9002707,
        1.3036722
      ],
      [
        103.9003414,
        1.3035005
      ],
      [
        103.9004092,
        1.3033464
      ],
      [
        103.9004464,
        1.303265
      ],
      [
        103.9004641,
        1.3032454
      ],
      [
        103.9005215,
        1.3032038
      ],
      [
        103.900556,
        1.303121
      ],
      [
        103.9005719,
        1.303082
      ],
      [
        103.9006263,
        1.3029393
      ],
      [
        103.9006424,
        1.302898
      ],
      [
        103.9006931,
        1.30276
      ],
      [
        103.9008193,
        1.3024255
      ],
      [
        103.9008581,
        1.302327
      ],
      [
        103.9009286,
        1.3021479
      ],
      [
        103.9009625,
        1.3020619
      ],
      [
        103.9010052,
        1.3019751
      ],
      [
        103.9012141,
        1.301544
      ],
      [
        103.90131,
        1.3013638
      ],
      [
        103.9013174,
        1.3013507
      ],
      [
        103.9013242,
        1.3013388
      ],
      [
        103.9014484,
        1.3011046
      ],
      [
        103.901545,
        1.3009544
      ],
      [
        103.9016334,
        1.3008599
      ],
      [
        103.9018234,
        1.3007147
      ],
      [
        103.90193,
        1.3007341
      ],
      [
        103.9020373,
        1.3007183
      ],
      [
        103.9021337,
        1.3006689
      ],
      [
        103.9021979,
        1.300693
      ],
      [
        103.9022711,
        1.3007205
      ],
      [
        103.9023717,
        1.3007728
      ],
      [
        103.9026521,
        1.3009764
      ],
      [
        103.9028317,
        1.3011048
      ],
      [
        103.9033705,
        1.3015282
      ],
      [
        103.903468,
        1.3016048
      ],
      [
        103.9035465,
        1.3016585
      ],
      [
        103.9038309,
        1.3018606
      ],
      [
        103.904042,
        1.3020017
      ],
      [
        103.9046536,
        1.3023825
      ],
      [
        103.9049543,
        1.3025698
      ],
      [
        103.9053435,
        1.3028086
      ],
      [
        103.9053929,
        1.3028409
      ],
      [
        103.9055144,
        1.3029205
      ],
      [
        103.9055688,
        1.3029559
      ],
      [
        103.9060652,
        1.3032975
      ],
      [
        103.9064042,
        1.303578
      ],
      [
        103.9065518,
        1.3036818
      ],
      [
        103.906574,
        1.3036998
      ],
      [
        103.9066354,
        1.3037482
      ],
      [
        103.9067068,
        1.3038001
      ],
      [
        103.9068487,
        1.3038616
      ],
      [
        103.9070074,
        1.303975
      ],
      [
        103.9072901,
        1.3041647
      ],
      [
        103.9075188,
        1.304289
      ],
      [
        103.9077281,
        1.3044065
      ],
      [
        103.9078712,
        1.3044855
      ],
      [
        103.908002,
        1.3045639
      ],
      [
        103.908199,
        1.304652
      ],
      [
        103.9082653,
        1.3046852
      ],
      [
        103.9084121,
        1.3047612
      ],
      [
        103.9084902,
        1.304802
      ],
      [
        103.9085547,
        1.3048338
      ],
      [
        103.9086395,
        1.3048783
      ],
      [
        103.9091173,
        1.3051121
      ],
      [
        103.9092189,
        1.3051618
      ],
      [
        103.9094617,
        1.3052747
      ],
      [
        103.9096823,
        1.3053772
      ],
      [
        103.9098149,
        1.3054415
      ],
      [
        103.9099218,
        1.3054888
      ],
      [
        103.9100368,
        1.3055397
      ],
      [
        103.910132,
        1.3055611
      ],
      [
        103.9104015,
        1.3056728
      ],
      [
        103.9107762,
        1.3057893
      ],
      [
        103.9110559,
        1.3058628
      ],
      [
        103.9114362,
        1.3059497
      ],
      [
        103.9119476,
        1.3060694
      ],
      [
        103.9122487,
        1.3061448
      ],
      [
        103.9126383,
        1.3062366
      ],
      [
        103.9132507,
        1.3063806
      ],
      [
        103.9133551,
        1.3063974
      ],
      [
        103.9133148,
        1.3065007
      ],
      [
        103.9133104,
        1.30651
      ],
      [
        103.9126396,
        1.3080661
      ],
      [
        103.9124557,
        1.3085057
      ],
      [
        103.9123975,
        1.308647
      ],
      [
        103.9123639,
        1.3087308
      ],
      [
        103.9123446,
        1.3087798
      ],
      [
        103.9123118,
        1.3088665
      ],
      [
        103.9122904,
        1.3089378
      ],
      [
        103.9122758,
        1.3089911
      ],
      [
        103.9123381,
        1.3090018
      ],
      [
        103.9123974,
        1.3090142
      ],
      [
        103.9128902,
        1.3091165
      ],
      [
        103.9129965,
        1.3091402
      ],
      [
        103.913227,
        1.3091844
      ],
      [
        103.9135067,
        1.3092448
      ],
      [
        103.9136105,
        1.3092659
      ],
      [
        103.9138198,
        1.309306
      ],
      [
        103.914151,
        1.3093712
      ],
      [
        103.9143992,
        1.3094205
      ],
      [
        103.9144966,
        1.3094418
      ],
      [
        103.9146337,
        1.3094667
      ],
      [
        103.9150409,
        1.3095551
      ],
      [
        103.9151179,
        1.3095706
      ],
      [
        103.9154711,
        1.3096452
      ],
      [
        103.9156328,
        1.3096773
      ],
      [
        103.9157871,
        1.30971
      ],
      [
        103.9160956,
        1.3097708
      ],
      [
        103.916184,
        1.3097889
      ],
      [
        103.9163087,
        1.3098144
      ],
      [
        103.9164609,
        1.309842
      ],
      [
        103.916629,
        1.3098737
      ],
      [
        103.9167998,
        1.3099076
      ],
      [
        103.9168352,
        1.3099148
      ],
      [
        103.9172075,
        1.3099953
      ],
      [
        103.9173572,
        1.3100384
      ],
      [
        103.9177098,
        1.3101771
      ],
      [
        103.9185087,
        1.3105464
      ],
      [
        103.9198467,
        1.3111136
      ],
      [
        103.9199632,
        1.3111691
      ],
      [
        103.9204654,
        1.3113981
      ],
      [
        103.9204439,
        1.3114476
      ],
      [
        103.9204226,
        1.3114968
      ],
      [
        103.920214,
        1.3119786
      ],
      [
        103.9200953,
        1.3122527
      ],
      [
        103.9194626,
        1.3137254
      ],
      [
        103.9191602,
        1.314432
      ],
      [
        103.9187788,
        1.3153234
      ],
      [
        103.9187658,
        1.3153538
      ],
      [
        103.918611,
        1.3157018
      ],
      [
        103.9185026,
        1.3159438
      ],
      [
        103.9184541,
        1.3160319
      ],
      [
        103.9183917,
        1.316125
      ],
      [
        103.9183501,
        1.3161844
      ],
      [
        103.9182847,
        1.3162606
      ],
      [
        103.9182174,
        1.316328
      ],
      [
        103.9181629,
        1.3163745
      ],
      [
        103.9180896,
        1.316428
      ],
      [
        103.9180213,
        1.3164755
      ],
      [
        103.917949,
        1.3165201
      ],
      [
        103.9166415,
        1.3170553
      ],
      [
        103.916588,
        1.3170772
      ],
      [
        103.9165354,
        1.3170984
      ],
      [
        103.9158985,
        1.3173555
      ],
      [
        103.9158372,
        1.3173803
      ],
      [
        103.9157763,
        1.3174077
      ],
      [
        103.9152627,
        1.3176393
      ],
      [
        103.9152103,
        1.3176629
      ],
      [
        103.9151593,
        1.317697
      ],
      [
        103.9150322,
        1.3177818
      ],
      [
        103.9148756,
        1.3179456
      ],
      [
        103.9147505,
        1.318109
      ],
      [
        103.9146542,
        1.3182715
      ],
      [
        103.9144709,
        1.3186647
      ],
      [
        103.91438,
        1.3188895
      ],
      [
        103.9142645,
        1.3191482
      ],
      [
        103.9142217,
        1.3192628
      ],
      [
        103.9141346,
        1.3194144
      ],
      [
        103.9140921,
        1.3195037
      ],
      [
        103.9140419,
        1.3195997
      ],
      [
        103.9139807,
        1.319692
      ],
      [
        103.9139339,
        1.3198077
      ],
      [
        103.9139014,
        1.3200467
      ],
      [
        103.9138663,
        1.3202778
      ],
      [
        103.9137925,
        1.3208421
      ],
      [
        103.9137826,
        1.3209499
      ],
      [
        103.9137717,
        1.3210475
      ],
      [
        103.9137426,
        1.3213405
      ],
      [
        103.913707,
        1.3216886
      ],
      [
        103.913635,
        1.3224854
      ],
      [
        103.9136192,
        1.322623
      ],
      [
        103.9135922,
        1.3228575
      ],
      [
        103.9135826,
        1.3229059
      ],
      [
        103.9135546,
        1.3229482
      ]
    ]
  }
}