{
  "type": "Feature",
  "properties": {
    "relation": 8392815,
    "direction": "1",
    "fee": "yes",
    "from": "Sims Place Terminal",
    "name": "Svc 137 (Sims Place Terminal → Upper East Coast Terminal)",
    "name:en": "Svc 137 (Sims Place Terminal → Upper East Coast Terminal)",
    "network": "Land Transport Authority",
    "network:short": "LTA",
    "network:wikidata": "Q3299279",
    "network:wikipedia": "en:Land Transport Authority",
    "operator": "SBS Transit",
    "operator:wikidata": "Q2661305",
    "operator:wikipedia": "en:SBS Transit",
    "public_transport:version": "2",
    "ref": "137",
    "route": "bus",
    "to": "Upper East Coast Terminal",
    "type": "route",
    "website": "https://www.sbstransit.com.sg/"
  },
  "geometry": {
    "type": "LineString",
    "coordinates": [
      [
        103.879523,
        1.3160294
      ],
      [
        103.8797257,
        1.3160599
      ],
      [
        103.8797652,
        1.316066
      ],
      [
        103.8799526,
        1.3160949
      ],
      [
        103.8800221,
        1.3161291
      ],
      [
        103.88007,
        1.316162
      ],
      [
        103.8801055,
        1.3162049
      ],
      [
        103.8801147,
        1.316289
      ],
      [
        103.8801145,
        1.3163364
      ],
      [
        103.8799256,
        1.3170061
      ],
      [
        103.8798879,
        1.3171499
      ],
      [
        103.8798227,
        1.3173625
      ],
      [
        103.8797905,
        1.3174886
      ],
      [
        103.8797263,
        1.3177438
      ],
      [
        103.8795987,
        1.3182317
      ],
      [
        103.8795738,
        1.3183198
      ],
      [
        103.8795429,
        1.3184433
      ],
      [
        103.8797402,
        1.3184921
      ],
      [
        103.8798844,
        1.3185304
      ],
      [
        103.8802133,
        1.3186265
      ],
      [
        103.8804496,
        1.3186732
      ],
      [
        103.8806416,
        1.3187073
      ],
      [
        103.8807511,
        1.3187134
      ],
      [
        103.8809473,
        1.3186962
      ],
      [
        103.8811331,
        1.3186707
      ],
      [
        103.8813738,
        1.3185994
      ],
      [
        103.8817652,
        1.3185757
      ],
      [
        103.8818394,
        1.3185739
      ],
      [
        103.8819657,
        1.3185827
      ],
      [
        103.8819793,
        1.3184721
      ],
      [
        103.8819885,
        1.318398
      ],
      [
        103.881995,
        1.3180956
      ],
      [
        103.8819783,
        1.3179075
      ],
      [
        103.8819568,
        1.3176846
      ],
      [
        103.8819497,
        1.3175071
      ],
      [
        103.8819424,
        1.3172468
      ],
      [
        103.8819015,
        1.3168151
      ],
      [
        103.8818909,
        1.3167183
      ],
      [
        103.8818844,
        1.3166598
      ],
      [
        103.8818612,
        1.3164481
      ],
      [
        103.8818468,
        1.316267
      ],
      [
        103.881841,
        1.3161317
      ],
      [
        103.8818422,
        1.3160319
      ],
      [
        103.8818432,
        1.3156065
      ],
      [
        103.8818623,
        1.3152047
      ],
      [
        103.8818888,
        1.315152
      ],
      [
        103.8819454,
        1.3150988
      ],
      [
        103.8820223,
        1.3150548
      ],
      [
        103.882136,
        1.3150201
      ],
      [
        103.8821659,
        1.3150116
      ],
      [
        103.8822281,
        1.3150234
      ],
      [
        103.8824014,
        1.3150563
      ],
      [
        103.8824453,
        1.3150668
      ],
      [
        103.8827367,
        1.3151199
      ],
      [
        103.8829924,
        1.3151686
      ],
      [
        103.8830831,
        1.3151856
      ],
      [
        103.8831212,
        1.3151941
      ],
      [
        103.8834214,
        1.3152452
      ],
      [
        103.8837261,
        1.3153076
      ],
      [
        103.8837575,
        1.3153145
      ],
      [
        103.8846884,
        1.3154902
      ],
      [
        103.8848023,
        1.3155146
      ],
      [
        103.8848941,
        1.3155304
      ],
      [
        103.8849448,
        1.3155404
      ],
      [
        103.8852241,
        1.3155991
      ],
      [
        103.8854989,
        1.315654
      ],
      [
        103.8858014,
        1.3157144
      ],
      [
        103.8860619,
        1.3157628
      ],
      [
        103.8861178,
        1.315773
      ],
      [
        103.8861675,
        1.3157827
      ],
      [
        103.8863888,
        1.3158257
      ],
      [
        103.8865486,
        1.3158585
      ],
      [
        103.8865744,
        1.3158642
      ],
      [
        103.8867122,
        1.3158928
      ],
      [
        103.886749,
        1.3158989
      ],
      [
        103.8869695,
        1.315937
      ],
      [
        103.8877715,
        1.316071
      ],
      [
        103.8878158,
        1.3160769
      ],
      [
        103.8879303,
        1.3160913
      ],
      [
        103.8880459,
        1.3161194
      ],
      [
        103.8881524,
        1.3161425
      ],
      [
        103.8882915,
        1.3161666
      ],
      [
        103.8883241,
        1.3161756
      ],
      [
        103.8885807,
        1.3162127
      ],
      [
        103.8888102,
        1.3162578
      ],
      [
        103.8893602,
        1.3163609
      ],
      [
        103.8894202,
        1.3163722
      ],
      [
        103.8895659,
        1.3163995
      ],
      [
        103.8898896,
        1.3164543
      ],
      [
        103.8899746,
        1.3164687
      ],
      [
        103.8900298,
        1.3164786
      ],
      [
        103.8901573,
        1.3165014
      ],
      [
        103.8902827,
        1.3165235
      ],
      [
        103.8904142,
        1.316547
      ],
      [
        103.8904882,
        1.3165617
      ],
      [
        103.8905983,
        1.3165816
      ],
      [
        103.8906448,
        1.31659
      ],
      [
        103.890649,
        1.3165908
      ],
      [
        103.890677,
        1.3165959
      ],
      [
        103.890837,
        1.3166248
      ],
      [
        103.8911591,
        1.3166831
      ],
      [
        103.8912152,
        1.3166933
      ],
      [
        103.8912419,
        1.3166984
      ],
      [
        103.8916486,
        1.3167763
      ],
      [
        103.8918585,
        1.3168202
      ],
      [
        103.8919995,
        1.3169024
      ],
      [
        103.892084,
        1.3169976
      ],
      [
        103.8921363,
        1.3170928
      ],
      [
        103.8921721,
        1.3171757
      ],
      [
        103.8920357,
        1.3177703
      ],
      [
        103.8919981,
        1.3179359
      ],
      [
        103.8919757,
        1.3180549
      ],
      [
        103.8919401,
        1.3182459
      ],
      [
        103.8917841,
        1.3188987
      ],
      [
        103.8917291,
        1.3190817
      ],
      [
        103.8916945,
        1.3192212
      ],
      [
        103.8916476,
        1.3194086
      ],
      [
        103.8915971,
        1.3196621
      ],
      [
        103.8915627,
        1.3198348
      ],
      [
        103.8915519,
        1.3198843
      ],
      [
        103.8915249,
        1.3199982
      ],
      [
        103.8915089,
        1.320071
      ],
      [
        103.8913991,
        1.320572
      ],
      [
        103.8912699,
        1.3211744
      ],
      [
        103.8911546,
        1.3216671
      ],
      [
        103.8910734,
        1.3220541
      ],
      [
        103.8909476,
        1.3226419
      ],
      [
        103.8909257,
        1.3227442
      ],
      [
        103.8908738,
        1.3230307
      ],
      [
        103.8908386,
        1.323181
      ],
      [
        103.8907622,
        1.3235605
      ],
      [
        103.8906549,
        1.3242773
      ],
      [
        103.8906157,
        1.3244525
      ],
      [
        103.8904862,
        1.3250945
      ],
      [
        103.8904285,
        1.3253808
      ],
      [
        103.8903602,
        1.3257191
      ],
      [
        103.8902832,
        1.3260963
      ],
      [
        103.89022,
        1.3264084
      ],
      [
        103.890211,
        1.3264664
      ],
      [
        103.8901917,
        1.326557
      ],
      [
        103.8903998,
        1.3266416
      ],
      [
        103.8904411,
        1.3266565
      ],
      [
        103.890708,
        1.3267528
      ],
      [
        103.8910348,
        1.3268707
      ],
      [
        103.8913471,
        1.3269816
      ],
      [
        103.8915643,
        1.3270594
      ],
      [
        103.8923004,
        1.3273172
      ],
      [
        103.8927439,
        1.3274788
      ],
      [
        103.8928478,
        1.3275167
      ],
      [
        103.8928898,
        1.3273808
      ],
      [
        103.8929137,
        1.3273098
      ],
      [
        103.8929828,
        1.3271045
      ],
      [
        103.8930168,
        1.3270036
      ],
      [
        103.8930722,
        1.32685
      ],
      [
        103.8931352,
        1.3266516
      ],
      [
        103.8931508,
        1.3266023
      ],
      [
        103.8933358,
        1.3260194
      ],
      [
        103.8933584,
        1.3259527
      ],
      [
        103.893494,
        1.3255542
      ],
      [
        103.8936085,
        1.3252411
      ],
      [
        103.8936493,
        1.325096
      ],
      [
        103.8936493,
        1.325096
      ],
      [
        103.89384,
        1.3251491
      ],
      [
        103.8936989,
        1.3251098
      ],
      [
        103.8940625,
        1.3252111
      ],
      [
        103.8941951,
        1.3252466
      ],
      [
        103.8941302,
        1.3252263
      ],
      [
        103.8944235,
        1.3253116
      ],
      [
        103.8944908,
        1.3253293
      ],
      [
        103.8947864,
        1.3254071
      ],
      [
        103.8948407,
        1.3254219
      ],
      [
        103.8955825,
        1.3256103
      ],
      [
        103.8957397,
        1.3256494
      ],
      [
        103.8958862,
        1.3256907
      ],
      [
        103.8974882,
        1.3261038
      ],
      [
        103.8976934,
        1.3261533
      ],
      [
        103.8980786,
        1.3262462
      ],
      [
        103.8987565,
        1.3264075
      ],
      [
        103.8985263,
        1.3263551
      ],
      [
        103.8988921,
        1.326444
      ],
      [
        103.898878,
        1.3264406
      ],
      [
        103.8988063,
        1.3264232
      ],
      [
        103.8991205,
        1.3264995
      ],
      [
        103.9004761,
        1.3267616
      ],
      [
        103.9009638,
        1.3268656
      ],
      [
        103.9014323,
        1.3269675
      ],
      [
        103.9012389,
        1.3269221
      ],
      [
        103.9017648,
        1.3270442
      ],
      [
        103.9016446,
        1.3270144
      ],
      [
        103.9021839,
        1.3271482
      ],
      [
        103.9031196,
        1.3277013
      ],
      [
        103.9031187,
        1.3276784
      ],
      [
        103.9031165,
        1.3276553
      ],
      [
        103.9031118,
        1.32763
      ],
      [
        103.9031061,
        1.3276067
      ],
      [
        103.9031022,
        1.3275935
      ],
      [
        103.9030977,
        1.3275804
      ],
      [
        103.9030884,
        1.3275593
      ],
      [
        103.9030782,
        1.3275385
      ],
      [
        103.9030677,
        1.3275191
      ],
      [
        103.9030588,
        1.327504
      ],
      [
        103.9030499,
        1.3274901
      ],
      [
        103.9030408,
        1.3274775
      ],
      [
        103.9030318,
        1.327466
      ],
      [
        103.9030228,
        1.3274551
      ],
      [
        103.9030128,
        1.3274439
      ],
      [
        103.9030016,
        1.3274321
      ],
      [
        103.9029881,
        1.3274191
      ],
      [
        103.9029753,
        1.3274082
      ],
      [
        103.9029615,
        1.3273977
      ],
      [
        103.9029466,
        1.3273874
      ],
      [
        103.9029324,
        1.3273778
      ],
      [
        103.9029169,
        1.3273692
      ],
      [
        103.9029005,
        1.3273608
      ],
      [
        103.902883,
        1.327352
      ],
      [
        103.9028648,
        1.3273449
      ],
      [
        103.9026678,
        1.3272759
      ],
      [
        103.9023961,
        1.3272009
      ],
      [
        103.9031183,
        1.3277408
      ],
      [
        103.9031167,
        1.3277564
      ],
      [
        103.9031146,
        1.3277738
      ],
      [
        103.903003,
        1.3279972
      ],
      [
        103.9030299,
        1.3279642
      ],
      [
        103.9030423,
        1.327947
      ],
      [
        103.903053,
        1.3279304
      ],
      [
        103.903061,
        1.3279167
      ],
      [
        103.9030685,
        1.3279024
      ],
      [
        103.9030755,
        1.3278882
      ],
      [
        103.9030818,
        1.3278743
      ],
      [
        103.9030874,
        1.3278616
      ],
      [
        103.9030922,
        1.3278492
      ],
      [
        103.9030973,
        1.3278367
      ],
      [
        103.903102,
        1.3278236
      ],
      [
        103.9031068,
        1.3278081
      ],
      [
        103.9031112,
        1.3277907
      ],
      [
        103.9031139,
        1.3277771
      ],
      [
        103.9031146,
        1.3277738
      ],
      [
        103.9026527,
        1.328369
      ],
      [
        103.9023581,
        1.3286721
      ],
      [
        103.9024583,
        1.3285695
      ],
      [
        103.9022872,
        1.3287455
      ],
      [
        103.9013475,
        1.329074
      ],
      [
        103.901768,
        1.3291447
      ],
      [
        103.9018135,
        1.3291502
      ],
      [
        103.9018535,
        1.3291447
      ],
      [
        103.9018949,
        1.329135
      ],
      [
        103.901936,
        1.3291127
      ],
      [
        103.9021101,
        1.3289296
      ],
      [
        103.9007436,
        1.3290413
      ],
      [
        103.9007974,
        1.3290165
      ],
      [
        103.9008608,
        1.3290013
      ],
      [
        103.9009283,
        1.3290027
      ],
      [
        103.9006995,
        1.3290868
      ],
      [
        103.9006333,
        1.329226
      ],
      [
        103.9005179,
        1.3294943
      ],
      [
        103.9002213,
        1.3301845
      ],
      [
        103.9003796,
        1.3298017
      ],
      [
        103.9004007,
        1.3297507
      ],
      [
        103.9000647,
        1.3302115
      ],
      [
        103.8988587,
        1.3297122
      ],
      [
        103.8986655,
        1.3296324
      ],
      [
        103.8983924,
        1.3295195
      ],
      [
        103.8982644,
        1.3294647
      ],
      [
        103.8982644,
        1.3294647
      ],
      [
        103.8982322,
        1.3296637
      ],
      [
        103.8981697,
        1.3300864
      ],
      [
        103.8980914,
        1.3304971
      ],
      [
        103.8980688,
        1.3306184
      ],
      [
        103.8980379,
        1.3307842
      ],
      [
        103.8980329,
        1.3308106
      ],
      [
        103.8979487,
        1.3312622
      ],
      [
        103.8979364,
        1.3313282
      ],
      [
        103.8978961,
        1.3315311
      ],
      [
        103.8978742,
        1.3316614
      ],
      [
        103.8978091,
        1.3320096
      ],
      [
        103.8978029,
        1.3320429
      ],
      [
        103.8977953,
        1.3320836
      ],
      [
        103.8977746,
        1.3321969
      ],
      [
        103.8977683,
        1.3322357
      ],
      [
        103.897725,
        1.3325014
      ],
      [
        103.8977059,
        1.3326206
      ],
      [
        103.8975893,
        1.3331419
      ],
      [
        103.8975669,
        1.333242
      ],
      [
        103.8976779,
        1.3332917
      ],
      [
        103.8980283,
        1.3334485
      ],
      [
        103.8981857,
        1.3335345
      ],
      [
        103.8982576,
        1.3335798
      ],
      [
        103.8983457,
        1.3336409
      ],
      [
        103.8984701,
        1.3337457
      ],
      [
        103.8985683,
        1.3338417
      ],
      [
        103.8987993,
        1.3340795
      ],
      [
        103.8990475,
        1.33434
      ],
      [
        103.8991244,
        1.3344192
      ],
      [
        103.8992831,
        1.3345945
      ],
      [
        103.8993296,
        1.3346426
      ],
      [
        103.8994342,
        1.3347511
      ],
      [
        103.8995072,
        1.3348269
      ],
      [
        103.8997628,
        1.3350919
      ],
      [
        103.8998508,
        1.3351816
      ],
      [
        103.8999726,
        1.335337
      ],
      [
        103.9000601,
        1.3354202
      ],
      [
        103.9001537,
        1.3355151
      ],
      [
        103.9003077,
        1.3357128
      ],
      [
        103.9004159,
        1.3358711
      ],
      [
        103.9004711,
        1.33595
      ],
      [
        103.9005301,
        1.3360342
      ],
      [
        103.9006706,
        1.3362388
      ],
      [
        103.9007792,
        1.3364078
      ],
      [
        103.9009147,
        1.3366035
      ],
      [
        103.9009723,
        1.3366981
      ],
      [
        103.9011373,
        1.3370138
      ],
      [
        103.9012082,
        1.3371821
      ],
      [
        103.9012959,
        1.337404
      ],
      [
        103.9014209,
        1.3377268
      ],
      [
        103.9015932,
        1.338152
      ],
      [
        103.9016342,
        1.3382578
      ],
      [
        103.9016342,
        1.3382578
      ],
      [
        103.9021519,
        1.3380345
      ],
      [
        103.902356,
        1.3379426
      ],
      [
        103.9026453,
        1.3377968
      ],
      [
        103.9026223,
        1.3378096
      ],
      [
        103.9031261,
        1.337517
      ],
      [
        103.9026765,
        1.3377789
      ],
      [
        103.9032488,
        1.3374392
      ],
      [
        103.9031884,
        1.3374807
      ],
      [
        103.9033534,
        1.3373673
      ],
      [
        103.9038137,
        1.336978
      ],
      [
        103.9035014,
        1.337257
      ],
      [
        103.9038771,
        1.3369214
      ],
      [
        103.9040475,
        1.3367678
      ],
      [
        103.9040812,
        1.3367343
      ],
      [
        103.9042783,
        1.3365514
      ],
      [
        103.9045836,
        1.3362301
      ],
      [
        103.9043229,
        1.3365071
      ],
      [
        103.9046285,
        1.3361823
      ],
      [
        103.9048897,
        1.3362154
      ],
      [
        103.9047707,
        1.3361259
      ],
      [
        103.9047094,
        1.3360797
      ],
      [
        103.9050838,
        1.3363537
      ],
      [
        103.9054654,
        1.3365727
      ],
      [
        103.9053001,
        1.3364946
      ],
      [
        103.9056667,
        1.3366279
      ],
      [
        103.9055157,
        1.3365912
      ],
      [
        103.9059434,
        1.3366905
      ],
      [
        103.906512,
        1.3368192
      ],
      [
        103.9068887,
        1.3369044
      ],
      [
        103.9070472,
        1.3369403
      ],
      [
        103.9076185,
        1.3371516
      ],
      [
        103.9076795,
        1.3371639
      ],
      [
        103.9077242,
        1.3371732
      ],
      [
        103.9078745,
        1.3372043
      ],
      [
        103.9080553,
        1.3372463
      ],
      [
        103.9084433,
        1.33735
      ],
      [
        103.9087994,
        1.3374782
      ],
      [
        103.9089223,
        1.3375225
      ],
      [
        103.9092302,
        1.3375994
      ],
      [
        103.9097222,
        1.3377245
      ],
      [
        103.9098962,
        1.3377721
      ],
      [
        103.9101186,
        1.3378399
      ],
      [
        103.9104857,
        1.3379811
      ],
      [
        103.910687,
        1.3380686
      ],
      [
        103.9107848,
        1.3381168
      ],
      [
        103.9109913,
        1.3382184
      ],
      [
        103.9113011,
        1.3383823
      ],
      [
        103.9117618,
        1.3386083
      ],
      [
        103.9122805,
        1.3388692
      ],
      [
        103.9123111,
        1.3389068
      ],
      [
        103.9123403,
        1.3389595
      ],
      [
        103.9123485,
        1.3389848
      ],
      [
        103.9123579,
        1.3390138
      ],
      [
        103.9123637,
        1.3390749
      ],
      [
        103.9123578,
        1.339183
      ],
      [
        103.9122105,
        1.3394904
      ],
      [
        103.9121812,
        1.3395561
      ],
      [
        103.9121223,
        1.3396825
      ],
      [
        103.9119907,
        1.3399651
      ],
      [
        103.9119516,
        1.3400489
      ],
      [
        103.912024,
        1.3400851
      ],
      [
        103.9120951,
        1.3401299
      ],
      [
        103.9131103,
        1.3407702
      ],
      [
        103.9135331,
        1.3410512
      ],
      [
        103.9139399,
        1.3413079
      ],
      [
        103.9140043,
        1.3413667
      ],
      [
        103.914122,
        1.3414938
      ],
      [
        103.9142429,
        1.3416397
      ],
      [
        103.9142788,
        1.3416874
      ],
      [
        103.9142902,
        1.3417047
      ],
      [
        103.9143442,
        1.3417822
      ],
      [
        103.9144249,
        1.3418946
      ],
      [
        103.9144796,
        1.3419615
      ],
      [
        103.9145124,
        1.3420016
      ],
      [
        103.9145483,
        1.3420579
      ],
      [
        103.9146116,
        1.3420166
      ],
      [
        103.9149426,
        1.3418317
      ],
      [
        103.9151793,
        1.3417112
      ],
      [
        103.915593,
        1.3415226
      ],
      [
        103.9164054,
        1.3410974
      ],
      [
        103.9165543,
        1.3410169
      ],
      [
        103.9168091,
        1.3408883
      ],
      [
        103.9171168,
        1.340711
      ],
      [
        103.9171714,
        1.3406791
      ],
      [
        103.9172259,
        1.3406481
      ],
      [
        103.9172776,
        1.3406183
      ],
      [
        103.9176679,
        1.3403934
      ],
      [
        103.9180777,
        1.3401601
      ],
      [
        103.9181648,
        1.3401147
      ],
      [
        103.9182836,
        1.3400521
      ],
      [
        103.9182644,
        1.3399828
      ],
      [
        103.918259,
        1.3399522
      ],
      [
        103.9181666,
        1.339545
      ],
      [
        103.9180744,
        1.3391212
      ],
      [
        103.9180096,
        1.3388302
      ],
      [
        103.9179867,
        1.3386525
      ],
      [
        103.9179758,
        1.3385056
      ],
      [
        103.917971,
        1.3383855
      ],
      [
        103.9179752,
        1.3383246
      ],
      [
        103.9179765,
        1.3382639
      ],
      [
        103.9179845,
        1.3381811
      ],
      [
        103.917996,
        1.3381145
      ],
      [
        103.9180507,
        1.3377684
      ],
      [
        103.9180619,
        1.3376974
      ],
      [
        103.9181351,
        1.3372343
      ],
      [
        103.9181566,
        1.3369674
      ],
      [
        103.918182,
        1.3365777
      ],
      [
        103.9182453,
        1.3358346
      ],
      [
        103.9182616,
        1.3357122
      ],
      [
        103.9182817,
        1.3355917
      ],
      [
        103.9183199,
        1.335403
      ],
      [
        103.9183711,
        1.3352162
      ],
      [
        103.9184528,
        1.3349699
      ],
      [
        103.9185252,
        1.3347863
      ],
      [
        103.9186647,
        1.3344508
      ],
      [
        103.9189367,
        1.3338492
      ],
      [
        103.9192083,
        1.333291
      ],
      [
        103.9193076,
        1.3330851
      ],
      [
        103.9194626,
        1.3327687
      ],
      [
        103.9197392,
        1.3321831
      ],
      [
        103.9197716,
        1.3321206
      ],
      [
        103.919877,
        1.3319163
      ],
      [
        103.9199578,
        1.3317816
      ],
      [
        103.9200208,
        1.3316909
      ],
      [
        103.9200929,
        1.3316048
      ],
      [
        103.9201518,
        1.3315468
      ],
      [
        103.920241,
        1.3314687
      ],
      [
        103.9208042,
        1.3310444
      ],
      [
        103.9210768,
        1.3308488
      ],
      [
        103.9220337,
        1.3302001
      ],
      [
        103.9222333,
        1.3300684
      ],
      [
        103.9225668,
        1.3298731
      ],
      [
        103.9228862,
        1.3297172
      ],
      [
        103.9232649,
        1.3295713
      ],
      [
        103.9238042,
        1.3294349
      ],
      [
        103.9240698,
        1.3293897
      ],
      [
        103.9243248,
        1.3293609
      ],
      [
        103.9245837,
        1.3293411
      ],
      [
        103.9247556,
        1.3293394
      ],
      [
        103.9249153,
        1.3293426
      ],
      [
        103.9252202,
        1.3293609
      ],
      [
        103.9253896,
        1.3293823
      ],
      [
        103.9255473,
        1.3294094
      ],
      [
        103.9257266,
        1.3294497
      ],
      [
        103.9260059,
        1.3295224
      ],
      [
        103.9262607,
        1.3295976
      ],
      [
        103.9263217,
        1.3296752
      ],
      [
        103.9263519,
        1.3297271
      ],
      [
        103.9263703,
        1.3297672
      ],
      [
        103.9264082,
        1.3298728
      ],
      [
        103.9263534,
        1.3301549
      ],
      [
        103.9263403,
        1.3302131
      ],
      [
        103.9263067,
        1.3303821
      ],
      [
        103.9262849,
        1.3304918
      ],
      [
        103.9262467,
        1.3306837
      ],
      [
        103.9262176,
        1.3308383
      ],
      [
        103.9262116,
        1.3308702
      ],
      [
        103.9261469,
        1.3312029
      ],
      [
        103.9261031,
        1.3314591
      ],
      [
        103.9260597,
        1.3317054
      ],
      [
        103.9260233,
        1.3319015
      ],
      [
        103.9259015,
        1.3325225
      ],
      [
        103.925894,
        1.332554
      ],
      [
        103.9258898,
        1.3325697
      ],
      [
        103.9258873,
        1.3325775
      ],
      [
        103.9258844,
        1.3325854
      ],
      [
        103.9258799,
        1.3325951
      ],
      [
        103.9258753,
        1.3326049
      ],
      [
        103.9258705,
        1.3326134
      ],
      [
        103.9258652,
        1.3326217
      ],
      [
        103.9258585,
        1.3326314
      ],
      [
        103.9258514,
        1.3326411
      ],
      [
        103.9258362,
        1.3326608
      ],
      [
        103.9258315,
        1.3326677
      ],
      [
        103.9258274,
        1.3326749
      ],
      [
        103.9258239,
        1.3326824
      ],
      [
        103.925821,
        1.3326902
      ],
      [
        103.9258189,
        1.332698
      ],
      [
        103.9258174,
        1.3327058
      ],
      [
        103.9258165,
        1.3327138
      ],
      [
        103.9258163,
        1.3327218
      ],
      [
        103.9258168,
        1.3327298
      ],
      [
        103.9258179,
        1.3327378
      ],
      [
        103.9258196,
        1.3327456
      ],
      [
        103.925822,
        1.3327533
      ],
      [
        103.925825,
        1.3327607
      ],
      [
        103.9258286,
        1.3327679
      ],
      [
        103.9258327,
        1.3327747
      ],
      [
        103.9258374,
        1.3327813
      ],
      [
        103.9258426,
        1.3327874
      ],
      [
        103.9258483,
        1.332793
      ],
      [
        103.9258544,
        1.3327982
      ],
      [
        103.9258609,
        1.3328029
      ],
      [
        103.9258675,
        1.3328068
      ],
      [
        103.925875,
        1.3328105
      ],
      [
        103.9258825,
        1.3328135
      ],
      [
        103.9258901,
        1.3328158
      ],
      [
        103.9260541,
        1.332864
      ],
      [
        103.9263039,
        1.3329405
      ],
      [
        103.9264089,
        1.3329728
      ],
      [
        103.9266276,
        1.3330398
      ],
      [
        103.9271069,
        1.3331849
      ],
      [
        103.9275461,
        1.3333215
      ],
      [
        103.9277846,
        1.3333951
      ],
      [
        103.928113,
        1.3334974
      ],
      [
        103.9283019,
        1.3335508
      ],
      [
        103.9287989,
        1.3336688
      ],
      [
        103.9293393,
        1.3337983
      ],
      [
        103.9297035,
        1.3338665
      ],
      [
        103.9297729,
        1.3338795
      ],
      [
        103.9299172,
        1.3339069
      ],
      [
        103.9299247,
        1.333908
      ],
      [
        103.9299322,
        1.3339084
      ],
      [
        103.9299398,
        1.3339082
      ],
      [
        103.9299472,
        1.3339073
      ],
      [
        103.9299546,
        1.3339058
      ],
      [
        103.9299618,
        1.3339036
      ],
      [
        103.9299689,
        1.3339009
      ],
      [
        103.9299756,
        1.3338975
      ],
      [
        103.929982,
        1.3338936
      ],
      [
        103.9299881,
        1.3338891
      ],
      [
        103.9299938,
        1.3338841
      ],
      [
        103.929999,
        1.3338787
      ],
      [
        103.9300037,
        1.3338728
      ],
      [
        103.9300079,
        1.3338666
      ],
      [
        103.9300115,
        1.33386
      ],
      [
        103.9300146,
        1.3338531
      ],
      [
        103.930017,
        1.333846
      ],
      [
        103.9300189,
        1.3338386
      ],
      [
        103.93002,
        1.3338318
      ],
      [
        103.9300206,
        1.333825
      ],
      [
        103.9300206,
        1.3338181
      ],
      [
        103.9300201,
        1.3338112
      ],
      [
        103.930019,
        1.3338044
      ],
      [
        103.9300174,
        1.3337977
      ],
      [
        103.9300153,
        1.3337912
      ],
      [
        103.9300107,
        1.333772
      ],
      [
        103.9300075,
        1.3337582
      ],
      [
        103.9300045,
        1.3337443
      ],
      [
        103.9300028,
        1.3337302
      ],
      [
        103.9300024,
        1.3337161
      ],
      [
        103.9300031,
        1.3337019
      ],
      [
        103.930005,
        1.3336878
      ],
      [
        103.9300822,
        1.3333101
      ],
      [
        103.9301194,
        1.3331202
      ],
      [
        103.9301603,
        1.332913
      ],
      [
        103.9302384,
        1.3325109
      ],
      [
        103.930339,
        1.3319831
      ],
      [
        103.9303507,
        1.331922
      ],
      [
        103.9303823,
        1.3317562
      ],
      [
        103.9304051,
        1.3316395
      ],
      [
        103.9304395,
        1.331464
      ],
      [
        103.9304473,
        1.3314155
      ],
      [
        103.9304718,
        1.3312869
      ],
      [
        103.9305687,
        1.3307787
      ],
      [
        103.9305822,
        1.3307009
      ],
      [
        103.9306054,
        1.3305922
      ],
      [
        103.9306205,
        1.330527
      ],
      [
        103.9307204,
        1.3300361
      ],
      [
        103.9307293,
        1.3299881
      ],
      [
        103.9308302,
        1.3294523
      ],
      [
        103.9308731,
        1.3292371
      ],
      [
        103.9310384,
        1.3283872
      ],
      [
        103.9310806,
        1.328185
      ],
      [
        103.9311042,
        1.328072
      ],
      [
        103.9311503,
        1.3278511
      ],
      [
        103.9312192,
        1.3275208
      ],
      [
        103.931244,
        1.3274022
      ],
      [
        103.9313096,
        1.3274211
      ],
      [
        103.9318127,
        1.3275701
      ],
      [
        103.931935,
        1.3276026
      ],
      [
        103.9321588,
        1.3276475
      ],
      [
        103.9323601,
        1.3276822
      ],
      [
        103.9325302,
        1.3277109
      ],
      [
        103.9326276,
        1.3277215
      ],
      [
        103.9328214,
        1.3277445
      ],
      [
        103.9329612,
        1.3277546
      ],
      [
        103.9330687,
        1.3277597
      ],
      [
        103.9335646,
        1.3277722
      ],
      [
        103.9335934,
        1.3277729
      ],
      [
        103.9338299,
        1.327778
      ],
      [
        103.9340931,
        1.3277852
      ],
      [
        103.9342842,
        1.3277919
      ],
      [
        103.9345602,
        1.3278217
      ],
      [
        103.9348919,
        1.327869
      ],
      [
        103.9349995,
        1.3278833
      ],
      [
        103.9350704,
        1.3278931
      ],
      [
        103.9350831,
        1.3278308
      ],
      [
        103.9350964,
        1.3277583
      ],
      [
        103.935123,
        1.3276093
      ],
      [
        103.9352088,
        1.3271323
      ],
      [
        103.9352768,
        1.3267546
      ],
      [
        103.9353151,
        1.3265416
      ],
      [
        103.935322,
        1.3265031
      ],
      [
        103.9353973,
        1.3260849
      ],
      [
        103.9354122,
        1.3260023
      ],
      [
        103.9354902,
        1.3255685
      ],
      [
        103.9356081,
        1.3249136
      ],
      [
        103.935627,
        1.3248086
      ],
      [
        103.9356458,
        1.3247041
      ],
      [
        103.9356683,
        1.3245481
      ],
      [
        103.9356043,
        1.3245391
      ],
      [
        103.934737,
        1.324448
      ],
      [
        103.9338848,
        1.3243309
      ],
      [
        103.9338205,
        1.3243218
      ],
      [
        103.9334767,
        1.3242846
      ],
      [
        103.9329172,
        1.3242095
      ],
      [
        103.9327897,
        1.324192
      ],
      [
        103.9323706,
        1.3241225
      ],
      [
        103.9320923,
        1.324091
      ],
      [
        103.9318804,
        1.3240677
      ],
      [
        103.9318476,
        1.3240667
      ],
      [
        103.9315385,
        1.3240257
      ],
      [
        103.9313169,
        1.3239995
      ],
      [
        103.9309716,
        1.3239528
      ],
      [
        103.9307418,
        1.3239265
      ],
      [
        103.9302239,
        1.32385
      ],
      [
        103.9296718,
        1.3237718
      ],
      [
        103.9295566,
        1.3237576
      ],
      [
        103.9294714,
        1.3237464
      ],
      [
        103.9282572,
        1.323568
      ],
      [
        103.9280174,
        1.3235196
      ],
      [
        103.9278058,
        1.3234932
      ],
      [
        103.9276554,
        1.3233999
      ],
      [
        103.9276106,
        1.3233641
      ],
      [
        103.9275774,
        1.3233334
      ],
      [
        103.9275444,
        1.3232973
      ],
      [
        103.9275051,
        1.3232651
      ],
      [
        103.9274739,
        1.3232273
      ],
      [
        103.9274424,
        1.3231171
      ],
      [
        103.927487,
        1.3228177
      ],
      [
        103.9275197,
        1.3226532
      ],
      [
        103.927641,
        1.3220217
      ],
      [
        103.9279314,
        1.3205207
      ],
      [
        103.9279461,
        1.3204331
      ],
      [
        103.9279978,
        1.3201981
      ],
      [
        103.9280468,
        1.3200289
      ],
      [
        103.9281106,
        1.3198496
      ],
      [
        103.9281255,
        1.3198131
      ],
      [
        103.9281625,
        1.3197389
      ],
      [
        103.9282013,
        1.3196629
      ],
      [
        103.9282409,
        1.3195937
      ],
      [
        103.9282825,
        1.3195245
      ],
      [
        103.9283709,
        1.3194
      ],
      [
        103.9284688,
        1.3192723
      ],
      [
        103.9285427,
        1.3191905
      ],
      [
        103.92862,
        1.3191106
      ],
      [
        103.9287887,
        1.3189675
      ],
      [
        103.9289547,
        1.318853
      ],
      [
        103.9291123,
        1.3187578
      ],
      [
        103.9291942,
        1.3187179
      ],
      [
        103.9292874,
        1.3186716
      ],
      [
        103.9294343,
        1.318612
      ],
      [
        103.9295818,
        1.3185659
      ],
      [
        103.9297435,
        1.3185237
      ],
      [
        103.9298968,
        1.3184987
      ],
      [
        103.9300663,
        1.3184827
      ],
      [
        103.9301991,
        1.3184786
      ],
      [
        103.9302785,
        1.318482
      ],
      [
        103.930329,
        1.3184853
      ],
      [
        103.9304793,
        1.3185001
      ],
      [
        103.930658,
        1.318528
      ],
      [
        103.9318574,
        1.3187387
      ],
      [
        103.9323833,
        1.3188313
      ],
      [
        103.9326759,
        1.3188932
      ],
      [
        103.9327728,
        1.3189132
      ],
      [
        103.932892,
        1.3189394
      ],
      [
        103.9329141,
        1.318825
      ],
      [
        103.9329231,
        1.3187621
      ],
      [
        103.9329842,
        1.3183378
      ],
      [
        103.9331842,
        1.3168562
      ],
      [
        103.9332154,
        1.3166453
      ],
      [
        103.9333243,
        1.3159982
      ],
      [
        103.9334939,
        1.3152104
      ],
      [
        103.9335649,
        1.3148778
      ],
      [
        103.9336108,
        1.3146907
      ],
      [
        103.9337142,
        1.314524
      ],
      [
        103.9338141,
        1.3143816
      ],
      [
        103.9338607,
        1.3143343
      ],
      [
        103.9338765,
        1.3143216
      ],
      [
        103.9339677,
        1.3142706
      ],
      [
        103.9341415,
        1.3142296
      ],
      [
        103.9342578,
        1.3142433
      ],
      [
        103.9344715,
        1.3142684
      ],
      [
        103.9345355,
        1.3142759
      ],
      [
        103.9345765,
        1.3142811
      ],
      [
        103.9348364,
        1.3143106
      ],
      [
        103.9351094,
        1.3143476
      ],
      [
        103.935453,
        1.3143905
      ],
      [
        103.9357282,
        1.3144249
      ],
      [
        103.9361076,
        1.3144663
      ],
      [
        103.9361295,
        1.3144687
      ],
      [
        103.9363391,
        1.3144924
      ],
      [
        103.9364359,
        1.3145036
      ],
      [
        103.9372085,
        1.3145851
      ],
      [
        103.9375094,
        1.3146175
      ],
      [
        103.9380056,
        1.3146665
      ],
      [
        103.938506,
        1.3147146
      ],
      [
        103.9388999,
        1.3147566
      ],
      [
        103.9389812,
        1.3147644
      ],
      [
        103.9399312,
        1.31487
      ],
      [
        103.9401517,
        1.3148992
      ],
      [
        103.9402506,
        1.314909
      ],
      [
        103.9403676,
        1.3149256
      ],
      [
        103.9409442,
        1.3150201
      ],
      [
        103.9410369,
        1.3150342
      ],
      [
        103.9413008,
        1.3150783
      ],
      [
        103.9414493,
        1.3151031
      ],
      [
        103.9421536,
        1.3152286
      ],
      [
        103.9423117,
        1.3152651
      ],
      [
        103.94298,
        1.3154652
      ],
      [
        103.9433032,
        1.3155797
      ],
      [
        103.9436005,
        1.3156851
      ],
      [
        103.9436671,
        1.3157116
      ],
      [
        103.9439764,
        1.3159171
      ],
      [
        103.9441808,
        1.3160404
      ],
      [
        103.9443189,
        1.3161073
      ],
      [
        103.9444512,
        1.3161629
      ],
      [
        103.9445975,
        1.3162194
      ],
      [
        103.9447105,
        1.3162601
      ],
      [
        103.94501,
        1.3163587
      ],
      [
        103.9452439,
        1.3164226
      ],
      [
        103.9452929,
        1.316436
      ],
      [
        103.9454082,
        1.3164656
      ],
      [
        103.9454582,
        1.3164783
      ],
      [
        103.945773,
        1.3165585
      ],
      [
        103.9463863,
        1.3167569
      ],
      [
        103.9468319,
        1.3169224
      ],
      [
        103.9472138,
        1.3170651
      ],
      [
        103.9475653,
        1.3172092
      ],
      [
        103.9479889,
        1.3173243
      ],
      [
        103.9484021,
        1.3174088
      ],
      [
        103.9485582,
        1.3174526
      ],
      [
        103.9486305,
        1.3174744
      ],
      [
        103.9488438,
        1.3175312
      ],
      [
        103.9492354,
        1.3176121
      ],
      [
        103.94988,
        1.3177597
      ],
      [
        103.950366,
        1.3179063
      ],
      [
        103.9508787,
        1.3180869
      ],
      [
        103.9509835,
        1.3181325
      ],
      [
        103.9511639,
        1.3181875
      ],
      [
        103.9512975,
        1.3182282
      ],
      [
        103.9516213,
        1.3182907
      ],
      [
        103.9518539,
        1.3183486
      ],
      [
        103.9520813,
        1.318409
      ],
      [
        103.9521734,
        1.3184435
      ],
      [
        103.9522662,
        1.3184722
      ],
      [
        103.9523151,
        1.3183171
      ],
      [
        103.9523488,
        1.3182318
      ],
      [
        103.9523623,
        1.3181901
      ],
      [
        103.9523733,
        1.318152
      ],
      [
        103.9524731,
        1.3177977
      ],
      [
        103.9525818,
        1.3178324
      ],
      [
        103.9528802,
        1.3179254
      ]
    ]
  }
}