{
  "type": "Feature",
  "properties": {
    "relation": 12980623,
    "direction": "1",
    "fee": "yes",
    "from": "Bedok Station Exit B",
    "name": "Svc 137A (Bedok Station Exit B → Bedok North Station Exit A)",
    "name:en": "Svc 137A (Bedok Station Exit B → Bedok North Station Exit A)",
    "network": "Land Transport Authority",
    "network:short": "LTA",
    "network:wikidata": "Q3299279",
    "network:wikipedia": "en:Land Transport Authority",
    "operator": "SBS Transit",
    "operator:wikidata": "Q2661305",
    "operator:wikipedia": "en:SBS Transit",
    "public_transport:version": "2",
    "ref": "137A",
    "route": "bus",
    "to": "Bedok North Station Exit A",
    "type": "route",
    "website": "https://www.sbstransit.com.sg/"
  },
  "geometry": {
    "type": "LineString",
    "coordinates": [
      [
        103.9294249,
        1.3240328
      ],
      [
        103.9299323,
        1.3241286
      ],
      [
        103.9304297,
        1.3242035
      ],
      [
        103.9306136,
        1.3242224
      ],
      [
        103.9308633,
        1.324248
      ],
      [
        103.9309162,
        1.3242517
      ],
      [
        103.9309479,
        1.324255
      ],
      [
        103.9310511,
        1.3242626
      ],
      [
        103.9313299,
        1.3242831
      ],
      [
        103.931831,
        1.3243144
      ],
      [
        103.9318491,
        1.3243155
      ],
      [
        103.9318807,
        1.3243174
      ],
      [
        103.9323934,
        1.3243421
      ],
      [
        103.93269,
        1.3243645
      ],
      [
        103.9327184,
        1.3243662
      ],
      [
        103.9329386,
        1.3243774
      ],
      [
        103.9332681,
        1.3244152
      ],
      [
        103.9333771,
        1.3244312
      ],
      [
        103.9345184,
        1.3245725
      ],
      [
        103.935004,
        1.3246367
      ],
      [
        103.9353373,
        1.324674
      ],
      [
        103.9354319,
        1.3247289
      ],
      [
        103.9354708,
        1.3247689
      ],
      [
        103.9354846,
        1.3247853
      ],
      [
        103.9354984,
        1.3248054
      ],
      [
        103.9355191,
        1.3248361
      ],
      [
        103.9355465,
        1.3249089
      ],
      [
        103.9354081,
        1.3256826
      ],
      [
        103.9353528,
        1.3259918
      ],
      [
        103.9353383,
        1.326073
      ],
      [
        103.9352605,
        1.3264902
      ],
      [
        103.9352131,
        1.3267445
      ],
      [
        103.9351432,
        1.3271195
      ],
      [
        103.935091,
        1.3273996
      ],
      [
        103.9350544,
        1.3275956
      ],
      [
        103.935026,
        1.3277469
      ],
      [
        103.9350129,
        1.3278183
      ],
      [
        103.934904,
        1.3278039
      ],
      [
        103.9345674,
        1.3277564
      ],
      [
        103.9342706,
        1.3277287
      ],
      [
        103.9340931,
        1.3277188
      ],
      [
        103.9335922,
        1.3277084
      ],
      [
        103.9335634,
        1.3277075
      ],
      [
        103.9329631,
        1.3276866
      ],
      [
        103.932824,
        1.3276766
      ],
      [
        103.9326516,
        1.3276592
      ],
      [
        103.9325699,
        1.3276495
      ],
      [
        103.9325334,
        1.3276449
      ],
      [
        103.9324932,
        1.3276384
      ],
      [
        103.9324288,
        1.327628
      ],
      [
        103.93217,
        1.3275858
      ],
      [
        103.9318197,
        1.3275066
      ],
      [
        103.9313199,
        1.3273534
      ],
      [
        103.931259,
        1.3273356
      ],
      [
        103.9311815,
        1.3273086
      ],
      [
        103.931166,
        1.327375
      ],
      [
        103.9311385,
        1.3275042
      ],
      [
        103.9309644,
        1.3283229
      ],
      [
        103.930954,
        1.3283706
      ],
      [
        103.9307818,
        1.3292205
      ],
      [
        103.9307404,
        1.3294345
      ],
      [
        103.9307105,
        1.3295913
      ],
      [
        103.9306384,
        1.3299702
      ],
      [
        103.9305292,
        1.3305049
      ],
      [
        103.9305165,
        1.3305703
      ],
      [
        103.9304932,
        1.3306781
      ],
      [
        103.9304775,
        1.3307596
      ],
      [
        103.9304009,
        1.3311541
      ],
      [
        103.9303707,
        1.3313194
      ],
      [
        103.9303482,
        1.3314307
      ],
      [
        103.9303238,
        1.3315579
      ],
      [
        103.9302895,
        1.3317378
      ],
      [
        103.9302472,
        1.3319564
      ],
      [
        103.930144,
        1.3324926
      ],
      [
        103.9300668,
        1.3328943
      ],
      [
        103.9299902,
        1.3332924
      ],
      [
        103.929911,
        1.3337043
      ],
      [
        103.9299089,
        1.3337116
      ],
      [
        103.9299062,
        1.3337186
      ],
      [
        103.9299029,
        1.3337254
      ],
      [
        103.929899,
        1.3337318
      ],
      [
        103.9298946,
        1.333738
      ],
      [
        103.9298897,
        1.3337437
      ],
      [
        103.9298843,
        1.333749
      ],
      [
        103.9298788,
        1.3337531
      ],
      [
        103.9298734,
        1.3337575
      ],
      [
        103.9298673,
        1.333762
      ],
      [
        103.9298609,
        1.3337659
      ],
      [
        103.9298287,
        1.3337818
      ],
      [
        103.9298217,
        1.3337846
      ],
      [
        103.9298144,
        1.3337867
      ],
      [
        103.929807,
        1.3337883
      ],
      [
        103.9297996,
        1.3337891
      ],
      [
        103.929792,
        1.3337894
      ],
      [
        103.9297845,
        1.3337889
      ],
      [
        103.9297647,
        1.3337875
      ],
      [
        103.9297443,
        1.3337854
      ],
      [
        103.9297129,
        1.3337815
      ],
      [
        103.9296816,
        1.3337771
      ],
      [
        103.9293614,
        1.3337217
      ],
      [
        103.929329,
        1.333715
      ],
      [
        103.9291597,
        1.3336749
      ],
      [
        103.9288097,
        1.3335942
      ],
      [
        103.9283295,
        1.3334775
      ],
      [
        103.9281343,
        1.3334226
      ],
      [
        103.9280684,
        1.3334018
      ],
      [
        103.9278082,
        1.3333213
      ],
      [
        103.9277658,
        1.3333083
      ],
      [
        103.9276833,
        1.3332819
      ],
      [
        103.9276047,
        1.3332568
      ],
      [
        103.9271331,
        1.3331092
      ],
      [
        103.9270034,
        1.3330703
      ],
      [
        103.9269553,
        1.3330553
      ],
      [
        103.9267487,
        1.3329908
      ],
      [
        103.926563,
        1.3329329
      ],
      [
        103.9264687,
        1.3329026
      ],
      [
        103.9264348,
        1.3328917
      ],
      [
        103.9261875,
        1.3328123
      ],
      [
        103.9261248,
        1.3327913
      ],
      [
        103.926108,
        1.3327852
      ],
      [
        103.9260918,
        1.3327778
      ],
      [
        103.9260763,
        1.3327689
      ],
      [
        103.9260616,
        1.3327588
      ],
      [
        103.9260479,
        1.3327474
      ],
      [
        103.9260352,
        1.3327349
      ],
      [
        103.9260236,
        1.3327213
      ],
      [
        103.9260189,
        1.3327146
      ],
      [
        103.9260168,
        1.3327113
      ],
      [
        103.9260149,
        1.3327077
      ],
      [
        103.9260135,
        1.3327043
      ],
      [
        103.9260116,
        1.3326984
      ],
      [
        103.9260094,
        1.3326904
      ],
      [
        103.9260066,
        1.3326825
      ],
      [
        103.9260031,
        1.332675
      ],
      [
        103.9259956,
        1.3326589
      ],
      [
        103.9259929,
        1.3326508
      ],
      [
        103.9259902,
        1.3326427
      ],
      [
        103.9259881,
        1.3326347
      ],
      [
        103.9259866,
        1.3326267
      ],
      [
        103.9259846,
        1.3326107
      ],
      [
        103.9259843,
        1.3325935
      ],
      [
        103.9259855,
        1.3325763
      ],
      [
        103.9259879,
        1.3325585
      ],
      [
        103.925991,
        1.3325377
      ],
      [
        103.9260043,
        1.3324601
      ],
      [
        103.9261109,
        1.3319186
      ],
      [
        103.9261481,
        1.3317207
      ],
      [
        103.9261953,
        1.3314763
      ],
      [
        103.9262443,
        1.3312226
      ],
      [
        103.9263448,
        1.3307031
      ],
      [
        103.9263806,
        1.3305109
      ],
      [
        103.9264027,
        1.3304014
      ],
      [
        103.9264256,
        1.3302884
      ],
      [
        103.9265336,
        1.3297467
      ],
      [
        103.9265471,
        1.3296819
      ],
      [
        103.9265673,
        1.3295658
      ],
      [
        103.92647,
        1.3295367
      ],
      [
        103.9264039,
        1.3295171
      ],
      [
        103.9261814,
        1.3294513
      ],
      [
        103.9260084,
        1.3294014
      ],
      [
        103.9257531,
        1.3293345
      ],
      [
        103.9255788,
        1.3292958
      ],
      [
        103.925396,
        1.3292616
      ],
      [
        103.9252033,
        1.3292379
      ],
      [
        103.9249141,
        1.32922
      ],
      [
        103.9247125,
        1.3292166
      ],
      [
        103.9245759,
        1.3292184
      ],
      [
        103.9242135,
        1.3292498
      ],
      [
        103.9240288,
        1.32927
      ],
      [
        103.9238402,
        1.3293018
      ],
      [
        103.9232391,
        1.3294456
      ],
      [
        103.9228829,
        1.3295772
      ],
      [
        103.9225094,
        1.3297569
      ],
      [
        103.9220169,
        1.3300595
      ],
      [
        103.9207275,
        1.3309464
      ],
      [
        103.9203993,
        1.3311985
      ],
      [
        103.920151,
        1.3313797
      ],
      [
        103.9200611,
        1.331457
      ],
      [
        103.9200086,
        1.3315044
      ],
      [
        103.9199562,
        1.3315608
      ],
      [
        103.9199127,
        1.3316142
      ],
      [
        103.9198364,
        1.3317261
      ],
      [
        103.9197771,
        1.3318272
      ],
      [
        103.919708,
        1.3319602
      ],
      [
        103.9196263,
        1.3321316
      ],
      [
        103.919351,
        1.3327207
      ],
      [
        103.918825,
        1.3338094
      ],
      [
        103.9187229,
        1.3340277
      ],
      [
        103.918633,
        1.334214
      ],
      [
        103.918574,
        1.334336
      ],
      [
        103.9185036,
        1.3344771
      ],
      [
        103.9184025,
        1.3346908
      ],
      [
        103.9183549,
        1.3348062
      ],
      [
        103.9183118,
        1.3349233
      ],
      [
        103.9182677,
        1.335051
      ],
      [
        103.9182247,
        1.335201
      ],
      [
        103.9181837,
        1.3353708
      ],
      [
        103.9181493,
        1.335579
      ],
      [
        103.9180786,
        1.3363447
      ],
      [
        103.9180329,
        1.336953
      ]
    ]
  }
}