{
  "type": "Feature",
  "properties": {
    "relation": 6622958,
    "direction": "2",
    "fee": "yes",
    "from": "Bukit Merah Interchange",
    "name": "Svc 139 (Bukit Merah Interchange → Toa Payoh Interchange)",
    "name:en": "Svc 139 (Bukit Merah Interchange → Toa Payoh Interchange)",
    "network": "Land Transport Authority",
    "network:short": "LTA",
    "network:wikidata": "Q3299279",
    "network:wikipedia": "en:Land Transport Authority",
    "operator": "SBS Transit",
    "operator:wikidata": "Q2661305",
    "operator:wikipedia": "en:SBS Transit",
    "public_transport:version": "2",
    "ref": "139",
    "route": "bus",
    "to": "Toa Payoh Interchange",
    "type": "route",
    "website": "https://www.sbstransit.com.sg/"
  },
  "geometry": {
    "type": "LineString",
    "coordinates": [
      [
        103.8169997,
        1.2816264
      ],
      [
        103.8170876,
        1.2815611
      ],
      [
        103.8171419,
        1.2815535
      ],
      [
        103.8171903,
        1.2815864
      ],
      [
        103.8174539,
        1.282559
      ],
      [
        103.8174539,
        1.2826175
      ],
      [
        103.817127,
        1.2820726
      ],
      [
        103.8170791,
        1.2819092
      ],
      [
        103.8169997,
        1.2816264
      ],
      [
        103.8171969,
        1.2826791
      ],
      [
        103.8171169,
        1.2826997
      ],
      [
        103.8159877,
        1.2830105
      ],
      [
        103.8159617,
        1.2830176
      ],
      [
        103.8159263,
        1.2830471
      ],
      [
        103.8157267,
        1.2830928
      ],
      [
        103.8158588,
        1.2830615
      ],
      [
        103.8159263,
        1.2830471
      ],
      [
        103.8153635,
        1.2832669
      ],
      [
        103.8155328,
        1.2831724
      ],
      [
        103.8156445,
        1.2831222
      ],
      [
        103.8152664,
        1.2833211
      ],
      [
        103.8147522,
        1.2836198
      ],
      [
        103.8148157,
        1.2835843
      ],
      [
        103.8150519,
        1.283452
      ],
      [
        103.8150636,
        1.2834455
      ],
      [
        103.8146779,
        1.2836657
      ],
      [
        103.8141228,
        1.2840029
      ],
      [
        103.8141858,
        1.2839298
      ],
      [
        103.8144297,
        1.2837963
      ],
      [
        103.8141051,
        1.2841796
      ],
      [
        103.8140945,
        1.2840819
      ],
      [
        103.8141372,
        1.2842984
      ],
      [
        103.8141087,
        1.2841975
      ],
      [
        103.8142244,
        1.2846071
      ],
      [
        103.8141823,
        1.284458
      ],
      [
        103.8142992,
        1.2848716
      ],
      [
        103.8142606,
        1.2847353
      ],
      [
        103.8142733,
        1.2849593
      ],
      [
        103.8140671,
        1.2850143
      ],
      [
        103.8137694,
        1.285094
      ],
      [
        103.8136945,
        1.285114
      ],
      [
        103.8133844,
        1.2851966
      ],
      [
        103.8128569,
        1.2853373
      ],
      [
        103.8124218,
        1.2854533
      ],
      [
        103.8121255,
        1.2855323
      ],
      [
        103.8114163,
        1.2857244
      ],
      [
        103.8111207,
        1.2857826
      ],
      [
        103.8108443,
        1.2858181
      ],
      [
        103.81051,
        1.2858604
      ],
      [
        103.8104739,
        1.2858642
      ],
      [
        103.8103569,
        1.2858762
      ],
      [
        103.8102505,
        1.2858872
      ],
      [
        103.8102631,
        1.286006
      ],
      [
        103.8102749,
        1.2861179
      ],
      [
        103.8103168,
        1.2864062
      ],
      [
        103.8103362,
        1.28654
      ],
      [
        103.8103705,
        1.286851
      ],
      [
        103.810529,
        1.2868266
      ],
      [
        103.8108799,
        1.2867727
      ],
      [
        103.8110974,
        1.2867375
      ],
      [
        103.8112173,
        1.2867176
      ],
      [
        103.8114159,
        1.28669
      ],
      [
        103.8115378,
        1.2866705
      ],
      [
        103.8125295,
        1.2864968
      ],
      [
        103.8127642,
        1.286472
      ],
      [
        103.8128176,
        1.2864659
      ],
      [
        103.8129409,
        1.2864732
      ],
      [
        103.8130903,
        1.2864954
      ],
      [
        103.8132322,
        1.2865407
      ],
      [
        103.8133619,
        1.2865943
      ],
      [
        103.8134159,
        1.2866343
      ],
      [
        103.8134857,
        1.2866861
      ],
      [
        103.8137998,
        1.2869712
      ],
      [
        103.8138872,
        1.2870433
      ],
      [
        103.8139198,
        1.2870933
      ],
      [
        103.8142641,
        1.2874049
      ],
      [
        103.8143774,
        1.2875132
      ],
      [
        103.8144481,
        1.2876363
      ],
      [
        103.8145411,
        1.2877721
      ],
      [
        103.8145911,
        1.287861
      ],
      [
        103.8146149,
        1.287909
      ],
      [
        103.814648,
        1.2879828
      ],
      [
        103.8147018,
        1.2880861
      ],
      [
        103.8147652,
        1.2881725
      ],
      [
        103.8148112,
        1.2882335
      ],
      [
        103.8148595,
        1.2883047
      ],
      [
        103.8149421,
        1.2883842
      ],
      [
        103.8150555,
        1.2884845
      ],
      [
        103.8150795,
        1.2885202
      ],
      [
        103.8151114,
        1.2885799
      ],
      [
        103.8151156,
        1.2886046
      ],
      [
        103.8151009,
        1.2886854
      ],
      [
        103.8150777,
        1.2887772
      ],
      [
        103.8150777,
        1.2887772
      ],
      [
        103.8149925,
        1.288899
      ],
      [
        103.8148999,
        1.2890657
      ],
      [
        103.814403,
        1.2894188
      ],
      [
        103.8145353,
        1.2893949
      ],
      [
        103.814611,
        1.289371
      ],
      [
        103.8146746,
        1.2893297
      ],
      [
        103.8147348,
        1.2892747
      ],
      [
        103.8148141,
        1.289182
      ],
      [
        103.8136704,
        1.289352
      ],
      [
        103.8137631,
        1.2893527
      ],
      [
        103.8141507,
        1.2893922
      ],
      [
        103.8135101,
        1.2893851
      ],
      [
        103.8135899,
        1.2893623
      ],
      [
        103.8132084,
        1.2895198
      ],
      [
        103.8132282,
        1.2895109
      ],
      [
        103.8134341,
        1.2894179
      ],
      [
        103.813184,
        1.2895777
      ],
      [
        103.81331,
        1.2897929
      ],
      [
        103.8133188,
        1.2898183
      ],
      [
        103.8133362,
        1.2898821
      ],
      [
        103.8133436,
        1.2899175
      ],
      [
        103.813354,
        1.2899974
      ],
      [
        103.8133831,
        1.2902628
      ],
      [
        103.8133877,
        1.290305
      ],
      [
        103.8134044,
        1.2904672
      ],
      [
        103.8134173,
        1.2905745
      ],
      [
        103.8129688,
        1.2906464
      ],
      [
        103.8129532,
        1.2906489
      ],
      [
        103.8126352,
        1.2906999
      ],
      [
        103.8125202,
        1.2907184
      ],
      [
        103.812356,
        1.2907447
      ],
      [
        103.8122241,
        1.2907658
      ],
      [
        103.8121259,
        1.2907816
      ],
      [
        103.8120293,
        1.2907971
      ],
      [
        103.8119619,
        1.2908079
      ],
      [
        103.8118465,
        1.2908264
      ],
      [
        103.8117544,
        1.2908411
      ],
      [
        103.8115441,
        1.2908749
      ],
      [
        103.811328,
        1.2909095
      ],
      [
        103.8110768,
        1.2909498
      ],
      [
        103.8110519,
        1.2909538
      ],
      [
        103.8108998,
        1.2909782
      ],
      [
        103.8107386,
        1.291004
      ],
      [
        103.8106544,
        1.2910175
      ],
      [
        103.810495,
        1.2910431
      ],
      [
        103.8104183,
        1.2910554
      ],
      [
        103.8103447,
        1.2910672
      ],
      [
        103.8101261,
        1.2911022
      ],
      [
        103.8100196,
        1.2911193
      ],
      [
        103.8099295,
        1.2911338
      ],
      [
        103.8098282,
        1.29115
      ],
      [
        103.8097711,
        1.2911592
      ],
      [
        103.8096829,
        1.2911366
      ],
      [
        103.8094265,
        1.2911696
      ],
      [
        103.8092263,
        1.2912102
      ],
      [
        103.8090394,
        1.2912497
      ],
      [
        103.8089412,
        1.291295
      ],
      [
        103.8088235,
        1.2913566
      ],
      [
        103.8087833,
        1.2913859
      ],
      [
        103.8087312,
        1.2914371
      ],
      [
        103.8085789,
        1.2916201
      ],
      [
        103.8084296,
        1.291785
      ],
      [
        103.8083833,
        1.2918361
      ],
      [
        103.8082596,
        1.2919474
      ],
      [
        103.8083829,
        1.2920764
      ],
      [
        103.8084433,
        1.2921214
      ],
      [
        103.808692,
        1.292307
      ],
      [
        103.8089473,
        1.2924469
      ],
      [
        103.808978,
        1.2924559
      ],
      [
        103.809193,
        1.2925187
      ],
      [
        103.80955,
        1.2925395
      ],
      [
        103.8099455,
        1.2924855
      ],
      [
        103.8101609,
        1.2924589
      ],
      [
        103.8103959,
        1.2924188
      ],
      [
        103.8106392,
        1.2923919
      ],
      [
        103.810923,
        1.2923442
      ],
      [
        103.8109879,
        1.2923343
      ],
      [
        103.812269,
        1.2921208
      ],
      [
        103.8123398,
        1.2921094
      ],
      [
        103.8127904,
        1.2920366
      ],
      [
        103.8130263,
        1.2919988
      ],
      [
        103.8137452,
        1.2918905
      ],
      [
        103.8139602,
        1.2918574
      ],
      [
        103.8140832,
        1.2918407
      ],
      [
        103.8142937,
        1.291802
      ],
      [
        103.8144989,
        1.2917685
      ],
      [
        103.8146888,
        1.2917375
      ],
      [
        103.8149849,
        1.2916856
      ],
      [
        103.8153101,
        1.291636
      ],
      [
        103.8153478,
        1.2916303
      ],
      [
        103.8154847,
        1.2916178
      ],
      [
        103.8155482,
        1.2916116
      ],
      [
        103.8159168,
        1.2915757
      ],
      [
        103.8162085,
        1.2915473
      ],
      [
        103.8164468,
        1.2915241
      ],
      [
        103.8165907,
        1.29151
      ],
      [
        103.8167319,
        1.2914976
      ],
      [
        103.8168574,
        1.2914857
      ],
      [
        103.8169143,
        1.2914816
      ],
      [
        103.8170779,
        1.2914641
      ],
      [
        103.8175639,
        1.2914182
      ],
      [
        103.8179901,
        1.2913754
      ],
      [
        103.8181156,
        1.2913628
      ],
      [
        103.818254,
        1.2913468
      ],
      [
        103.8187219,
        1.2913019
      ],
      [
        103.8189702,
        1.2912764
      ],
      [
        103.8192374,
        1.291254
      ],
      [
        103.8195258,
        1.2912206
      ],
      [
        103.819724,
        1.2911995
      ],
      [
        103.8204441,
        1.2911371
      ],
      [
        103.8208683,
        1.291104
      ],
      [
        103.8216525,
        1.2910487
      ],
      [
        103.8219981,
        1.2910107
      ],
      [
        103.822422,
        1.2909691
      ],
      [
        103.8226726,
        1.2909432
      ],
      [
        103.8230453,
        1.2909087
      ],
      [
        103.8231178,
        1.2909052
      ],
      [
        103.8232374,
        1.2908941
      ],
      [
        103.8233277,
        1.2908855
      ],
      [
        103.8237912,
        1.2908379
      ],
      [
        103.8240527,
        1.2908035
      ],
      [
        103.8248977,
        1.2907119
      ],
      [
        103.8252244,
        1.2906765
      ],
      [
        103.8254162,
        1.2906603
      ],
      [
        103.8257538,
        1.2906379
      ],
      [
        103.8258727,
        1.2906726
      ],
      [
        103.8259343,
        1.2906951
      ],
      [
        103.8260368,
        1.2907648
      ],
      [
        103.8260818,
        1.2908187
      ],
      [
        103.8261301,
        1.290908
      ],
      [
        103.8261099,
        1.2911242
      ],
      [
        103.8260275,
        1.291434
      ],
      [
        103.8260133,
        1.2914905
      ],
      [
        103.8259647,
        1.2916845
      ],
      [
        103.8259512,
        1.2917358
      ],
      [
        103.8259156,
        1.2919037
      ],
      [
        103.8258914,
        1.2920416
      ],
      [
        103.8258779,
        1.2921973
      ],
      [
        103.8258734,
        1.2922487
      ],
      [
        103.8258737,
        1.2922716
      ],
      [
        103.825879,
        1.2924936
      ],
      [
        103.8258803,
        1.2925285
      ],
      [
        103.8258854,
        1.2925518
      ],
      [
        103.8259091,
        1.2926613
      ],
      [
        103.8259368,
        1.2927451
      ],
      [
        103.8259471,
        1.2927696
      ],
      [
        103.8259697,
        1.2928297
      ],
      [
        103.8260104,
        1.2928981
      ],
      [
        103.8261008,
        1.2930502
      ],
      [
        103.8261432,
        1.293083
      ],
      [
        103.8261763,
        1.2931125
      ],
      [
        103.8264187,
        1.2932984
      ],
      [
        103.8266666,
        1.2934698
      ],
      [
        103.8267754,
        1.2935471
      ],
      [
        103.8268859,
        1.293621
      ],
      [
        103.8273087,
        1.2939218
      ],
      [
        103.8273793,
        1.293972
      ],
      [
        103.8274605,
        1.2940298
      ],
      [
        103.8274835,
        1.2940505
      ],
      [
        103.8275249,
        1.2940778
      ],
      [
        103.8280562,
        1.2944571
      ],
      [
        103.828082,
        1.2944756
      ],
      [
        103.8281051,
        1.2944916
      ],
      [
        103.8283264,
        1.2946444
      ],
      [
        103.8285208,
        1.2947792
      ],
      [
        103.8286489,
        1.2948744
      ],
      [
        103.8287085,
        1.2949153
      ],
      [
        103.8287769,
        1.2949623
      ],
      [
        103.8289871,
        1.2951026
      ],
      [
        103.8290886,
        1.2951654
      ],
      [
        103.8291789,
        1.2952117
      ],
      [
        103.8292378,
        1.2952407
      ],
      [
        103.829267,
        1.2952551
      ],
      [
        103.8292811,
        1.2952606
      ],
      [
        103.8297926,
        1.2954583
      ],
      [
        103.8298237,
        1.2954703
      ],
      [
        103.8298436,
        1.2954787
      ],
      [
        103.8302355,
        1.2956446
      ],
      [
        103.8303114,
        1.2956757
      ],
      [
        103.8304768,
        1.295736
      ],
      [
        103.830755,
        1.2958352
      ],
      [
        103.8309045,
        1.2958891
      ],
      [
        103.8312064,
        1.295996
      ],
      [
        103.8313357,
        1.2960418
      ],
      [
        103.8314266,
        1.2960825
      ],
      [
        103.8317265,
        1.2961766
      ],
      [
        103.8319848,
        1.2962445
      ],
      [
        103.8321789,
        1.2962834
      ],
      [
        103.8323884,
        1.2963235
      ],
      [
        103.8326007,
        1.2963407
      ],
      [
        103.8327658,
        1.2963423
      ],
      [
        103.8328438,
        1.2963355
      ],
      [
        103.8332239,
        1.2962873
      ],
      [
        103.8334665,
        1.2962562
      ],
      [
        103.8336593,
        1.2962297
      ],
      [
        103.8337976,
        1.2962016
      ],
      [
        103.8339285,
        1.2961415
      ],
      [
        103.8339285,
        1.2961415
      ],
      [
        103.8340765,
        1.2961201
      ],
      [
        103.8341198,
        1.296114
      ],
      [
        103.8342965,
        1.2960908
      ],
      [
        103.8344221,
        1.2960723
      ],
      [
        103.834644,
        1.2960381
      ],
      [
        103.8351911,
        1.295959
      ],
      [
        103.8354989,
        1.2959145
      ],
      [
        103.8357328,
        1.2958842
      ],
      [
        103.8359896,
        1.2958436
      ],
      [
        103.8363455,
        1.2957861
      ],
      [
        103.8366875,
        1.2957619
      ],
      [
        103.8368344,
        1.2957454
      ],
      [
        103.8370542,
        1.2957049
      ],
      [
        103.83717,
        1.2956826
      ],
      [
        103.837298,
        1.2956713
      ],
      [
        103.8374278,
        1.295662
      ],
      [
        103.8374941,
        1.2956587
      ],
      [
        103.8377338,
        1.2956481
      ],
      [
        103.8379839,
        1.2956604
      ],
      [
        103.8383083,
        1.2956951
      ],
      [
        103.8384072,
        1.2957043
      ],
      [
        103.8387212,
        1.2957685
      ],
      [
        103.8387784,
        1.2957777
      ],
      [
        103.838836,
        1.2957876
      ],
      [
        103.8388904,
        1.2957967
      ],
      [
        103.8391327,
        1.2958303
      ],
      [
        103.8392649,
        1.2958461
      ],
      [
        103.8396762,
        1.2958885
      ],
      [
        103.8400911,
        1.2959224
      ],
      [
        103.8402708,
        1.295937
      ],
      [
        103.8402883,
        1.2959384
      ],
      [
        103.8405115,
        1.2959566
      ],
      [
        103.8407337,
        1.2959589
      ],
      [
        103.840946,
        1.2959147
      ],
      [
        103.8411003,
        1.2958215
      ],
      [
        103.8412086,
        1.2957314
      ],
      [
        103.8412941,
        1.2956536
      ],
      [
        103.841354,
        1.2955819
      ],
      [
        103.8414133,
        1.2955025
      ],
      [
        103.8417329,
        1.294933
      ],
      [
        103.8417555,
        1.2948889
      ],
      [
        103.8418146,
        1.2947735
      ],
      [
        103.841934,
        1.2945526
      ],
      [
        103.8419868,
        1.2944541
      ],
      [
        103.8420399,
        1.2943563
      ],
      [
        103.8421135,
        1.2942536
      ],
      [
        103.84219,
        1.2941559
      ],
      [
        103.8422114,
        1.294131
      ],
      [
        103.8422715,
        1.2940702
      ],
      [
        103.8423413,
        1.2939891
      ],
      [
        103.8425074,
        1.2938371
      ],
      [
        103.842687,
        1.2937013
      ],
      [
        103.8428785,
        1.2935828
      ],
      [
        103.8431105,
        1.2934465
      ],
      [
        103.8433233,
        1.2933131
      ],
      [
        103.8434244,
        1.2933039
      ],
      [
        103.8434951,
        1.2933023
      ],
      [
        103.8435679,
        1.2933069
      ],
      [
        103.8436443,
        1.293331
      ],
      [
        103.8437724,
        1.2933981
      ],
      [
        103.8438555,
        1.2934665
      ],
      [
        103.8439091,
        1.293528
      ],
      [
        103.8440124,
        1.2937597
      ],
      [
        103.8440715,
        1.2940198
      ],
      [
        103.8440793,
        1.2942983
      ],
      [
        103.844043,
        1.2945722
      ],
      [
        103.8440216,
        1.2947914
      ],
      [
        103.8440073,
        1.294899
      ],
      [
        103.8439912,
        1.2949968
      ],
      [
        103.8439791,
        1.2950601
      ],
      [
        103.8439502,
        1.2953426
      ],
      [
        103.843915,
        1.2956094
      ],
      [
        103.843884,
        1.2958647
      ],
      [
        103.8438525,
        1.2961091
      ],
      [
        103.8438015,
        1.2965534
      ],
      [
        103.8437468,
        1.2970021
      ],
      [
        103.8437068,
        1.2976551
      ],
      [
        103.843702,
        1.2977745
      ],
      [
        103.8436894,
        1.2981505
      ],
      [
        103.8436709,
        1.298577
      ],
      [
        103.8436609,
        1.2987595
      ],
      [
        103.8436442,
        1.2988513
      ],
      [
        103.8433675,
        1.2990247
      ],
      [
        103.8431461,
        1.2991707
      ],
      [
        103.8429945,
        1.2992651
      ],
      [
        103.8429913,
        1.299282
      ],
      [
        103.8428427,
        1.2994359
      ],
      [
        103.8428297,
        1.2995006
      ],
      [
        103.8429159,
        1.2998863
      ],
      [
        103.8429204,
        1.2999064
      ],
      [
        103.8429499,
        1.3000417
      ],
      [
        103.8431335,
        1.2999773
      ],
      [
        103.8435446,
        1.2998446
      ],
      [
        103.8436685,
        1.2998015
      ],
      [
        103.8438222,
        1.299748
      ],
      [
        103.8439846,
        1.2996931
      ],
      [
        103.8442578,
        1.2996008
      ],
      [
        103.844592,
        1.2994879
      ],
      [
        103.8448857,
        1.29939
      ],
      [
        103.845461,
        1.299203
      ],
      [
        103.8457049,
        1.2991257
      ],
      [
        103.8457167,
        1.299122
      ],
      [
        103.845733,
        1.2991169
      ],
      [
        103.8457575,
        1.2991091
      ],
      [
        103.8458124,
        1.2990917
      ],
      [
        103.8463783,
        1.298908
      ],
      [
        103.8465819,
        1.2988347
      ],
      [
        103.8467733,
        1.2987639
      ],
      [
        103.8469449,
        1.2987223
      ],
      [
        103.8471133,
        1.2986962
      ],
      [
        103.8473037,
        1.2986888
      ],
      [
        103.8473514,
        1.2986907
      ],
      [
        103.8474666,
        1.2986928
      ],
      [
        103.8475317,
        1.2986942
      ],
      [
        103.8480493,
        1.2987257
      ],
      [
        103.848166,
        1.2987297
      ],
      [
        103.8483779,
        1.2987243
      ],
      [
        103.8485388,
        1.2986801
      ],
      [
        103.8485558,
        1.2986733
      ],
      [
        103.848595,
        1.2986574
      ],
      [
        103.8486566,
        1.2986176
      ],
      [
        103.8487115,
        1.2985833
      ],
      [
        103.8487374,
        1.2986149
      ],
      [
        103.8487963,
        1.298699
      ],
      [
        103.849127,
        1.2990764
      ],
      [
        103.8492839,
        1.2992664
      ],
      [
        103.8493787,
        1.299376
      ],
      [
        103.8495385,
        1.2996632
      ],
      [
        103.8495441,
        1.299678
      ],
      [
        103.849582,
        1.2997767
      ],
      [
        103.8496704,
        1.3000675
      ],
      [
        103.8497389,
        1.3002971
      ],
      [
        103.8498138,
        1.300569
      ],
      [
        103.8499025,
        1.3009097
      ],
      [
        103.849971,
        1.301175
      ],
      [
        103.8500128,
        1.3014054
      ],
      [
        103.8500249,
        1.3015323
      ],
      [
        103.8500298,
        1.3016585
      ],
      [
        103.8500362,
        1.3017664
      ],
      [
        103.8500386,
        1.3019583
      ],
      [
        103.8500405,
        1.3021149
      ],
      [
        103.8500497,
        1.3023999
      ],
      [
        103.8500525,
        1.3027237
      ],
      [
        103.8500549,
        1.3030715
      ],
      [
        103.850057,
        1.303173
      ],
      [
        103.850057,
        1.3032923
      ],
      [
        103.850064,
        1.3033608
      ],
      [
        103.8500838,
        1.3035404
      ],
      [
        103.8501146,
        1.3036771
      ],
      [
        103.8501733,
        1.3039006
      ],
      [
        103.8501963,
        1.3039522
      ],
      [
        103.8502223,
        1.3040125
      ],
      [
        103.8502689,
        1.3041035
      ],
      [
        103.8503169,
        1.3041977
      ],
      [
        103.8504288,
        1.3043727
      ],
      [
        103.8505357,
        1.3045406
      ],
      [
        103.8506123,
        1.3046413
      ],
      [
        103.8506967,
        1.3047524
      ],
      [
        103.85081,
        1.3049244
      ],
      [
        103.8509109,
        1.305073
      ],
      [
        103.8509852,
        1.3052004
      ],
      [
        103.8510539,
        1.3053144
      ],
      [
        103.8512158,
        1.305583
      ],
      [
        103.8514552,
        1.306012
      ],
      [
        103.851485,
        1.3060576
      ],
      [
        103.8515057,
        1.3060894
      ],
      [
        103.8515245,
        1.3061159
      ],
      [
        103.8516328,
        1.3062688
      ],
      [
        103.8516888,
        1.3063655
      ],
      [
        103.8517806,
        1.3065101
      ],
      [
        103.8518369,
        1.3065924
      ],
      [
        103.851859,
        1.3066247
      ],
      [
        103.851894,
        1.3066758
      ],
      [
        103.8519603,
        1.3067851
      ],
      [
        103.8521945,
        1.3071435
      ],
      [
        103.8525294,
        1.3076592
      ],
      [
        103.8525438,
        1.3076803
      ],
      [
        103.8525739,
        1.3077242
      ],
      [
        103.8526225,
        1.3078013
      ],
      [
        103.8526802,
        1.3078869
      ],
      [
        103.8527915,
        1.3080533
      ],
      [
        103.852931,
        1.3082708
      ],
      [
        103.8530383,
        1.3084321
      ],
      [
        103.8533349,
        1.308889
      ],
      [
        103.8535181,
        1.3091653
      ],
      [
        103.8535374,
        1.3091992
      ],
      [
        103.8536491,
        1.3093698
      ],
      [
        103.8538417,
        1.3096646
      ],
      [
        103.8539544,
        1.3098293
      ],
      [
        103.8540477,
        1.3099704
      ],
      [
        103.8541177,
        1.3100744
      ],
      [
        103.8544006,
        1.3104887
      ],
      [
        103.8544571,
        1.3105714
      ],
      [
        103.8545359,
        1.3106868
      ],
      [
        103.8547233,
        1.3109219
      ],
      [
        103.8548474,
        1.3110781
      ],
      [
        103.8549991,
        1.3112866
      ],
      [
        103.8550348,
        1.3113291
      ],
      [
        103.8550478,
        1.3113465
      ],
      [
        103.8550635,
        1.3113688
      ],
      [
        103.8551225,
        1.3114516
      ],
      [
        103.8553167,
        1.3117284
      ],
      [
        103.8553675,
        1.3118005
      ],
      [
        103.855408,
        1.311857
      ],
      [
        103.8554569,
        1.3119231
      ],
      [
        103.855491,
        1.3119706
      ],
      [
        103.8557904,
        1.3123295
      ],
      [
        103.8559579,
        1.3125348
      ],
      [
        103.8559821,
        1.3125635
      ],
      [
        103.8561485,
        1.3127666
      ],
      [
        103.8565227,
        1.3132124
      ],
      [
        103.8566508,
        1.313365
      ],
      [
        103.8566893,
        1.3134109
      ],
      [
        103.857171,
        1.3140217
      ],
      [
        103.8572658,
        1.3141392
      ],
      [
        103.8574679,
        1.3143897
      ],
      [
        103.85754,
        1.314485
      ],
      [
        103.857621,
        1.3145922
      ],
      [
        103.8579261,
        1.3149792
      ],
      [
        103.8580138,
        1.3150903
      ],
      [
        103.8580495,
        1.3151356
      ],
      [
        103.8582337,
        1.3153631
      ],
      [
        103.8583374,
        1.3154914
      ],
      [
        103.8586828,
        1.3159177
      ],
      [
        103.8587654,
        1.3160196
      ],
      [
        103.8586156,
        1.3161415
      ],
      [
        103.8584798,
        1.316256
      ],
      [
        103.858384,
        1.3163243
      ],
      [
        103.85828,
        1.3163948
      ],
      [
        103.8578019,
        1.316715
      ],
      [
        103.8575258,
        1.3169041
      ],
      [
        103.8565646,
        1.3174655
      ],
      [
        103.8565156,
        1.3174941
      ],
      [
        103.8564947,
        1.3175068
      ],
      [
        103.8563044,
        1.3176224
      ],
      [
        103.8559862,
        1.3178157
      ],
      [
        103.8558306,
        1.3179102
      ],
      [
        103.8552061,
        1.3182895
      ],
      [
        103.8552038,
        1.3182909
      ],
      [
        103.8549292,
        1.3184549
      ],
      [
        103.854765,
        1.3185593
      ],
      [
        103.8544854,
        1.3187371
      ],
      [
        103.8542351,
        1.3188957
      ],
      [
        103.8541616,
        1.3189342
      ],
      [
        103.8540082,
        1.3190335
      ],
      [
        103.8535914,
        1.3193062
      ],
      [
        103.8531589,
        1.3195697
      ],
      [
        103.8530643,
        1.3196438
      ],
      [
        103.8530022,
        1.3197749
      ],
      [
        103.8529844,
        1.3198989
      ],
      [
        103.8529556,
        1.3202604
      ],
      [
        103.8529483,
        1.3203589
      ],
      [
        103.8529171,
        1.32078
      ],
      [
        103.8529113,
        1.3208592
      ],
      [
        103.8528931,
        1.3211049
      ],
      [
        103.8528843,
        1.3211827
      ],
      [
        103.8528534,
        1.3215075
      ],
      [
        103.8528297,
        1.3216851
      ],
      [
        103.852746,
        1.3223119
      ],
      [
        103.8527381,
        1.3223618
      ],
      [
        103.8527261,
        1.3224466
      ],
      [
        103.8526949,
        1.3225554
      ],
      [
        103.8528033,
        1.322576
      ],
      [
        103.8528033,
        1.322576
      ],
      [
        103.8530129,
        1.3226069
      ],
      [
        103.8534103,
        1.3226316
      ],
      [
        103.853613,
        1.322645
      ],
      [
        103.853918,
        1.3226604
      ],
      [
        103.8539702,
        1.3226813
      ],
      [
        103.8541248,
        1.3226874
      ],
      [
        103.8542485,
        1.3226932
      ],
      [
        103.854384,
        1.3226953
      ],
      [
        103.8545125,
        1.3227072
      ],
      [
        103.8546016,
        1.3227131
      ],
      [
        103.8546734,
        1.3227269
      ],
      [
        103.854714,
        1.3227396
      ],
      [
        103.8547184,
        1.3227577
      ],
      [
        103.8547294,
        1.3227754
      ],
      [
        103.8547383,
        1.3227835
      ],
      [
        103.8547485,
        1.3227898
      ],
      [
        103.8547665,
        1.3227952
      ],
      [
        103.8547854,
        1.3227949
      ],
      [
        103.8547959,
        1.3227922
      ],
      [
        103.8548057,
        1.3227876
      ],
      [
        103.8548211,
        1.322775
      ],
      [
        103.8548275,
        1.3227663
      ],
      [
        103.8548323,
        1.3227565
      ],
      [
        103.8549172,
        1.3227303
      ],
      [
        103.8550237,
        1.3226716
      ],
      [
        103.8551602,
        1.3226098
      ],
      [
        103.8552457,
        1.3225758
      ],
      [
        103.85534,
        1.3225653
      ],
      [
        103.8554444,
        1.3225735
      ],
      [
        103.8555222,
        1.3225875
      ],
      [
        103.8555875,
        1.3226068
      ],
      [
        103.8556306,
        1.3226265
      ],
      [
        103.8557814,
        1.3227278
      ],
      [
        103.8558887,
        1.3228543
      ],
      [
        103.8560339,
        1.3230324
      ],
      [
        103.8561318,
        1.3231705
      ],
      [
        103.8563258,
        1.3234031
      ],
      [
        103.8564792,
        1.323571
      ],
      [
        103.8566517,
        1.3237781
      ],
      [
        103.8568013,
        1.3239577
      ],
      [
        103.856884,
        1.324057
      ],
      [
        103.8570152,
        1.3242203
      ],
      [
        103.8570881,
        1.3243084
      ],
      [
        103.8571699,
        1.3244073
      ],
      [
        103.8573642,
        1.3246408
      ],
      [
        103.8574054,
        1.3246904
      ],
      [
        103.8575814,
        1.3249115
      ],
      [
        103.8576232,
        1.324964
      ],
      [
        103.8576623,
        1.3250202
      ],
      [
        103.857714,
        1.3250942
      ],
      [
        103.8579286,
        1.3253783
      ],
      [
        103.8579673,
        1.3254078
      ],
      [
        103.8580164,
        1.3254236
      ],
      [
        103.8580527,
        1.3254275
      ],
      [
        103.8580903,
        1.3254265
      ],
      [
        103.8581278,
        1.3254169
      ],
      [
        103.8581641,
        1.3254007
      ],
      [
        103.8583148,
        1.325283
      ],
      [
        103.8583899,
        1.3252244
      ],
      [
        103.8584435,
        1.3251816
      ],
      [
        103.8585893,
        1.3250737
      ],
      [
        103.8587391,
        1.3249644
      ],
      [
        103.8587848,
        1.32494
      ],
      [
        103.858832,
        1.3249305
      ],
      [
        103.8588752,
        1.3249297
      ],
      [
        103.8589209,
        1.3249381
      ],
      [
        103.8589681,
        1.3249555
      ],
      [
        103.8590061,
        1.3249818
      ],
      [
        103.8590455,
        1.325008
      ],
      [
        103.8591384,
        1.3250777
      ],
      [
        103.8592582,
        1.3252007
      ],
      [
        103.859392,
        1.325317
      ],
      [
        103.8595355,
        1.3254559
      ],
      [
        103.8596342,
        1.3255474
      ],
      [
        103.8596675,
        1.325578
      ],
      [
        103.8597011,
        1.3256406
      ],
      [
        103.8597134,
        1.3257033
      ],
      [
        103.8597181,
        1.3257525
      ],
      [
        103.8597174,
        1.3258046
      ],
      [
        103.8597034,
        1.3258516
      ],
      [
        103.8596685,
        1.3259115
      ],
      [
        103.8596224,
        1.3259551
      ],
      [
        103.8594599,
        1.3260837
      ],
      [
        103.8593349,
        1.3261781
      ],
      [
        103.8592267,
        1.3262612
      ],
      [
        103.8590398,
        1.326414
      ],
      [
        103.8589843,
        1.3264567
      ],
      [
        103.8587853,
        1.3266038
      ],
      [
        103.8585673,
        1.3267625
      ],
      [
        103.8581657,
        1.3270788
      ],
      [
        103.8578114,
        1.327358
      ],
      [
        103.8577661,
        1.3274043
      ],
      [
        103.8577087,
        1.3275071
      ],
      [
        103.8576844,
        1.3275807
      ],
      [
        103.8576516,
        1.3276948
      ],
      [
        103.8576183,
        1.3277848
      ],
      [
        103.8575385,
        1.3277586
      ],
      [
        103.8574797,
        1.3277432
      ],
      [
        103.8574134,
        1.3277378
      ],
      [
        103.8573484,
        1.3277346
      ],
      [
        103.8572951,
        1.3277391
      ],
      [
        103.8572448,
        1.3277465
      ],
      [
        103.8571581,
        1.3277621
      ],
      [
        103.8565425,
        1.3278659
      ],
      [
        103.8563373,
        1.3279044
      ],
      [
        103.8562472,
        1.3279194
      ],
      [
        103.855859,
        1.3279864
      ],
      [
        103.8557961,
        1.3279777
      ],
      [
        103.8557519,
        1.3279551
      ],
      [
        103.8557284,
        1.3279272
      ],
      [
        103.8557046,
        1.3278852
      ],
      [
        103.8556709,
        1.3278284
      ],
      [
        103.8554432,
        1.327393
      ],
      [
        103.8553336,
        1.3271986
      ],
      [
        103.8552582,
        1.3272469
      ],
      [
        103.8553336,
        1.3271986
      ],
      [
        103.8549604,
        1.3274379
      ],
      [
        103.8547366,
        1.3275814
      ],
      [
        103.854562,
        1.3276934
      ],
      [
        103.8534381,
        1.3282956
      ],
      [
        103.8535677,
        1.3282806
      ],
      [
        103.8536252,
        1.3282655
      ],
      [
        103.853752,
        1.3282138
      ],
      [
        103.8541618,
        1.3279525
      ],
      [
        103.8543868,
        1.3278057
      ],
      [
        103.8530554,
        1.3281962
      ],
      [
        103.8531823,
        1.3282553
      ],
      [
        103.8533109,
        1.3282881
      ],
      [
        103.852874,
        1.3280251
      ],
      [
        103.8529565,
        1.3281164
      ],
      [
        103.8524111,
        1.327523
      ],
      [
        103.8524715,
        1.327558
      ],
      [
        103.852539,
        1.3276203
      ],
      [
        103.852697,
        1.3278068
      ],
      [
        103.851648,
        1.3277857
      ],
      [
        103.8521152,
        1.3275401
      ],
      [
        103.8522042,
        1.3275066
      ],
      [
        103.8522492,
        1.3274984
      ],
      [
        103.8523022,
        1.327499
      ],
      [
        103.8523425,
        1.327502
      ],
      [
        103.8509582,
        1.3281448
      ],
      [
        103.8497325,
        1.3287825
      ],
      [
        103.8505041,
        1.3283764
      ],
      [
        103.8491779,
        1.32871
      ],
      [
        103.8492799,
        1.3288341
      ],
      [
        103.8493518,
        1.3289163
      ],
      [
        103.8493854,
        1.3289365
      ],
      [
        103.849405,
        1.3289402
      ],
      [
        103.8494346,
        1.3289389
      ],
      [
        103.848896,
        1.3284395
      ],
      [
        103.8489498,
        1.3284132
      ],
      [
        103.848781,
        1.3284981
      ],
      [
        103.8479932,
        1.3286531
      ],
      [
        103.8480665,
        1.3286954
      ],
      [
        103.8481341,
        1.3287147
      ],
      [
        103.848226,
        1.3287243
      ],
      [
        103.8483286,
        1.3287023
      ],
      [
        103.8484116,
        1.3286637
      ],
      [
        103.8472241,
        1.327823
      ],
      [
        103.8473064,
        1.3278675
      ],
      [
        103.8473824,
        1.327924
      ],
      [
        103.8474416,
        1.3279855
      ],
      [
        103.847932,
        1.3285893
      ],
      [
        103.8470373,
        1.3277681
      ],
      [
        103.8467511,
        1.3276899
      ],
      [
        103.8462334,
        1.327579
      ],
      [
        103.8461294,
        1.3275721
      ],
      [
        103.8459958,
        1.3275698
      ],
      [
        103.8458263,
        1.327567
      ],
      [
        103.8456889,
        1.3275646
      ],
      [
        103.8454623,
        1.3275604
      ],
      [
        103.8453272,
        1.3275583
      ],
      [
        103.8451975,
        1.327556
      ],
      [
        103.8449682,
        1.3275537
      ],
      [
        103.8448987,
        1.3275517
      ],
      [
        103.84486,
        1.3275438
      ],
      [
        103.8448403,
        1.3275335
      ],
      [
        103.8448044,
        1.3275034
      ],
      [
        103.8447877,
        1.3274783
      ],
      [
        103.8447804,
        1.3274529
      ],
      [
        103.8447802,
        1.3273785
      ],
      [
        103.8447804,
        1.3273446
      ],
      [
        103.8448033,
        1.327307
      ],
      [
        103.844805,
        1.3271212
      ],
      [
        103.8448126,
        1.3266981
      ],
      [
        103.8448032,
        1.3266247
      ],
      [
        103.8447902,
        1.3265261
      ],
      [
        103.84473,
        1.3265355
      ],
      [
        103.8444457,
        1.3265722
      ],
      [
        103.8439388,
        1.3265419
      ],
      [
        103.8438355,
        1.3265334
      ],
      [
        103.8434582,
        1.3264991
      ],
      [
        103.8427892,
        1.3264437
      ],
      [
        103.842502,
        1.3264235
      ],
      [
        103.8423102,
        1.3263977
      ],
      [
        103.8421051,
        1.326344
      ],
      [
        103.8420494,
        1.3263288
      ],
      [
        103.8419118,
        1.3263004
      ],
      [
        103.8418468,
        1.3264357
      ],
      [
        103.841629,
        1.326873
      ],
      [
        103.8414722,
        1.3272112
      ],
      [
        103.8413424,
        1.3274365
      ],
      [
        103.8411446,
        1.3275288
      ],
      [
        103.8410179,
        1.3275459
      ],
      [
        103.8408423,
        1.3275296
      ],
      [
        103.8407136,
        1.3274517
      ],
      [
        103.8405838,
        1.3273592
      ],
      [
        103.8404206,
        1.3272707
      ],
      [
        103.8403047,
        1.3272418
      ],
      [
        103.8401796,
        1.3272473
      ],
      [
        103.840009,
        1.3273093
      ],
      [
        103.8398856,
        1.3274349
      ],
      [
        103.8398254,
        1.3276058
      ],
      [
        103.8398383,
        1.3278509
      ],
      [
        103.8398981,
        1.3279527
      ],
      [
        103.8399792,
        1.3280394
      ],
      [
        103.8402261,
        1.3281885
      ],
      [
        103.8403025,
        1.3282303
      ],
      [
        103.8403706,
        1.3282899
      ],
      [
        103.8404044,
        1.3283429
      ],
      [
        103.8404292,
        1.3283952
      ],
      [
        103.8404406,
        1.3284692
      ],
      [
        103.8404252,
        1.3286386
      ],
      [
        103.8402743,
        1.328959
      ],
      [
        103.8402159,
        1.3291326
      ],
      [
        103.8401866,
        1.3292679
      ],
      [
        103.8401614,
        1.3294501
      ],
      [
        103.8400407,
        1.3295728
      ],
      [
        103.839959,
        1.3296089
      ],
      [
        103.839822,
        1.3296259
      ],
      [
        103.8396958,
        1.3296198
      ],
      [
        103.8396196,
        1.329598
      ],
      [
        103.8395068,
        1.3295433
      ],
      [
        103.8394556,
        1.3295005
      ],
      [
        103.8394073,
        1.3294361
      ],
      [
        103.8393724,
        1.3293619
      ],
      [
        103.8393402,
        1.3292559
      ],
      [
        103.8393375,
        1.3291809
      ],
      [
        103.8393469,
        1.3291084
      ],
      [
        103.8393804,
        1.329016
      ],
      [
        103.8394354,
        1.3289502
      ],
      [
        103.8394837,
        1.328902
      ],
      [
        103.8395414,
        1.3288644
      ],
      [
        103.8396178,
        1.3288363
      ],
      [
        103.8396956,
        1.3288215
      ],
      [
        103.8397693,
        1.3288256
      ],
      [
        103.8398552,
        1.328843
      ],
      [
        103.8399343,
        1.3288672
      ],
      [
        103.8400162,
        1.3289007
      ],
      [
        103.8402758,
        1.3290708
      ],
      [
        103.8405297,
        1.3292092
      ],
      [
        103.8405747,
        1.3292335
      ],
      [
        103.8408159,
        1.3293668
      ],
      [
        103.8411136,
        1.3295084
      ],
      [
        103.8416161,
        1.3296918
      ],
      [
        103.8420348,
        1.3297809
      ],
      [
        103.8424758,
        1.3298246
      ],
      [
        103.843847,
        1.3298279
      ],
      [
        103.8443647,
        1.3298437
      ],
      [
        103.8444784,
        1.3298471
      ],
      [
        103.8446988,
        1.3298604
      ],
      [
        103.8450586,
        1.3299291
      ],
      [
        103.845457,
        1.3299888
      ],
      [
        103.845596,
        1.3300498
      ],
      [
        103.845701,
        1.3301113
      ],
      [
        103.8457619,
        1.330176
      ],
      [
        103.8458075,
        1.330236
      ],
      [
        103.8458501,
        1.3303096
      ],
      [
        103.8459389,
        1.3306891
      ],
      [
        103.8459951,
        1.3309157
      ],
      [
        103.8461377,
        1.3314383
      ],
      [
        103.8461621,
        1.3315251
      ],
      [
        103.8461895,
        1.3316519
      ],
      [
        103.8463159,
        1.3316334
      ],
      [
        103.8464036,
        1.3316147
      ],
      [
        103.8468963,
        1.3315268
      ],
      [
        103.8473107,
        1.3314516
      ],
      [
        103.8475702,
        1.3314206
      ],
      [
        103.847546,
        1.3315009
      ],
      [
        103.8475064,
        1.3316175
      ],
      [
        103.8474931,
        1.3316237
      ],
      [
        103.84748,
        1.3316275
      ],
      [
        103.8473008,
        1.3316302
      ],
      [
        103.8470626,
        1.3316991
      ],
      [
        103.846909,
        1.3317975
      ],
      [
        103.8468287,
        1.3318605
      ],
      [
        103.8467952,
        1.3319138
      ]
    ]
  }
}