{
  "type": "Feature",
  "properties": {
    "relation": 1153704,
    "direction": "1",
    "fee": "yes",
    "from": "Toa Payoh Interchange",
    "name": "Svc 139 (Toa Payoh Interchange → Bukit Merah Interchange)",
    "network": "Land Transport Authority",
    "network:short": "LTA",
    "network:wikidata": "Q3299279",
    "network:wikipedia": "en:Land Transport Authority",
    "operator": "SBS Transit",
    "operator:wikidata": "Q2661305",
    "operator:wikipedia": "en:SBS Transit",
    "public_transport:version": "2",
    "ref": "139",
    "route": "bus",
    "to": "Bukit Merah Interchange",
    "type": "route",
    "website": "https://www.sbstransit.com.sg/"
  },
  "geometry": {
    "type": "LineString",
    "coordinates": [
      [
        103.8475702,
        1.3314206
      ],
      [
        103.847546,
        1.3315009
      ],
      [
        103.8475064,
        1.3316175
      ],
      [
        103.8474931,
        1.3316237
      ],
      [
        103.84748,
        1.3316275
      ],
      [
        103.8473008,
        1.3316302
      ],
      [
        103.8470626,
        1.3316991
      ],
      [
        103.846909,
        1.3317975
      ],
      [
        103.8468287,
        1.3318605
      ],
      [
        103.8467952,
        1.3319138
      ],
      [
        103.8467217,
        1.3320515
      ],
      [
        103.8466995,
        1.3321823
      ],
      [
        103.8466995,
        1.3323142
      ],
      [
        103.8467778,
        1.332553
      ],
      [
        103.8467805,
        1.3325661
      ],
      [
        103.8467801,
        1.3325799
      ],
      [
        103.8467763,
        1.3325922
      ],
      [
        103.8467646,
        1.3326024
      ],
      [
        103.8466666,
        1.3326462
      ],
      [
        103.8465995,
        1.3326596
      ],
      [
        103.8465673,
        1.3325346
      ],
      [
        103.8465224,
        1.3323565
      ],
      [
        103.8464636,
        1.3321421
      ],
      [
        103.8463333,
        1.3317025
      ],
      [
        103.8463159,
        1.3316334
      ],
      [
        103.846284,
        1.3315064
      ],
      [
        103.8462614,
        1.3314159
      ],
      [
        103.8461813,
        1.3311289
      ],
      [
        103.8461602,
        1.3310662
      ],
      [
        103.8460944,
        1.330867
      ],
      [
        103.8460292,
        1.3306274
      ],
      [
        103.8459985,
        1.3305146
      ],
      [
        103.8459744,
        1.3303937
      ],
      [
        103.8459516,
        1.3302269
      ],
      [
        103.8459443,
        1.3300334
      ],
      [
        103.845956,
        1.329639
      ],
      [
        103.8459779,
        1.3292002
      ],
      [
        103.8459931,
        1.3290907
      ],
      [
        103.8460165,
        1.3289938
      ],
      [
        103.8460524,
        1.3288993
      ],
      [
        103.8460954,
        1.3288148
      ],
      [
        103.8461363,
        1.3287572
      ],
      [
        103.8461966,
        1.3286969
      ],
      [
        103.8462395,
        1.328656
      ],
      [
        103.8463079,
        1.3286137
      ],
      [
        103.8463743,
        1.3285849
      ],
      [
        103.8464371,
        1.3285617
      ],
      [
        103.8464985,
        1.3285483
      ],
      [
        103.8465658,
        1.3285402
      ],
      [
        103.8466537,
        1.3285429
      ],
      [
        103.8467321,
        1.3285563
      ],
      [
        103.8467971,
        1.3285806
      ],
      [
        103.8468609,
        1.32861
      ],
      [
        103.8469306,
        1.3286529
      ],
      [
        103.8469865,
        1.3286989
      ],
      [
        103.847054,
        1.3287655
      ],
      [
        103.8470965,
        1.3288309
      ],
      [
        103.8471237,
        1.3288835
      ],
      [
        103.8471505,
        1.32898
      ],
      [
        103.8471613,
        1.3290712
      ],
      [
        103.8471613,
        1.3291516
      ],
      [
        103.8471505,
        1.3292318
      ],
      [
        103.847113,
        1.329323
      ],
      [
        103.847059,
        1.3293901
      ],
      [
        103.8469843,
        1.3294517
      ],
      [
        103.8468927,
        1.3295006
      ],
      [
        103.8467891,
        1.3295255
      ],
      [
        103.8466463,
        1.3295375
      ],
      [
        103.8464977,
        1.3295422
      ],
      [
        103.8463307,
        1.3295443
      ],
      [
        103.8460568,
        1.329551
      ],
      [
        103.8458595,
        1.3295427
      ],
      [
        103.8450256,
        1.3295114
      ],
      [
        103.8445045,
        1.3294849
      ],
      [
        103.844377,
        1.3294764
      ],
      [
        103.8440511,
        1.3294598
      ],
      [
        103.8439948,
        1.3294555
      ],
      [
        103.8434579,
        1.3294202
      ],
      [
        103.8432567,
        1.3294056
      ],
      [
        103.8431345,
        1.3293683
      ],
      [
        103.8430828,
        1.3293368
      ],
      [
        103.8430465,
        1.3292988
      ],
      [
        103.8430175,
        1.3292455
      ],
      [
        103.8429951,
        1.3291947
      ],
      [
        103.8429491,
        1.3290647
      ],
      [
        103.8429493,
        1.3289399
      ],
      [
        103.8429513,
        1.3288665
      ],
      [
        103.8429587,
        1.3287086
      ],
      [
        103.8429645,
        1.328587
      ],
      [
        103.8429722,
        1.3284301
      ],
      [
        103.8429761,
        1.3283431
      ],
      [
        103.8429919,
        1.3276868
      ],
      [
        103.8429986,
        1.3274609
      ],
      [
        103.8430012,
        1.3273914
      ],
      [
        103.8430172,
        1.3269682
      ],
      [
        103.8430216,
        1.3266455
      ],
      [
        103.8430388,
        1.3265919
      ],
      [
        103.8430706,
        1.3265559
      ],
      [
        103.8434436,
        1.3265835
      ],
      [
        103.8438284,
        1.3266207
      ],
      [
        103.8439336,
        1.3266329
      ],
      [
        103.8441688,
        1.3266518
      ],
      [
        103.8443774,
        1.3266618
      ],
      [
        103.8444918,
        1.3266623
      ],
      [
        103.8446316,
        1.326647
      ],
      [
        103.8447443,
        1.3266317
      ],
      [
        103.8448032,
        1.3266247
      ],
      [
        103.8448565,
        1.3266179
      ],
      [
        103.8451049,
        1.3265886
      ],
      [
        103.8452799,
        1.326566
      ],
      [
        103.8454136,
        1.3265532
      ],
      [
        103.845724,
        1.3265504
      ],
      [
        103.8461043,
        1.3265624
      ],
      [
        103.8461557,
        1.3265641
      ],
      [
        103.8462912,
        1.3265661
      ],
      [
        103.8467677,
        1.3265847
      ],
      [
        103.8470528,
        1.3265921
      ],
      [
        103.847141,
        1.3265933
      ],
      [
        103.847441,
        1.3265924
      ],
      [
        103.8475096,
        1.3266321
      ],
      [
        103.847561,
        1.3266824
      ],
      [
        103.8476115,
        1.3267542
      ],
      [
        103.8476793,
        1.3268329
      ],
      [
        103.8477875,
        1.3269601
      ],
      [
        103.8478329,
        1.3270142
      ],
      [
        103.8480756,
        1.3273104
      ],
      [
        103.8483067,
        1.327581
      ],
      [
        103.8485455,
        1.3278846
      ],
      [
        103.8486679,
        1.3280403
      ],
      [
        103.8488232,
        1.3282458
      ],
      [
        103.8489498,
        1.3284132
      ],
      [
        103.8491779,
        1.32871
      ],
      [
        103.8492799,
        1.3288341
      ],
      [
        103.8493518,
        1.3289163
      ],
      [
        103.8493854,
        1.3289365
      ],
      [
        103.849405,
        1.3289402
      ],
      [
        103.8494346,
        1.3289389
      ],
      [
        103.8497325,
        1.3287825
      ],
      [
        103.8505041,
        1.3283764
      ],
      [
        103.8509582,
        1.3281448
      ],
      [
        103.851648,
        1.3277857
      ],
      [
        103.8521152,
        1.3275401
      ],
      [
        103.8522042,
        1.3275066
      ],
      [
        103.8522492,
        1.3274984
      ],
      [
        103.8523022,
        1.327499
      ],
      [
        103.8523425,
        1.327502
      ],
      [
        103.8524111,
        1.327523
      ],
      [
        103.8524715,
        1.327558
      ],
      [
        103.852539,
        1.3276203
      ],
      [
        103.852697,
        1.3278068
      ],
      [
        103.852874,
        1.3280251
      ],
      [
        103.8529565,
        1.3281164
      ],
      [
        103.8530554,
        1.3281962
      ],
      [
        103.8531823,
        1.3282553
      ],
      [
        103.8533109,
        1.3282881
      ],
      [
        103.8534381,
        1.3282956
      ],
      [
        103.8535677,
        1.3282806
      ],
      [
        103.8536252,
        1.3282655
      ],
      [
        103.853752,
        1.3282138
      ],
      [
        103.8541618,
        1.3279525
      ],
      [
        103.8543868,
        1.3278057
      ],
      [
        103.854562,
        1.3276934
      ],
      [
        103.8547366,
        1.3275814
      ],
      [
        103.8549604,
        1.3274379
      ],
      [
        103.8552582,
        1.3272469
      ],
      [
        103.8553336,
        1.3271986
      ],
      [
        103.8551933,
        1.3270096
      ],
      [
        103.8551761,
        1.3269883
      ],
      [
        103.8552065,
        1.3269218
      ],
      [
        103.8552476,
        1.3268669
      ],
      [
        103.8553804,
        1.3267646
      ],
      [
        103.8555457,
        1.3266373
      ],
      [
        103.8563162,
        1.3260438
      ],
      [
        103.8570851,
        1.3254516
      ],
      [
        103.8576181,
        1.3250532
      ],
      [
        103.8576623,
        1.3250202
      ],
      [
        103.857714,
        1.3250942
      ],
      [
        103.8579286,
        1.3253783
      ],
      [
        103.8579673,
        1.3254078
      ],
      [
        103.8580164,
        1.3254236
      ],
      [
        103.8580527,
        1.3254275
      ],
      [
        103.8580903,
        1.3254265
      ],
      [
        103.8581278,
        1.3254169
      ],
      [
        103.8581641,
        1.3254007
      ],
      [
        103.8583148,
        1.325283
      ],
      [
        103.8583899,
        1.3252244
      ],
      [
        103.8584435,
        1.3251816
      ],
      [
        103.8585893,
        1.3250737
      ],
      [
        103.8587391,
        1.3249644
      ],
      [
        103.8587848,
        1.32494
      ],
      [
        103.858832,
        1.3249305
      ],
      [
        103.8588752,
        1.3249297
      ],
      [
        103.8589209,
        1.3249381
      ],
      [
        103.8589681,
        1.3249555
      ],
      [
        103.8590061,
        1.3249818
      ],
      [
        103.8590455,
        1.325008
      ],
      [
        103.8591384,
        1.3250777
      ],
      [
        103.8592582,
        1.3252007
      ],
      [
        103.859392,
        1.325317
      ],
      [
        103.8595355,
        1.3254559
      ],
      [
        103.8596342,
        1.3255474
      ],
      [
        103.8596675,
        1.325578
      ],
      [
        103.8597011,
        1.3256406
      ],
      [
        103.8597134,
        1.3257033
      ],
      [
        103.8597181,
        1.3257525
      ],
      [
        103.8597174,
        1.3258046
      ],
      [
        103.8597034,
        1.3258516
      ],
      [
        103.8596685,
        1.3259115
      ],
      [
        103.8596224,
        1.3259551
      ],
      [
        103.8594599,
        1.3260837
      ],
      [
        103.8593349,
        1.3261781
      ],
      [
        103.8592267,
        1.3262612
      ],
      [
        103.8590398,
        1.326414
      ],
      [
        103.8589843,
        1.3264567
      ],
      [
        103.8587853,
        1.3266038
      ],
      [
        103.8585673,
        1.3267625
      ],
      [
        103.8581657,
        1.3270788
      ],
      [
        103.8578114,
        1.327358
      ],
      [
        103.8577661,
        1.3274043
      ],
      [
        103.8577087,
        1.3275071
      ],
      [
        103.8576844,
        1.3275807
      ],
      [
        103.8576516,
        1.3276948
      ],
      [
        103.8576183,
        1.3277848
      ],
      [
        103.8575385,
        1.3277586
      ],
      [
        103.8574797,
        1.3277432
      ],
      [
        103.8574134,
        1.3277378
      ],
      [
        103.8573484,
        1.3277346
      ],
      [
        103.8572951,
        1.3277391
      ],
      [
        103.8572448,
        1.3277465
      ],
      [
        103.8571581,
        1.3277621
      ],
      [
        103.8565425,
        1.3278659
      ],
      [
        103.8563373,
        1.3279044
      ],
      [
        103.8562472,
        1.3279194
      ],
      [
        103.855859,
        1.3279864
      ],
      [
        103.8557961,
        1.3279777
      ],
      [
        103.8557519,
        1.3279551
      ],
      [
        103.8557284,
        1.3279272
      ],
      [
        103.8557046,
        1.3278852
      ],
      [
        103.8556709,
        1.3278284
      ],
      [
        103.8554432,
        1.327393
      ],
      [
        103.8553336,
        1.3271986
      ],
      [
        103.8551933,
        1.3270096
      ],
      [
        103.8551761,
        1.3269883
      ],
      [
        103.8550914,
        1.3268831
      ],
      [
        103.8547789,
        1.3265119
      ],
      [
        103.8547536,
        1.3264828
      ],
      [
        103.8547178,
        1.3264418
      ],
      [
        103.8546427,
        1.3263554
      ],
      [
        103.8545544,
        1.3262541
      ],
      [
        103.8544678,
        1.3261547
      ],
      [
        103.8543759,
        1.3260468
      ],
      [
        103.8543425,
        1.3260071
      ],
      [
        103.854295,
        1.3259472
      ],
      [
        103.85418,
        1.3258157
      ],
      [
        103.8541272,
        1.3257514
      ],
      [
        103.8540179,
        1.3256184
      ],
      [
        103.8539344,
        1.3255105
      ],
      [
        103.8538015,
        1.3253503
      ],
      [
        103.8536785,
        1.3252012
      ],
      [
        103.8536302,
        1.3251696
      ],
      [
        103.8535097,
        1.3250375
      ],
      [
        103.8534184,
        1.3249373
      ],
      [
        103.8534184,
        1.3249373
      ],
      [
        103.8531823,
        1.3246797
      ],
      [
        103.8533656,
        1.3249038
      ],
      [
        103.8530653,
        1.3245112
      ],
      [
        103.8530016,
        1.3244359
      ],
      [
        103.8529575,
        1.3243815
      ],
      [
        103.8529001,
        1.3243152
      ],
      [
        103.8525629,
        1.3239342
      ],
      [
        103.8525288,
        1.3238985
      ],
      [
        103.8523726,
        1.3237204
      ],
      [
        103.8523568,
        1.323703
      ],
      [
        103.8522118,
        1.3235344
      ],
      [
        103.8521547,
        1.3234755
      ],
      [
        103.8522473,
        1.323368
      ],
      [
        103.8526563,
        1.3228445
      ],
      [
        103.8527125,
        1.3227564
      ],
      [
        103.8527583,
        1.3226779
      ],
      [
        103.8528033,
        1.322576
      ],
      [
        103.8528293,
        1.3224705
      ],
      [
        103.8528483,
        1.3224011
      ],
      [
        103.8528786,
        1.3222135
      ],
      [
        103.852904,
        1.3219771
      ],
      [
        103.8529348,
        1.3216016
      ],
      [
        103.8529843,
        1.3211113
      ],
      [
        103.8530153,
        1.3208467
      ],
      [
        103.853068,
        1.3203922
      ],
      [
        103.8530794,
        1.3202942
      ],
      [
        103.8531002,
        1.3201464
      ],
      [
        103.8532429,
        1.3198159
      ],
      [
        103.8532939,
        1.3197334
      ],
      [
        103.8534156,
        1.3196121
      ],
      [
        103.8538322,
        1.3193613
      ],
      [
        103.8540336,
        1.3192221
      ],
      [
        103.8542113,
        1.3190873
      ],
      [
        103.8543476,
        1.3189999
      ],
      [
        103.854382,
        1.3189778
      ],
      [
        103.8545886,
        1.3188477
      ],
      [
        103.854808,
        1.3187132
      ],
      [
        103.8549195,
        1.31864
      ],
      [
        103.8551112,
        1.3185088
      ],
      [
        103.8551665,
        1.3184745
      ],
      [
        103.855456,
        1.3182995
      ],
      [
        103.8560148,
        1.3179425
      ],
      [
        103.8564233,
        1.3176849
      ],
      [
        103.856509,
        1.3176719
      ],
      [
        103.8565533,
        1.3176685
      ],
      [
        103.8565935,
        1.3176826
      ],
      [
        103.8566557,
        1.3177162
      ],
      [
        103.8570369,
        1.3181832
      ],
      [
        103.8571937,
        1.3183895
      ],
      [
        103.8572563,
        1.31847
      ],
      [
        103.857356,
        1.3186043
      ],
      [
        103.8574975,
        1.3187727
      ],
      [
        103.8577113,
        1.3190306
      ],
      [
        103.8580806,
        1.3194786
      ],
      [
        103.8583896,
        1.3198618
      ],
      [
        103.858466,
        1.3199634
      ],
      [
        103.8585098,
        1.3200197
      ],
      [
        103.8585356,
        1.3200502
      ],
      [
        103.8585651,
        1.3200257
      ],
      [
        103.8585927,
        1.3200027
      ],
      [
        103.8587523,
        1.3198778
      ],
      [
        103.859189,
        1.3195267
      ],
      [
        103.8594281,
        1.3193383
      ],
      [
        103.8596995,
        1.3191306
      ],
      [
        103.8597704,
        1.3190144
      ],
      [
        103.8599979,
        1.3188377
      ],
      [
        103.8601767,
        1.3187036
      ],
      [
        103.8603292,
        1.3185904
      ],
      [
        103.8603996,
        1.3185747
      ],
      [
        103.8605567,
        1.3184772
      ],
      [
        103.8606382,
        1.3184247
      ],
      [
        103.8607501,
        1.3183394
      ],
      [
        103.8610597,
        1.3181062
      ],
      [
        103.8612141,
        1.3179855
      ],
      [
        103.8614742,
        1.3177834
      ],
      [
        103.8616526,
        1.3176429
      ],
      [
        103.861798,
        1.3175284
      ],
      [
        103.8618815,
        1.3174631
      ],
      [
        103.8619357,
        1.3174213
      ],
      [
        103.8619563,
        1.3174052
      ],
      [
        103.8620053,
        1.3173672
      ],
      [
        103.8620531,
        1.3173299
      ],
      [
        103.8625186,
        1.3169546
      ],
      [
        103.8626036,
        1.316887
      ],
      [
        103.8625461,
        1.3168179
      ],
      [
        103.8625129,
        1.3167779
      ],
      [
        103.8624028,
        1.3166338
      ],
      [
        103.8621208,
        1.3162715
      ],
      [
        103.8617778,
        1.3158225
      ],
      [
        103.8615546,
        1.3155289
      ],
      [
        103.8615352,
        1.3155043
      ],
      [
        103.8611962,
        1.3150581
      ],
      [
        103.8611268,
        1.3149647
      ],
      [
        103.8610647,
        1.3148828
      ],
      [
        103.860936,
        1.3147129
      ],
      [
        103.8608088,
        1.3145373
      ],
      [
        103.8606487,
        1.3143331
      ],
      [
        103.8604587,
        1.3141108
      ],
      [
        103.8603993,
        1.3140413
      ],
      [
        103.8602816,
        1.3139015
      ],
      [
        103.8602135,
        1.3138181
      ],
      [
        103.8601443,
        1.3137281
      ],
      [
        103.8600655,
        1.3136025
      ],
      [
        103.8599335,
        1.3133546
      ],
      [
        103.8598823,
        1.3131665
      ],
      [
        103.8598679,
        1.3131134
      ],
      [
        103.8598543,
        1.3130637
      ],
      [
        103.8597988,
        1.3128599
      ],
      [
        103.8597129,
        1.3124671
      ],
      [
        103.8596264,
        1.3121601
      ],
      [
        103.8596204,
        1.3121373
      ],
      [
        103.8595694,
        1.3119818
      ],
      [
        103.85946,
        1.3117554
      ],
      [
        103.8594148,
        1.3116733
      ],
      [
        103.8593696,
        1.3116008
      ],
      [
        103.8593085,
        1.31151
      ],
      [
        103.8592174,
        1.3113803
      ],
      [
        103.8591985,
        1.3113517
      ],
      [
        103.8590758,
        1.3111584
      ],
      [
        103.8588146,
        1.3107897
      ],
      [
        103.8587351,
        1.3106732
      ],
      [
        103.8587057,
        1.3106301
      ],
      [
        103.8586304,
        1.310518
      ],
      [
        103.8586023,
        1.3104748
      ],
      [
        103.8582388,
        1.3098963
      ],
      [
        103.8578848,
        1.3093936
      ],
      [
        103.8578612,
        1.3093599
      ],
      [
        103.8578193,
        1.3093002
      ],
      [
        103.8577479,
        1.3091849
      ],
      [
        103.8574841,
        1.3087701
      ],
      [
        103.8572997,
        1.3084804
      ],
      [
        103.8571362,
        1.3082267
      ],
      [
        103.8569255,
        1.307896
      ],
      [
        103.856862,
        1.3077962
      ],
      [
        103.8566791,
        1.307519
      ],
      [
        103.8566247,
        1.3074365
      ],
      [
        103.8564912,
        1.3072412
      ],
      [
        103.8563169,
        1.3069592
      ],
      [
        103.8561389,
        1.3066952
      ],
      [
        103.8559981,
        1.3064665
      ],
      [
        103.8559588,
        1.3064085
      ],
      [
        103.8559349,
        1.3063681
      ],
      [
        103.8558424,
        1.3062118
      ],
      [
        103.8557831,
        1.3061088
      ],
      [
        103.8556605,
        1.3059212
      ],
      [
        103.8553877,
        1.3054986
      ],
      [
        103.8553086,
        1.3053662
      ],
      [
        103.855281,
        1.3053257
      ],
      [
        103.8552167,
        1.3052265
      ],
      [
        103.855125,
        1.3050849
      ],
      [
        103.8549517,
        1.3048172
      ],
      [
        103.8548921,
        1.3047252
      ],
      [
        103.8547118,
        1.3044468
      ],
      [
        103.854663,
        1.3043714
      ],
      [
        103.8545175,
        1.3041482
      ],
      [
        103.8543823,
        1.3039379
      ],
      [
        103.854247,
        1.3037276
      ],
      [
        103.8542356,
        1.3037095
      ],
      [
        103.8541924,
        1.3036427
      ],
      [
        103.8541233,
        1.3035274
      ],
      [
        103.8540728,
        1.303456
      ],
      [
        103.8539882,
        1.3033235
      ],
      [
        103.8539788,
        1.3033081
      ],
      [
        103.8537299,
        1.3029936
      ],
      [
        103.8536275,
        1.3028645
      ],
      [
        103.8534955,
        1.3027101
      ],
      [
        103.8533584,
        1.3025524
      ],
      [
        103.8533474,
        1.3025388
      ],
      [
        103.8532555,
        1.3024247
      ],
      [
        103.8531709,
        1.302327
      ],
      [
        103.8531273,
        1.3022723
      ],
      [
        103.8530616,
        1.3021909
      ],
      [
        103.8526881,
        1.3017213
      ],
      [
        103.8525876,
        1.3015881
      ],
      [
        103.852365,
        1.3013094
      ],
      [
        103.8520426,
        1.3009086
      ],
      [
        103.8519986,
        1.3008548
      ],
      [
        103.851739,
        1.3005217
      ],
      [
        103.8517202,
        1.3004928
      ],
      [
        103.8516212,
        1.3003614
      ],
      [
        103.8515765,
        1.3003084
      ],
      [
        103.8514147,
        1.3001046
      ],
      [
        103.8510932,
        1.2997268
      ],
      [
        103.8509438,
        1.2995518
      ],
      [
        103.8507974,
        1.2993745
      ],
      [
        103.8505069,
        1.2990397
      ],
      [
        103.8504346,
        1.298955
      ],
      [
        103.8502048,
        1.2986857
      ],
      [
        103.8501484,
        1.2986196
      ],
      [
        103.8500779,
        1.298537
      ],
      [
        103.8500678,
        1.2985252
      ],
      [
        103.8498774,
        1.298302
      ],
      [
        103.8498602,
        1.2982819
      ],
      [
        103.8498458,
        1.298265
      ],
      [
        103.8496436,
        1.2980295
      ],
      [
        103.8495583,
        1.2979207
      ],
      [
        103.8494885,
        1.2978322
      ],
      [
        103.8494544,
        1.2977913
      ],
      [
        103.8493618,
        1.2976804
      ],
      [
        103.849338,
        1.2976543
      ],
      [
        103.8492601,
        1.2975587
      ],
      [
        103.849184,
        1.2974784
      ],
      [
        103.8491672,
        1.297461
      ],
      [
        103.8490982,
        1.2973913
      ],
      [
        103.8489969,
        1.2973164
      ],
      [
        103.8489258,
        1.2972882
      ],
      [
        103.8488639,
        1.2973425
      ],
      [
        103.8487422,
        1.2974409
      ],
      [
        103.8486291,
        1.2975236
      ],
      [
        103.8483977,
        1.2976929
      ],
      [
        103.8481278,
        1.2979092
      ],
      [
        103.8480569,
        1.2979702
      ],
      [
        103.8479612,
        1.298048
      ],
      [
        103.847712,
        1.2982594
      ],
      [
        103.8476785,
        1.2982819
      ],
      [
        103.8476472,
        1.2982994
      ],
      [
        103.8476202,
        1.2983082
      ],
      [
        103.8475925,
        1.2983147
      ],
      [
        103.8475616,
        1.2983173
      ],
      [
        103.8475318,
        1.2983164
      ],
      [
        103.8474774,
        1.2983158
      ],
      [
        103.8474447,
        1.2983154
      ],
      [
        103.8473864,
        1.2983067
      ],
      [
        103.847315,
        1.2982863
      ],
      [
        103.8472539,
        1.2982572
      ],
      [
        103.8472,
        1.2982179
      ],
      [
        103.8470101,
        1.298026
      ],
      [
        103.8469634,
        1.2979805
      ],
      [
        103.846857,
        1.2979174
      ],
      [
        103.8467533,
        1.2978736
      ],
      [
        103.8466612,
        1.297858
      ],
      [
        103.8465491,
        1.2978528
      ],
      [
        103.8463648,
        1.2979067
      ],
      [
        103.8459222,
        1.2980223
      ],
      [
        103.8456438,
        1.2981218
      ],
      [
        103.8453078,
        1.2982264
      ],
      [
        103.8451651,
        1.2982708
      ],
      [
        103.8448834,
        1.2983585
      ],
      [
        103.8447787,
        1.2983861
      ],
      [
        103.8445262,
        1.2984601
      ],
      [
        103.844475,
        1.2984751
      ],
      [
        103.8443111,
        1.2985359
      ],
      [
        103.8441591,
        1.2985922
      ],
      [
        103.8441285,
        1.2985832
      ],
      [
        103.8439662,
        1.2985932
      ],
      [
        103.8439138,
        1.298571
      ],
      [
        103.8438593,
        1.2985274
      ],
      [
        103.8438303,
        1.2984826
      ],
      [
        103.8438065,
        1.2984389
      ],
      [
        103.8437982,
        1.2983885
      ],
      [
        103.8438128,
        1.2981529
      ],
      [
        103.8438235,
        1.2979816
      ],
      [
        103.8438328,
        1.2978254
      ],
      [
        103.8438503,
        1.2975592
      ],
      [
        103.8438637,
        1.297326
      ],
      [
        103.8438718,
        1.2971597
      ],
      [
        103.8439014,
        1.2968199
      ],
      [
        103.8439276,
        1.296562
      ],
      [
        103.8440499,
        1.2956013
      ],
      [
        103.8440854,
        1.2953215
      ],
      [
        103.8441215,
        1.2950074
      ],
      [
        103.8441247,
        1.2949792
      ],
      [
        103.8441548,
        1.2947329
      ],
      [
        103.8442031,
        1.2943112
      ],
      [
        103.8442065,
        1.2942239
      ],
      [
        103.8442085,
        1.2941711
      ],
      [
        103.8442038,
        1.2941226
      ],
      [
        103.8441909,
        1.2939891
      ],
      [
        103.8441668,
        1.2938091
      ],
      [
        103.8441145,
        1.2936362
      ],
      [
        103.8441062,
        1.2936134
      ],
      [
        103.8440364,
        1.2934689
      ],
      [
        103.8438439,
        1.2931073
      ],
      [
        103.8437991,
        1.2930385
      ],
      [
        103.8437449,
        1.2929362
      ],
      [
        103.8436365,
        1.2930037
      ],
      [
        103.8435561,
        1.2930534
      ],
      [
        103.8430953,
        1.2933506
      ],
      [
        103.8430451,
        1.2933822
      ],
      [
        103.8425864,
        1.2936679
      ],
      [
        103.8423409,
        1.2938631
      ],
      [
        103.842265,
        1.2939394
      ],
      [
        103.8421956,
        1.294019
      ],
      [
        103.8421265,
        1.2940746
      ],
      [
        103.8420601,
        1.29417
      ],
      [
        103.8419522,
        1.2943532
      ],
      [
        103.8418737,
        1.2945033
      ],
      [
        103.8417494,
        1.2947476
      ],
      [
        103.8416955,
        1.2948573
      ],
      [
        103.8415277,
        1.2951864
      ],
      [
        103.8413466,
        1.2954745
      ],
      [
        103.8412758,
        1.2955741
      ],
      [
        103.841188,
        1.2956591
      ],
      [
        103.8410864,
        1.2957474
      ],
      [
        103.840916,
        1.2958472
      ],
      [
        103.8407879,
        1.2958839
      ],
      [
        103.8406861,
        1.295891
      ],
      [
        103.8404972,
        1.2958815
      ],
      [
        103.8403322,
        1.2958706
      ],
      [
        103.840271,
        1.2958665
      ],
      [
        103.8400945,
        1.2958545
      ],
      [
        103.8398812,
        1.2958406
      ],
      [
        103.8396861,
        1.2958267
      ],
      [
        103.8394911,
        1.2958117
      ],
      [
        103.839261,
        1.2957869
      ],
      [
        103.8391279,
        1.2957673
      ],
      [
        103.8388984,
        1.2957242
      ],
      [
        103.8387809,
        1.2957048
      ],
      [
        103.8387292,
        1.2956964
      ],
      [
        103.8384609,
        1.2956405
      ],
      [
        103.8381573,
        1.2955797
      ],
      [
        103.8379798,
        1.2955703
      ],
      [
        103.8378378,
        1.2955643
      ],
      [
        103.8376799,
        1.2955629
      ],
      [
        103.8376236,
        1.2955634
      ],
      [
        103.8375264,
        1.2955605
      ],
      [
        103.8374931,
        1.2955627
      ],
      [
        103.8373743,
        1.2955661
      ],
      [
        103.837206,
        1.2955847
      ],
      [
        103.8369852,
        1.2956263
      ],
      [
        103.8366692,
        1.2956835
      ],
      [
        103.8365634,
        1.2957471
      ],
      [
        103.8363455,
        1.2957861
      ],
      [
        103.8359896,
        1.2958436
      ],
      [
        103.8357328,
        1.2958842
      ],
      [
        103.8354989,
        1.2959145
      ],
      [
        103.8351911,
        1.295959
      ],
      [
        103.834644,
        1.2960381
      ],
      [
        103.8344221,
        1.2960723
      ],
      [
        103.8342965,
        1.2960908
      ],
      [
        103.8341198,
        1.296114
      ],
      [
        103.8340765,
        1.2961201
      ],
      [
        103.8339285,
        1.2961415
      ],
      [
        103.8337997,
        1.296139
      ],
      [
        103.8336446,
        1.2961604
      ],
      [
        103.8334677,
        1.2961927
      ],
      [
        103.833266,
        1.2962111
      ],
      [
        103.8330446,
        1.2962389
      ],
      [
        103.8328786,
        1.2962592
      ],
      [
        103.8327628,
        1.2962603
      ],
      [
        103.8326043,
        1.2962548
      ],
      [
        103.8323002,
        1.2962276
      ],
      [
        103.8320117,
        1.2961528
      ],
      [
        103.8317997,
        1.2960877
      ],
      [
        103.831494,
        1.2959857
      ],
      [
        103.8313997,
        1.2959584
      ],
      [
        103.8312632,
        1.2959036
      ],
      [
        103.8309627,
        1.2957816
      ],
      [
        103.8307828,
        1.2957212
      ],
      [
        103.8305033,
        1.2956289
      ],
      [
        103.8303526,
        1.295577
      ],
      [
        103.8302696,
        1.2955474
      ],
      [
        103.8298501,
        1.295399
      ],
      [
        103.8292969,
        1.2951941
      ],
      [
        103.8292365,
        1.2951659
      ],
      [
        103.8292067,
        1.2951481
      ],
      [
        103.8291407,
        1.2951137
      ],
      [
        103.8290255,
        1.2950433
      ],
      [
        103.8288646,
        1.294935
      ],
      [
        103.828776,
        1.2948733
      ],
      [
        103.8286934,
        1.2948128
      ],
      [
        103.8285459,
        1.2947099
      ],
      [
        103.8285241,
        1.2946932
      ],
      [
        103.8281286,
        1.2944099
      ],
      [
        103.8279448,
        1.2942797
      ],
      [
        103.8278707,
        1.2942278
      ],
      [
        103.8277895,
        1.2941704
      ],
      [
        103.8275693,
        1.2940162
      ],
      [
        103.827503,
        1.2939698
      ],
      [
        103.8274186,
        1.2939095
      ],
      [
        103.8269257,
        1.2935572
      ],
      [
        103.8268165,
        1.2934795
      ],
      [
        103.8266956,
        1.2933938
      ],
      [
        103.826396,
        1.2932043
      ],
      [
        103.82631,
        1.2931347
      ],
      [
        103.8262345,
        1.2930581
      ],
      [
        103.8261397,
        1.2929403
      ],
      [
        103.8260955,
        1.2928545
      ],
      [
        103.8260653,
        1.2927957
      ],
      [
        103.8260405,
        1.2927363
      ],
      [
        103.8260313,
        1.292708
      ],
      [
        103.8259895,
        1.2925372
      ],
      [
        103.8259871,
        1.2925119
      ],
      [
        103.8259688,
        1.292288
      ],
      [
        103.8259684,
        1.2922749
      ],
      [
        103.8259661,
        1.2922113
      ],
      [
        103.8259679,
        1.2921405
      ],
      [
        103.8259736,
        1.2920251
      ],
      [
        103.8260016,
        1.2918442
      ],
      [
        103.8260407,
        1.2916839
      ],
      [
        103.8260833,
        1.2915299
      ],
      [
        103.826122,
        1.2914088
      ],
      [
        103.8261789,
        1.2912509
      ],
      [
        103.8262036,
        1.2911824
      ],
      [
        103.826262,
        1.2909981
      ],
      [
        103.8262956,
        1.2908949
      ],
      [
        103.826312,
        1.2908134
      ],
      [
        103.8263204,
        1.2906942
      ],
      [
        103.8263149,
        1.2906191
      ],
      [
        103.8263053,
        1.2905015
      ],
      [
        103.8261203,
        1.2905007
      ],
      [
        103.8260633,
        1.2905032
      ],
      [
        103.8256793,
        1.29051
      ],
      [
        103.8253702,
        1.290534
      ],
      [
        103.8250089,
        1.2905689
      ],
      [
        103.8247007,
        1.2905953
      ],
      [
        103.8240955,
        1.2906654
      ],
      [
        103.8237756,
        1.2907058
      ],
      [
        103.8236349,
        1.2907182
      ],
      [
        103.8233127,
        1.2907456
      ],
      [
        103.8232278,
        1.2907522
      ],
      [
        103.8230968,
        1.2907627
      ],
      [
        103.8230273,
        1.2907688
      ],
      [
        103.8224232,
        1.2908242
      ],
      [
        103.821079,
        1.2909476
      ],
      [
        103.8207924,
        1.2909752
      ],
      [
        103.820384,
        1.2910145
      ],
      [
        103.8202586,
        1.2910252
      ],
      [
        103.8195828,
        1.2910792
      ],
      [
        103.8192184,
        1.2911227
      ],
      [
        103.8190345,
        1.291136
      ],
      [
        103.8189355,
        1.2911463
      ],
      [
        103.8186624,
        1.2911746
      ],
      [
        103.8181688,
        1.2912257
      ],
      [
        103.817977,
        1.2912456
      ],
      [
        103.816756,
        1.2913662
      ],
      [
        103.8165125,
        1.2913892
      ],
      [
        103.8162499,
        1.2914107
      ],
      [
        103.8160437,
        1.2914276
      ],
      [
        103.8159433,
        1.2914359
      ],
      [
        103.8157421,
        1.2914524
      ],
      [
        103.8155314,
        1.2914749
      ],
      [
        103.8154651,
        1.2914799
      ],
      [
        103.8153282,
        1.2914912
      ],
      [
        103.8152944,
        1.2914992
      ],
      [
        103.8149664,
        1.2915406
      ],
      [
        103.8146394,
        1.291594
      ],
      [
        103.8140762,
        1.2916989
      ],
      [
        103.8140065,
        1.2917089
      ],
      [
        103.8138301,
        1.2917328
      ],
      [
        103.8137453,
        1.2917462
      ],
      [
        103.8134513,
        1.2917977
      ],
      [
        103.8129754,
        1.2918784
      ],
      [
        103.812722,
        1.291916
      ],
      [
        103.8123451,
        1.2919759
      ],
      [
        103.8123216,
        1.2919794
      ],
      [
        103.8120372,
        1.2920217
      ],
      [
        103.8116758,
        1.2920859
      ],
      [
        103.8115121,
        1.2921128
      ],
      [
        103.8113822,
        1.2921345
      ],
      [
        103.8110956,
        1.2921813
      ],
      [
        103.8109936,
        1.292198
      ],
      [
        103.8109011,
        1.2922132
      ],
      [
        103.8100943,
        1.292348
      ],
      [
        103.810059,
        1.2923518
      ],
      [
        103.8099231,
        1.2923758
      ],
      [
        103.8097892,
        1.2924
      ],
      [
        103.8095516,
        1.2924268
      ],
      [
        103.8093902,
        1.2924284
      ],
      [
        103.8092471,
        1.2924176
      ],
      [
        103.8091382,
        1.2923937
      ],
      [
        103.8089377,
        1.2923043
      ],
      [
        103.8088461,
        1.2922525
      ],
      [
        103.8087683,
        1.2922004
      ],
      [
        103.8087556,
        1.2921314
      ],
      [
        103.8087436,
        1.2920522
      ],
      [
        103.8087321,
        1.2919642
      ],
      [
        103.8087281,
        1.2918704
      ],
      [
        103.8087562,
        1.2917337
      ],
      [
        103.8088338,
        1.2915755
      ],
      [
        103.8089481,
        1.2914552
      ],
      [
        103.8090615,
        1.2913688
      ],
      [
        103.8091476,
        1.2913244
      ],
      [
        103.8093493,
        1.2912825
      ],
      [
        103.8096938,
        1.2911763
      ],
      [
        103.8097711,
        1.2911592
      ],
      [
        103.8097711,
        1.2911592
      ],
      [
        103.8098282,
        1.29115
      ],
      [
        103.8099295,
        1.2911338
      ],
      [
        103.8100196,
        1.2911193
      ],
      [
        103.8101261,
        1.2911022
      ],
      [
        103.8103447,
        1.2910672
      ],
      [
        103.8104183,
        1.2910554
      ],
      [
        103.810495,
        1.2910431
      ],
      [
        103.8106544,
        1.2910175
      ],
      [
        103.8107386,
        1.291004
      ],
      [
        103.8110519,
        1.2909538
      ],
      [
        103.8108998,
        1.2909782
      ],
      [
        103.8110768,
        1.2909498
      ],
      [
        103.811328,
        1.2909095
      ],
      [
        103.8117544,
        1.2908411
      ],
      [
        103.8115441,
        1.2908749
      ],
      [
        103.8118465,
        1.2908264
      ],
      [
        103.8120293,
        1.2907971
      ],
      [
        103.8119619,
        1.2908079
      ],
      [
        103.8121259,
        1.2907816
      ],
      [
        103.8122241,
        1.2907658
      ],
      [
        103.812356,
        1.2907447
      ],
      [
        103.8125202,
        1.2907184
      ],
      [
        103.8126352,
        1.2906999
      ],
      [
        103.8129688,
        1.2906464
      ],
      [
        103.8129532,
        1.2906489
      ],
      [
        103.8133877,
        1.290305
      ],
      [
        103.8134044,
        1.2904672
      ],
      [
        103.8134173,
        1.2905745
      ],
      [
        103.8133831,
        1.2902628
      ],
      [
        103.813184,
        1.2895777
      ],
      [
        103.81331,
        1.2897929
      ],
      [
        103.8133188,
        1.2898183
      ],
      [
        103.8133362,
        1.2898821
      ],
      [
        103.8133436,
        1.2899175
      ],
      [
        103.813354,
        1.2899974
      ],
      [
        103.8132084,
        1.2895198
      ],
      [
        103.8132282,
        1.2895109
      ],
      [
        103.8134341,
        1.2894179
      ],
      [
        103.8135101,
        1.2893851
      ],
      [
        103.8135899,
        1.2893623
      ],
      [
        103.8136704,
        1.289352
      ],
      [
        103.8137631,
        1.2893527
      ],
      [
        103.8141507,
        1.2893922
      ],
      [
        103.814403,
        1.2894188
      ],
      [
        103.8145353,
        1.2893949
      ],
      [
        103.814611,
        1.289371
      ],
      [
        103.8146746,
        1.2893297
      ],
      [
        103.8147348,
        1.2892747
      ],
      [
        103.8148141,
        1.289182
      ],
      [
        103.8148999,
        1.2890657
      ],
      [
        103.8149925,
        1.288899
      ],
      [
        103.8150777,
        1.2887772
      ],
      [
        103.8151426,
        1.2887064
      ],
      [
        103.8152013,
        1.2886693
      ],
      [
        103.8152291,
        1.2886658
      ],
      [
        103.8152544,
        1.2886542
      ],
      [
        103.8152748,
        1.288636
      ],
      [
        103.815289,
        1.2886127
      ],
      [
        103.8152957,
        1.2885863
      ],
      [
        103.8152945,
        1.2885591
      ],
      [
        103.8152853,
        1.2885333
      ],
      [
        103.8152675,
        1.2885099
      ],
      [
        103.8152432,
        1.2884933
      ],
      [
        103.815217,
        1.2884855
      ],
      [
        103.8152001,
        1.2884846
      ],
      [
        103.8151833,
        1.2884868
      ],
      [
        103.8150883,
        1.2884163
      ],
      [
        103.8150053,
        1.2883556
      ],
      [
        103.8149078,
        1.2882573
      ],
      [
        103.8148568,
        1.288201
      ],
      [
        103.8148116,
        1.2881328
      ],
      [
        103.8147526,
        1.2880526
      ],
      [
        103.8146887,
        1.2879625
      ],
      [
        103.8146532,
        1.2878895
      ],
      [
        103.8146257,
        1.2878393
      ],
      [
        103.8145894,
        1.287788
      ],
      [
        103.8144759,
        1.2876186
      ],
      [
        103.8143953,
        1.2874907
      ],
      [
        103.8142841,
        1.2873842
      ],
      [
        103.8139483,
        1.2870624
      ],
      [
        103.8138872,
        1.2870433
      ],
      [
        103.810529,
        1.2868266
      ],
      [
        103.8108799,
        1.2867727
      ],
      [
        103.8110974,
        1.2867375
      ],
      [
        103.8112173,
        1.2867176
      ],
      [
        103.8114159,
        1.28669
      ],
      [
        103.8115378,
        1.2866705
      ],
      [
        103.8125295,
        1.2864968
      ],
      [
        103.8127642,
        1.286472
      ],
      [
        103.8128176,
        1.2864659
      ],
      [
        103.8129409,
        1.2864732
      ],
      [
        103.8130903,
        1.2864954
      ],
      [
        103.8132322,
        1.2865407
      ],
      [
        103.8133619,
        1.2865943
      ],
      [
        103.8134159,
        1.2866343
      ],
      [
        103.8134857,
        1.2866861
      ],
      [
        103.8137998,
        1.2869712
      ],
      [
        103.8138872,
        1.2870433
      ],
      [
        103.8103705,
        1.286851
      ],
      [
        103.8102749,
        1.2861179
      ],
      [
        103.8103168,
        1.2864062
      ],
      [
        103.8103362,
        1.28654
      ],
      [
        103.8103705,
        1.2859912
      ],
      [
        103.8108055,
        1.2859227
      ],
      [
        103.8111858,
        1.2858611
      ],
      [
        103.8114085,
        1.2858118
      ],
      [
        103.8116447,
        1.2857526
      ],
      [
        103.8124402,
        1.285542
      ],
      [
        103.8133569,
        1.2852994
      ],
      [
        103.8134782,
        1.2852673
      ],
      [
        103.8135749,
        1.2852417
      ],
      [
        103.8140859,
        1.2851059
      ],
      [
        103.8143455,
        1.2850358
      ],
      [
        103.8143204,
        1.2849468
      ],
      [
        103.8142992,
        1.2848716
      ],
      [
        103.8142606,
        1.2847353
      ],
      [
        103.8142244,
        1.2846071
      ],
      [
        103.8141823,
        1.284458
      ],
      [
        103.8141372,
        1.2842984
      ],
      [
        103.8141087,
        1.2841975
      ],
      [
        103.8141051,
        1.2841796
      ],
      [
        103.8140945,
        1.2840819
      ],
      [
        103.8141228,
        1.2840029
      ],
      [
        103.8141858,
        1.2839298
      ],
      [
        103.8144297,
        1.2837963
      ],
      [
        103.8146779,
        1.2836657
      ],
      [
        103.8147522,
        1.2836198
      ],
      [
        103.8148157,
        1.2835843
      ],
      [
        103.8150519,
        1.283452
      ],
      [
        103.8150636,
        1.2834455
      ],
      [
        103.8152664,
        1.2833211
      ],
      [
        103.8153635,
        1.2832669
      ],
      [
        103.8155328,
        1.2831724
      ],
      [
        103.8156445,
        1.2831222
      ],
      [
        103.8157267,
        1.2830928
      ],
      [
        103.8158588,
        1.2830615
      ],
      [
        103.8159263,
        1.2830471
      ],
      [
        103.8159263,
        1.2830471
      ],
      [
        103.8159617,
        1.2830176
      ],
      [
        103.8171169,
        1.2826997
      ],
      [
        103.8159877,
        1.2830105
      ],
      [
        103.8171969,
        1.2826791
      ],
      [
        103.8172953,
        1.2826542
      ],
      [
        103.8174539,
        1.2826175
      ],
      [
        103.8170876,
        1.2815611
      ],
      [
        103.8171419,
        1.2815535
      ],
      [
        103.8171903,
        1.2815864
      ],
      [
        103.8174539,
        1.282559
      ],
      [
        103.8174539,
        1.2826175
      ],
      [
        103.817127,
        1.2820726
      ],
      [
        103.8170791,
        1.2819092
      ],
      [
        103.8169997,
        1.2816264
      ]
    ]
  }
}