{
  "type": "Feature",
  "properties": {
    "relation": 6622959,
    "direction": "1",
    "fee": "yes",
    "from": "Toa Payoh Interchange",
    "name": "Svc 139A (Toa Payoh Interchange → Between Blks 33/34)",
    "network": "Land Transport Authority",
    "network:short": "LTA",
    "network:wikidata": "Q3299279",
    "network:wikipedia": "en:Land Transport Authority",
    "operator": "SBS Transit",
    "operator:wikidata": "Q2661305",
    "operator:wikipedia": "en:SBS Transit",
    "public_transport:version": "2",
    "ref": "139A",
    "roundtrip": "no",
    "route": "bus",
    "to": "Between Blks 33/34",
    "type": "route",
    "website": "https://www.sbstransit.com.sg/"
  },
  "geometry": {
    "type": "LineString",
    "coordinates": [
      [
        103.8475702,
        1.3314206
      ],
      [
        103.847546,
        1.3315009
      ],
      [
        103.8475064,
        1.3316175
      ],
      [
        103.8474931,
        1.3316237
      ],
      [
        103.84748,
        1.3316275
      ],
      [
        103.8473008,
        1.3316302
      ],
      [
        103.8470626,
        1.3316991
      ],
      [
        103.846909,
        1.3317975
      ],
      [
        103.8468287,
        1.3318605
      ],
      [
        103.8467952,
        1.3319138
      ],
      [
        103.8467217,
        1.3320515
      ],
      [
        103.8466995,
        1.3321823
      ],
      [
        103.8466995,
        1.3323142
      ],
      [
        103.8467778,
        1.332553
      ],
      [
        103.8467805,
        1.3325661
      ],
      [
        103.8467801,
        1.3325799
      ],
      [
        103.8467763,
        1.3325922
      ],
      [
        103.8467646,
        1.3326024
      ],
      [
        103.8466666,
        1.3326462
      ],
      [
        103.8465995,
        1.3326596
      ],
      [
        103.8465673,
        1.3325346
      ],
      [
        103.8465224,
        1.3323565
      ],
      [
        103.8464636,
        1.3321421
      ],
      [
        103.8463333,
        1.3317025
      ],
      [
        103.8463159,
        1.3316334
      ],
      [
        103.846284,
        1.3315064
      ],
      [
        103.8462614,
        1.3314159
      ],
      [
        103.8461813,
        1.3311289
      ],
      [
        103.8461602,
        1.3310662
      ],
      [
        103.8460944,
        1.330867
      ],
      [
        103.8460292,
        1.3306274
      ],
      [
        103.8459985,
        1.3305146
      ],
      [
        103.8459744,
        1.3303937
      ],
      [
        103.8459516,
        1.3302269
      ],
      [
        103.8459443,
        1.3300334
      ],
      [
        103.845956,
        1.329639
      ],
      [
        103.8459779,
        1.3292002
      ],
      [
        103.8459931,
        1.3290907
      ],
      [
        103.8460165,
        1.3289938
      ],
      [
        103.8460524,
        1.3288993
      ],
      [
        103.8460954,
        1.3288148
      ],
      [
        103.8461363,
        1.3287572
      ],
      [
        103.8461966,
        1.3286969
      ],
      [
        103.8462395,
        1.328656
      ],
      [
        103.8463079,
        1.3286137
      ],
      [
        103.8463743,
        1.3285849
      ],
      [
        103.8464371,
        1.3285617
      ],
      [
        103.8464985,
        1.3285483
      ],
      [
        103.8465658,
        1.3285402
      ],
      [
        103.8466537,
        1.3285429
      ],
      [
        103.8467321,
        1.3285563
      ],
      [
        103.8467971,
        1.3285806
      ],
      [
        103.8468609,
        1.32861
      ],
      [
        103.8469306,
        1.3286529
      ],
      [
        103.8469865,
        1.3286989
      ],
      [
        103.847054,
        1.3287655
      ],
      [
        103.8470965,
        1.3288309
      ],
      [
        103.8471237,
        1.3288835
      ],
      [
        103.8471505,
        1.32898
      ],
      [
        103.8471613,
        1.3290712
      ],
      [
        103.8471613,
        1.3291516
      ],
      [
        103.8471505,
        1.3292318
      ],
      [
        103.847113,
        1.329323
      ],
      [
        103.847059,
        1.3293901
      ],
      [
        103.8469843,
        1.3294517
      ],
      [
        103.8468927,
        1.3295006
      ],
      [
        103.8467891,
        1.3295255
      ],
      [
        103.8466463,
        1.3295375
      ],
      [
        103.8464977,
        1.3295422
      ],
      [
        103.8463307,
        1.3295443
      ],
      [
        103.8460568,
        1.329551
      ],
      [
        103.8458595,
        1.3295427
      ],
      [
        103.8450256,
        1.3295114
      ],
      [
        103.8445045,
        1.3294849
      ],
      [
        103.844377,
        1.3294764
      ],
      [
        103.8440511,
        1.3294598
      ],
      [
        103.8439948,
        1.3294555
      ],
      [
        103.8434579,
        1.3294202
      ],
      [
        103.8432567,
        1.3294056
      ],
      [
        103.8431345,
        1.3293683
      ],
      [
        103.8430828,
        1.3293368
      ],
      [
        103.8430465,
        1.3292988
      ],
      [
        103.8430175,
        1.3292455
      ],
      [
        103.8429951,
        1.3291947
      ],
      [
        103.8429491,
        1.3290647
      ],
      [
        103.8429493,
        1.3289399
      ],
      [
        103.8429513,
        1.3288665
      ],
      [
        103.8429587,
        1.3287086
      ],
      [
        103.8429645,
        1.328587
      ],
      [
        103.8429722,
        1.3284301
      ],
      [
        103.8429761,
        1.3283431
      ],
      [
        103.8429919,
        1.3276868
      ],
      [
        103.8429986,
        1.3274609
      ],
      [
        103.8430012,
        1.3273914
      ],
      [
        103.8430172,
        1.3269682
      ],
      [
        103.8430216,
        1.3266455
      ],
      [
        103.8430388,
        1.3265919
      ],
      [
        103.8430706,
        1.3265559
      ],
      [
        103.8434436,
        1.3265835
      ],
      [
        103.8438284,
        1.3266207
      ],
      [
        103.8439336,
        1.3266329
      ],
      [
        103.8441688,
        1.3266518
      ],
      [
        103.8443774,
        1.3266618
      ],
      [
        103.8444918,
        1.3266623
      ],
      [
        103.8446316,
        1.326647
      ],
      [
        103.8447443,
        1.3266317
      ],
      [
        103.8448032,
        1.3266247
      ],
      [
        103.8448565,
        1.3266179
      ],
      [
        103.8451049,
        1.3265886
      ],
      [
        103.8452799,
        1.326566
      ],
      [
        103.8454136,
        1.3265532
      ],
      [
        103.845724,
        1.3265504
      ],
      [
        103.8461043,
        1.3265624
      ],
      [
        103.8461557,
        1.3265641
      ],
      [
        103.8462912,
        1.3265661
      ],
      [
        103.8467677,
        1.3265847
      ],
      [
        103.8470528,
        1.3265921
      ],
      [
        103.847141,
        1.3265933
      ],
      [
        103.847441,
        1.3265924
      ],
      [
        103.8475096,
        1.3266321
      ],
      [
        103.847561,
        1.3266824
      ],
      [
        103.8476115,
        1.3267542
      ],
      [
        103.8476793,
        1.3268329
      ],
      [
        103.8477875,
        1.3269601
      ],
      [
        103.8478329,
        1.3270142
      ],
      [
        103.8480756,
        1.3273104
      ],
      [
        103.8483067,
        1.327581
      ],
      [
        103.8485455,
        1.3278846
      ],
      [
        103.8486679,
        1.3280403
      ],
      [
        103.8488232,
        1.3282458
      ],
      [
        103.8489498,
        1.3284132
      ],
      [
        103.8491779,
        1.32871
      ],
      [
        103.8492799,
        1.3288341
      ],
      [
        103.8493518,
        1.3289163
      ],
      [
        103.8493854,
        1.3289365
      ],
      [
        103.849405,
        1.3289402
      ],
      [
        103.8494346,
        1.3289389
      ],
      [
        103.8497325,
        1.3287825
      ],
      [
        103.8505041,
        1.3283764
      ],
      [
        103.8509582,
        1.3281448
      ],
      [
        103.851648,
        1.3277857
      ],
      [
        103.8521152,
        1.3275401
      ],
      [
        103.8522042,
        1.3275066
      ],
      [
        103.8522492,
        1.3274984
      ],
      [
        103.8523022,
        1.327499
      ],
      [
        103.8523425,
        1.327502
      ],
      [
        103.8524111,
        1.327523
      ],
      [
        103.8524715,
        1.327558
      ],
      [
        103.852539,
        1.3276203
      ],
      [
        103.852697,
        1.3278068
      ],
      [
        103.852874,
        1.3280251
      ],
      [
        103.8529565,
        1.3281164
      ],
      [
        103.8530554,
        1.3281962
      ],
      [
        103.8531823,
        1.3282553
      ],
      [
        103.8533109,
        1.3282881
      ],
      [
        103.8534381,
        1.3282956
      ],
      [
        103.8535677,
        1.3282806
      ],
      [
        103.8536252,
        1.3282655
      ],
      [
        103.853752,
        1.3282138
      ],
      [
        103.8541618,
        1.3279525
      ],
      [
        103.8543868,
        1.3278057
      ],
      [
        103.854562,
        1.3276934
      ],
      [
        103.8547366,
        1.3275814
      ],
      [
        103.8549604,
        1.3274379
      ],
      [
        103.8552582,
        1.3272469
      ],
      [
        103.8553336,
        1.3271986
      ],
      [
        103.8551933,
        1.3270096
      ],
      [
        103.8551761,
        1.3269883
      ],
      [
        103.8552065,
        1.3269218
      ],
      [
        103.8552476,
        1.3268669
      ],
      [
        103.8553804,
        1.3267646
      ],
      [
        103.8555457,
        1.3266373
      ],
      [
        103.8563162,
        1.3260438
      ],
      [
        103.8570851,
        1.3254516
      ],
      [
        103.8576181,
        1.3250532
      ],
      [
        103.8576623,
        1.3250202
      ],
      [
        103.857714,
        1.3250942
      ],
      [
        103.8579286,
        1.3253783
      ],
      [
        103.8579673,
        1.3254078
      ],
      [
        103.8580164,
        1.3254236
      ],
      [
        103.8580527,
        1.3254275
      ],
      [
        103.8580903,
        1.3254265
      ],
      [
        103.8581278,
        1.3254169
      ],
      [
        103.8581641,
        1.3254007
      ],
      [
        103.8583148,
        1.325283
      ],
      [
        103.8583899,
        1.3252244
      ],
      [
        103.8584435,
        1.3251816
      ],
      [
        103.8585893,
        1.3250737
      ],
      [
        103.8587391,
        1.3249644
      ],
      [
        103.8587848,
        1.32494
      ],
      [
        103.858832,
        1.3249305
      ],
      [
        103.8588752,
        1.3249297
      ],
      [
        103.8589209,
        1.3249381
      ],
      [
        103.8589681,
        1.3249555
      ],
      [
        103.8590061,
        1.3249818
      ],
      [
        103.8590455,
        1.325008
      ],
      [
        103.8591384,
        1.3250777
      ],
      [
        103.8592582,
        1.3252007
      ],
      [
        103.859392,
        1.325317
      ],
      [
        103.8595355,
        1.3254559
      ],
      [
        103.8596342,
        1.3255474
      ],
      [
        103.8596675,
        1.325578
      ],
      [
        103.8597011,
        1.3256406
      ],
      [
        103.8597134,
        1.3257033
      ],
      [
        103.8597181,
        1.3257525
      ],
      [
        103.8597174,
        1.3258046
      ],
      [
        103.8597034,
        1.3258516
      ],
      [
        103.8596685,
        1.3259115
      ],
      [
        103.8596224,
        1.3259551
      ],
      [
        103.8594599,
        1.3260837
      ],
      [
        103.8593349,
        1.3261781
      ],
      [
        103.8592267,
        1.3262612
      ],
      [
        103.8590398,
        1.326414
      ],
      [
        103.8589843,
        1.3264567
      ],
      [
        103.8587853,
        1.3266038
      ],
      [
        103.8585673,
        1.3267625
      ],
      [
        103.8581657,
        1.3270788
      ]
    ]
  }
}