{
  "type": "Feature",
  "properties": {
    "relation": 4536771,
    "direction": "1",
    "fee": "yes",
    "from": "Lorong 1 Geylang Terminal",
    "name": "Svc 140 (Lorong 1 Geylang Terminal ↺ St. Wilfred Road)",
    "name:en": "Svc 140 (Lorong 1 Geylang Terminal ↺ St. Wilfred Road)",
    "network": "Land Transport Authority",
    "network:short": "LTA",
    "network:wikidata": "Q3299279",
    "network:wikipedia": "en:Land Transport Authority",
    "operator": "SBS Transit",
    "operator:wikidata": "Q2661305",
    "operator:wikipedia": "en:SBS Transit",
    "public_transport:version": "2",
    "ref": "140",
    "roundtrip": "yes",
    "route": "bus",
    "to": "Lorong 1 Geylang Terminal",
    "type": "route",
    "website": "https://www.sbstransit.com.sg/"
  },
  "geometry": {
    "type": "LineString",
    "coordinates": [
      [
        103.8718404,
        1.3106283
      ],
      [
        103.8720028,
        1.310702
      ],
      [
        103.8721756,
        1.3107793
      ],
      [
        103.8722322,
        1.3108066
      ],
      [
        103.8722979,
        1.3108374
      ],
      [
        103.8724145,
        1.3108965
      ],
      [
        103.8723012,
        1.3112309
      ],
      [
        103.8722329,
        1.3114239
      ],
      [
        103.8721651,
        1.3116046
      ],
      [
        103.8721147,
        1.3117211
      ],
      [
        103.8719705,
        1.312026
      ],
      [
        103.8718827,
        1.3122108
      ],
      [
        103.8714998,
        1.3128647
      ],
      [
        103.8713504,
        1.3131199
      ],
      [
        103.8710957,
        1.313555
      ],
      [
        103.8709975,
        1.3137472
      ],
      [
        103.8709691,
        1.3138027
      ],
      [
        103.8709285,
        1.3139028
      ],
      [
        103.8710179,
        1.3139364
      ],
      [
        103.8710684,
        1.3139558
      ],
      [
        103.8717648,
        1.3142227
      ],
      [
        103.8718995,
        1.3142743
      ],
      [
        103.8721795,
        1.3144002
      ],
      [
        103.8725259,
        1.3146009
      ],
      [
        103.8726389,
        1.3147002
      ],
      [
        103.8727984,
        1.3148801
      ],
      [
        103.8729127,
        1.3150359
      ],
      [
        103.8729829,
        1.3151316
      ],
      [
        103.8730293,
        1.3152266
      ],
      [
        103.8730885,
        1.3153421
      ],
      [
        103.8731483,
        1.3154815
      ],
      [
        103.873212,
        1.315691
      ],
      [
        103.8732461,
        1.3158032
      ],
      [
        103.8732977,
        1.3161144
      ],
      [
        103.8733013,
        1.3164239
      ],
      [
        103.8732924,
        1.316551
      ],
      [
        103.8732551,
        1.3168288
      ],
      [
        103.8732474,
        1.3168462
      ],
      [
        103.8729636,
        1.3174862
      ],
      [
        103.8728088,
        1.3178499
      ],
      [
        103.8727577,
        1.3179746
      ],
      [
        103.8726744,
        1.3181779
      ],
      [
        103.8723863,
        1.3188669
      ],
      [
        103.8723574,
        1.3189442
      ],
      [
        103.8723174,
        1.3190326
      ],
      [
        103.8721472,
        1.3194032
      ],
      [
        103.8720466,
        1.3195983
      ],
      [
        103.8719346,
        1.3198158
      ],
      [
        103.8719022,
        1.3198787
      ],
      [
        103.8718698,
        1.3199416
      ],
      [
        103.8718239,
        1.3200314
      ],
      [
        103.871807,
        1.3200645
      ],
      [
        103.8717615,
        1.3201475
      ],
      [
        103.8716976,
        1.3202568
      ],
      [
        103.8713036,
        1.3209002
      ],
      [
        103.8712713,
        1.3209437
      ],
      [
        103.8712098,
        1.3210421
      ],
      [
        103.8711547,
        1.3211333
      ],
      [
        103.8711405,
        1.3211532
      ],
      [
        103.8708025,
        1.3216825
      ],
      [
        103.8704441,
        1.322263
      ],
      [
        103.8700205,
        1.3229487
      ],
      [
        103.8696439,
        1.323566
      ],
      [
        103.8695073,
        1.3237674
      ],
      [
        103.8693987,
        1.3239075
      ],
      [
        103.8692115,
        1.3240669
      ],
      [
        103.8689548,
        1.3242498
      ],
      [
        103.8688195,
        1.3243362
      ],
      [
        103.8687713,
        1.3243656
      ],
      [
        103.8684736,
        1.3245587
      ],
      [
        103.8683323,
        1.324642
      ],
      [
        103.8681574,
        1.3247043
      ],
      [
        103.8680979,
        1.3247053
      ],
      [
        103.8680286,
        1.3247008
      ],
      [
        103.8679395,
        1.3246721
      ],
      [
        103.8678664,
        1.3246266
      ],
      [
        103.8677564,
        1.3244217
      ],
      [
        103.8676413,
        1.3242791
      ],
      [
        103.8675376,
        1.3241182
      ],
      [
        103.867147,
        1.3234641
      ],
      [
        103.8670952,
        1.3233919
      ],
      [
        103.8669373,
        1.3231722
      ],
      [
        103.8668847,
        1.3230917
      ],
      [
        103.8666751,
        1.3227711
      ],
      [
        103.8666125,
        1.3226753
      ],
      [
        103.8664631,
        1.3224467
      ],
      [
        103.8661408,
        1.3219536
      ],
      [
        103.8660947,
        1.3218831
      ],
      [
        103.8660281,
        1.3217852
      ],
      [
        103.8658927,
        1.3215863
      ],
      [
        103.8658086,
        1.3214627
      ],
      [
        103.8656597,
        1.3212547
      ],
      [
        103.8654353,
        1.3209213
      ],
      [
        103.8653116,
        1.3207378
      ],
      [
        103.8652389,
        1.320618
      ],
      [
        103.865193,
        1.3205467
      ],
      [
        103.8651456,
        1.3204741
      ],
      [
        103.8650098,
        1.3202547
      ],
      [
        103.8649269,
        1.3201287
      ],
      [
        103.8646836,
        1.3197595
      ],
      [
        103.864523,
        1.3195123
      ],
      [
        103.8643553,
        1.3192499
      ],
      [
        103.8642982,
        1.3191668
      ],
      [
        103.8642337,
        1.3190691
      ],
      [
        103.8639992,
        1.3187239
      ],
      [
        103.8639829,
        1.3186998
      ],
      [
        103.8638751,
        1.3185566
      ],
      [
        103.8638482,
        1.3185208
      ],
      [
        103.8637878,
        1.3184404
      ],
      [
        103.8635364,
        1.3181103
      ],
      [
        103.8634868,
        1.318046
      ],
      [
        103.8633808,
        1.3178995
      ],
      [
        103.8633325,
        1.3178328
      ],
      [
        103.8632899,
        1.3177786
      ],
      [
        103.863064,
        1.3174899
      ],
      [
        103.8630312,
        1.317448
      ],
      [
        103.8626408,
        1.3169331
      ],
      [
        103.8626036,
        1.316887
      ],
      [
        103.8625461,
        1.3168179
      ],
      [
        103.8624703,
        1.3168779
      ],
      [
        103.8618799,
        1.317345
      ],
      [
        103.8618236,
        1.3173896
      ],
      [
        103.8617379,
        1.3174574
      ],
      [
        103.8615938,
        1.3175714
      ],
      [
        103.8614157,
        1.3177122
      ],
      [
        103.8613626,
        1.3177543
      ],
      [
        103.8611592,
        1.3179152
      ],
      [
        103.8606912,
        1.3182671
      ],
      [
        103.860582,
        1.318349
      ],
      [
        103.8604964,
        1.3184145
      ],
      [
        103.8603531,
        1.3185285
      ],
      [
        103.8603292,
        1.3185904
      ],
      [
        103.8603292,
        1.3185904
      ],
      [
        103.8601767,
        1.3187036
      ],
      [
        103.8599979,
        1.3188377
      ],
      [
        103.8596553,
        1.3190623
      ],
      [
        103.8587004,
        1.3198412
      ],
      [
        103.8585662,
        1.319966
      ],
      [
        103.8585392,
        1.3199918
      ],
      [
        103.8585098,
        1.3200197
      ],
      [
        103.8585036,
        1.3200591
      ],
      [
        103.8583469,
        1.3201888
      ],
      [
        103.8585036,
        1.3200591
      ],
      [
        103.8581026,
        1.3203834
      ],
      [
        103.8582288,
        1.3202842
      ],
      [
        103.8582849,
        1.3202401
      ],
      [
        103.8579591,
        1.3204986
      ],
      [
        103.8580674,
        1.3204088
      ],
      [
        103.8578367,
        1.3206001
      ],
      [
        103.8579122,
        1.3205375
      ],
      [
        103.8575081,
        1.3208699
      ],
      [
        103.8575633,
        1.3208268
      ],
      [
        103.8572983,
        1.3210345
      ],
      [
        103.8567515,
        1.3212645
      ],
      [
        103.8566818,
        1.3212872
      ],
      [
        103.8565622,
        1.3213942
      ],
      [
        103.856696,
        1.3215372
      ],
      [
        103.8569352,
        1.3213369
      ],
      [
        103.8570276,
        1.3212599
      ],
      [
        103.8572983,
        1.3210345
      ],
      [
        103.8575081,
        1.3208699
      ],
      [
        103.8575633,
        1.3208268
      ],
      [
        103.8578367,
        1.3206001
      ],
      [
        103.8579122,
        1.3205375
      ],
      [
        103.8579591,
        1.3204986
      ],
      [
        103.8580674,
        1.3204088
      ],
      [
        103.8581026,
        1.3203834
      ],
      [
        103.8582288,
        1.3202842
      ],
      [
        103.8582849,
        1.3202401
      ],
      [
        103.8583469,
        1.3201888
      ],
      [
        103.8585036,
        1.3200591
      ],
      [
        103.8585356,
        1.3200502
      ],
      [
        103.8585651,
        1.3200257
      ],
      [
        103.8585392,
        1.3199918
      ],
      [
        103.8584982,
        1.3199374
      ],
      [
        103.8582297,
        1.3195704
      ],
      [
        103.8581407,
        1.3194321
      ],
      [
        103.8575672,
        1.318723
      ],
      [
        103.8575618,
        1.3187166
      ],
      [
        103.8573119,
        1.3184177
      ],
      [
        103.8572485,
        1.3183418
      ],
      [
        103.857083,
        1.3181466
      ],
      [
        103.8567341,
        1.3177173
      ],
      [
        103.8567108,
        1.3176855
      ],
      [
        103.8566244,
        1.3175563
      ],
      [
        103.8567703,
        1.3174666
      ],
      [
        103.8577362,
        1.3168768
      ],
      [
        103.8580481,
        1.3166809
      ],
      [
        103.8582548,
        1.3165385
      ],
      [
        103.8583611,
        1.3164652
      ],
      [
        103.8586745,
        1.3162529
      ],
      [
        103.8587247,
        1.3162158
      ],
      [
        103.85884,
        1.316109
      ],
      [
        103.8589061,
        1.3161942
      ],
      [
        103.8590612,
        1.3163942
      ],
      [
        103.85922,
        1.3165945
      ],
      [
        103.8595637,
        1.3170283
      ],
      [
        103.8598382,
        1.3173771
      ],
      [
        103.8598917,
        1.3174453
      ],
      [
        103.8602405,
        1.3178992
      ],
      [
        103.8605263,
        1.3182734
      ],
      [
        103.860582,
        1.318349
      ],
      [
        103.8606382,
        1.3184247
      ],
      [
        103.8606832,
        1.3184802
      ],
      [
        103.8612231,
        1.3191472
      ],
      [
        103.861789,
        1.3198399
      ],
      [
        103.8620777,
        1.3202004
      ],
      [
        103.8622324,
        1.3203998
      ],
      [
        103.8622531,
        1.3204264
      ],
      [
        103.862295,
        1.3204804
      ],
      [
        103.8625725,
        1.3208381
      ],
      [
        103.8626058,
        1.3208771
      ],
      [
        103.862685,
        1.3209697
      ],
      [
        103.8628233,
        1.3211361
      ],
      [
        103.8629831,
        1.3213354
      ],
      [
        103.8631091,
        1.3214772
      ],
      [
        103.8632514,
        1.3216813
      ],
      [
        103.8632796,
        1.321841
      ],
      [
        103.8632923,
        1.3219294
      ],
      [
        103.8632941,
        1.3219445
      ],
      [
        103.863299,
        1.3219858
      ],
      [
        103.8633024,
        1.3220414
      ],
      [
        103.8629099,
        1.3224602
      ],
      [
        103.8627545,
        1.3226183
      ],
      [
        103.8625855,
        1.322805
      ],
      [
        103.8624319,
        1.3229649
      ],
      [
        103.8623519,
        1.3230475
      ],
      [
        103.8623101,
        1.3230907
      ],
      [
        103.8622732,
        1.323189
      ],
      [
        103.8621626,
        1.3232946
      ],
      [
        103.8620621,
        1.3233855
      ],
      [
        103.8619833,
        1.3234525
      ],
      [
        103.8619225,
        1.3235018
      ],
      [
        103.861833,
        1.3235743
      ],
      [
        103.8617287,
        1.3236663
      ],
      [
        103.8616271,
        1.3237579
      ],
      [
        103.8615331,
        1.3238356
      ],
      [
        103.8613424,
        1.3240116
      ],
      [
        103.8613123,
        1.3240371
      ],
      [
        103.8612666,
        1.3240757
      ],
      [
        103.8612922,
        1.3241053
      ],
      [
        103.8615798,
        1.3244661
      ],
      [
        103.8618015,
        1.3247545
      ],
      [
        103.8618383,
        1.3247719
      ],
      [
        103.8618295,
        1.3248132
      ],
      [
        103.8618362,
        1.3248336
      ],
      [
        103.8618494,
        1.3248505
      ],
      [
        103.8618677,
        1.3248618
      ],
      [
        103.8618936,
        1.3248662
      ],
      [
        103.8619191,
        1.3248592
      ],
      [
        103.8619393,
        1.3248423
      ],
      [
        103.8619506,
        1.3248185
      ],
      [
        103.8619513,
        1.3247939
      ],
      [
        103.8619423,
        1.3247711
      ],
      [
        103.8619251,
        1.3247536
      ],
      [
        103.8619024,
        1.3247442
      ],
      [
        103.8618778,
        1.3247443
      ],
      [
        103.8618552,
        1.3247541
      ],
      [
        103.8618383,
        1.3247719
      ],
      [
        103.8618303,
        1.3247918
      ],
      [
        103.8618015,
        1.3247545
      ],
      [
        103.8618383,
        1.3247719
      ],
      [
        103.8612922,
        1.3241053
      ],
      [
        103.8615798,
        1.3244661
      ],
      [
        103.8613123,
        1.3240371
      ],
      [
        103.8612666,
        1.3240757
      ],
      [
        103.8613424,
        1.3240116
      ],
      [
        103.8615331,
        1.3238356
      ],
      [
        103.8617287,
        1.3236663
      ],
      [
        103.8616271,
        1.3237579
      ],
      [
        103.8619225,
        1.3235018
      ],
      [
        103.861833,
        1.3235743
      ],
      [
        103.8619833,
        1.3234525
      ],
      [
        103.8621626,
        1.3232946
      ],
      [
        103.8620621,
        1.3233855
      ],
      [
        103.8623603,
        1.3231499
      ],
      [
        103.8624048,
        1.3231052
      ],
      [
        103.862646,
        1.3228578
      ],
      [
        103.862807,
        1.3226823
      ],
      [
        103.8634259,
        1.3220676
      ],
      [
        103.8634461,
        1.3220473
      ],
      [
        103.8634944,
        1.3219991
      ],
      [
        103.8635703,
        1.3220784
      ],
      [
        103.8636256,
        1.3221452
      ],
      [
        103.8636723,
        1.3222027
      ],
      [
        103.8636865,
        1.3222203
      ],
      [
        103.8638347,
        1.3223915
      ],
      [
        103.8639879,
        1.3226097
      ],
      [
        103.8640344,
        1.3226776
      ],
      [
        103.8640838,
        1.3227473
      ],
      [
        103.8641076,
        1.3227773
      ],
      [
        103.8644936,
        1.3232687
      ],
      [
        103.8647284,
        1.3235675
      ],
      [
        103.8648929,
        1.3237769
      ],
      [
        103.8650243,
        1.3239441
      ],
      [
        103.8650463,
        1.3239717
      ],
      [
        103.8650697,
        1.3240027
      ],
      [
        103.8652525,
        1.3242416
      ],
      [
        103.8653279,
        1.3243401
      ],
      [
        103.8654066,
        1.3244438
      ],
      [
        103.8654367,
        1.3244835
      ],
      [
        103.865465,
        1.3245156
      ],
      [
        103.8656732,
        1.3247608
      ],
      [
        103.8657248,
        1.3248216
      ],
      [
        103.8657625,
        1.3248658
      ],
      [
        103.8658984,
        1.3250254
      ],
      [
        103.8660831,
        1.3252422
      ],
      [
        103.8661059,
        1.325269
      ],
      [
        103.8661535,
        1.3253248
      ],
      [
        103.8663018,
        1.3255086
      ],
      [
        103.8664777,
        1.3258185
      ],
      [
        103.866646,
        1.3260321
      ],
      [
        103.8667005,
        1.3261026
      ],
      [
        103.8667663,
        1.3261805
      ],
      [
        103.8668673,
        1.3263029
      ],
      [
        103.86697,
        1.3264397
      ],
      [
        103.8670718,
        1.3265744
      ],
      [
        103.8673091,
        1.326873
      ],
      [
        103.8673638,
        1.3269417
      ],
      [
        103.8674815,
        1.3270878
      ],
      [
        103.8676541,
        1.3271807
      ],
      [
        103.8678404,
        1.3272475
      ],
      [
        103.8679865,
        1.3273292
      ],
      [
        103.8680511,
        1.3273541
      ],
      [
        103.8681051,
        1.3273709
      ],
      [
        103.8681636,
        1.3273729
      ],
      [
        103.8682072,
        1.3273559
      ],
      [
        103.8682369,
        1.3273409
      ],
      [
        103.8682762,
        1.3273057
      ],
      [
        103.8683085,
        1.3272547
      ],
      [
        103.8683251,
        1.3272041
      ],
      [
        103.868337,
        1.3271484
      ],
      [
        103.8683293,
        1.3270676
      ],
      [
        103.8683051,
        1.3267545
      ],
      [
        103.8682597,
        1.3264147
      ],
      [
        103.8682262,
        1.326101
      ],
      [
        103.8681959,
        1.3258275
      ],
      [
        103.8681268,
        1.3253205
      ],
      [
        103.8680971,
        1.3252175
      ],
      [
        103.868098,
        1.3250214
      ],
      [
        103.8681254,
        1.3249454
      ],
      [
        103.8681678,
        1.3248833
      ],
      [
        103.8682732,
        1.3247961
      ],
      [
        103.8685486,
        1.3246213
      ],
      [
        103.8688323,
        1.3244383
      ],
      [
        103.8691996,
        1.324208
      ],
      [
        103.8694973,
        1.3239755
      ],
      [
        103.8696253,
        1.3238464
      ],
      [
        103.8697629,
        1.3236367
      ],
      [
        103.869856,
        1.3234786
      ],
      [
        103.8698763,
        1.3234441
      ],
      [
        103.8699502,
        1.3233185
      ],
      [
        103.8700481,
        1.3231599
      ],
      [
        103.8701506,
        1.3229938
      ],
      [
        103.8702574,
        1.3228231
      ],
      [
        103.8703653,
        1.3226508
      ],
      [
        103.8705621,
        1.322333
      ],
      [
        103.8710246,
        1.3215778
      ],
      [
        103.8712447,
        1.3212228
      ],
      [
        103.871264,
        1.3211967
      ],
      [
        103.871315,
        1.3211072
      ],
      [
        103.871375,
        1.3210196
      ],
      [
        103.8713864,
        1.3209948
      ],
      [
        103.8714279,
        1.3209259
      ],
      [
        103.8715615,
        1.3207054
      ],
      [
        103.8719345,
        1.3200899
      ],
      [
        103.8719916,
        1.3199956
      ],
      [
        103.8720511,
        1.3198721
      ],
      [
        103.8722442,
        1.3194712
      ],
      [
        103.8724144,
        1.3190552
      ],
      [
        103.8724608,
        1.3189606
      ],
      [
        103.8727194,
        1.3183475
      ],
      [
        103.8728091,
        1.3181395
      ],
      [
        103.8729118,
        1.3179014
      ],
      [
        103.8730169,
        1.3176569
      ],
      [
        103.8731943,
        1.3172441
      ],
      [
        103.8733435,
        1.3168633
      ],
      [
        103.8733635,
        1.3168122
      ],
      [
        103.8733791,
        1.3167036
      ],
      [
        103.8734128,
        1.3164475
      ],
      [
        103.8734039,
        1.3161117
      ],
      [
        103.8733949,
        1.316067
      ],
      [
        103.8733866,
        1.3160255
      ],
      [
        103.873336,
        1.3157734
      ],
      [
        103.8732165,
        1.315399
      ],
      [
        103.8730889,
        1.3151335
      ],
      [
        103.873034,
        1.3150472
      ],
      [
        103.8729615,
        1.31495
      ],
      [
        103.8728232,
        1.3147643
      ],
      [
        103.8727508,
        1.3146934
      ],
      [
        103.8725741,
        1.3145205
      ],
      [
        103.8723573,
        1.3143707
      ],
      [
        103.8719549,
        1.3141545
      ],
      [
        103.8718234,
        1.314101
      ],
      [
        103.8717882,
        1.3140867
      ],
      [
        103.8713432,
        1.3139206
      ],
      [
        103.8712411,
        1.3138434
      ],
      [
        103.8712062,
        1.3138012
      ],
      [
        103.8711909,
        1.3137702
      ],
      [
        103.8711716,
        1.313731
      ],
      [
        103.8711706,
        1.313609
      ],
      [
        103.8715909,
        1.3129232
      ],
      [
        103.8716093,
        1.3128932
      ],
      [
        103.8717849,
        1.3125931
      ],
      [
        103.8720882,
        1.3120971
      ],
      [
        103.8722081,
        1.3117711
      ],
      [
        103.8722478,
        1.3116621
      ],
      [
        103.8723224,
        1.3114635
      ],
      [
        103.8723556,
        1.3113663
      ],
      [
        103.8724126,
        1.3111994
      ],
      [
        103.8724932,
        1.3109348
      ],
      [
        103.8725644,
        1.3107551
      ],
      [
        103.8726121,
        1.310657
      ],
      [
        103.8726253,
        1.310629
      ],
      [
        103.8726957,
        1.3104791
      ],
      [
        103.8725966,
        1.3104349
      ],
      [
        103.8725118,
        1.310399
      ],
      [
        103.8723705,
        1.3103425
      ],
      [
        103.8720604,
        1.3102235
      ],
      [
        103.8718604,
        1.3101509
      ],
      [
        103.8717641,
        1.3101216
      ],
      [
        103.8716547,
        1.3100999
      ],
      [
        103.8714831,
        1.3100739
      ],
      [
        103.8714409,
        1.3100718
      ],
      [
        103.8711666,
        1.3100698
      ],
      [
        103.8711627,
        1.3101634
      ],
      [
        103.8711615,
        1.3101985
      ],
      [
        103.8711663,
        1.3102441
      ],
      [
        103.8711804,
        1.310277
      ],
      [
        103.8712186,
        1.3103136
      ],
      [
        103.8713229,
        1.3103952
      ],
      [
        103.8715589,
        1.3105015
      ],
      [
        103.8717713,
        1.3105972
      ],
      [
        103.8718404,
        1.3106283
      ]
    ]
  }
}