{
  "type": "Feature",
  "properties": {
    "relation": 6622961,
    "direction": "2",
    "fee": "yes",
    "from": "Toa Payoh Interchange",
    "name": "Svc 141 (Toa Payoh Interchange → Lorong 1 Geylang Terminal)",
    "name:en": "Svc 141 (Toa Payoh Interchange → Lorong 1 Geylang Terminal)",
    "network": "Land Transport Authority",
    "network:short": "LTA",
    "network:wikidata": "Q3299279",
    "network:wikipedia": "en:Land Transport Authority",
    "operator": "SBS Transit",
    "operator:wikidata": "Q2661305",
    "operator:wikipedia": "en:SBS Transit",
    "public_transport:version": "2",
    "ref": "141",
    "route": "bus",
    "to": "Lorong 1 Geylang Terminal",
    "type": "route",
    "website": "https://www.sbstransit.com.sg/"
  },
  "geometry": {
    "type": "LineString",
    "coordinates": [
      [
        103.84767,
        1.3321629
      ],
      [
        103.8477425,
        1.3321673
      ],
      [
        103.8478671,
        1.3321684
      ],
      [
        103.8479987,
        1.3321704
      ],
      [
        103.848011,
        1.3321568
      ],
      [
        103.848017,
        1.3321224
      ],
      [
        103.848036,
        1.3319252
      ],
      [
        103.8479065,
        1.3317735
      ],
      [
        103.8477523,
        1.3316865
      ],
      [
        103.8476595,
        1.3316694
      ],
      [
        103.847692,
        1.3314836
      ],
      [
        103.8476595,
        1.3316694
      ],
      [
        103.8477079,
        1.3314001
      ],
      [
        103.8476758,
        1.3313057
      ],
      [
        103.8475952,
        1.331319
      ],
      [
        103.8471052,
        1.3313797
      ],
      [
        103.8467713,
        1.331427
      ],
      [
        103.8463692,
        1.3314964
      ],
      [
        103.846284,
        1.3315064
      ],
      [
        103.8461621,
        1.3315251
      ],
      [
        103.846083,
        1.3315373
      ],
      [
        103.8458853,
        1.331564
      ],
      [
        103.8456787,
        1.3315966
      ],
      [
        103.845446,
        1.331648
      ],
      [
        103.8453894,
        1.3316666
      ],
      [
        103.8453353,
        1.3316837
      ],
      [
        103.8452177,
        1.3317231
      ],
      [
        103.845042,
        1.331794
      ],
      [
        103.844908,
        1.3318498
      ],
      [
        103.8447489,
        1.3319286
      ],
      [
        103.8446466,
        1.3319849
      ],
      [
        103.8445623,
        1.3320308
      ],
      [
        103.8444966,
        1.3320751
      ],
      [
        103.8444004,
        1.3321361
      ],
      [
        103.8442832,
        1.3322202
      ],
      [
        103.8441832,
        1.3323069
      ],
      [
        103.8440778,
        1.3324053
      ],
      [
        103.844042,
        1.3324442
      ],
      [
        103.8439554,
        1.3325217
      ],
      [
        103.8438548,
        1.3326348
      ],
      [
        103.8437761,
        1.3327197
      ],
      [
        103.8436983,
        1.3328229
      ],
      [
        103.8435994,
        1.3329733
      ],
      [
        103.8434978,
        1.3331514
      ],
      [
        103.8434385,
        1.3332663
      ],
      [
        103.8433714,
        1.3334104
      ],
      [
        103.8433091,
        1.3335517
      ],
      [
        103.843227,
        1.3337492
      ],
      [
        103.8431769,
        1.3339459
      ],
      [
        103.843173,
        1.3339759
      ],
      [
        103.8431428,
        1.3341115
      ],
      [
        103.8431275,
        1.3341968
      ],
      [
        103.8431161,
        1.3344465
      ],
      [
        103.8431147,
        1.3344628
      ],
      [
        103.8431075,
        1.3346132
      ],
      [
        103.843108,
        1.3346549
      ],
      [
        103.843114,
        1.3348442
      ],
      [
        103.8431379,
        1.3350886
      ],
      [
        103.8431635,
        1.3352508
      ],
      [
        103.8431768,
        1.3353082
      ],
      [
        103.8431888,
        1.3353753
      ],
      [
        103.8431939,
        1.3353968
      ],
      [
        103.8432243,
        1.3355539
      ],
      [
        103.8432692,
        1.3357749
      ],
      [
        103.8433186,
        1.3360377
      ],
      [
        103.8433769,
        1.3364061
      ],
      [
        103.8434067,
        1.3366009
      ],
      [
        103.8434685,
        1.3369714
      ],
      [
        103.843476,
        1.3370163
      ],
      [
        103.8434907,
        1.3371074
      ],
      [
        103.8435121,
        1.3372437
      ],
      [
        103.8435324,
        1.3373732
      ],
      [
        103.8435502,
        1.3374763
      ],
      [
        103.8435802,
        1.3376688
      ],
      [
        103.8436438,
        1.3379848
      ],
      [
        103.8436844,
        1.3382043
      ],
      [
        103.8437195,
        1.3384247
      ],
      [
        103.8436943,
        1.3385234
      ],
      [
        103.8436631,
        1.3385918
      ],
      [
        103.8436565,
        1.3385999
      ],
      [
        103.843587,
        1.3386855
      ],
      [
        103.8435278,
        1.338739
      ],
      [
        103.8434554,
        1.3387551
      ],
      [
        103.8433919,
        1.3387632
      ],
      [
        103.8433126,
        1.3387732
      ],
      [
        103.8431222,
        1.3387856
      ],
      [
        103.8428818,
        1.33879
      ],
      [
        103.8427249,
        1.3387843
      ],
      [
        103.842649,
        1.3387793
      ],
      [
        103.84246,
        1.3387737
      ],
      [
        103.8424402,
        1.3387719
      ],
      [
        103.8423973,
        1.3387658
      ],
      [
        103.8423681,
        1.338761
      ],
      [
        103.8422528,
        1.3387368
      ],
      [
        103.8420784,
        1.3386725
      ],
      [
        103.8419216,
        1.3385867
      ],
      [
        103.8417606,
        1.338458
      ],
      [
        103.8416158,
        1.33834
      ],
      [
        103.841493,
        1.3382746
      ],
      [
        103.8413186,
        1.3381807
      ],
      [
        103.8411766,
        1.3381142
      ],
      [
        103.8409949,
        1.338054
      ],
      [
        103.8408321,
        1.3380394
      ],
      [
        103.8406771,
        1.3380399
      ],
      [
        103.8404761,
        1.3380207
      ],
      [
        103.840069,
        1.3379932
      ],
      [
        103.840004,
        1.3379899
      ],
      [
        103.8396996,
        1.3379745
      ],
      [
        103.8396371,
        1.3379732
      ],
      [
        103.8395463,
        1.3379712
      ],
      [
        103.8394352,
        1.3379614
      ],
      [
        103.8392877,
        1.3378743
      ],
      [
        103.8391449,
        1.3377797
      ],
      [
        103.8388685,
        1.3376464
      ],
      [
        103.8387631,
        1.3376137
      ],
      [
        103.8385933,
        1.3375806
      ],
      [
        103.8383925,
        1.3375945
      ],
      [
        103.8381844,
        1.3376669
      ],
      [
        103.8380568,
        1.3377231
      ],
      [
        103.8379651,
        1.3377793
      ],
      [
        103.8378022,
        1.3378701
      ],
      [
        103.8376751,
        1.3378651
      ],
      [
        103.8375326,
        1.3378011
      ],
      [
        103.8373601,
        1.3375916
      ],
      [
        103.8373306,
        1.3369428
      ],
      [
        103.8373083,
        1.336795
      ],
      [
        103.8373054,
        1.3367761
      ],
      [
        103.8372734,
        1.3365644
      ],
      [
        103.8372512,
        1.3364173
      ],
      [
        103.8372453,
        1.3363895
      ],
      [
        103.8372152,
        1.3362017
      ],
      [
        103.8371535,
        1.3358899
      ],
      [
        103.8371384,
        1.3357985
      ],
      [
        103.837087,
        1.3354461
      ],
      [
        103.83707,
        1.3353581
      ],
      [
        103.8370664,
        1.3352363
      ],
      [
        103.837075,
        1.3351164
      ],
      [
        103.8370915,
        1.3350054
      ],
      [
        103.8371265,
        1.334844
      ],
      [
        103.8371889,
        1.3346553
      ],
      [
        103.837246,
        1.3345451
      ],
      [
        103.8372926,
        1.3344656
      ],
      [
        103.8373959,
        1.3343302
      ],
      [
        103.8380634,
        1.3334063
      ],
      [
        103.8381416,
        1.333292
      ],
      [
        103.8381918,
        1.3332021
      ],
      [
        103.8382532,
        1.3330737
      ],
      [
        103.8383216,
        1.3328869
      ],
      [
        103.838383,
        1.3327358
      ],
      [
        103.8384306,
        1.3326248
      ],
      [
        103.8385334,
        1.3324078
      ],
      [
        103.8385771,
        1.3323444
      ],
      [
        103.8387032,
        1.3321989
      ],
      [
        103.838903,
        1.3320031
      ],
      [
        103.838962,
        1.331912
      ],
      [
        103.8390894,
        1.3316035
      ],
      [
        103.8391407,
        1.3314571
      ],
      [
        103.8392137,
        1.331262
      ],
      [
        103.8392832,
        1.3310955
      ],
      [
        103.8393719,
        1.3309065
      ],
      [
        103.8394471,
        1.3307789
      ],
      [
        103.8395905,
        1.33057
      ],
      [
        103.8396896,
        1.3304459
      ],
      [
        103.8398323,
        1.3302523
      ],
      [
        103.839902,
        1.3301639
      ],
      [
        103.8399412,
        1.3301142
      ],
      [
        103.8399749,
        1.3300688
      ],
      [
        103.8400845,
        1.3299257
      ],
      [
        103.8402396,
        1.3297675
      ],
      [
        103.8403454,
        1.3296632
      ],
      [
        103.8403952,
        1.3296134
      ],
      [
        103.8405103,
        1.3294959
      ],
      [
        103.8406404,
        1.329311
      ],
      [
        103.8407015,
        1.329203
      ],
      [
        103.8407581,
        1.3290967
      ],
      [
        103.8408092,
        1.3289829
      ],
      [
        103.8408587,
        1.3288715
      ],
      [
        103.8408921,
        1.3287881
      ],
      [
        103.8409147,
        1.3287239
      ],
      [
        103.8409523,
        1.3285976
      ],
      [
        103.8409784,
        1.3285191
      ],
      [
        103.8410501,
        1.3283154
      ],
      [
        103.8410988,
        1.3281977
      ],
      [
        103.8411574,
        1.328063
      ],
      [
        103.8411812,
        1.3280123
      ],
      [
        103.841286,
        1.3277893
      ],
      [
        103.8413546,
        1.3276068
      ],
      [
        103.841433,
        1.3274238
      ],
      [
        103.841449,
        1.3273898
      ],
      [
        103.8415785,
        1.3271336
      ],
      [
        103.8416346,
        1.3270367
      ],
      [
        103.8418386,
        1.3266844
      ],
      [
        103.841974,
        1.3264859
      ],
      [
        103.8420494,
        1.3263288
      ],
      [
        103.8420914,
        1.3261809
      ],
      [
        103.8421056,
        1.3261062
      ],
      [
        103.8421072,
        1.326076
      ],
      [
        103.8421434,
        1.3258092
      ],
      [
        103.8421579,
        1.3256532
      ],
      [
        103.8421604,
        1.3255211
      ],
      [
        103.8421287,
        1.3252244
      ],
      [
        103.8420943,
        1.3249651
      ],
      [
        103.8420422,
        1.3246308
      ],
      [
        103.8420176,
        1.3244976
      ],
      [
        103.8419834,
        1.3243625
      ],
      [
        103.8419064,
        1.323921
      ],
      [
        103.8418965,
        1.3238606
      ],
      [
        103.8418582,
        1.3236543
      ],
      [
        103.8418356,
        1.3235239
      ],
      [
        103.8418111,
        1.3233812
      ],
      [
        103.8418063,
        1.3233536
      ],
      [
        103.8417818,
        1.3231329
      ],
      [
        103.8417774,
        1.3230932
      ],
      [
        103.8417757,
        1.3230679
      ],
      [
        103.8417403,
        1.3226823
      ],
      [
        103.8417202,
        1.322354
      ],
      [
        103.8417148,
        1.3222327
      ],
      [
        103.8417118,
        1.3221955
      ],
      [
        103.8417163,
        1.3221722
      ],
      [
        103.841719,
        1.3221586
      ],
      [
        103.8417223,
        1.3221347
      ],
      [
        103.8417331,
        1.3220903
      ],
      [
        103.8417613,
        1.3219743
      ],
      [
        103.8418594,
        1.3216246
      ],
      [
        103.8418868,
        1.3215267
      ],
      [
        103.8419281,
        1.3214495
      ],
      [
        103.8420289,
        1.321261
      ],
      [
        103.8422848,
        1.3208991
      ],
      [
        103.8423534,
        1.3208057
      ],
      [
        103.842455,
        1.3206678
      ],
      [
        103.8425586,
        1.3205427
      ],
      [
        103.8427158,
        1.3203373
      ],
      [
        103.8430787,
        1.3199365
      ],
      [
        103.8432488,
        1.3197586
      ],
      [
        103.8435242,
        1.3193958
      ],
      [
        103.8435357,
        1.3193806
      ],
      [
        103.8435766,
        1.3193244
      ],
      [
        103.8436469,
        1.3192215
      ],
      [
        103.8437974,
        1.3190057
      ],
      [
        103.8439724,
        1.3186755
      ],
      [
        103.8439929,
        1.3186323
      ],
      [
        103.8440378,
        1.3185201
      ],
      [
        103.8440603,
        1.3184639
      ],
      [
        103.8441586,
        1.3182336
      ],
      [
        103.8443152,
        1.3177598
      ],
      [
        103.8443275,
        1.317723
      ],
      [
        103.8444162,
        1.3174587
      ],
      [
        103.8445095,
        1.3171727
      ],
      [
        103.8445526,
        1.3170119
      ],
      [
        103.8447047,
        1.316514
      ],
      [
        103.844821,
        1.3161146
      ],
      [
        103.8448604,
        1.3159631
      ],
      [
        103.8448831,
        1.3159006
      ],
      [
        103.8450513,
        1.3154379
      ],
      [
        103.8451033,
        1.3153145
      ],
      [
        103.8452124,
        1.3149818
      ],
      [
        103.8452973,
        1.3149359
      ],
      [
        103.8453823,
        1.3148959
      ],
      [
        103.8454005,
        1.3148873
      ],
      [
        103.8454114,
        1.3148796
      ],
      [
        103.8455591,
        1.3148213
      ],
      [
        103.845761,
        1.3147731
      ],
      [
        103.845967,
        1.3147511
      ],
      [
        103.8460568,
        1.3147708
      ],
      [
        103.8461816,
        1.3148691
      ],
      [
        103.8466024,
        1.3153241
      ],
      [
        103.8461816,
        1.3148691
      ],
      [
        103.848466,
        1.3168496
      ],
      [
        103.8478589,
        1.3164683
      ],
      [
        103.8474403,
        1.3161643
      ],
      [
        103.847115,
        1.3158739
      ],
      [
        103.8467843,
        1.3155207
      ],
      [
        103.848777,
        1.3170059
      ],
      [
        103.8490928,
        1.3171953
      ],
      [
        103.8492744,
        1.3172683
      ],
      [
        103.849417,
        1.3173019
      ],
      [
        103.8495534,
        1.3173106
      ],
      [
        103.8496498,
        1.3172985
      ],
      [
        103.8497663,
        1.3172443
      ],
      [
        103.8499366,
        1.3171233
      ],
      [
        103.8499785,
        1.3170813
      ],
      [
        103.8501443,
        1.3168916
      ],
      [
        103.8502905,
        1.316737
      ],
      [
        103.8503277,
        1.3166928
      ],
      [
        103.8505554,
        1.3164485
      ],
      [
        103.8505647,
        1.3163833
      ],
      [
        103.850626,
        1.316317
      ],
      [
        103.8506578,
        1.3162824
      ],
      [
        103.8508118,
        1.3161119
      ],
      [
        103.8509717,
        1.3159383
      ],
      [
        103.8512493,
        1.3156454
      ],
      [
        103.8513352,
        1.3155636
      ],
      [
        103.8515756,
        1.3153314
      ],
      [
        103.8517313,
        1.3151815
      ],
      [
        103.8519016,
        1.3150071
      ],
      [
        103.8520888,
        1.31482
      ],
      [
        103.8521322,
        1.3147778
      ],
      [
        103.8520627,
        1.314722
      ],
      [
        103.8516009,
        1.3143512
      ],
      [
        103.8513359,
        1.314144
      ],
      [
        103.8511366,
        1.3139882
      ],
      [
        103.8511188,
        1.3139712
      ],
      [
        103.851147,
        1.3139374
      ],
      [
        103.8513302,
        1.3137177
      ],
      [
        103.8513557,
        1.3136855
      ],
      [
        103.8515408,
        1.3134546
      ],
      [
        103.851956,
        1.3129914
      ],
      [
        103.8520451,
        1.3129149
      ],
      [
        103.8524404,
        1.3125753
      ],
      [
        103.8528642,
        1.3122187
      ],
      [
        103.8529742,
        1.3121827
      ],
      [
        103.8530237,
        1.3121829
      ],
      [
        103.8530551,
        1.3121935
      ],
      [
        103.8531031,
        1.3122162
      ],
      [
        103.8532118,
        1.3123282
      ],
      [
        103.8533079,
        1.3125187
      ],
      [
        103.8535225,
        1.3128324
      ],
      [
        103.8536496,
        1.3130019
      ],
      [
        103.8537839,
        1.3131207
      ],
      [
        103.8538837,
        1.3132176
      ],
      [
        103.8542532,
        1.3135774
      ],
      [
        103.8543188,
        1.3136413
      ],
      [
        103.854382,
        1.3136992
      ],
      [
        103.8544229,
        1.3136094
      ],
      [
        103.8544582,
        1.3135415
      ],
      [
        103.854579,
        1.313255
      ],
      [
        103.8547195,
        1.312941
      ],
      [
        103.8548269,
        1.3127277
      ],
      [
        103.8550798,
        1.3123284
      ],
      [
        103.8552983,
        1.3120072
      ],
      [
        103.8553554,
        1.3119292
      ],
      [
        103.855408,
        1.311857
      ],
      [
        103.8554569,
        1.3119231
      ],
      [
        103.855491,
        1.3119706
      ],
      [
        103.8557904,
        1.3123295
      ],
      [
        103.8559579,
        1.3125348
      ],
      [
        103.8559821,
        1.3125635
      ],
      [
        103.8561485,
        1.3127666
      ],
      [
        103.8565227,
        1.3132124
      ],
      [
        103.8566508,
        1.313365
      ],
      [
        103.8566893,
        1.3134109
      ],
      [
        103.857171,
        1.3140217
      ],
      [
        103.8572658,
        1.3141392
      ],
      [
        103.8574679,
        1.3143897
      ],
      [
        103.85754,
        1.314485
      ],
      [
        103.857621,
        1.3145922
      ],
      [
        103.8579261,
        1.3149792
      ],
      [
        103.8580138,
        1.3150903
      ],
      [
        103.8580495,
        1.3151356
      ],
      [
        103.8582337,
        1.3153631
      ],
      [
        103.8583374,
        1.3154914
      ],
      [
        103.8586828,
        1.3159177
      ],
      [
        103.8587654,
        1.3160196
      ],
      [
        103.85884,
        1.316109
      ],
      [
        103.8589275,
        1.3159977
      ],
      [
        103.8591102,
        1.3157652
      ],
      [
        103.8591995,
        1.3156492
      ],
      [
        103.8595812,
        1.3151346
      ],
      [
        103.8598576,
        1.3147552
      ],
      [
        103.8599589,
        1.3146058
      ],
      [
        103.8601347,
        1.3143791
      ],
      [
        103.8603346,
        1.3141238
      ],
      [
        103.8603993,
        1.3140413
      ],
      [
        103.8604911,
        1.3139144
      ],
      [
        103.8605569,
        1.3138235
      ],
      [
        103.8611117,
        1.3130664
      ],
      [
        103.8613477,
        1.3127487
      ],
      [
        103.8614832,
        1.3125596
      ],
      [
        103.8616269,
        1.3123441
      ],
      [
        103.8617849,
        1.3121353
      ],
      [
        103.8618379,
        1.3120669
      ],
      [
        103.8618811,
        1.3120158
      ],
      [
        103.8619939,
        1.3118824
      ],
      [
        103.8622314,
        1.3115746
      ],
      [
        103.86232,
        1.3114597
      ],
      [
        103.8625204,
        1.3111819
      ],
      [
        103.8626265,
        1.3110472
      ],
      [
        103.8627999,
        1.310827
      ],
      [
        103.8634161,
        1.3099427
      ],
      [
        103.8635381,
        1.3097771
      ],
      [
        103.8636081,
        1.309682
      ],
      [
        103.8637415,
        1.3094535
      ],
      [
        103.8638143,
        1.3093138
      ],
      [
        103.863865,
        1.309185
      ],
      [
        103.8638883,
        1.3091258
      ],
      [
        103.8639823,
        1.3090623
      ],
      [
        103.8640802,
        1.3089932
      ],
      [
        103.8641341,
        1.3089612
      ],
      [
        103.8641871,
        1.3089472
      ],
      [
        103.8642883,
        1.308913
      ],
      [
        103.8643514,
        1.3088918
      ],
      [
        103.8649808,
        1.309071
      ],
      [
        103.8656935,
        1.3092427
      ],
      [
        103.8657886,
        1.3092651
      ],
      [
        103.8660028,
        1.3093156
      ],
      [
        103.8669107,
        1.3095236
      ],
      [
        103.867171,
        1.3095778
      ],
      [
        103.8676717,
        1.3097038
      ],
      [
        103.8682088,
        1.3098779
      ],
      [
        103.868521,
        1.3099841
      ],
      [
        103.8686208,
        1.3100181
      ],
      [
        103.8688595,
        1.3100895
      ],
      [
        103.8693263,
        1.3102152
      ],
      [
        103.8693709,
        1.3102269
      ],
      [
        103.8698522,
        1.3103528
      ],
      [
        103.8703859,
        1.3104975
      ],
      [
        103.8708133,
        1.3106306
      ],
      [
        103.8708826,
        1.3106634
      ],
      [
        103.8709088,
        1.310676
      ],
      [
        103.8709926,
        1.3107155
      ],
      [
        103.8712545,
        1.3108716
      ],
      [
        103.871397,
        1.3109897
      ],
      [
        103.87148,
        1.3110557
      ],
      [
        103.8715209,
        1.3110882
      ],
      [
        103.8718325,
        1.3113462
      ],
      [
        103.871888,
        1.3113931
      ],
      [
        103.8720588,
        1.311523
      ],
      [
        103.8721651,
        1.3116046
      ],
      [
        103.8722478,
        1.3116621
      ],
      [
        103.8723224,
        1.3114635
      ],
      [
        103.8723556,
        1.3113663
      ],
      [
        103.8724126,
        1.3111994
      ],
      [
        103.8724932,
        1.3109348
      ],
      [
        103.8725644,
        1.3107551
      ],
      [
        103.8726121,
        1.310657
      ],
      [
        103.8726253,
        1.310629
      ],
      [
        103.8726957,
        1.3104791
      ],
      [
        103.8725966,
        1.3104349
      ],
      [
        103.8725118,
        1.310399
      ],
      [
        103.8723705,
        1.3103425
      ],
      [
        103.8720604,
        1.3102235
      ],
      [
        103.8718604,
        1.3101509
      ],
      [
        103.8717641,
        1.3101216
      ],
      [
        103.8716547,
        1.3100999
      ],
      [
        103.8714831,
        1.3100739
      ],
      [
        103.8714409,
        1.3100718
      ],
      [
        103.8711666,
        1.3100698
      ],
      [
        103.8711627,
        1.3101634
      ],
      [
        103.8711615,
        1.3101985
      ],
      [
        103.8711663,
        1.3102441
      ],
      [
        103.8711804,
        1.310277
      ],
      [
        103.8712186,
        1.3103136
      ],
      [
        103.8713229,
        1.3103952
      ],
      [
        103.8715589,
        1.3105015
      ],
      [
        103.8717713,
        1.3105972
      ],
      [
        103.8718404,
        1.3106283
      ],
      [
        103.8720028,
        1.310702
      ],
      [
        103.8721756,
        1.3107793
      ]
    ]
  }
}