{
  "type": "Feature",
  "properties": {
    "relation": 2970918,
    "direction": "1",
    "fee": "yes",
    "from": "Lorong 1 Geylang Terminal",
    "name": "Svc 141 (Lorong 1 Geylang Terminal → Toa Payoh Interchange)",
    "name:en": "Svc 141 (Lorong 1 Geylang Terminal → Toa Payoh Interchange)",
    "network": "Land Transport Authority",
    "network:short": "LTA",
    "network:wikidata": "Q3299279",
    "network:wikipedia": "en:Land Transport Authority",
    "operator": "SBS Transit",
    "operator:wikidata": "Q2661305",
    "operator:wikipedia": "en:SBS Transit",
    "public_transport:version": "2",
    "ref": "141",
    "route": "bus",
    "to": "Toa Payoh Interchange",
    "type": "route",
    "website": "https://www.sbstransit.com.sg/"
  },
  "geometry": {
    "type": "LineString",
    "coordinates": [
      [
        103.8712186,
        1.3103136
      ],
      [
        103.8713229,
        1.3103952
      ],
      [
        103.8715589,
        1.3105015
      ],
      [
        103.8717713,
        1.3105972
      ],
      [
        103.8718404,
        1.3106283
      ],
      [
        103.8720028,
        1.310702
      ],
      [
        103.8721756,
        1.3107793
      ],
      [
        103.8722322,
        1.3108066
      ],
      [
        103.8722979,
        1.3108374
      ],
      [
        103.8724145,
        1.3108965
      ],
      [
        103.8724932,
        1.3109348
      ],
      [
        103.8725644,
        1.3107551
      ],
      [
        103.8726121,
        1.310657
      ],
      [
        103.8726253,
        1.310629
      ],
      [
        103.8726957,
        1.3104791
      ],
      [
        103.8725966,
        1.3104349
      ],
      [
        103.8725118,
        1.310399
      ],
      [
        103.8723705,
        1.3103425
      ],
      [
        103.8720604,
        1.3102235
      ],
      [
        103.8718604,
        1.3101509
      ],
      [
        103.8717641,
        1.3101216
      ],
      [
        103.8716547,
        1.3100999
      ],
      [
        103.8714831,
        1.3100739
      ],
      [
        103.8714409,
        1.3100718
      ],
      [
        103.8711666,
        1.3100698
      ],
      [
        103.8711017,
        1.3100706
      ],
      [
        103.8709768,
        1.3100741
      ],
      [
        103.8709243,
        1.3100775
      ],
      [
        103.8708087,
        1.3100863
      ],
      [
        103.8706278,
        1.3101014
      ],
      [
        103.8699564,
        1.3101418
      ],
      [
        103.8697958,
        1.3101416
      ],
      [
        103.8695117,
        1.3101058
      ],
      [
        103.8693983,
        1.3100801
      ],
      [
        103.8693626,
        1.3100715
      ],
      [
        103.8687679,
        1.3098751
      ],
      [
        103.8686624,
        1.3098389
      ],
      [
        103.8685385,
        1.3097978
      ],
      [
        103.8684035,
        1.3097547
      ],
      [
        103.8683594,
        1.3097406
      ],
      [
        103.8673237,
        1.3094316
      ],
      [
        103.8669173,
        1.3093472
      ],
      [
        103.866252,
        1.3091985
      ],
      [
        103.8658262,
        1.3091019
      ],
      [
        103.8657314,
        1.3090793
      ],
      [
        103.8650599,
        1.3089074
      ],
      [
        103.8648923,
        1.3088632
      ],
      [
        103.8646809,
        1.3088071
      ],
      [
        103.8644791,
        1.3087387
      ],
      [
        103.8644128,
        1.3087038
      ],
      [
        103.8641356,
        1.3085196
      ],
      [
        103.8640506,
        1.3084531
      ],
      [
        103.8639117,
        1.3083367
      ],
      [
        103.8638674,
        1.3085135
      ],
      [
        103.8638158,
        1.3086919
      ],
      [
        103.863769,
        1.3088695
      ],
      [
        103.8636416,
        1.3092529
      ],
      [
        103.8635243,
        1.3094638
      ],
      [
        103.8634781,
        1.3095489
      ],
      [
        103.8633677,
        1.3097524
      ],
      [
        103.8632749,
        1.3099237
      ],
      [
        103.862945,
        1.3103648
      ],
      [
        103.8628605,
        1.3104721
      ],
      [
        103.8626553,
        1.3107355
      ],
      [
        103.8624246,
        1.3110607
      ],
      [
        103.8621747,
        1.3113847
      ],
      [
        103.8620659,
        1.3115328
      ],
      [
        103.8619083,
        1.3117377
      ],
      [
        103.8617675,
        1.3119078
      ],
      [
        103.8617519,
        1.3119292
      ],
      [
        103.8617212,
        1.311971
      ],
      [
        103.8616683,
        1.3120421
      ],
      [
        103.8612337,
        1.3126479
      ],
      [
        103.8608021,
        1.3132013
      ],
      [
        103.8604687,
        1.3136512
      ],
      [
        103.8603613,
        1.3137943
      ],
      [
        103.8602816,
        1.3139015
      ],
      [
        103.8602135,
        1.3138181
      ],
      [
        103.8601443,
        1.3137281
      ],
      [
        103.8600655,
        1.3136025
      ],
      [
        103.8599335,
        1.3133546
      ],
      [
        103.8598823,
        1.3131665
      ],
      [
        103.8598679,
        1.3131134
      ],
      [
        103.8598543,
        1.3130637
      ],
      [
        103.8597988,
        1.3128599
      ],
      [
        103.8597129,
        1.3124671
      ],
      [
        103.8596264,
        1.3121601
      ],
      [
        103.8596204,
        1.3121373
      ],
      [
        103.8595694,
        1.3119818
      ],
      [
        103.85946,
        1.3117554
      ],
      [
        103.8594148,
        1.3116733
      ],
      [
        103.8593696,
        1.3116008
      ],
      [
        103.8593085,
        1.31151
      ],
      [
        103.8592174,
        1.3113803
      ],
      [
        103.8591985,
        1.3113517
      ],
      [
        103.8590758,
        1.3111584
      ],
      [
        103.8588146,
        1.3107897
      ],
      [
        103.8587351,
        1.3106732
      ],
      [
        103.8587057,
        1.3106301
      ],
      [
        103.8586304,
        1.310518
      ],
      [
        103.8586023,
        1.3104748
      ],
      [
        103.8582388,
        1.3098963
      ],
      [
        103.8578848,
        1.3093936
      ],
      [
        103.8578612,
        1.3093599
      ],
      [
        103.8578193,
        1.3093002
      ],
      [
        103.857755,
        1.3093581
      ],
      [
        103.8576844,
        1.3094175
      ],
      [
        103.8575835,
        1.3095043
      ],
      [
        103.8575037,
        1.3095798
      ],
      [
        103.8571424,
        1.3099242
      ],
      [
        103.8567772,
        1.3102675
      ],
      [
        103.8565898,
        1.3104472
      ],
      [
        103.8565438,
        1.3104913
      ],
      [
        103.8564607,
        1.3105717
      ],
      [
        103.8562955,
        1.3107312
      ],
      [
        103.8559618,
        1.3111056
      ],
      [
        103.8558317,
        1.3112512
      ],
      [
        103.8554324,
        1.3117226
      ],
      [
        103.8553675,
        1.3118005
      ],
      [
        103.855309,
        1.3118754
      ],
      [
        103.8552448,
        1.3119535
      ],
      [
        103.8551597,
        1.3120661
      ],
      [
        103.8547599,
        1.3126687
      ],
      [
        103.8546569,
        1.3128969
      ],
      [
        103.854564,
        1.3130816
      ],
      [
        103.8545127,
        1.3131874
      ],
      [
        103.8543869,
        1.3134719
      ],
      [
        103.8543561,
        1.3135415
      ],
      [
        103.8543188,
        1.3136413
      ],
      [
        103.854313,
        1.3136717
      ],
      [
        103.8542959,
        1.313761
      ],
      [
        103.8542959,
        1.313761
      ],
      [
        103.8542612,
        1.3138204
      ],
      [
        103.854133,
        1.314106
      ],
      [
        103.8540729,
        1.314253
      ],
      [
        103.8540153,
        1.3143969
      ],
      [
        103.853909,
        1.3146422
      ],
      [
        103.8537848,
        1.3149623
      ],
      [
        103.8535668,
        1.3155329
      ],
      [
        103.8535378,
        1.3156088
      ],
      [
        103.853497,
        1.3157158
      ],
      [
        103.8534775,
        1.3157668
      ],
      [
        103.8534524,
        1.3158277
      ],
      [
        103.8532792,
        1.3162483
      ],
      [
        103.8532702,
        1.3162702
      ],
      [
        103.8532535,
        1.316303
      ],
      [
        103.8532099,
        1.3164177
      ],
      [
        103.853173,
        1.3165105
      ],
      [
        103.8531385,
        1.316608
      ],
      [
        103.8531115,
        1.3166759
      ],
      [
        103.8530564,
        1.3168205
      ],
      [
        103.8529723,
        1.3170098
      ],
      [
        103.8527419,
        1.3168259
      ],
      [
        103.852609,
        1.3167155
      ],
      [
        103.8525976,
        1.3167075
      ],
      [
        103.8525545,
        1.316669
      ],
      [
        103.8517453,
        1.3159346
      ],
      [
        103.8514084,
        1.3156312
      ],
      [
        103.8513352,
        1.3155636
      ],
      [
        103.8513352,
        1.3155636
      ],
      [
        103.8512493,
        1.3156454
      ],
      [
        103.8509717,
        1.3159383
      ],
      [
        103.8508118,
        1.3161119
      ],
      [
        103.8506578,
        1.3162824
      ],
      [
        103.850626,
        1.316317
      ],
      [
        103.8504914,
        1.3164051
      ],
      [
        103.8502414,
        1.3166906
      ],
      [
        103.8501013,
        1.3168388
      ],
      [
        103.849897,
        1.3170649
      ],
      [
        103.8497595,
        1.3171745
      ],
      [
        103.8496358,
        1.3172318
      ],
      [
        103.8495405,
        1.3172489
      ],
      [
        103.8494388,
        1.3172402
      ],
      [
        103.8492795,
        1.3172047
      ],
      [
        103.849108,
        1.3171278
      ],
      [
        103.8489725,
        1.317102
      ],
      [
        103.848777,
        1.3170059
      ],
      [
        103.848466,
        1.3168496
      ],
      [
        103.8478589,
        1.3164683
      ],
      [
        103.8474403,
        1.3161643
      ],
      [
        103.847115,
        1.3158739
      ],
      [
        103.8467843,
        1.3155207
      ],
      [
        103.8466024,
        1.3153241
      ],
      [
        103.8461816,
        1.3148691
      ],
      [
        103.8458714,
        1.3144783
      ],
      [
        103.8458132,
        1.3143258
      ],
      [
        103.8457809,
        1.3141228
      ],
      [
        103.8457499,
        1.3139274
      ],
      [
        103.845834,
        1.3137964
      ],
      [
        103.846062,
        1.3134866
      ],
      [
        103.8462998,
        1.3132248
      ],
      [
        103.8462914,
        1.3131689
      ],
      [
        103.8462637,
        1.3131119
      ],
      [
        103.8461944,
        1.3130749
      ],
      [
        103.8461463,
        1.3130541
      ],
      [
        103.8460656,
        1.3130558
      ],
      [
        103.8459012,
        1.3132709
      ],
      [
        103.8458094,
        1.3133511
      ],
      [
        103.845707,
        1.3134136
      ],
      [
        103.8455759,
        1.3134739
      ],
      [
        103.8454888,
        1.3135155
      ],
      [
        103.8454092,
        1.3135985
      ],
      [
        103.8453346,
        1.3136958
      ],
      [
        103.8453013,
        1.3137473
      ],
      [
        103.8452371,
        1.3138719
      ],
      [
        103.8452335,
        1.3139655
      ],
      [
        103.8452407,
        1.3143492
      ],
      [
        103.8452313,
        1.3144677
      ],
      [
        103.8452288,
        1.3144974
      ],
      [
        103.8452209,
        1.3145923
      ],
      [
        103.8451898,
        1.3146982
      ],
      [
        103.8451708,
        1.3147628
      ],
      [
        103.8451087,
        1.3149739
      ],
      [
        103.8450916,
        1.3150321
      ],
      [
        103.8450486,
        1.3151785
      ],
      [
        103.8449854,
        1.3153932
      ],
      [
        103.8449498,
        1.3155143
      ],
      [
        103.8448546,
        1.3157965
      ],
      [
        103.8448233,
        1.3158893
      ],
      [
        103.8445965,
        1.3165614
      ],
      [
        103.8445057,
        1.3168304
      ],
      [
        103.8444508,
        1.3169824
      ],
      [
        103.8444009,
        1.3171235
      ],
      [
        103.8443749,
        1.3171971
      ],
      [
        103.8441952,
        1.317705
      ],
      [
        103.8440869,
        1.3180094
      ],
      [
        103.8440767,
        1.3180393
      ],
      [
        103.8440595,
        1.3180851
      ],
      [
        103.8440492,
        1.3181067
      ],
      [
        103.8440372,
        1.3181376
      ],
      [
        103.8439073,
        1.3184204
      ],
      [
        103.8438783,
        1.3184837
      ],
      [
        103.8438255,
        1.3186018
      ],
      [
        103.8437973,
        1.3186587
      ],
      [
        103.8437442,
        1.3187426
      ],
      [
        103.8434515,
        1.319162
      ],
      [
        103.8433837,
        1.3192642
      ],
      [
        103.8433487,
        1.3193141
      ],
      [
        103.8431022,
        1.3196245
      ],
      [
        103.8428507,
        1.3199859
      ],
      [
        103.8426978,
        1.3201757
      ],
      [
        103.8425943,
        1.3202984
      ],
      [
        103.8424842,
        1.3204213
      ],
      [
        103.842416,
        1.3205041
      ],
      [
        103.8423355,
        1.3205961
      ],
      [
        103.8422009,
        1.3207852
      ],
      [
        103.8421316,
        1.3208747
      ],
      [
        103.8420697,
        1.3209628
      ],
      [
        103.8419822,
        1.3210653
      ],
      [
        103.8419167,
        1.3211463
      ],
      [
        103.841834,
        1.3212571
      ],
      [
        103.841788,
        1.3213584
      ],
      [
        103.8417479,
        1.3214751
      ],
      [
        103.8417317,
        1.3215312
      ],
      [
        103.8417186,
        1.3215699
      ],
      [
        103.8416706,
        1.3217115
      ],
      [
        103.841618,
        1.3218808
      ],
      [
        103.8415936,
        1.3219879
      ],
      [
        103.8415835,
        1.3220522
      ],
      [
        103.841579,
        1.3220804
      ],
      [
        103.8415741,
        1.3221404
      ],
      [
        103.8415713,
        1.3221741
      ],
      [
        103.8415654,
        1.3222205
      ],
      [
        103.8415701,
        1.3222537
      ],
      [
        103.8415818,
        1.3223586
      ],
      [
        103.8416055,
        1.322683
      ],
      [
        103.8416249,
        1.3229779
      ],
      [
        103.8416298,
        1.3230208
      ],
      [
        103.8416367,
        1.3231043
      ],
      [
        103.8416541,
        1.3232595
      ],
      [
        103.8416707,
        1.3233826
      ],
      [
        103.8416852,
        1.3234635
      ],
      [
        103.8417976,
        1.3240848
      ],
      [
        103.8418085,
        1.3241407
      ],
      [
        103.8418552,
        1.3243812
      ],
      [
        103.841888,
        1.3245227
      ],
      [
        103.8419117,
        1.3246481
      ],
      [
        103.8419491,
        1.3248373
      ],
      [
        103.8419921,
        1.3250442
      ],
      [
        103.8420094,
        1.3251149
      ],
      [
        103.842028,
        1.3252909
      ],
      [
        103.8420584,
        1.3254673
      ],
      [
        103.842061,
        1.3256083
      ],
      [
        103.8420531,
        1.3258053
      ],
      [
        103.8420165,
        1.3259252
      ],
      [
        103.8419899,
        1.3260287
      ],
      [
        103.84197,
        1.3260939
      ],
      [
        103.8419469,
        1.3261745
      ],
      [
        103.8419118,
        1.3263004
      ],
      [
        103.8418468,
        1.3264357
      ],
      [
        103.841629,
        1.326873
      ],
      [
        103.8414722,
        1.3272112
      ],
      [
        103.8413424,
        1.3274365
      ],
      [
        103.8411446,
        1.3275288
      ],
      [
        103.8410179,
        1.3275459
      ],
      [
        103.8408423,
        1.3275296
      ],
      [
        103.8407136,
        1.3274517
      ],
      [
        103.8405838,
        1.3273592
      ],
      [
        103.8404206,
        1.3272707
      ],
      [
        103.8403047,
        1.3272418
      ],
      [
        103.8401796,
        1.3272473
      ],
      [
        103.840009,
        1.3273093
      ],
      [
        103.8398856,
        1.3274349
      ],
      [
        103.8398254,
        1.3276058
      ],
      [
        103.8398383,
        1.3278509
      ],
      [
        103.8398981,
        1.3279527
      ],
      [
        103.8399792,
        1.3280394
      ],
      [
        103.8402261,
        1.3281885
      ],
      [
        103.8403025,
        1.3282303
      ],
      [
        103.8403706,
        1.3282899
      ],
      [
        103.8404044,
        1.3283429
      ],
      [
        103.8404292,
        1.3283952
      ],
      [
        103.8404406,
        1.3284692
      ],
      [
        103.8404252,
        1.3286386
      ],
      [
        103.8402743,
        1.328959
      ],
      [
        103.8402159,
        1.3291326
      ],
      [
        103.8401866,
        1.3292679
      ],
      [
        103.8401614,
        1.3294501
      ],
      [
        103.840147,
        1.3295519
      ],
      [
        103.8401214,
        1.3296079
      ],
      [
        103.8400801,
        1.3296853
      ],
      [
        103.8398904,
        1.3300036
      ],
      [
        103.8398174,
        1.3301086
      ],
      [
        103.8396358,
        1.3303812
      ],
      [
        103.8395093,
        1.3305555
      ],
      [
        103.8394318,
        1.3306617
      ],
      [
        103.8393529,
        1.330785
      ],
      [
        103.839298,
        1.3308845
      ],
      [
        103.8391728,
        1.3311537
      ],
      [
        103.8391005,
        1.3313501
      ],
      [
        103.8390587,
        1.331459
      ],
      [
        103.8389741,
        1.3316961
      ],
      [
        103.838903,
        1.331861
      ],
      [
        103.8388494,
        1.3319455
      ],
      [
        103.8387515,
        1.3320568
      ],
      [
        103.8385932,
        1.3322096
      ],
      [
        103.8384924,
        1.3323218
      ],
      [
        103.8384316,
        1.3324033
      ],
      [
        103.8383872,
        1.332483
      ],
      [
        103.8383414,
        1.3325878
      ],
      [
        103.8382509,
        1.3328304
      ],
      [
        103.8382003,
        1.3329792
      ],
      [
        103.8381309,
        1.3331418
      ],
      [
        103.8380819,
        1.3332454
      ],
      [
        103.8380161,
        1.3333615
      ],
      [
        103.8379208,
        1.3334885
      ],
      [
        103.8377409,
        1.3337401
      ],
      [
        103.8376179,
        1.3339744
      ],
      [
        103.8374587,
        1.3341572
      ],
      [
        103.8372249,
        1.3344352
      ],
      [
        103.8371852,
        1.3345017
      ],
      [
        103.8371299,
        1.3346225
      ],
      [
        103.8371137,
        1.3346716
      ],
      [
        103.8370666,
        1.3348144
      ],
      [
        103.8370353,
        1.3349605
      ],
      [
        103.8370081,
        1.3350933
      ],
      [
        103.8370037,
        1.3351345
      ],
      [
        103.8370003,
        1.3351658
      ],
      [
        103.8369935,
        1.335229
      ],
      [
        103.8369955,
        1.3353639
      ],
      [
        103.8370081,
        1.3354991
      ],
      [
        103.83703,
        1.3356315
      ],
      [
        103.8370803,
        1.3358968
      ],
      [
        103.8371693,
        1.3364286
      ],
      [
        103.8371884,
        1.3366092
      ],
      [
        103.8372095,
        1.3367874
      ],
      [
        103.8372303,
        1.3369475
      ],
      [
        103.8372336,
        1.3370594
      ],
      [
        103.837229,
        1.3371997
      ],
      [
        103.8372323,
        1.33791
      ],
      [
        103.837234,
        1.3379996
      ],
      [
        103.8372322,
        1.3380723
      ],
      [
        103.8373616,
        1.3380704
      ],
      [
        103.8374759,
        1.338054
      ],
      [
        103.8376952,
        1.3379986
      ],
      [
        103.8377523,
        1.3379772
      ],
      [
        103.8379192,
        1.3378946
      ],
      [
        103.8380134,
        1.337839
      ],
      [
        103.8382952,
        1.3377092
      ],
      [
        103.8384981,
        1.3376668
      ],
      [
        103.8386598,
        1.3376772
      ],
      [
        103.8388338,
        1.3377155
      ],
      [
        103.8390064,
        1.3377872
      ],
      [
        103.8391456,
        1.3378749
      ],
      [
        103.8393689,
        1.3380216
      ],
      [
        103.8394315,
        1.3380515
      ],
      [
        103.839544,
        1.3380605
      ],
      [
        103.8396334,
        1.3380626
      ],
      [
        103.8396922,
        1.3380624
      ],
      [
        103.8399977,
        1.3380756
      ],
      [
        103.8400937,
        1.3380797
      ],
      [
        103.8401999,
        1.3380779
      ],
      [
        103.8407902,
        1.3381167
      ],
      [
        103.8410043,
        1.3381523
      ],
      [
        103.8411561,
        1.3381987
      ],
      [
        103.8412633,
        1.3382403
      ],
      [
        103.841368,
        1.3382925
      ],
      [
        103.8415116,
        1.3383789
      ],
      [
        103.8417203,
        1.3385294
      ],
      [
        103.8418642,
        1.3386438
      ],
      [
        103.8419851,
        1.3387277
      ],
      [
        103.8421774,
        1.3388134
      ],
      [
        103.8422974,
        1.3388468
      ],
      [
        103.8424181,
        1.3388653
      ],
      [
        103.842596,
        1.3388655
      ],
      [
        103.8427453,
        1.3388658
      ],
      [
        103.8429767,
        1.338868
      ],
      [
        103.8431311,
        1.3388655
      ],
      [
        103.8433549,
        1.3388411
      ],
      [
        103.8435012,
        1.3388195
      ],
      [
        103.8437282,
        1.338778
      ],
      [
        103.8438108,
        1.3387636
      ],
      [
        103.8439309,
        1.3387333
      ],
      [
        103.8439116,
        1.338644
      ],
      [
        103.8438852,
        1.3385242
      ],
      [
        103.8438302,
        1.3382718
      ],
      [
        103.8438024,
        1.3381523
      ],
      [
        103.8437699,
        1.3380127
      ],
      [
        103.8436856,
        1.3376507
      ],
      [
        103.8436472,
        1.3373579
      ],
      [
        103.8436293,
        1.3372213
      ],
      [
        103.8436129,
        1.3370966
      ],
      [
        103.8436028,
        1.3370107
      ],
      [
        103.8435904,
        1.3369529
      ],
      [
        103.8435811,
        1.3369093
      ],
      [
        103.8435055,
        1.3364596
      ],
      [
        103.843417,
        1.3358788
      ],
      [
        103.8433989,
        1.3357797
      ],
      [
        103.8433429,
        1.3354987
      ],
      [
        103.8433238,
        1.3353951
      ],
      [
        103.8432683,
        1.3350815
      ],
      [
        103.843267,
        1.3350706
      ],
      [
        103.8432428,
        1.3348737
      ],
      [
        103.8432418,
        1.3346673
      ],
      [
        103.8432459,
        1.3344733
      ],
      [
        103.8432482,
        1.3343421
      ],
      [
        103.843255,
        1.3342462
      ],
      [
        103.8432694,
        1.3341297
      ],
      [
        103.8432964,
        1.3339853
      ],
      [
        103.8433349,
        1.3338351
      ],
      [
        103.8433488,
        1.333781
      ],
      [
        103.8434118,
        1.3335825
      ],
      [
        103.8435555,
        1.333256
      ],
      [
        103.8435866,
        1.3331889
      ],
      [
        103.843665,
        1.3330534
      ],
      [
        103.8437637,
        1.3329107
      ],
      [
        103.843874,
        1.3327662
      ],
      [
        103.8439979,
        1.3326241
      ],
      [
        103.8441113,
        1.3325103
      ],
      [
        103.8442088,
        1.3324231
      ],
      [
        103.8443039,
        1.3323374
      ],
      [
        103.8444289,
        1.3322332
      ],
      [
        103.8445305,
        1.332164
      ],
      [
        103.8446993,
        1.3320634
      ],
      [
        103.8447871,
        1.33201
      ],
      [
        103.8449606,
        1.3319313
      ],
      [
        103.8450963,
        1.3318824
      ],
      [
        103.8452955,
        1.3318121
      ],
      [
        103.8453842,
        1.3317829
      ],
      [
        103.845465,
        1.3317641
      ],
      [
        103.8455378,
        1.3317458
      ],
      [
        103.8458288,
        1.3317006
      ],
      [
        103.8461143,
        1.3316626
      ],
      [
        103.8461895,
        1.3316519
      ],
      [
        103.8463159,
        1.3316334
      ],
      [
        103.8464036,
        1.3316147
      ],
      [
        103.8468963,
        1.3315268
      ],
      [
        103.8473107,
        1.3314516
      ],
      [
        103.8475702,
        1.3314206
      ],
      [
        103.8477079,
        1.3314001
      ],
      [
        103.847692,
        1.3314836
      ],
      [
        103.8476595,
        1.3316694
      ],
      [
        103.8477425,
        1.3321673
      ],
      [
        103.8478671,
        1.3321684
      ],
      [
        103.8479987,
        1.3321704
      ],
      [
        103.848011,
        1.3321568
      ],
      [
        103.848017,
        1.3321224
      ],
      [
        103.848036,
        1.3319252
      ],
      [
        103.8479065,
        1.3317735
      ],
      [
        103.8477523,
        1.3316865
      ],
      [
        103.8476595,
        1.3316694
      ]
    ]
  }
}