{
  "type": "Feature",
  "properties": {
    "relation": 1153779,
    "direction": "1",
    "fee": "yes",
    "from": "Toa Payoh Interchange",
    "name": "Svc 143 (Toa Payoh Interchange → Jurong East Interchange)",
    "name:en": "Svc 143 (Toa Payoh Interchange → Jurong East Interchange)",
    "network": "Land Transport Authority",
    "network:short": "LTA",
    "network:wikidata": "Q3299279",
    "network:wikipedia": "en:Land Transport Authority",
    "operator": "Tower Transit Singapore",
    "operator:wikidata": "Q19898668",
    "operator:wikipedia": "en:Tower Transit Singapore",
    "public_transport:version": "2",
    "ref": "143",
    "route": "bus",
    "to": "Jurong East Interchange",
    "type": "route",
    "website": "https://towertransit.sg/"
  },
  "geometry": {
    "type": "LineString",
    "coordinates": [
      [
        103.8475702,
        1.3314206
      ],
      [
        103.847546,
        1.3315009
      ],
      [
        103.8475064,
        1.3316175
      ],
      [
        103.8474931,
        1.3316237
      ],
      [
        103.84748,
        1.3316275
      ],
      [
        103.8473008,
        1.3316302
      ],
      [
        103.8470626,
        1.3316991
      ],
      [
        103.846909,
        1.3317975
      ],
      [
        103.8468287,
        1.3318605
      ],
      [
        103.8467952,
        1.3319138
      ],
      [
        103.8467217,
        1.3320515
      ],
      [
        103.8466995,
        1.3321823
      ],
      [
        103.8466995,
        1.3323142
      ],
      [
        103.8467778,
        1.332553
      ],
      [
        103.8467805,
        1.3325661
      ],
      [
        103.8467801,
        1.3325799
      ],
      [
        103.8467763,
        1.3325922
      ],
      [
        103.8467646,
        1.3326024
      ],
      [
        103.8466666,
        1.3326462
      ],
      [
        103.8465995,
        1.3326596
      ],
      [
        103.8465673,
        1.3325346
      ],
      [
        103.8465224,
        1.3323565
      ],
      [
        103.8464636,
        1.3321421
      ],
      [
        103.8463333,
        1.3317025
      ],
      [
        103.8463159,
        1.3316334
      ],
      [
        103.846284,
        1.3315064
      ],
      [
        103.8462614,
        1.3314159
      ],
      [
        103.8461813,
        1.3311289
      ],
      [
        103.8461602,
        1.3310662
      ],
      [
        103.8460944,
        1.330867
      ],
      [
        103.8460292,
        1.3306274
      ],
      [
        103.8459985,
        1.3305146
      ],
      [
        103.8459744,
        1.3303937
      ],
      [
        103.8459516,
        1.3302269
      ],
      [
        103.8459443,
        1.3300334
      ],
      [
        103.845956,
        1.329639
      ],
      [
        103.8459779,
        1.3292002
      ],
      [
        103.8459931,
        1.3290907
      ],
      [
        103.8460165,
        1.3289938
      ],
      [
        103.8460524,
        1.3288993
      ],
      [
        103.8460954,
        1.3288148
      ],
      [
        103.8461363,
        1.3287572
      ],
      [
        103.8461966,
        1.3286969
      ],
      [
        103.8462395,
        1.328656
      ],
      [
        103.8463079,
        1.3286137
      ],
      [
        103.8463743,
        1.3285849
      ],
      [
        103.8464371,
        1.3285617
      ],
      [
        103.8464985,
        1.3285483
      ],
      [
        103.8465658,
        1.3285402
      ],
      [
        103.8466537,
        1.3285429
      ],
      [
        103.8467321,
        1.3285563
      ],
      [
        103.8467971,
        1.3285806
      ],
      [
        103.8468609,
        1.32861
      ],
      [
        103.8469306,
        1.3286529
      ],
      [
        103.8469865,
        1.3286989
      ],
      [
        103.847054,
        1.3287655
      ],
      [
        103.8470965,
        1.3288309
      ],
      [
        103.8471237,
        1.3288835
      ],
      [
        103.8471505,
        1.32898
      ],
      [
        103.8471613,
        1.3290712
      ],
      [
        103.8471613,
        1.3291516
      ],
      [
        103.8471505,
        1.3292318
      ],
      [
        103.847113,
        1.329323
      ],
      [
        103.847059,
        1.3293901
      ],
      [
        103.8469843,
        1.3294517
      ],
      [
        103.8468927,
        1.3295006
      ],
      [
        103.8467891,
        1.3295255
      ],
      [
        103.8466463,
        1.3295375
      ],
      [
        103.8464977,
        1.3295422
      ],
      [
        103.8463307,
        1.3295443
      ],
      [
        103.8460568,
        1.329551
      ],
      [
        103.8458595,
        1.3295427
      ],
      [
        103.8450256,
        1.3295114
      ],
      [
        103.8445045,
        1.3294849
      ],
      [
        103.844377,
        1.3294764
      ],
      [
        103.8440511,
        1.3294598
      ],
      [
        103.8439948,
        1.3294555
      ],
      [
        103.8434579,
        1.3294202
      ],
      [
        103.8432567,
        1.3294056
      ],
      [
        103.8431345,
        1.3293683
      ],
      [
        103.8429182,
        1.3293339
      ],
      [
        103.8426981,
        1.3292856
      ],
      [
        103.8425881,
        1.3292524
      ],
      [
        103.8424675,
        1.3292159
      ],
      [
        103.8422475,
        1.3291408
      ],
      [
        103.8419462,
        1.3290304
      ],
      [
        103.8417207,
        1.3289905
      ],
      [
        103.8415396,
        1.3289476
      ],
      [
        103.8412511,
        1.3288244
      ],
      [
        103.8410459,
        1.3287292
      ],
      [
        103.8410114,
        1.3287155
      ],
      [
        103.8409878,
        1.3286858
      ],
      [
        103.8409693,
        1.3286532
      ],
      [
        103.8409523,
        1.3285976
      ],
      [
        103.8409784,
        1.3285191
      ],
      [
        103.8410501,
        1.3283154
      ],
      [
        103.8410988,
        1.3281977
      ],
      [
        103.8411574,
        1.328063
      ],
      [
        103.8411812,
        1.3280123
      ],
      [
        103.841286,
        1.3277893
      ],
      [
        103.8413546,
        1.3276068
      ],
      [
        103.841433,
        1.3274238
      ],
      [
        103.841449,
        1.3273898
      ],
      [
        103.8415785,
        1.3271336
      ],
      [
        103.8416346,
        1.3270367
      ],
      [
        103.8418386,
        1.3266844
      ],
      [
        103.841974,
        1.3264859
      ],
      [
        103.8420494,
        1.3263288
      ],
      [
        103.8420914,
        1.3261809
      ],
      [
        103.8421056,
        1.3261062
      ],
      [
        103.8421072,
        1.326076
      ],
      [
        103.8421434,
        1.3258092
      ],
      [
        103.8421579,
        1.3256532
      ],
      [
        103.8421604,
        1.3255211
      ],
      [
        103.8421287,
        1.3252244
      ],
      [
        103.8420943,
        1.3249651
      ],
      [
        103.8420422,
        1.3246308
      ],
      [
        103.8420176,
        1.3244976
      ],
      [
        103.8419834,
        1.3243625
      ],
      [
        103.8419064,
        1.323921
      ],
      [
        103.8418965,
        1.3238606
      ],
      [
        103.8418582,
        1.3236543
      ],
      [
        103.8418356,
        1.3235239
      ],
      [
        103.8418111,
        1.3233812
      ],
      [
        103.8418063,
        1.3233536
      ],
      [
        103.8417818,
        1.3231329
      ],
      [
        103.8417774,
        1.3230932
      ],
      [
        103.8417757,
        1.3230679
      ],
      [
        103.8417403,
        1.3226823
      ],
      [
        103.8417202,
        1.322354
      ],
      [
        103.8417148,
        1.3222327
      ],
      [
        103.8417118,
        1.3221955
      ],
      [
        103.8417163,
        1.3221722
      ],
      [
        103.841719,
        1.3221586
      ],
      [
        103.8417223,
        1.3221347
      ],
      [
        103.8417331,
        1.3220903
      ],
      [
        103.8417613,
        1.3219743
      ],
      [
        103.8418594,
        1.3216246
      ],
      [
        103.8418868,
        1.3215267
      ],
      [
        103.8419281,
        1.3214495
      ],
      [
        103.8420289,
        1.321261
      ],
      [
        103.8422848,
        1.3208991
      ],
      [
        103.8423534,
        1.3208057
      ],
      [
        103.842455,
        1.3206678
      ],
      [
        103.8425586,
        1.3205427
      ],
      [
        103.8427158,
        1.3203373
      ],
      [
        103.8430787,
        1.3199365
      ],
      [
        103.8432488,
        1.3197586
      ],
      [
        103.8435242,
        1.3193958
      ],
      [
        103.8435357,
        1.3193806
      ],
      [
        103.8435766,
        1.3193244
      ],
      [
        103.8436469,
        1.3192215
      ],
      [
        103.8434515,
        1.319162
      ],
      [
        103.8430915,
        1.3190729
      ],
      [
        103.8430143,
        1.3190483
      ],
      [
        103.8429327,
        1.3190222
      ],
      [
        103.8428551,
        1.3189919
      ],
      [
        103.8427918,
        1.3189561
      ],
      [
        103.8427222,
        1.318897
      ],
      [
        103.8426348,
        1.3188188
      ],
      [
        103.8423774,
        1.3185924
      ],
      [
        103.8421941,
        1.3184058
      ],
      [
        103.8420114,
        1.3182409
      ],
      [
        103.8419083,
        1.3181053
      ],
      [
        103.8418616,
        1.3180438
      ],
      [
        103.8417965,
        1.3179229
      ],
      [
        103.8417704,
        1.3178745
      ],
      [
        103.841662,
        1.3175669
      ],
      [
        103.8416441,
        1.3174983
      ],
      [
        103.8416353,
        1.3174665
      ],
      [
        103.8416017,
        1.3173458
      ],
      [
        103.8414277,
        1.3167015
      ],
      [
        103.8413802,
        1.3165002
      ],
      [
        103.841326,
        1.3162692
      ],
      [
        103.8411948,
        1.3157706
      ],
      [
        103.8411685,
        1.3156837
      ],
      [
        103.8411628,
        1.3156648
      ],
      [
        103.8411131,
        1.3154751
      ],
      [
        103.841096,
        1.3154114
      ],
      [
        103.8410377,
        1.3152103
      ],
      [
        103.84099,
        1.315046
      ],
      [
        103.8408684,
        1.3147977
      ],
      [
        103.8408378,
        1.3147352
      ],
      [
        103.8408159,
        1.3146904
      ],
      [
        103.8408084,
        1.3146751
      ],
      [
        103.8406455,
        1.314449
      ],
      [
        103.8403752,
        1.3141622
      ],
      [
        103.840142,
        1.3139608
      ],
      [
        103.8397822,
        1.3136492
      ],
      [
        103.8395794,
        1.3134759
      ],
      [
        103.8395341,
        1.3134124
      ],
      [
        103.8395288,
        1.3133638
      ],
      [
        103.8395387,
        1.3133266
      ],
      [
        103.8395876,
        1.313226
      ],
      [
        103.8396075,
        1.3131602
      ],
      [
        103.8396198,
        1.3130973
      ],
      [
        103.8396211,
        1.3130308
      ],
      [
        103.8396205,
        1.3130105
      ],
      [
        103.8395816,
        1.3129223
      ],
      [
        103.8395052,
        1.3128144
      ],
      [
        103.8393411,
        1.3126731
      ],
      [
        103.839239,
        1.3126126
      ],
      [
        103.8391799,
        1.3125898
      ],
      [
        103.8391022,
        1.3125787
      ],
      [
        103.8390029,
        1.3125737
      ],
      [
        103.8389211,
        1.3125965
      ],
      [
        103.8388551,
        1.3126266
      ],
      [
        103.8388059,
        1.31266
      ],
      [
        103.8387138,
        1.3126263
      ],
      [
        103.8386084,
        1.3125928
      ],
      [
        103.8384631,
        1.3125016
      ],
      [
        103.8379933,
        1.3121916
      ],
      [
        103.8377213,
        1.3120167
      ],
      [
        103.8372414,
        1.3116941
      ],
      [
        103.8370703,
        1.3115812
      ],
      [
        103.8365906,
        1.3112661
      ],
      [
        103.8365404,
        1.3112327
      ],
      [
        103.8362154,
        1.311016
      ],
      [
        103.8357473,
        1.310704
      ],
      [
        103.835604,
        1.3106084
      ],
      [
        103.8355211,
        1.3105624
      ],
      [
        103.8350818,
        1.3103058
      ],
      [
        103.834848,
        1.3101692
      ],
      [
        103.8344212,
        1.3099136
      ],
      [
        103.8342904,
        1.3098073
      ],
      [
        103.8339908,
        1.3094131
      ],
      [
        103.833931,
        1.309284
      ],
      [
        103.8338456,
        1.3090788
      ],
      [
        103.8337827,
        1.3089412
      ],
      [
        103.833654,
        1.3086384
      ],
      [
        103.8334183,
        1.3080989
      ],
      [
        103.8333922,
        1.308036
      ],
      [
        103.8333186,
        1.3078575
      ],
      [
        103.833056,
        1.3072314
      ],
      [
        103.8330161,
        1.3071363
      ],
      [
        103.8329732,
        1.307034
      ],
      [
        103.8329194,
        1.3069058
      ],
      [
        103.8326052,
        1.3061951
      ],
      [
        103.8324939,
        1.3059591
      ],
      [
        103.8324142,
        1.305792
      ],
      [
        103.8323845,
        1.3057342
      ],
      [
        103.8323388,
        1.3056564
      ],
      [
        103.8322287,
        1.3054926
      ],
      [
        103.8321501,
        1.305233
      ],
      [
        103.8321361,
        1.3051408
      ],
      [
        103.8321291,
        1.3050556
      ],
      [
        103.8321373,
        1.3049879
      ],
      [
        103.8321688,
        1.3049132
      ],
      [
        103.8322688,
        1.3048036
      ],
      [
        103.8322866,
        1.3047841
      ],
      [
        103.8323264,
        1.3047617
      ],
      [
        103.8324948,
        1.3046666
      ],
      [
        103.8325992,
        1.304608
      ],
      [
        103.8329914,
        1.3043877
      ],
      [
        103.8332644,
        1.3042467
      ],
      [
        103.8337941,
        1.3039729
      ],
      [
        103.8341395,
        1.3037979
      ],
      [
        103.8342408,
        1.3037465
      ],
      [
        103.8343481,
        1.3036921
      ],
      [
        103.8343779,
        1.303677
      ],
      [
        103.8346182,
        1.3035484
      ],
      [
        103.8347183,
        1.3034936
      ],
      [
        103.8351571,
        1.3032537
      ],
      [
        103.8357661,
        1.3029095
      ],
      [
        103.8358887,
        1.3028412
      ],
      [
        103.8359878,
        1.302781
      ],
      [
        103.8359941,
        1.3027776
      ],
      [
        103.8361317,
        1.3027055
      ],
      [
        103.8361674,
        1.3026855
      ],
      [
        103.836584,
        1.3024526
      ],
      [
        103.8373803,
        1.3020054
      ],
      [
        103.8374798,
        1.3019496
      ],
      [
        103.8375571,
        1.3019062
      ],
      [
        103.8377859,
        1.3017933
      ],
      [
        103.8379684,
        1.3017149
      ],
      [
        103.8381377,
        1.3016407
      ],
      [
        103.8387816,
        1.3013408
      ],
      [
        103.8388956,
        1.3012973
      ],
      [
        103.8389486,
        1.3012785
      ],
      [
        103.8395454,
        1.3010774
      ],
      [
        103.8398974,
        1.3009661
      ],
      [
        103.8400133,
        1.3009327
      ],
      [
        103.8405638,
        1.3007732
      ],
      [
        103.8406704,
        1.3007427
      ],
      [
        103.841123,
        1.3005966
      ],
      [
        103.8412588,
        1.3005494
      ],
      [
        103.8419492,
        1.3003426
      ],
      [
        103.8428421,
        1.3000755
      ],
      [
        103.8428649,
        1.3000691
      ],
      [
        103.8429499,
        1.3000417
      ],
      [
        103.8431335,
        1.2999773
      ],
      [
        103.8435446,
        1.2998446
      ],
      [
        103.8436685,
        1.2998015
      ],
      [
        103.8438222,
        1.299748
      ],
      [
        103.8439846,
        1.2996931
      ],
      [
        103.8442578,
        1.2996008
      ],
      [
        103.844592,
        1.2994879
      ],
      [
        103.8447131,
        1.2993673
      ],
      [
        103.8447413,
        1.2993169
      ],
      [
        103.8447482,
        1.2992909
      ],
      [
        103.8447528,
        1.2992429
      ],
      [
        103.8447499,
        1.2992246
      ],
      [
        103.8447394,
        1.2991585
      ],
      [
        103.8446607,
        1.298955
      ],
      [
        103.8445311,
        1.2986201
      ],
      [
        103.844475,
        1.2984751
      ],
      [
        103.8443111,
        1.2985359
      ],
      [
        103.8441591,
        1.2985922
      ],
      [
        103.8441285,
        1.2985832
      ],
      [
        103.8439662,
        1.2985932
      ],
      [
        103.8439138,
        1.298571
      ],
      [
        103.8438593,
        1.2985274
      ],
      [
        103.8438303,
        1.2984826
      ],
      [
        103.8438065,
        1.2984389
      ],
      [
        103.8437982,
        1.2983885
      ],
      [
        103.8438128,
        1.2981529
      ],
      [
        103.8438235,
        1.2979816
      ],
      [
        103.8438328,
        1.2978254
      ],
      [
        103.8438503,
        1.2975592
      ],
      [
        103.8438637,
        1.297326
      ],
      [
        103.8438718,
        1.2971597
      ],
      [
        103.8439014,
        1.2968199
      ],
      [
        103.8439276,
        1.296562
      ],
      [
        103.8440499,
        1.2956013
      ],
      [
        103.8440854,
        1.2953215
      ],
      [
        103.8441215,
        1.2950074
      ],
      [
        103.8441247,
        1.2949792
      ],
      [
        103.8441548,
        1.2947329
      ],
      [
        103.8442031,
        1.2943112
      ],
      [
        103.8442065,
        1.2942239
      ],
      [
        103.8442085,
        1.2941711
      ],
      [
        103.8442038,
        1.2941226
      ],
      [
        103.8441909,
        1.2939891
      ],
      [
        103.8441668,
        1.2938091
      ],
      [
        103.8441145,
        1.2936362
      ],
      [
        103.8441062,
        1.2936134
      ],
      [
        103.8440364,
        1.2934689
      ],
      [
        103.8438439,
        1.2931073
      ],
      [
        103.8437991,
        1.2930385
      ],
      [
        103.8437449,
        1.2929362
      ],
      [
        103.8437117,
        1.2928794
      ],
      [
        103.8430337,
        1.2917161
      ],
      [
        103.842819,
        1.2913046
      ],
      [
        103.8427489,
        1.2911707
      ],
      [
        103.8427032,
        1.2910831
      ],
      [
        103.8423389,
        1.2904112
      ],
      [
        103.84231,
        1.2903596
      ],
      [
        103.8421957,
        1.2901454
      ],
      [
        103.8421461,
        1.2900294
      ],
      [
        103.8420649,
        1.2898466
      ],
      [
        103.841767,
        1.2893013
      ],
      [
        103.841683,
        1.2891492
      ],
      [
        103.8415106,
        1.2888478
      ],
      [
        103.8415179,
        1.2887109
      ],
      [
        103.8415295,
        1.2886241
      ],
      [
        103.8415453,
        1.2885615
      ],
      [
        103.8416021,
        1.2884388
      ],
      [
        103.8416566,
        1.288406
      ],
      [
        103.8417699,
        1.2883365
      ],
      [
        103.8420881,
        1.2881484
      ],
      [
        103.8421646,
        1.2881122
      ],
      [
        103.8422638,
        1.2880747
      ],
      [
        103.8423754,
        1.2880378
      ],
      [
        103.8423979,
        1.2880304
      ],
      [
        103.8425428,
        1.2879969
      ],
      [
        103.8425669,
        1.2879921
      ],
      [
        103.8427363,
        1.2879584
      ],
      [
        103.8428217,
        1.2879366
      ],
      [
        103.8429062,
        1.2879151
      ],
      [
        103.8429853,
        1.2878843
      ],
      [
        103.843043,
        1.2878615
      ],
      [
        103.8431288,
        1.2878239
      ],
      [
        103.8432334,
        1.2877583
      ],
      [
        103.8434705,
        1.2876228
      ],
      [
        103.8435,
        1.287606
      ],
      [
        103.8435752,
        1.2875585
      ],
      [
        103.8435925,
        1.2875463
      ],
      [
        103.8438571,
        1.2873594
      ],
      [
        103.8442979,
        1.287114
      ],
      [
        103.844519,
        1.2869758
      ],
      [
        103.8448641,
        1.2867631
      ],
      [
        103.8449411,
        1.2867159
      ],
      [
        103.8451287,
        1.2865976
      ],
      [
        103.8452109,
        1.2865509
      ],
      [
        103.8453734,
        1.2864503
      ],
      [
        103.8452986,
        1.2863606
      ],
      [
        103.8451925,
        1.2862278
      ],
      [
        103.8450553,
        1.286056
      ],
      [
        103.8448139,
        1.2857773
      ],
      [
        103.8447149,
        1.2856634
      ],
      [
        103.8445171,
        1.285424
      ],
      [
        103.844474,
        1.2853697
      ],
      [
        103.8441884,
        1.2850626
      ],
      [
        103.844041,
        1.2848916
      ],
      [
        103.8439798,
        1.2848055
      ],
      [
        103.8438788,
        1.2846779
      ],
      [
        103.8436784,
        1.2844355
      ],
      [
        103.8436168,
        1.2843631
      ],
      [
        103.8433167,
        1.2840131
      ],
      [
        103.8432633,
        1.2839475
      ],
      [
        103.8432298,
        1.2839081
      ],
      [
        103.8429491,
        1.283578
      ],
      [
        103.8427006,
        1.283286
      ],
      [
        103.8426141,
        1.2831793
      ],
      [
        103.8425474,
        1.2830949
      ],
      [
        103.8423006,
        1.2828
      ],
      [
        103.8421034,
        1.2825578
      ],
      [
        103.8417113,
        1.2820654
      ],
      [
        103.8416494,
        1.2820003
      ],
      [
        103.841603,
        1.281947
      ],
      [
        103.8413927,
        1.281683
      ],
      [
        103.8413544,
        1.2816357
      ],
      [
        103.8411238,
        1.2813545
      ],
      [
        103.8409135,
        1.2811041
      ],
      [
        103.8407576,
        1.2809079
      ],
      [
        103.8405299,
        1.2806243
      ],
      [
        103.8404366,
        1.2805177
      ],
      [
        103.8401958,
        1.2802513
      ],
      [
        103.8399965,
        1.2800211
      ],
      [
        103.839806,
        1.2797886
      ],
      [
        103.8397222,
        1.279693
      ],
      [
        103.839617,
        1.2795569
      ],
      [
        103.8395463,
        1.2794703
      ],
      [
        103.8393853,
        1.2792734
      ],
      [
        103.839199,
        1.2790741
      ],
      [
        103.8390547,
        1.2789286
      ],
      [
        103.8389028,
        1.2788114
      ],
      [
        103.8386539,
        1.278636
      ],
      [
        103.8383678,
        1.2784553
      ],
      [
        103.8380101,
        1.2782389
      ],
      [
        103.8375833,
        1.2779662
      ],
      [
        103.8371347,
        1.2776943
      ],
      [
        103.836988,
        1.2775973
      ],
      [
        103.8367627,
        1.2774547
      ],
      [
        103.8366716,
        1.2773767
      ],
      [
        103.8366357,
        1.277349
      ],
      [
        103.8365,
        1.2772363
      ],
      [
        103.8362871,
        1.2770355
      ],
      [
        103.8356615,
        1.2764642
      ],
      [
        103.8356005,
        1.27641
      ],
      [
        103.8353151,
        1.2761994
      ],
      [
        103.835292,
        1.2761888
      ],
      [
        103.835161,
        1.2761283
      ],
      [
        103.8349942,
        1.2760804
      ],
      [
        103.8348351,
        1.2760552
      ],
      [
        103.8347298,
        1.2760475
      ],
      [
        103.8346639,
        1.2760475
      ],
      [
        103.8345893,
        1.276053
      ],
      [
        103.8345059,
        1.2760651
      ],
      [
        103.8341821,
        1.2761707
      ],
      [
        103.8339766,
        1.2762028
      ],
      [
        103.8338913,
        1.2762246
      ],
      [
        103.8336713,
        1.276282
      ],
      [
        103.8335246,
        1.2763137
      ],
      [
        103.8333256,
        1.2763479
      ],
      [
        103.8332276,
        1.2763423
      ],
      [
        103.8331342,
        1.2763142
      ],
      [
        103.8330129,
        1.2762954
      ],
      [
        103.8328245,
        1.2762832
      ],
      [
        103.8324642,
        1.2762693
      ],
      [
        103.8322657,
        1.2762688
      ],
      [
        103.8319932,
        1.2762537
      ],
      [
        103.8319253,
        1.2762436
      ],
      [
        103.8318539,
        1.2762292
      ],
      [
        103.8317678,
        1.276216
      ],
      [
        103.8316663,
        1.2762019
      ],
      [
        103.8315388,
        1.2761827
      ],
      [
        103.8313096,
        1.2761471
      ],
      [
        103.8307397,
        1.2760751
      ],
      [
        103.8306179,
        1.2760515
      ],
      [
        103.8304949,
        1.2760243
      ],
      [
        103.8301259,
        1.2759606
      ],
      [
        103.8299903,
        1.2759175
      ],
      [
        103.8298666,
        1.2758557
      ],
      [
        103.829772,
        1.2757953
      ],
      [
        103.829665,
        1.2757171
      ],
      [
        103.8295806,
        1.2756212
      ],
      [
        103.829482,
        1.2755049
      ],
      [
        103.8289763,
        1.2749065
      ],
      [
        103.8289011,
        1.2748383
      ],
      [
        103.8287733,
        1.2746689
      ],
      [
        103.8287275,
        1.2745996
      ],
      [
        103.828706,
        1.2745437
      ],
      [
        103.8286866,
        1.2744971
      ],
      [
        103.8286697,
        1.2744195
      ],
      [
        103.8286563,
        1.2743619
      ],
      [
        103.8286555,
        1.2743328
      ],
      [
        103.8286562,
        1.274309
      ],
      [
        103.8286588,
        1.2742846
      ],
      [
        103.8286986,
        1.274107
      ],
      [
        103.8287124,
        1.2740451
      ],
      [
        103.8287964,
        1.2738113
      ],
      [
        103.8288139,
        1.2737556
      ],
      [
        103.8288547,
        1.2736466
      ],
      [
        103.8288824,
        1.2735658
      ],
      [
        103.828909,
        1.273451
      ],
      [
        103.8289153,
        1.2733638
      ],
      [
        103.8289209,
        1.2732991
      ],
      [
        103.8289213,
        1.2732447
      ],
      [
        103.8289164,
        1.2731891
      ],
      [
        103.8288957,
        1.2731184
      ],
      [
        103.8288143,
        1.2729416
      ],
      [
        103.8287409,
        1.2728491
      ],
      [
        103.8286165,
        1.2727343
      ],
      [
        103.8283759,
        1.2725185
      ],
      [
        103.8283021,
        1.2724523
      ],
      [
        103.8279185,
        1.2721411
      ],
      [
        103.8278414,
        1.272076
      ],
      [
        103.8278001,
        1.2720364
      ],
      [
        103.8275543,
        1.2718009
      ],
      [
        103.8269549,
        1.2712778
      ],
      [
        103.8266162,
        1.2710065
      ],
      [
        103.8265438,
        1.2709501
      ],
      [
        103.8264386,
        1.2708864
      ],
      [
        103.8263427,
        1.2708377
      ],
      [
        103.8262327,
        1.270776
      ],
      [
        103.8259763,
        1.2706608
      ],
      [
        103.8257876,
        1.270589
      ],
      [
        103.8256186,
        1.2704908
      ],
      [
        103.8255453,
        1.2704328
      ],
      [
        103.8255243,
        1.2704072
      ],
      [
        103.8254776,
        1.2703637
      ],
      [
        103.8254181,
        1.2702794
      ],
      [
        103.8253725,
        1.2701882
      ],
      [
        103.8253435,
        1.2701149
      ],
      [
        103.8253041,
        1.2700008
      ],
      [
        103.8252709,
        1.2695931
      ],
      [
        103.8252722,
        1.2694292
      ],
      [
        103.8252778,
        1.269354
      ],
      [
        103.8252889,
        1.2692476
      ],
      [
        103.8253046,
        1.2691091
      ],
      [
        103.8253124,
        1.269061
      ],
      [
        103.8253281,
        1.26899
      ],
      [
        103.8253658,
        1.2688528
      ],
      [
        103.825438,
        1.2686517
      ],
      [
        103.8255836,
        1.2683577
      ],
      [
        103.8258028,
        1.2679818
      ],
      [
        103.8259091,
        1.2677962
      ],
      [
        103.8259895,
        1.2676634
      ],
      [
        103.8260485,
        1.2675652
      ],
      [
        103.8261123,
        1.2674689
      ],
      [
        103.8261406,
        1.2674262
      ],
      [
        103.8261714,
        1.2673797
      ],
      [
        103.8262441,
        1.26727
      ],
      [
        103.8263096,
        1.2671878
      ],
      [
        103.8263333,
        1.2671581
      ],
      [
        103.8266239,
        1.2668569
      ],
      [
        103.8265039,
        1.2667581
      ],
      [
        103.826454,
        1.2667177
      ],
      [
        103.8261142,
        1.2664532
      ],
      [
        103.8258826,
        1.2662734
      ],
      [
        103.8256933,
        1.2661315
      ],
      [
        103.8255903,
        1.2660622
      ],
      [
        103.8254601,
        1.2659828
      ],
      [
        103.8253476,
        1.2659251
      ],
      [
        103.8252205,
        1.2658775
      ],
      [
        103.8250294,
        1.2658196
      ],
      [
        103.8250017,
        1.2658117
      ],
      [
        103.8249449,
        1.265797
      ],
      [
        103.8248963,
        1.265782
      ],
      [
        103.824821,
        1.2657664
      ],
      [
        103.8247363,
        1.2657514
      ],
      [
        103.8240842,
        1.2656854
      ],
      [
        103.8238721,
        1.2656726
      ],
      [
        103.8237364,
        1.2656629
      ],
      [
        103.8236512,
        1.26566
      ],
      [
        103.8234631,
        1.2656537
      ],
      [
        103.8231396,
        1.2656364
      ],
      [
        103.8228403,
        1.2656187
      ],
      [
        103.8223877,
        1.2655941
      ],
      [
        103.8218237,
        1.2655636
      ],
      [
        103.8214414,
        1.265544
      ],
      [
        103.8213729,
        1.2655402
      ],
      [
        103.8213564,
        1.2655393
      ],
      [
        103.8209473,
        1.2655297
      ],
      [
        103.8208436,
        1.2655305
      ],
      [
        103.8207371,
        1.2655315
      ],
      [
        103.8206881,
        1.2655321
      ],
      [
        103.8204346,
        1.2655479
      ],
      [
        103.820259,
        1.2655697
      ],
      [
        103.8201036,
        1.2656049
      ],
      [
        103.8200556,
        1.2656177
      ],
      [
        103.8199563,
        1.2656443
      ],
      [
        103.8196811,
        1.2657397
      ],
      [
        103.8195664,
        1.2657846
      ],
      [
        103.8193218,
        1.2659046
      ],
      [
        103.8191927,
        1.26598
      ],
      [
        103.8189554,
        1.266137
      ],
      [
        103.8186964,
        1.2663111
      ],
      [
        103.8184396,
        1.2664852
      ],
      [
        103.818364,
        1.2665423
      ],
      [
        103.8182929,
        1.2665894
      ],
      [
        103.8181949,
        1.2666545
      ],
      [
        103.8177632,
        1.2669119
      ],
      [
        103.8177115,
        1.2669388
      ],
      [
        103.8172631,
        1.2671984
      ],
      [
        103.8162983,
        1.2677798
      ],
      [
        103.8162293,
        1.2678185
      ],
      [
        103.8161848,
        1.2678435
      ],
      [
        103.8158809,
        1.2680062
      ],
      [
        103.8153673,
        1.2682742
      ],
      [
        103.8148257,
        1.2685518
      ],
      [
        103.8145566,
        1.2686992
      ],
      [
        103.8140104,
        1.2690395
      ],
      [
        103.8134324,
        1.2694258
      ],
      [
        103.8132904,
        1.2695081
      ],
      [
        103.8131718,
        1.2695883
      ],
      [
        103.8127423,
        1.2698888
      ],
      [
        103.8124088,
        1.2701097
      ],
      [
        103.8121882,
        1.2702514
      ],
      [
        103.8121413,
        1.270279
      ],
      [
        103.8116494,
        1.2705755
      ],
      [
        103.8113238,
        1.2707011
      ],
      [
        103.8112381,
        1.2707389
      ],
      [
        103.8111409,
        1.2707631
      ],
      [
        103.8108932,
        1.2707904
      ],
      [
        103.8106155,
        1.270821
      ],
      [
        103.8101539,
        1.2708491
      ],
      [
        103.8100945,
        1.2708527
      ],
      [
        103.8098401,
        1.2708646
      ],
      [
        103.8093407,
        1.2708927
      ],
      [
        103.8091832,
        1.2709016
      ],
      [
        103.8091771,
        1.2709019
      ],
      [
        103.8087413,
        1.2709531
      ],
      [
        103.8084602,
        1.2709877
      ],
      [
        103.8082305,
        1.2710159
      ],
      [
        103.8081185,
        1.2710325
      ],
      [
        103.807918,
        1.2710727
      ],
      [
        103.8073883,
        1.2711812
      ],
      [
        103.8068778,
        1.2713696
      ],
      [
        103.8065343,
        1.2715143
      ],
      [
        103.8060986,
        1.2716899
      ],
      [
        103.8055097,
        1.2719273
      ],
      [
        103.8046083,
        1.2722703
      ],
      [
        103.8041513,
        1.2723969
      ],
      [
        103.8038838,
        1.2724424
      ],
      [
        103.8033891,
        1.2724951
      ],
      [
        103.8028526,
        1.2725318
      ],
      [
        103.8027603,
        1.2725338
      ],
      [
        103.8024188,
        1.2725519
      ],
      [
        103.8023064,
        1.2725626
      ],
      [
        103.8022235,
        1.272566
      ],
      [
        103.802123,
        1.272573
      ],
      [
        103.8020032,
        1.2725848
      ],
      [
        103.8018643,
        1.2725988
      ],
      [
        103.801761,
        1.272621
      ],
      [
        103.8014953,
        1.2726749
      ],
      [
        103.8014508,
        1.2726822
      ],
      [
        103.8009516,
        1.2728728
      ],
      [
        103.8006309,
        1.2730113
      ],
      [
        103.8000483,
        1.2733016
      ],
      [
        103.8000228,
        1.2733143
      ],
      [
        103.7999638,
        1.2733378
      ],
      [
        103.7999043,
        1.2733642
      ],
      [
        103.7997361,
        1.2734388
      ],
      [
        103.7992425,
        1.2736386
      ],
      [
        103.7990932,
        1.2737074
      ],
      [
        103.7988775,
        1.2737956
      ],
      [
        103.7986072,
        1.2738902
      ],
      [
        103.7984399,
        1.2739488
      ],
      [
        103.7978918,
        1.2741357
      ],
      [
        103.7975986,
        1.2742254
      ],
      [
        103.7975286,
        1.2742468
      ],
      [
        103.7972859,
        1.2743211
      ],
      [
        103.7967833,
        1.2744852
      ],
      [
        103.796369,
        1.2746164
      ],
      [
        103.7963324,
        1.2746289
      ],
      [
        103.7956552,
        1.27486
      ],
      [
        103.7956162,
        1.2748736
      ],
      [
        103.7950468,
        1.2750722
      ],
      [
        103.7950172,
        1.2750825
      ],
      [
        103.7949709,
        1.2750985
      ],
      [
        103.7947827,
        1.2751649
      ],
      [
        103.7947524,
        1.2751761
      ],
      [
        103.7946037,
        1.2752251
      ],
      [
        103.794329,
        1.2753212
      ],
      [
        103.7940805,
        1.2754082
      ],
      [
        103.7939466,
        1.2754591
      ],
      [
        103.7934259,
        1.2756373
      ],
      [
        103.7931271,
        1.2757383
      ],
      [
        103.7927251,
        1.2758758
      ],
      [
        103.7926888,
        1.2758882
      ],
      [
        103.7918105,
        1.2761886
      ],
      [
        103.7917836,
        1.2761979
      ],
      [
        103.7915155,
        1.2762901
      ],
      [
        103.7914163,
        1.2763243
      ],
      [
        103.7909852,
        1.2764735
      ],
      [
        103.7908619,
        1.2765175
      ],
      [
        103.7907925,
        1.2765417
      ],
      [
        103.790615,
        1.2766014
      ],
      [
        103.790349,
        1.2766903
      ],
      [
        103.7898865,
        1.2768446
      ],
      [
        103.7895345,
        1.2769643
      ],
      [
        103.7876361,
        1.2776192
      ],
      [
        103.7870751,
        1.2777994
      ],
      [
        103.7865985,
        1.2779583
      ],
      [
        103.7865428,
        1.2779793
      ],
      [
        103.7859703,
        1.2781727
      ],
      [
        103.7858582,
        1.27821
      ],
      [
        103.7858033,
        1.2783168
      ],
      [
        103.7858011,
        1.2784805
      ],
      [
        103.7858073,
        1.2785463
      ],
      [
        103.785818,
        1.2786607
      ],
      [
        103.7858013,
        1.2787449
      ],
      [
        103.7857709,
        1.278831
      ],
      [
        103.7857609,
        1.2788603
      ],
      [
        103.7857493,
        1.2788936
      ],
      [
        103.7857429,
        1.2789118
      ],
      [
        103.7857256,
        1.2789631
      ],
      [
        103.7856876,
        1.2790864
      ],
      [
        103.7855596,
        1.2794912
      ],
      [
        103.7855047,
        1.2796636
      ],
      [
        103.7854744,
        1.2797647
      ],
      [
        103.7854606,
        1.2798648
      ],
      [
        103.7853265,
        1.2801975
      ],
      [
        103.7853138,
        1.2802316
      ],
      [
        103.7852893,
        1.2803
      ],
      [
        103.7852609,
        1.2803808
      ],
      [
        103.7851925,
        1.2805394
      ],
      [
        103.7850779,
        1.2807262
      ],
      [
        103.7850339,
        1.2807717
      ],
      [
        103.7849701,
        1.2808284
      ],
      [
        103.7849062,
        1.2808844
      ],
      [
        103.7847851,
        1.280964
      ],
      [
        103.7845989,
        1.2810855
      ],
      [
        103.784414,
        1.2812033
      ],
      [
        103.784368,
        1.2812348
      ],
      [
        103.7843183,
        1.2812673
      ],
      [
        103.7841977,
        1.2813395
      ],
      [
        103.7839927,
        1.2814887
      ],
      [
        103.7837539,
        1.2816469
      ],
      [
        103.7836204,
        1.2817381
      ],
      [
        103.7834858,
        1.2818265
      ],
      [
        103.7833307,
        1.2819362
      ],
      [
        103.7832667,
        1.2819799
      ],
      [
        103.7830877,
        1.2821023
      ],
      [
        103.7828038,
        1.2822867
      ],
      [
        103.7827318,
        1.2822876
      ],
      [
        103.7826316,
        1.2823435
      ],
      [
        103.7823577,
        1.2824947
      ],
      [
        103.7822469,
        1.2825736
      ],
      [
        103.7819594,
        1.2827806
      ],
      [
        103.7818465,
        1.2828734
      ],
      [
        103.7817771,
        1.2829363
      ],
      [
        103.7817236,
        1.2829889
      ],
      [
        103.7816431,
        1.2830805
      ],
      [
        103.7815535,
        1.2831769
      ],
      [
        103.7814538,
        1.2833129
      ],
      [
        103.7812449,
        1.2835767
      ],
      [
        103.7811342,
        1.2837096
      ],
      [
        103.7811116,
        1.2837368
      ],
      [
        103.7808012,
        1.2841473
      ],
      [
        103.7807493,
        1.2842581
      ],
      [
        103.7807392,
        1.2843304
      ],
      [
        103.7807437,
        1.2844073
      ],
      [
        103.7807569,
        1.2844542
      ],
      [
        103.780871,
        1.2846093
      ],
      [
        103.7809009,
        1.2846504
      ],
      [
        103.7809392,
        1.2847019
      ],
      [
        103.7809587,
        1.2847532
      ],
      [
        103.780964,
        1.2848001
      ],
      [
        103.780956,
        1.2848629
      ],
      [
        103.7809465,
        1.2848987
      ],
      [
        103.780933,
        1.2849496
      ],
      [
        103.7808684,
        1.2850991
      ],
      [
        103.7806658,
        1.2854617
      ],
      [
        103.7805428,
        1.2856369
      ],
      [
        103.7804074,
        1.2858032
      ],
      [
        103.7797542,
        1.2864617
      ],
      [
        103.7796898,
        1.2865266
      ],
      [
        103.7795323,
        1.2866823
      ],
      [
        103.7793647,
        1.2868412
      ],
      [
        103.7791863,
        1.2870503
      ],
      [
        103.7790294,
        1.2872836
      ],
      [
        103.7786363,
        1.2878846
      ],
      [
        103.7785687,
        1.2879879
      ],
      [
        103.7782921,
        1.2884425
      ],
      [
        103.7782114,
        1.2885524
      ],
      [
        103.7781892,
        1.2885826
      ],
      [
        103.7780899,
        1.2886554
      ],
      [
        103.7780579,
        1.2886834
      ],
      [
        103.7779992,
        1.2887304
      ],
      [
        103.7779571,
        1.2887626
      ],
      [
        103.7779315,
        1.2887825
      ],
      [
        103.777796,
        1.2888882
      ],
      [
        103.7777155,
        1.2889354
      ],
      [
        103.7776865,
        1.2889524
      ],
      [
        103.7776674,
        1.2889636
      ],
      [
        103.7775162,
        1.2890286
      ],
      [
        103.7774213,
        1.289059
      ],
      [
        103.7771725,
        1.2891386
      ],
      [
        103.7770644,
        1.2891732
      ],
      [
        103.7768234,
        1.2892557
      ],
      [
        103.7767592,
        1.2892777
      ],
      [
        103.7764221,
        1.2893989
      ],
      [
        103.7762889,
        1.2894467
      ],
      [
        103.7762016,
        1.2894781
      ],
      [
        103.7760474,
        1.2895335
      ],
      [
        103.7759242,
        1.2895778
      ],
      [
        103.7759003,
        1.2895864
      ],
      [
        103.7758709,
        1.2895968
      ],
      [
        103.775699,
        1.2896577
      ],
      [
        103.7755839,
        1.2896954
      ],
      [
        103.775537,
        1.2897107
      ],
      [
        103.7755219,
        1.2897157
      ],
      [
        103.7753237,
        1.2897903
      ],
      [
        103.7753055,
        1.2897972
      ],
      [
        103.7751334,
        1.2898608
      ],
      [
        103.7748936,
        1.2899493
      ],
      [
        103.7747891,
        1.289988
      ],
      [
        103.7747313,
        1.2900093
      ],
      [
        103.7746956,
        1.2900229
      ],
      [
        103.7745945,
        1.2900614
      ],
      [
        103.7744742,
        1.2901071
      ],
      [
        103.7744172,
        1.2901288
      ],
      [
        103.7741528,
        1.2902552
      ],
      [
        103.7741023,
        1.2902793
      ],
      [
        103.7740648,
        1.2902986
      ],
      [
        103.7738328,
        1.2904181
      ],
      [
        103.773704,
        1.2904844
      ],
      [
        103.7736275,
        1.2905238
      ],
      [
        103.7734288,
        1.2906248
      ],
      [
        103.7733856,
        1.2906429
      ],
      [
        103.7733551,
        1.2906552
      ],
      [
        103.7730722,
        1.2907555
      ],
      [
        103.772867,
        1.2908165
      ],
      [
        103.7727789,
        1.2908433
      ],
      [
        103.7726194,
        1.2908918
      ],
      [
        103.772505,
        1.2909266
      ],
      [
        103.772308,
        1.2909866
      ],
      [
        103.7720342,
        1.2910699
      ],
      [
        103.7715185,
        1.2912066
      ],
      [
        103.7713851,
        1.2912362
      ],
      [
        103.7709336,
        1.2913589
      ],
      [
        103.7708705,
        1.2913761
      ],
      [
        103.7708406,
        1.2913848
      ],
      [
        103.7708035,
        1.2913956
      ],
      [
        103.7706635,
        1.2914327
      ],
      [
        103.7697407,
        1.291684
      ],
      [
        103.7696652,
        1.2917033
      ],
      [
        103.7694998,
        1.2917428
      ],
      [
        103.7694346,
        1.2917623
      ],
      [
        103.7690488,
        1.2918872
      ],
      [
        103.7690402,
        1.2918901
      ],
      [
        103.7687974,
        1.2919728
      ],
      [
        103.7685915,
        1.2920468
      ],
      [
        103.7684308,
        1.292122
      ],
      [
        103.7682093,
        1.2922321
      ],
      [
        103.7681586,
        1.2922625
      ],
      [
        103.768085,
        1.2923066
      ],
      [
        103.7680415,
        1.2923327
      ],
      [
        103.7679141,
        1.2924408
      ],
      [
        103.7678651,
        1.2924954
      ],
      [
        103.7677626,
        1.2925845
      ],
      [
        103.7673909,
        1.2929523
      ],
      [
        103.7673246,
        1.2930179
      ],
      [
        103.767265,
        1.2930733
      ],
      [
        103.7670489,
        1.2933101
      ],
      [
        103.7669983,
        1.2934109
      ],
      [
        103.7669476,
        1.29354
      ],
      [
        103.7669365,
        1.2935956
      ],
      [
        103.7668998,
        1.2937805
      ],
      [
        103.7668662,
        1.2941286
      ],
      [
        103.7668647,
        1.2941446
      ],
      [
        103.7668611,
        1.2941897
      ],
      [
        103.7668472,
        1.2943629
      ],
      [
        103.7668412,
        1.2944334
      ],
      [
        103.7668287,
        1.2945787
      ],
      [
        103.7668061,
        1.2948285
      ],
      [
        103.7668035,
        1.2950364
      ],
      [
        103.7668026,
        1.2952503
      ],
      [
        103.7668222,
        1.2955574
      ],
      [
        103.7668694,
        1.2958912
      ],
      [
        103.7669144,
        1.2962761
      ],
      [
        103.7669235,
        1.2963542
      ],
      [
        103.767002,
        1.2970517
      ],
      [
        103.7670111,
        1.2971476
      ],
      [
        103.7670184,
        1.2972246
      ],
      [
        103.7670525,
        1.2975149
      ],
      [
        103.7670741,
        1.2977349
      ],
      [
        103.7670975,
        1.2980019
      ],
      [
        103.7670989,
        1.2982189
      ],
      [
        103.7670875,
        1.2983396
      ],
      [
        103.7670681,
        1.298485
      ],
      [
        103.7670406,
        1.2985956
      ],
      [
        103.7670057,
        1.2987163
      ],
      [
        103.7669809,
        1.2987968
      ],
      [
        103.7669393,
        1.298896
      ],
      [
        103.766879,
        1.2990347
      ],
      [
        103.7668307,
        1.299148
      ],
      [
        103.7667785,
        1.299262
      ],
      [
        103.7666961,
        1.2994658
      ],
      [
        103.7665316,
        1.2998452
      ],
      [
        103.7665265,
        1.2998585
      ],
      [
        103.7664867,
        1.2999637
      ],
      [
        103.7664578,
        1.3000338
      ],
      [
        103.7664254,
        1.3001133
      ],
      [
        103.766291,
        1.3004431
      ],
      [
        103.7662323,
        1.3005873
      ],
      [
        103.7660653,
        1.3009994
      ],
      [
        103.765916,
        1.3013632
      ],
      [
        103.7656429,
        1.3019934
      ],
      [
        103.7655827,
        1.302174
      ],
      [
        103.7655112,
        1.3023578
      ],
      [
        103.7654703,
        1.3024572
      ],
      [
        103.7654289,
        1.3025519
      ],
      [
        103.7653661,
        1.3026912
      ],
      [
        103.7652715,
        1.3028791
      ],
      [
        103.7651236,
        1.3031936
      ],
      [
        103.7650861,
        1.3032752
      ],
      [
        103.765043,
        1.3033692
      ],
      [
        103.7649237,
        1.3036292
      ],
      [
        103.7648139,
        1.3038799
      ],
      [
        103.764668,
        1.304176
      ],
      [
        103.7646479,
        1.3042197
      ],
      [
        103.7645803,
        1.3043573
      ],
      [
        103.7645508,
        1.3044172
      ],
      [
        103.7643695,
        1.3048361
      ],
      [
        103.764201,
        1.3051951
      ],
      [
        103.7639749,
        1.305635
      ],
      [
        103.763832,
        1.3059095
      ],
      [
        103.7637057,
        1.3060926
      ],
      [
        103.7636229,
        1.3062035
      ],
      [
        103.7634361,
        1.3064067
      ],
      [
        103.7633806,
        1.3064695
      ],
      [
        103.7633267,
        1.306515
      ],
      [
        103.7632842,
        1.306558
      ],
      [
        103.7631045,
        1.3067194
      ],
      [
        103.7629739,
        1.3068337
      ],
      [
        103.7627929,
        1.3069895
      ],
      [
        103.7626775,
        1.3070889
      ],
      [
        103.7623867,
        1.3073425
      ],
      [
        103.7623059,
        1.307413
      ],
      [
        103.7621593,
        1.3075403
      ],
      [
        103.7620419,
        1.3076422
      ],
      [
        103.7614519,
        1.3081733
      ],
      [
        103.7612426,
        1.3083651
      ],
      [
        103.7610837,
        1.3085049
      ],
      [
        103.761029,
        1.3085507
      ],
      [
        103.7607949,
        1.3087618
      ],
      [
        103.7606483,
        1.3088796
      ],
      [
        103.7604666,
        1.3090411
      ],
      [
        103.7601455,
        1.3093018
      ],
      [
        103.7599577,
        1.3094663
      ],
      [
        103.7593125,
        1.310039
      ],
      [
        103.7592307,
        1.3101074
      ],
      [
        103.7591563,
        1.3101709
      ],
      [
        103.7591243,
        1.3101983
      ],
      [
        103.7590604,
        1.3102478
      ],
      [
        103.758993,
        1.3103049
      ],
      [
        103.7587289,
        1.3105287
      ],
      [
        103.7584019,
        1.3108019
      ],
      [
        103.7582865,
        1.310881
      ],
      [
        103.758174,
        1.3109387
      ],
      [
        103.758088,
        1.3109802
      ],
      [
        103.7578654,
        1.3110244
      ],
      [
        103.7576991,
        1.3110298
      ],
      [
        103.7575449,
        1.3110111
      ],
      [
        103.7573934,
        1.3109708
      ],
      [
        103.7572633,
        1.3109105
      ],
      [
        103.7571546,
        1.3108475
      ],
      [
        103.7570406,
        1.3107724
      ],
      [
        103.7569179,
        1.3106825
      ],
      [
        103.7568548,
        1.3106398
      ],
      [
        103.7566005,
        1.3104707
      ],
      [
        103.7565483,
        1.310436
      ],
      [
        103.7563207,
        1.3102563
      ],
      [
        103.7562174,
        1.3104022
      ],
      [
        103.7561843,
        1.3104428
      ],
      [
        103.756044,
        1.3106149
      ],
      [
        103.755489,
        1.3113677
      ],
      [
        103.7554416,
        1.3114344
      ],
      [
        103.7551292,
        1.3118744
      ],
      [
        103.7541687,
        1.3132224
      ],
      [
        103.7536593,
        1.3137912
      ],
      [
        103.7534706,
        1.3140036
      ],
      [
        103.7533323,
        1.3141578
      ],
      [
        103.7530187,
        1.3144946
      ],
      [
        103.7529265,
        1.3145936
      ],
      [
        103.7528392,
        1.3146827
      ],
      [
        103.7527789,
        1.314746
      ],
      [
        103.7521433,
        1.315413
      ],
      [
        103.7516592,
        1.3159427
      ],
      [
        103.7514135,
        1.3162091
      ],
      [
        103.7510868,
        1.3165613
      ],
      [
        103.7510242,
        1.3166403
      ],
      [
        103.750927,
        1.3167638
      ],
      [
        103.7508249,
        1.3168582
      ],
      [
        103.7504594,
        1.3171961
      ],
      [
        103.7502709,
        1.3173206
      ],
      [
        103.7500576,
        1.3174258
      ],
      [
        103.7494139,
        1.3176384
      ],
      [
        103.7493599,
        1.317653
      ],
      [
        103.7490517,
        1.3177443
      ],
      [
        103.7487004,
        1.3178247
      ],
      [
        103.7482701,
        1.3179256
      ],
      [
        103.7481703,
        1.3179541
      ],
      [
        103.7481331,
        1.3179645
      ],
      [
        103.7480409,
        1.3179835
      ],
      [
        103.7480625,
        1.31809
      ],
      [
        103.7480782,
        1.3181668
      ],
      [
        103.7481519,
        1.3185293
      ],
      [
        103.7481937,
        1.3186821
      ],
      [
        103.7482316,
        1.3188207
      ],
      [
        103.7482657,
        1.3189364
      ],
      [
        103.7483174,
        1.3190955
      ],
      [
        103.7483824,
        1.3192842
      ],
      [
        103.7485305,
        1.319692
      ],
      [
        103.7486067,
        1.3199322
      ],
      [
        103.7486002,
        1.3200139
      ],
      [
        103.748591,
        1.320047
      ],
      [
        103.7485715,
        1.3200746
      ],
      [
        103.7485227,
        1.3201077
      ],
      [
        103.7484911,
        1.3201295
      ],
      [
        103.7480228,
        1.3202435
      ],
      [
        103.7480127,
        1.3202459
      ],
      [
        103.7479235,
        1.3202676
      ],
      [
        103.7478246,
        1.3202917
      ],
      [
        103.7475167,
        1.3203649
      ],
      [
        103.7474129,
        1.3203896
      ],
      [
        103.747123,
        1.3204611
      ],
      [
        103.7470492,
        1.3204758
      ],
      [
        103.7468053,
        1.3205244
      ],
      [
        103.7464514,
        1.3205991
      ],
      [
        103.7463118,
        1.3206309
      ],
      [
        103.7461484,
        1.3206685
      ],
      [
        103.7459218,
        1.3207758
      ],
      [
        103.7455782,
        1.3209384
      ],
      [
        103.7455118,
        1.3209643
      ],
      [
        103.7454833,
        1.3209135
      ],
      [
        103.7454197,
        1.3207998
      ],
      [
        103.7453194,
        1.3206148
      ],
      [
        103.7452353,
        1.3204703
      ],
      [
        103.7450445,
        1.320169
      ],
      [
        103.7450169,
        1.3201254
      ],
      [
        103.7449705,
        1.3200534
      ],
      [
        103.7449442,
        1.3200129
      ],
      [
        103.7448943,
        1.3199362
      ],
      [
        103.7447181,
        1.3197003
      ],
      [
        103.7446832,
        1.3196425
      ],
      [
        103.7446159,
        1.3195221
      ],
      [
        103.7445567,
        1.3194086
      ],
      [
        103.7445033,
        1.3192801
      ],
      [
        103.744447,
        1.3191025
      ],
      [
        103.7443871,
        1.3188861
      ],
      [
        103.74438,
        1.3188605
      ],
      [
        103.7443578,
        1.3187626
      ],
      [
        103.7442682,
        1.3187817
      ],
      [
        103.7441682,
        1.318804
      ],
      [
        103.7436686,
        1.3189155
      ],
      [
        103.7433922,
        1.3189757
      ],
      [
        103.7429474,
        1.3190965
      ],
      [
        103.742672,
        1.3191477
      ],
      [
        103.7410948,
        1.3194696
      ],
      [
        103.739727,
        1.3197641
      ],
      [
        103.7391354,
        1.3198822
      ],
      [
        103.7391054,
        1.3198882
      ],
      [
        103.7386984,
        1.3199646
      ],
      [
        103.7383193,
        1.3200447
      ],
      [
        103.7382691,
        1.3200553
      ],
      [
        103.7382078,
        1.3200666
      ],
      [
        103.7382226,
        1.3201374
      ],
      [
        103.7382393,
        1.3202203
      ],
      [
        103.7382702,
        1.320364
      ],
      [
        103.7382757,
        1.3203894
      ],
      [
        103.7382893,
        1.3204526
      ],
      [
        103.7383216,
        1.3206056
      ],
      [
        103.7383262,
        1.3206275
      ],
      [
        103.7383551,
        1.3207503
      ],
      [
        103.7384081,
        1.3209973
      ],
      [
        103.7384577,
        1.3212283
      ],
      [
        103.738506,
        1.3214806
      ],
      [
        103.7385312,
        1.3215856
      ],
      [
        103.7385515,
        1.3216702
      ],
      [
        103.7385795,
        1.3217871
      ],
      [
        103.7385917,
        1.3218379
      ],
      [
        103.7386894,
        1.3220429
      ],
      [
        103.7388457,
        1.3222418
      ],
      [
        103.7391209,
        1.3223977
      ],
      [
        103.739306,
        1.3224296
      ],
      [
        103.7395371,
        1.3224227
      ],
      [
        103.739854,
        1.3223428
      ],
      [
        103.7400504,
        1.3222932
      ],
      [
        103.7401092,
        1.3222784
      ],
      [
        103.7403548,
        1.322216
      ],
      [
        103.7406726,
        1.3221372
      ],
      [
        103.7408235,
        1.3220997
      ],
      [
        103.7414743,
        1.3219584
      ],
      [
        103.7423825,
        1.3217618
      ],
      [
        103.7425096,
        1.3217347
      ],
      [
        103.7426051,
        1.321714
      ],
      [
        103.7428919,
        1.3216576
      ],
      [
        103.742955,
        1.3216445
      ],
      [
        103.7433881,
        1.3215553
      ],
      [
        103.7434554,
        1.3215415
      ],
      [
        103.7435268,
        1.3215278
      ],
      [
        103.7435758,
        1.3215182
      ],
      [
        103.7451698,
        1.3211871
      ],
      [
        103.7452805,
        1.3212132
      ],
      [
        103.7453457,
        1.321237
      ],
      [
        103.7454142,
        1.321262
      ],
      [
        103.7455093,
        1.3213317
      ],
      [
        103.7456252,
        1.3218108
      ],
      [
        103.7456513,
        1.3221161
      ],
      [
        103.7456587,
        1.3222707
      ],
      [
        103.7456591,
        1.3224074
      ],
      [
        103.7456484,
        1.3227953
      ],
      [
        103.7456455,
        1.3228645
      ],
      [
        103.7456221,
        1.323829
      ],
      [
        103.745624,
        1.3239497
      ],
      [
        103.7456258,
        1.324185
      ],
      [
        103.7456379,
        1.3245387
      ],
      [
        103.7456435,
        1.3254618
      ],
      [
        103.7456044,
        1.3259584
      ],
      [
        103.7455629,
        1.3262216
      ],
      [
        103.7455139,
        1.3264828
      ],
      [
        103.7453918,
        1.326889
      ],
      [
        103.7452487,
        1.3272545
      ],
      [
        103.7449801,
        1.3277624
      ],
      [
        103.7449117,
        1.3278696
      ],
      [
        103.7448648,
        1.3279313
      ],
      [
        103.7445574,
        1.3282279
      ],
      [
        103.7445248,
        1.3282524
      ],
      [
        103.7444837,
        1.3282849
      ],
      [
        103.7444031,
        1.3283613
      ],
      [
        103.7442992,
        1.3284607
      ],
      [
        103.7442695,
        1.328488
      ],
      [
        103.7434697,
        1.3292412
      ],
      [
        103.7426144,
        1.3298662
      ],
      [
        103.7423938,
        1.3300227
      ],
      [
        103.7420297,
        1.3302655
      ],
      [
        103.7410278,
        1.3309379
      ],
      [
        103.7409544,
        1.3309852
      ],
      [
        103.7408803,
        1.3310367
      ],
      [
        103.7406455,
        1.3311938
      ],
      [
        103.740269,
        1.3314573
      ],
      [
        103.7401917,
        1.3315065
      ],
      [
        103.7401121,
        1.33156
      ],
      [
        103.7392151,
        1.3321625
      ],
      [
        103.7391456,
        1.3322075
      ],
      [
        103.7390889,
        1.3322452
      ],
      [
        103.7386421,
        1.3325487
      ],
      [
        103.7381322,
        1.3329222
      ],
      [
        103.7380265,
        1.3330014
      ],
      [
        103.7377991,
        1.3331728
      ],
      [
        103.7377757,
        1.3331894
      ],
      [
        103.7376658,
        1.3332809
      ],
      [
        103.7377482,
        1.3333787
      ],
      [
        103.7377829,
        1.333421
      ],
      [
        103.7379244,
        1.3336115
      ],
      [
        103.7384031,
        1.3342495
      ],
      [
        103.7386094,
        1.3344986
      ],
      [
        103.7386313,
        1.3345251
      ],
      [
        103.7386903,
        1.3346565
      ],
      [
        103.7387198,
        1.3347342
      ],
      [
        103.7387587,
        1.3349528
      ],
      [
        103.738778,
        1.335226
      ],
      [
        103.7387832,
        1.3352533
      ],
      [
        103.7387945,
        1.3353128
      ],
      [
        103.7388147,
        1.3354425
      ],
      [
        103.7389143,
        1.3354466
      ],
      [
        103.7389692,
        1.3354506
      ],
      [
        103.7390101,
        1.3354536
      ],
      [
        103.7392336,
        1.3354839
      ],
      [
        103.739641,
        1.3355326
      ],
      [
        103.7398616,
        1.3355209
      ],
      [
        103.7399112,
        1.3355154
      ],
      [
        103.7401441,
        1.3354287
      ],
      [
        103.7401957,
        1.3353972
      ],
      [
        103.7402748,
        1.3353329
      ],
      [
        103.7403169,
        1.3352939
      ],
      [
        103.7403654,
        1.3352491
      ],
      [
        103.7404617,
        1.3351246
      ],
      [
        103.7405471,
        1.3349817
      ],
      [
        103.7406104,
        1.3348143
      ],
      [
        103.7406758,
        1.3344332
      ],
      [
        103.7407461,
        1.3340138
      ],
      [
        103.7407743,
        1.3338459
      ],
      [
        103.7408126,
        1.3336257
      ],
      [
        103.7409203,
        1.3331881
      ],
      [
        103.7410353,
        1.3328714
      ],
      [
        103.7410941,
        1.3327769
      ],
      [
        103.7409854,
        1.3327178
      ],
      [
        103.7409131,
        1.3326772
      ],
      [
        103.7408605,
        1.3326429
      ],
      [
        103.7408117,
        1.332571
      ],
      [
        103.7408,
        1.3324909
      ],
      [
        103.7408532,
        1.3323685
      ],
      [
        103.7411744,
        1.3319777
      ],
      [
        103.7411842,
        1.3318926
      ],
      [
        103.7411688,
        1.3318184
      ],
      [
        103.7410392,
        1.3316082
      ],
      [
        103.7409957,
        1.3315451
      ],
      [
        103.7409511,
        1.3315127
      ],
      [
        103.7408692,
        1.3315032
      ],
      [
        103.7408058,
        1.3315153
      ],
      [
        103.7405383,
        1.3316896
      ],
      [
        103.7397696,
        1.3322329
      ],
      [
        103.7397499,
        1.3322712
      ],
      [
        103.7397561,
        1.332346
      ],
      [
        103.7398261,
        1.3324421
      ],
      [
        103.7398885,
        1.3325276
      ],
      [
        103.7399851,
        1.3325458
      ],
      [
        103.740067,
        1.3325282
      ],
      [
        103.7401671,
        1.3324524
      ],
      [
        103.7406316,
        1.3321053
      ],
      [
        103.7406964,
        1.3320078
      ],
      [
        103.740683,
        1.3319375
      ],
      [
        103.7405996,
        1.33179
      ],
      [
        103.7405383,
        1.3316896
      ]
    ]
  }
}