{
  "type": "Feature",
  "properties": {
    "relation": 6622963,
    "direction": "2",
    "fee": "yes",
    "from": "Buona Vista Terminal",
    "name": "Svc 145 (Buona Vista Terminal → Toa Payoh Interchange)",
    "network": "Land Transport Authority",
    "network:short": "LTA",
    "network:wikidata": "Q3299279",
    "network:wikipedia": "en:Land Transport Authority",
    "operator": "SBS Transit",
    "operator:wikidata": "Q2661305",
    "operator:wikipedia": "en:SBS Transit",
    "public_transport:version": "2",
    "ref": "145",
    "route": "bus",
    "to": "Toa Payoh Interchange",
    "type": "route",
    "website": "https://www.sbstransit.com.sg/"
  },
  "geometry": {
    "type": "LineString",
    "coordinates": [
      [
        103.7922647,
        1.3094362
      ],
      [
        103.7922594,
        1.3093896
      ],
      [
        103.7922761,
        1.309256
      ],
      [
        103.7922763,
        1.3092299
      ],
      [
        103.7922739,
        1.3092159
      ],
      [
        103.7922702,
        1.3092001
      ],
      [
        103.7922572,
        1.3091828
      ],
      [
        103.7922325,
        1.3091621
      ],
      [
        103.7921882,
        1.3091324
      ],
      [
        103.7921406,
        1.3091162
      ],
      [
        103.7920334,
        1.3090858
      ],
      [
        103.7918056,
        1.3090364
      ],
      [
        103.7916795,
        1.309011
      ],
      [
        103.7915526,
        1.3090036
      ],
      [
        103.7915532,
        1.3089899
      ],
      [
        103.7915504,
        1.308903
      ],
      [
        103.7915374,
        1.3088284
      ],
      [
        103.7915148,
        1.3087394
      ],
      [
        103.7914864,
        1.308661
      ],
      [
        103.7914505,
        1.3085493
      ],
      [
        103.791346,
        1.3082254
      ],
      [
        103.7913071,
        1.30807
      ],
      [
        103.7912958,
        1.3080315
      ],
      [
        103.7912909,
        1.3080126
      ],
      [
        103.7912672,
        1.3079254
      ],
      [
        103.7913944,
        1.3078821
      ],
      [
        103.7914541,
        1.3078591
      ],
      [
        103.7915552,
        1.3078189
      ],
      [
        103.7917538,
        1.3077336
      ],
      [
        103.7919007,
        1.3076668
      ],
      [
        103.7920549,
        1.3075958
      ],
      [
        103.7922098,
        1.3075107
      ],
      [
        103.7923647,
        1.3074255
      ],
      [
        103.7924962,
        1.307337
      ],
      [
        103.7929728,
        1.306999
      ],
      [
        103.7931796,
        1.3068668
      ],
      [
        103.7932572,
        1.3068172
      ],
      [
        103.793291,
        1.3067955
      ],
      [
        103.7934879,
        1.3066693
      ],
      [
        103.7935629,
        1.3066256
      ],
      [
        103.7935907,
        1.3066088
      ],
      [
        103.7937549,
        1.3065096
      ],
      [
        103.7938153,
        1.3064685
      ],
      [
        103.7941097,
        1.3062551
      ],
      [
        103.7943029,
        1.3061066
      ],
      [
        103.7945182,
        1.3059192
      ],
      [
        103.7945981,
        1.3058511
      ],
      [
        103.7948618,
        1.3056192
      ],
      [
        103.7951301,
        1.3053844
      ],
      [
        103.7952233,
        1.3053029
      ],
      [
        103.7962602,
        1.3044024
      ],
      [
        103.7965643,
        1.3041383
      ],
      [
        103.7966929,
        1.3040294
      ],
      [
        103.7969459,
        1.3038151
      ],
      [
        103.7971152,
        1.3036717
      ],
      [
        103.7971497,
        1.3036425
      ],
      [
        103.7974755,
        1.3033663
      ],
      [
        103.7979614,
        1.3029248
      ],
      [
        103.7983168,
        1.3026093
      ],
      [
        103.7988657,
        1.3021111
      ],
      [
        103.7991269,
        1.3018663
      ],
      [
        103.7992102,
        1.3017925
      ],
      [
        103.7995837,
        1.3014524
      ],
      [
        103.7997642,
        1.3012825
      ],
      [
        103.8001275,
        1.3009811
      ],
      [
        103.8002752,
        1.3008642
      ],
      [
        103.8003638,
        1.3007946
      ],
      [
        103.800715,
        1.3004971
      ],
      [
        103.8007902,
        1.3004411
      ],
      [
        103.8010435,
        1.3002279
      ],
      [
        103.801092,
        1.3001888
      ],
      [
        103.8013246,
        1.300014
      ],
      [
        103.8021634,
        1.299334
      ],
      [
        103.8025657,
        1.2989402
      ],
      [
        103.8026285,
        1.2988788
      ],
      [
        103.8026858,
        1.2988256
      ],
      [
        103.8030795,
        1.2984602
      ],
      [
        103.8031713,
        1.2983767
      ],
      [
        103.8038776,
        1.2977521
      ],
      [
        103.8042985,
        1.2973681
      ],
      [
        103.80441,
        1.2972495
      ],
      [
        103.8045537,
        1.2970898
      ],
      [
        103.8046275,
        1.297004
      ],
      [
        103.8047373,
        1.2968684
      ],
      [
        103.8047752,
        1.296831
      ],
      [
        103.804852,
        1.2967156
      ],
      [
        103.8049543,
        1.2965793
      ],
      [
        103.8049856,
        1.2965333
      ],
      [
        103.8050173,
        1.2964823
      ],
      [
        103.8053053,
        1.2960641
      ],
      [
        103.8054288,
        1.2958709
      ],
      [
        103.8054814,
        1.295788
      ],
      [
        103.8055223,
        1.2957238
      ],
      [
        103.8058056,
        1.2952734
      ],
      [
        103.8059227,
        1.2950873
      ],
      [
        103.8060912,
        1.2948209
      ],
      [
        103.8061501,
        1.2947277
      ],
      [
        103.8062838,
        1.2945163
      ],
      [
        103.8064484,
        1.2942515
      ],
      [
        103.806685,
        1.293882
      ],
      [
        103.8066998,
        1.2938589
      ],
      [
        103.8068415,
        1.2936334
      ],
      [
        103.807047,
        1.2933455
      ],
      [
        103.8075842,
        1.2928089
      ],
      [
        103.8078588,
        1.2925686
      ],
      [
        103.8080885,
        1.29234
      ],
      [
        103.808252,
        1.2922941
      ],
      [
        103.8084103,
        1.2922766
      ],
      [
        103.8085357,
        1.2922797
      ],
      [
        103.808692,
        1.292307
      ],
      [
        103.8089473,
        1.2924469
      ],
      [
        103.808978,
        1.2924559
      ],
      [
        103.809193,
        1.2925187
      ],
      [
        103.80955,
        1.2925395
      ],
      [
        103.8099455,
        1.2924855
      ],
      [
        103.8101609,
        1.2924589
      ],
      [
        103.8103959,
        1.2924188
      ],
      [
        103.8106392,
        1.2923919
      ],
      [
        103.810923,
        1.2923442
      ],
      [
        103.8109879,
        1.2923343
      ],
      [
        103.812269,
        1.2921208
      ],
      [
        103.8123398,
        1.2921094
      ],
      [
        103.8127904,
        1.2920366
      ],
      [
        103.8130263,
        1.2919988
      ],
      [
        103.8137452,
        1.2918905
      ],
      [
        103.8139602,
        1.2918574
      ],
      [
        103.8140832,
        1.2918407
      ],
      [
        103.8142937,
        1.291802
      ],
      [
        103.8144989,
        1.2917685
      ],
      [
        103.8146888,
        1.2917375
      ],
      [
        103.8149849,
        1.2916856
      ],
      [
        103.8153101,
        1.291636
      ],
      [
        103.8153478,
        1.2916303
      ],
      [
        103.8154847,
        1.2916178
      ],
      [
        103.8154651,
        1.2914799
      ],
      [
        103.8154554,
        1.291426
      ],
      [
        103.8154121,
        1.2911873
      ],
      [
        103.8153711,
        1.2909439
      ],
      [
        103.8153621,
        1.2908906
      ],
      [
        103.8153483,
        1.2908085
      ],
      [
        103.8153327,
        1.2906472
      ],
      [
        103.8153337,
        1.2905318
      ],
      [
        103.8153487,
        1.2904352
      ],
      [
        103.8153893,
        1.2903379
      ],
      [
        103.8154465,
        1.2902515
      ],
      [
        103.8155249,
        1.2901614
      ],
      [
        103.8156038,
        1.2900133
      ],
      [
        103.8156038,
        1.2900133
      ],
      [
        103.8156634,
        1.2899814
      ],
      [
        103.8161091,
        1.2897392
      ],
      [
        103.8160465,
        1.2897725
      ],
      [
        103.8158934,
        1.2898533
      ],
      [
        103.81613,
        1.2897272
      ],
      [
        103.8162653,
        1.2896551
      ],
      [
        103.8161843,
        1.2897006
      ],
      [
        103.8164964,
        1.2895239
      ],
      [
        103.8167256,
        1.2893784
      ],
      [
        103.8169166,
        1.2892446
      ],
      [
        103.816948,
        1.2892211
      ],
      [
        103.8172953,
        1.2889513
      ],
      [
        103.8171212,
        1.2890872
      ],
      [
        103.817485,
        1.2888315
      ],
      [
        103.8173938,
        1.2888838
      ],
      [
        103.8177629,
        1.288743
      ],
      [
        103.8177027,
        1.288755
      ],
      [
        103.8176011,
        1.2887867
      ],
      [
        103.8178542,
        1.2887364
      ],
      [
        103.8185838,
        1.2886913
      ],
      [
        103.8180491,
        1.288723
      ],
      [
        103.8179342,
        1.2887291
      ],
      [
        103.818788,
        1.2886799
      ],
      [
        103.8189245,
        1.2886744
      ],
      [
        103.8193719,
        1.2886934
      ],
      [
        103.8199721,
        1.2886578
      ],
      [
        103.8198921,
        1.2886625
      ],
      [
        103.8197492,
        1.2886695
      ],
      [
        103.8199873,
        1.2886585
      ],
      [
        103.8213269,
        1.2886083
      ],
      [
        103.8207326,
        1.2886336
      ],
      [
        103.8202369,
        1.2886536
      ],
      [
        103.8214924,
        1.2885961
      ],
      [
        103.8218701,
        1.2885642
      ],
      [
        103.8217317,
        1.2885825
      ],
      [
        103.8221412,
        1.2884742
      ],
      [
        103.8220559,
        1.2885118
      ],
      [
        103.821971,
        1.2885399
      ],
      [
        103.8222656,
        1.2884137
      ],
      [
        103.8225245,
        1.2882912
      ],
      [
        103.8223536,
        1.2883683
      ],
      [
        103.8225923,
        1.2882492
      ],
      [
        103.822614,
        1.288066
      ],
      [
        103.822606,
        1.2880271
      ],
      [
        103.8225904,
        1.2879363
      ],
      [
        103.8225434,
        1.2874976
      ],
      [
        103.8224853,
        1.2872672
      ],
      [
        103.8223789,
        1.2869913
      ],
      [
        103.8223264,
        1.2868699
      ],
      [
        103.8222499,
        1.2866929
      ],
      [
        103.8220995,
        1.2864045
      ],
      [
        103.8220125,
        1.2862375
      ],
      [
        103.8218687,
        1.2860324
      ],
      [
        103.8218453,
        1.286001
      ],
      [
        103.821816,
        1.2859616
      ],
      [
        103.8217181,
        1.2858463
      ],
      [
        103.8215353,
        1.2856436
      ],
      [
        103.8213357,
        1.2854383
      ],
      [
        103.8211779,
        1.2852816
      ],
      [
        103.821012,
        1.285117
      ],
      [
        103.820948,
        1.2850369
      ],
      [
        103.8208849,
        1.284929
      ],
      [
        103.8207729,
        1.2846971
      ],
      [
        103.8207341,
        1.2845901
      ],
      [
        103.8207008,
        1.284509
      ],
      [
        103.8206599,
        1.284401
      ],
      [
        103.8205659,
        1.2841502
      ],
      [
        103.820514,
        1.2840115
      ],
      [
        103.8204387,
        1.2837628
      ],
      [
        103.820312,
        1.2834531
      ],
      [
        103.8202821,
        1.2833729
      ],
      [
        103.8202409,
        1.2832657
      ],
      [
        103.8202246,
        1.2832283
      ],
      [
        103.8199902,
        1.2828481
      ],
      [
        103.8199169,
        1.2827523
      ],
      [
        103.8197432,
        1.282548
      ],
      [
        103.8196077,
        1.2824063
      ],
      [
        103.8191939,
        1.2819718
      ],
      [
        103.8191148,
        1.2818845
      ],
      [
        103.8190494,
        1.2818114
      ],
      [
        103.8189628,
        1.2817069
      ],
      [
        103.8181383,
        1.2807568
      ],
      [
        103.8180498,
        1.2806276
      ],
      [
        103.8177121,
        1.2801345
      ],
      [
        103.817684,
        1.2800869
      ],
      [
        103.8175572,
        1.2798722
      ],
      [
        103.8174534,
        1.279656
      ],
      [
        103.817381,
        1.2794991
      ],
      [
        103.8173282,
        1.2793798
      ],
      [
        103.8173177,
        1.2793558
      ],
      [
        103.8172467,
        1.2792117
      ],
      [
        103.8172066,
        1.2791252
      ],
      [
        103.8170748,
        1.2788413
      ],
      [
        103.8169446,
        1.2785709
      ],
      [
        103.8169025,
        1.2784846
      ],
      [
        103.8168549,
        1.2783879
      ],
      [
        103.816823,
        1.2783083
      ],
      [
        103.8166617,
        1.27794
      ],
      [
        103.8164482,
        1.277449
      ],
      [
        103.8163926,
        1.2773298
      ],
      [
        103.8162095,
        1.2769662
      ],
      [
        103.8159442,
        1.2765386
      ],
      [
        103.8155584,
        1.2759943
      ],
      [
        103.8153171,
        1.2756512
      ],
      [
        103.8151229,
        1.2753532
      ],
      [
        103.8149434,
        1.2751161
      ],
      [
        103.8148835,
        1.2750324
      ],
      [
        103.8147848,
        1.2748946
      ],
      [
        103.8146523,
        1.2747096
      ],
      [
        103.814433,
        1.274462
      ],
      [
        103.8142074,
        1.2742385
      ],
      [
        103.8136913,
        1.2737943
      ],
      [
        103.8129467,
        1.2732534
      ],
      [
        103.8128848,
        1.2732084
      ],
      [
        103.8126825,
        1.2730544
      ],
      [
        103.8126053,
        1.2729965
      ],
      [
        103.8124867,
        1.2729006
      ],
      [
        103.812018,
        1.2724598
      ],
      [
        103.8119451,
        1.2723913
      ],
      [
        103.8119045,
        1.272321
      ],
      [
        103.8116907,
        1.2719254
      ],
      [
        103.811652,
        1.2718182
      ],
      [
        103.8115767,
        1.2715939
      ],
      [
        103.8115335,
        1.2714735
      ],
      [
        103.8115394,
        1.2713472
      ],
      [
        103.8115481,
        1.2712878
      ],
      [
        103.8115711,
        1.2711688
      ],
      [
        103.8116113,
        1.2710618
      ],
      [
        103.811653,
        1.2709794
      ],
      [
        103.8116991,
        1.2709078
      ],
      [
        103.8117495,
        1.2708562
      ],
      [
        103.8118098,
        1.2707954
      ],
      [
        103.8118923,
        1.2707214
      ],
      [
        103.8121296,
        1.270587
      ],
      [
        103.8122031,
        1.2705407
      ],
      [
        103.8125391,
        1.2703183
      ],
      [
        103.8127662,
        1.2701587
      ],
      [
        103.8128353,
        1.2701085
      ],
      [
        103.8129096,
        1.2700542
      ],
      [
        103.8133638,
        1.2697436
      ],
      [
        103.8134146,
        1.2697089
      ],
      [
        103.8134685,
        1.2696721
      ],
      [
        103.8136073,
        1.269581
      ],
      [
        103.8138784,
        1.2694031
      ],
      [
        103.8141737,
        1.2692156
      ],
      [
        103.8143001,
        1.2691432
      ],
      [
        103.8145925,
        1.2689876
      ],
      [
        103.8147848,
        1.2688974
      ],
      [
        103.8149932,
        1.268803
      ],
      [
        103.8151582,
        1.268744
      ],
      [
        103.815444,
        1.2686321
      ],
      [
        103.8157011,
        1.2685367
      ],
      [
        103.8159243,
        1.2684441
      ],
      [
        103.816089,
        1.2683696
      ],
      [
        103.8161694,
        1.2683312
      ],
      [
        103.8163155,
        1.2682609
      ],
      [
        103.8163929,
        1.2682256
      ],
      [
        103.8164474,
        1.2681959
      ],
      [
        103.8165148,
        1.2681603
      ],
      [
        103.816765,
        1.2680208
      ],
      [
        103.8169942,
        1.2678881
      ],
      [
        103.8172509,
        1.2677121
      ],
      [
        103.817703,
        1.2673778
      ],
      [
        103.817844,
        1.26727
      ],
      [
        103.8180252,
        1.2671273
      ],
      [
        103.8181092,
        1.2670601
      ],
      [
        103.8181716,
        1.2670155
      ],
      [
        103.8183586,
        1.266882
      ],
      [
        103.8184126,
        1.2668423
      ],
      [
        103.8184917,
        1.2667881
      ],
      [
        103.8190594,
        1.26639
      ],
      [
        103.8195027,
        1.2661199
      ],
      [
        103.8196975,
        1.2660275
      ],
      [
        103.8198616,
        1.2659675
      ],
      [
        103.8199736,
        1.2659323
      ],
      [
        103.8200065,
        1.265922
      ],
      [
        103.8201576,
        1.2658853
      ],
      [
        103.8202944,
        1.265855
      ],
      [
        103.8203942,
        1.2658394
      ],
      [
        103.8206126,
        1.2658228
      ],
      [
        103.8206982,
        1.265817
      ],
      [
        103.820754,
        1.2658146
      ],
      [
        103.8208567,
        1.2658113
      ],
      [
        103.8209922,
        1.2658126
      ],
      [
        103.8210512,
        1.2658157
      ],
      [
        103.8214361,
        1.2658238
      ],
      [
        103.8215513,
        1.265829
      ],
      [
        103.8222411,
        1.2658638
      ],
      [
        103.8227349,
        1.2658872
      ],
      [
        103.8228863,
        1.2658943
      ],
      [
        103.8230906,
        1.265904
      ],
      [
        103.823491,
        1.2659277
      ],
      [
        103.8235502,
        1.2659328
      ],
      [
        103.8236206,
        1.2659374
      ],
      [
        103.8237372,
        1.2659448
      ],
      [
        103.8239425,
        1.2659579
      ],
      [
        103.8240448,
        1.2659654
      ],
      [
        103.8240605,
        1.2659667
      ],
      [
        103.824332,
        1.2659936
      ],
      [
        103.8245981,
        1.2660183
      ],
      [
        103.8247855,
        1.2660663
      ],
      [
        103.8249502,
        1.2661118
      ],
      [
        103.8250933,
        1.2661589
      ],
      [
        103.8252128,
        1.2662098
      ],
      [
        103.8253354,
        1.2662729
      ],
      [
        103.825472,
        1.2663736
      ],
      [
        103.8257605,
        1.266645
      ],
      [
        103.8258411,
        1.2667244
      ],
      [
        103.8261913,
        1.2670353
      ],
      [
        103.8262218,
        1.2670617
      ],
      [
        103.8263333,
        1.2671581
      ],
      [
        103.8264254,
        1.2672461
      ],
      [
        103.8266955,
        1.2674956
      ],
      [
        103.827115,
        1.267866
      ],
      [
        103.8274402,
        1.2681861
      ],
      [
        103.827753,
        1.2685049
      ],
      [
        103.8286288,
        1.2693213
      ],
      [
        103.8291303,
        1.2697068
      ],
      [
        103.8299154,
        1.2704108
      ],
      [
        103.830117,
        1.2706074
      ],
      [
        103.8302814,
        1.2707587
      ],
      [
        103.8304103,
        1.2708754
      ],
      [
        103.8306163,
        1.2711178
      ],
      [
        103.8309048,
        1.2713919
      ],
      [
        103.8311862,
        1.2716495
      ],
      [
        103.8318517,
        1.2722577
      ],
      [
        103.8320032,
        1.272391
      ],
      [
        103.8321507,
        1.2725055
      ],
      [
        103.832255,
        1.2725698
      ],
      [
        103.8324258,
        1.2726176
      ],
      [
        103.8325983,
        1.2726378
      ],
      [
        103.8327725,
        1.2726375
      ],
      [
        103.8332555,
        1.2726325
      ],
      [
        103.8334989,
        1.2726257
      ],
      [
        103.8337558,
        1.2726059
      ],
      [
        103.8348066,
        1.2725169
      ],
      [
        103.8354504,
        1.2725399
      ],
      [
        103.8357857,
        1.2725412
      ],
      [
        103.8362805,
        1.2725556
      ],
      [
        103.8367342,
        1.2725654
      ],
      [
        103.8369975,
        1.2725761
      ],
      [
        103.8373881,
        1.2725862
      ],
      [
        103.8385365,
        1.2726128
      ],
      [
        103.8391539,
        1.2726365
      ],
      [
        103.839296,
        1.2726426
      ],
      [
        103.8394354,
        1.2726486
      ],
      [
        103.8394744,
        1.2726503
      ],
      [
        103.8398205,
        1.2726596
      ],
      [
        103.8399313,
        1.2726623
      ],
      [
        103.8400471,
        1.2726654
      ],
      [
        103.8419374,
        1.2727185
      ],
      [
        103.8419772,
        1.2727201
      ],
      [
        103.8422598,
        1.2727252
      ],
      [
        103.8426709,
        1.272733
      ],
      [
        103.8430022,
        1.2727458
      ],
      [
        103.8430652,
        1.2730477
      ],
      [
        103.8431246,
        1.2734418
      ],
      [
        103.8431338,
        1.2735081
      ],
      [
        103.8431485,
        1.2736868
      ],
      [
        103.8431517,
        1.2737559
      ],
      [
        103.8431506,
        1.2738283
      ],
      [
        103.843141,
        1.2738922
      ],
      [
        103.8431229,
        1.273956
      ],
      [
        103.8431037,
        1.2740116
      ],
      [
        103.8430931,
        1.2740422
      ],
      [
        103.8430676,
        1.2741305
      ],
      [
        103.8430551,
        1.2742156
      ],
      [
        103.8430548,
        1.2742646
      ],
      [
        103.8430609,
        1.2745316
      ],
      [
        103.8430616,
        1.2745633
      ],
      [
        103.8431034,
        1.274847
      ],
      [
        103.8431406,
        1.2750756
      ],
      [
        103.8431902,
        1.2753539
      ],
      [
        103.8431945,
        1.2753779
      ],
      [
        103.8432291,
        1.2755722
      ],
      [
        103.8432373,
        1.2756185
      ],
      [
        103.8432576,
        1.275733
      ],
      [
        103.8432938,
        1.2759273
      ],
      [
        103.8433314,
        1.2761217
      ],
      [
        103.8433662,
        1.2763271
      ],
      [
        103.8433705,
        1.2763523
      ],
      [
        103.8434721,
        1.2769141
      ],
      [
        103.8435156,
        1.2771947
      ],
      [
        103.8435365,
        1.2773463
      ],
      [
        103.8435781,
        1.2776931
      ],
      [
        103.8435942,
        1.2777789
      ],
      [
        103.8436116,
        1.2778661
      ],
      [
        103.8436255,
        1.2779305
      ],
      [
        103.8436519,
        1.2780059
      ],
      [
        103.8437686,
        1.2783394
      ],
      [
        103.8438359,
        1.2785521
      ],
      [
        103.8438511,
        1.2786379
      ],
      [
        103.8438582,
        1.2787303
      ],
      [
        103.8438581,
        1.2788519
      ],
      [
        103.8438503,
        1.279172
      ],
      [
        103.8438469,
        1.2794109
      ],
      [
        103.8438777,
        1.2796604
      ],
      [
        103.8439071,
        1.2798496
      ],
      [
        103.8440129,
        1.2803203
      ],
      [
        103.8440389,
        1.2804057
      ],
      [
        103.8439467,
        1.2804921
      ],
      [
        103.8439116,
        1.2804659
      ],
      [
        103.8438574,
        1.2804217
      ],
      [
        103.8437277,
        1.2803276
      ],
      [
        103.8435629,
        1.2802352
      ],
      [
        103.8434191,
        1.280147
      ],
      [
        103.8431213,
        1.2799664
      ],
      [
        103.842898,
        1.2798641
      ],
      [
        103.8428116,
        1.2798811
      ],
      [
        103.8427702,
        1.2799008
      ],
      [
        103.8427366,
        1.279938
      ],
      [
        103.8426771,
        1.2800878
      ],
      [
        103.842484,
        1.2804582
      ],
      [
        103.8423497,
        1.2807138
      ],
      [
        103.8420027,
        1.2813177
      ],
      [
        103.8419792,
        1.2813641
      ],
      [
        103.8418912,
        1.2815191
      ],
      [
        103.8416701,
        1.2819643
      ],
      [
        103.8416494,
        1.2820003
      ],
      [
        103.8415629,
        1.2821317
      ],
      [
        103.8415357,
        1.2821791
      ],
      [
        103.8415725,
        1.2822203
      ],
      [
        103.8416348,
        1.2822906
      ],
      [
        103.8419219,
        1.2826179
      ],
      [
        103.8419604,
        1.2826617
      ],
      [
        103.8421941,
        1.282957
      ],
      [
        103.8423627,
        1.283164
      ],
      [
        103.8425013,
        1.2833367
      ],
      [
        103.8425288,
        1.2833706
      ],
      [
        103.8431163,
        1.2840789
      ],
      [
        103.8431967,
        1.2841758
      ],
      [
        103.8432648,
        1.2842578
      ],
      [
        103.8433782,
        1.2843945
      ],
      [
        103.8434464,
        1.2844765
      ],
      [
        103.8436488,
        1.2847203
      ],
      [
        103.8438155,
        1.2849286
      ],
      [
        103.8438752,
        1.2850033
      ],
      [
        103.843936,
        1.2850694
      ],
      [
        103.8440361,
        1.2851914
      ],
      [
        103.8443411,
        1.2855406
      ],
      [
        103.8445207,
        1.2857434
      ],
      [
        103.8446333,
        1.2858745
      ],
      [
        103.8446809,
        1.2859299
      ],
      [
        103.8448202,
        1.2860934
      ],
      [
        103.8449752,
        1.2862755
      ],
      [
        103.8451329,
        1.2864602
      ],
      [
        103.8452109,
        1.2865509
      ],
      [
        103.8453089,
        1.2866706
      ],
      [
        103.8454456,
        1.2868378
      ],
      [
        103.8455766,
        1.2869815
      ],
      [
        103.8455833,
        1.2869893
      ],
      [
        103.845675,
        1.2870953
      ],
      [
        103.845862,
        1.2873202
      ],
      [
        103.8459283,
        1.2873956
      ],
      [
        103.8459996,
        1.2874818
      ],
      [
        103.8463526,
        1.2878841
      ],
      [
        103.8465239,
        1.2880819
      ],
      [
        103.8466218,
        1.2881974
      ],
      [
        103.8467424,
        1.2883397
      ],
      [
        103.8469287,
        1.2885573
      ],
      [
        103.8474799,
        1.2892359
      ],
      [
        103.8476025,
        1.2893849
      ],
      [
        103.8479836,
        1.2898829
      ],
      [
        103.8481263,
        1.2900514
      ],
      [
        103.8481858,
        1.2901144
      ],
      [
        103.8482584,
        1.2902039
      ],
      [
        103.8483996,
        1.2903724
      ],
      [
        103.8484965,
        1.2904993
      ],
      [
        103.8485901,
        1.2906549
      ],
      [
        103.848755,
        1.2909524
      ],
      [
        103.8489047,
        1.2912404
      ],
      [
        103.8490446,
        1.2914925
      ],
      [
        103.8491756,
        1.291758
      ],
      [
        103.849286,
        1.2919657
      ],
      [
        103.8493692,
        1.2921494
      ],
      [
        103.8494378,
        1.2923308
      ],
      [
        103.8494696,
        1.2923913
      ],
      [
        103.8495306,
        1.2925377
      ],
      [
        103.8495696,
        1.2926289
      ],
      [
        103.8496622,
        1.292845
      ],
      [
        103.8496842,
        1.2928907
      ],
      [
        103.8498421,
        1.2932189
      ],
      [
        103.8500439,
        1.293586
      ],
      [
        103.8501234,
        1.2937429
      ],
      [
        103.8501887,
        1.2938717
      ],
      [
        103.8502345,
        1.2939612
      ],
      [
        103.8502957,
        1.2940826
      ],
      [
        103.8504705,
        1.2944135
      ],
      [
        103.850537,
        1.2945195
      ],
      [
        103.8506094,
        1.294611
      ],
      [
        103.8510631,
        1.2951378
      ],
      [
        103.8513344,
        1.2954281
      ],
      [
        103.8513962,
        1.2954858
      ],
      [
        103.8514153,
        1.295506
      ],
      [
        103.8515011,
        1.2955985
      ],
      [
        103.8516569,
        1.2957626
      ],
      [
        103.8517651,
        1.2958866
      ],
      [
        103.8518194,
        1.2959447
      ],
      [
        103.8519011,
        1.2960284
      ],
      [
        103.8519488,
        1.2960865
      ],
      [
        103.8520528,
        1.2962032
      ],
      [
        103.8522026,
        1.2963704
      ],
      [
        103.8523503,
        1.2965295
      ],
      [
        103.8526694,
        1.2968976
      ],
      [
        103.8527418,
        1.2969881
      ],
      [
        103.8527609,
        1.297012
      ],
      [
        103.8530862,
        1.2974185
      ],
      [
        103.853171,
        1.2975217
      ],
      [
        103.8532709,
        1.2976481
      ],
      [
        103.8534083,
        1.2978206
      ],
      [
        103.8534389,
        1.297859
      ],
      [
        103.8536667,
        1.298145
      ],
      [
        103.8538916,
        1.2984272
      ],
      [
        103.8539445,
        1.2984936
      ],
      [
        103.8540378,
        1.2986159
      ],
      [
        103.8540608,
        1.2986427
      ],
      [
        103.854281,
        1.2988992
      ],
      [
        103.8545356,
        1.2991957
      ],
      [
        103.8546626,
        1.2993436
      ],
      [
        103.8549017,
        1.299622
      ],
      [
        103.8549254,
        1.2996495
      ],
      [
        103.8552542,
        1.300045
      ],
      [
        103.8554415,
        1.3002602
      ],
      [
        103.8555723,
        1.3004179
      ],
      [
        103.8556766,
        1.3005381
      ],
      [
        103.8557189,
        1.3005869
      ],
      [
        103.8558114,
        1.3006936
      ],
      [
        103.855876,
        1.3007684
      ],
      [
        103.8561679,
        1.301106
      ],
      [
        103.8565286,
        1.301522
      ],
      [
        103.8567098,
        1.3017351
      ],
      [
        103.856839,
        1.3018849
      ],
      [
        103.8569413,
        1.3020055
      ],
      [
        103.8569904,
        1.3020677
      ],
      [
        103.8570161,
        1.3020949
      ],
      [
        103.8575065,
        1.3026523
      ],
      [
        103.8576065,
        1.3027713
      ],
      [
        103.8576525,
        1.3028261
      ],
      [
        103.8576992,
        1.302876
      ],
      [
        103.8581572,
        1.3033655
      ],
      [
        103.8581703,
        1.3033795
      ],
      [
        103.858186,
        1.3033953
      ],
      [
        103.8586933,
        1.3038658
      ],
      [
        103.8589478,
        1.3041095
      ],
      [
        103.8590774,
        1.3042298
      ],
      [
        103.8592057,
        1.3043283
      ],
      [
        103.8594245,
        1.304491
      ],
      [
        103.8597518,
        1.3047645
      ],
      [
        103.8600243,
        1.304986
      ],
      [
        103.8601125,
        1.3050625
      ],
      [
        103.8601962,
        1.305135
      ],
      [
        103.8603091,
        1.3052362
      ],
      [
        103.8605216,
        1.3054094
      ],
      [
        103.8609546,
        1.3057794
      ],
      [
        103.8615462,
        1.3063202
      ],
      [
        103.8617711,
        1.3065294
      ],
      [
        103.8624943,
        1.3072114
      ],
      [
        103.8627197,
        1.3074487
      ],
      [
        103.8628954,
        1.3076176
      ],
      [
        103.8630661,
        1.3077727
      ],
      [
        103.8630932,
        1.3078
      ],
      [
        103.8631318,
        1.3078396
      ],
      [
        103.8631638,
        1.307868
      ],
      [
        103.8633964,
        1.3080743
      ],
      [
        103.8637483,
        1.3083951
      ],
      [
        103.8638674,
        1.3085135
      ],
      [
        103.8638158,
        1.3086919
      ],
      [
        103.863769,
        1.3088695
      ],
      [
        103.8636416,
        1.3092529
      ],
      [
        103.8635243,
        1.3094638
      ],
      [
        103.8634781,
        1.3095489
      ],
      [
        103.8633677,
        1.3097524
      ],
      [
        103.8632749,
        1.3099237
      ],
      [
        103.862945,
        1.3103648
      ],
      [
        103.8628605,
        1.3104721
      ],
      [
        103.8626553,
        1.3107355
      ],
      [
        103.8624246,
        1.3110607
      ],
      [
        103.8621747,
        1.3113847
      ],
      [
        103.8620659,
        1.3115328
      ],
      [
        103.8619083,
        1.3117377
      ],
      [
        103.8617675,
        1.3119078
      ],
      [
        103.8617519,
        1.3119292
      ],
      [
        103.8617212,
        1.311971
      ],
      [
        103.8616683,
        1.3120421
      ],
      [
        103.8612337,
        1.3126479
      ],
      [
        103.8608021,
        1.3132013
      ],
      [
        103.8604687,
        1.3136512
      ],
      [
        103.8603613,
        1.3137943
      ],
      [
        103.8602816,
        1.3139015
      ],
      [
        103.8600815,
        1.3141825
      ],
      [
        103.8600559,
        1.3142199
      ],
      [
        103.8599372,
        1.3143935
      ],
      [
        103.8597888,
        1.3146103
      ],
      [
        103.8594556,
        1.3150742
      ],
      [
        103.8590022,
        1.3156925
      ],
      [
        103.8588808,
        1.3158596
      ],
      [
        103.8588469,
        1.3159065
      ],
      [
        103.8587654,
        1.3160196
      ],
      [
        103.8586156,
        1.3161415
      ],
      [
        103.8584798,
        1.316256
      ],
      [
        103.858384,
        1.3163243
      ],
      [
        103.85828,
        1.3163948
      ],
      [
        103.8578019,
        1.316715
      ],
      [
        103.8575258,
        1.3169041
      ],
      [
        103.8565646,
        1.3174655
      ],
      [
        103.8565156,
        1.3174941
      ],
      [
        103.8564947,
        1.3175068
      ],
      [
        103.8563044,
        1.3176224
      ],
      [
        103.8559862,
        1.3178157
      ],
      [
        103.8558306,
        1.3179102
      ],
      [
        103.8552061,
        1.3182895
      ],
      [
        103.8552038,
        1.3182909
      ],
      [
        103.8549292,
        1.3184549
      ],
      [
        103.854765,
        1.3185593
      ],
      [
        103.8544854,
        1.3187371
      ],
      [
        103.8542351,
        1.3188957
      ],
      [
        103.8541616,
        1.3189342
      ],
      [
        103.8540082,
        1.3190335
      ],
      [
        103.8535914,
        1.3193062
      ],
      [
        103.8531589,
        1.3195697
      ],
      [
        103.8530643,
        1.3196438
      ],
      [
        103.8530022,
        1.3197749
      ],
      [
        103.8529844,
        1.3198989
      ],
      [
        103.8529556,
        1.3202604
      ],
      [
        103.8529483,
        1.3203589
      ],
      [
        103.8529171,
        1.32078
      ],
      [
        103.8529113,
        1.3208592
      ],
      [
        103.8528931,
        1.3211049
      ],
      [
        103.8528843,
        1.3211827
      ],
      [
        103.8528534,
        1.3215075
      ],
      [
        103.8528297,
        1.3216851
      ],
      [
        103.852746,
        1.3223119
      ],
      [
        103.8527381,
        1.3223618
      ],
      [
        103.8527261,
        1.3224466
      ],
      [
        103.8526949,
        1.3225554
      ],
      [
        103.8526642,
        1.3226356
      ],
      [
        103.8526096,
        1.3227625
      ],
      [
        103.8525515,
        1.3228513
      ],
      [
        103.8524744,
        1.3229625
      ],
      [
        103.8522764,
        1.3231956
      ],
      [
        103.8521824,
        1.3233162
      ],
      [
        103.852096,
        1.3234129
      ],
      [
        103.852016,
        1.323502
      ],
      [
        103.8518738,
        1.323673
      ],
      [
        103.8516081,
        1.3239857
      ],
      [
        103.8514405,
        1.3241821
      ],
      [
        103.8512083,
        1.3244226
      ],
      [
        103.851105,
        1.324523
      ],
      [
        103.8509024,
        1.3247033
      ],
      [
        103.8507055,
        1.3248729
      ],
      [
        103.850412,
        1.3251209
      ],
      [
        103.850212,
        1.3252649
      ],
      [
        103.850069,
        1.3253532
      ],
      [
        103.8496848,
        1.3255334
      ],
      [
        103.8496633,
        1.3255446
      ],
      [
        103.849281,
        1.3257352
      ],
      [
        103.8491228,
        1.3258114
      ],
      [
        103.8488953,
        1.3259115
      ],
      [
        103.8483058,
        1.3261996
      ],
      [
        103.8478349,
        1.3264326
      ],
      [
        103.8476614,
        1.3264903
      ],
      [
        103.8475024,
        1.3265005
      ],
      [
        103.8472146,
        1.326501
      ],
      [
        103.8471303,
        1.3264999
      ],
      [
        103.8467638,
        1.3264879
      ],
      [
        103.8463083,
        1.326471
      ],
      [
        103.8457735,
        1.326458
      ],
      [
        103.8457118,
        1.3264586
      ],
      [
        103.8453257,
        1.3264639
      ],
      [
        103.8452606,
        1.3264682
      ],
      [
        103.8450586,
        1.326495
      ],
      [
        103.8448484,
        1.3265228
      ],
      [
        103.8447902,
        1.3265261
      ],
      [
        103.84473,
        1.3265355
      ],
      [
        103.8444457,
        1.3265722
      ],
      [
        103.8439388,
        1.3265419
      ],
      [
        103.8438355,
        1.3265334
      ],
      [
        103.8434582,
        1.3264991
      ],
      [
        103.8427892,
        1.3264437
      ],
      [
        103.842502,
        1.3264235
      ],
      [
        103.8423102,
        1.3263977
      ],
      [
        103.8421051,
        1.326344
      ],
      [
        103.8420494,
        1.3263288
      ],
      [
        103.8419118,
        1.3263004
      ],
      [
        103.8418468,
        1.3264357
      ],
      [
        103.841629,
        1.326873
      ],
      [
        103.8414722,
        1.3272112
      ],
      [
        103.8413424,
        1.3274365
      ],
      [
        103.8411446,
        1.3275288
      ],
      [
        103.8410179,
        1.3275459
      ],
      [
        103.8408423,
        1.3275296
      ],
      [
        103.8407136,
        1.3274517
      ],
      [
        103.8405838,
        1.3273592
      ],
      [
        103.8404206,
        1.3272707
      ],
      [
        103.8403047,
        1.3272418
      ],
      [
        103.8401796,
        1.3272473
      ],
      [
        103.840009,
        1.3273093
      ],
      [
        103.8398856,
        1.3274349
      ],
      [
        103.8398254,
        1.3276058
      ],
      [
        103.8398383,
        1.3278509
      ],
      [
        103.8398981,
        1.3279527
      ],
      [
        103.8399792,
        1.3280394
      ],
      [
        103.8402261,
        1.3281885
      ],
      [
        103.8403025,
        1.3282303
      ],
      [
        103.8403706,
        1.3282899
      ],
      [
        103.8404044,
        1.3283429
      ],
      [
        103.8404292,
        1.3283952
      ],
      [
        103.8404406,
        1.3284692
      ],
      [
        103.8404252,
        1.3286386
      ],
      [
        103.8402743,
        1.328959
      ],
      [
        103.8402159,
        1.3291326
      ],
      [
        103.8401866,
        1.3292679
      ],
      [
        103.8401614,
        1.3294501
      ],
      [
        103.8400407,
        1.3295728
      ],
      [
        103.839959,
        1.3296089
      ],
      [
        103.839822,
        1.3296259
      ],
      [
        103.8396958,
        1.3296198
      ],
      [
        103.8396196,
        1.329598
      ],
      [
        103.8395068,
        1.3295433
      ],
      [
        103.8394556,
        1.3295005
      ],
      [
        103.8394073,
        1.3294361
      ],
      [
        103.8393724,
        1.3293619
      ],
      [
        103.8393402,
        1.3292559
      ],
      [
        103.8393375,
        1.3291809
      ],
      [
        103.8393469,
        1.3291084
      ],
      [
        103.8393804,
        1.329016
      ],
      [
        103.8394354,
        1.3289502
      ],
      [
        103.8394837,
        1.328902
      ],
      [
        103.8395414,
        1.3288644
      ],
      [
        103.8396178,
        1.3288363
      ],
      [
        103.8396956,
        1.3288215
      ],
      [
        103.8397693,
        1.3288256
      ],
      [
        103.8398552,
        1.328843
      ],
      [
        103.8399343,
        1.3288672
      ],
      [
        103.8400162,
        1.3289007
      ],
      [
        103.8402758,
        1.3290708
      ],
      [
        103.8405297,
        1.3292092
      ],
      [
        103.8405747,
        1.3292335
      ],
      [
        103.8408159,
        1.3293668
      ],
      [
        103.8411136,
        1.3295084
      ],
      [
        103.8416161,
        1.3296918
      ],
      [
        103.8420348,
        1.3297809
      ],
      [
        103.8424758,
        1.3298246
      ],
      [
        103.843847,
        1.3298279
      ],
      [
        103.8443647,
        1.3298437
      ],
      [
        103.8444784,
        1.3298471
      ],
      [
        103.8446988,
        1.3298604
      ],
      [
        103.8450586,
        1.3299291
      ],
      [
        103.845457,
        1.3299888
      ],
      [
        103.845596,
        1.3300498
      ],
      [
        103.845701,
        1.3301113
      ],
      [
        103.8457619,
        1.330176
      ],
      [
        103.8458075,
        1.330236
      ],
      [
        103.8458501,
        1.3303096
      ],
      [
        103.8459389,
        1.3306891
      ],
      [
        103.8459951,
        1.3309157
      ],
      [
        103.8461377,
        1.3314383
      ],
      [
        103.8461621,
        1.3315251
      ],
      [
        103.8461895,
        1.3316519
      ],
      [
        103.8463159,
        1.3316334
      ],
      [
        103.8464036,
        1.3316147
      ],
      [
        103.8468963,
        1.3315268
      ],
      [
        103.8473107,
        1.3314516
      ],
      [
        103.8475702,
        1.3314206
      ],
      [
        103.847546,
        1.3315009
      ],
      [
        103.8475064,
        1.3316175
      ],
      [
        103.8474931,
        1.3316237
      ],
      [
        103.84748,
        1.3316275
      ],
      [
        103.8473008,
        1.3316302
      ],
      [
        103.8470626,
        1.3316991
      ],
      [
        103.846909,
        1.3317975
      ],
      [
        103.8468287,
        1.3318605
      ],
      [
        103.8467952,
        1.3319138
      ],
      [
        103.8467217,
        1.3320515
      ],
      [
        103.8466995,
        1.3321823
      ],
      [
        103.8466995,
        1.3323142
      ],
      [
        103.8467778,
        1.332553
      ],
      [
        103.8467805,
        1.3325661
      ],
      [
        103.8467801,
        1.3325799
      ],
      [
        103.8467763,
        1.3325922
      ],
      [
        103.8467646,
        1.3326024
      ],
      [
        103.8466666,
        1.3326462
      ],
      [
        103.8465995,
        1.3326596
      ]
    ]
  }
}