{
  "type": "Feature",
  "properties": {
    "relation": 12980704,
    "direction": "1",
    "fee": "yes",
    "from": "Hougang Central Interchange",
    "name": "Svc 147A (Hougang Central Interchange → After Duxton Plain Park)",
    "name:en": "Svc 147A (Hougang Central Interchange → After Duxton Plain Park)",
    "network": "Land Transport Authority",
    "network:short": "LTA",
    "network:wikidata": "Q3299279",
    "network:wikipedia": "en:Land Transport Authority",
    "operator": "SBS Transit",
    "operator:wikidata": "Q2661305",
    "operator:wikipedia": "en:SBS Transit",
    "public_transport:version": "2",
    "ref": "147A",
    "route": "bus",
    "to": "After Duxton Plain Park",
    "type": "route",
    "website": "https://www.sbstransit.com.sg/"
  },
  "geometry": {
    "type": "LineString",
    "coordinates": [
      [
        103.8920408,
        1.3708381
      ],
      [
        103.8925391,
        1.3710094
      ],
      [
        103.8928442,
        1.3710118
      ],
      [
        103.8928812,
        1.3710002
      ],
      [
        103.8928981,
        1.3709805
      ],
      [
        103.8929055,
        1.3709381
      ],
      [
        103.892904,
        1.3707869
      ],
      [
        103.8929028,
        1.3706501
      ],
      [
        103.8928884,
        1.3706247
      ],
      [
        103.8928621,
        1.3706079
      ],
      [
        103.8928155,
        1.3705961
      ],
      [
        103.8917973,
        1.3705948
      ],
      [
        103.8916485,
        1.3706126
      ],
      [
        103.8915955,
        1.3706672
      ],
      [
        103.8915925,
        1.3709755
      ],
      [
        103.891561,
        1.3711067
      ],
      [
        103.8915485,
        1.3711349
      ],
      [
        103.8915072,
        1.3712192
      ],
      [
        103.8915606,
        1.3712446
      ],
      [
        103.8915945,
        1.3712577
      ],
      [
        103.8917736,
        1.3713274
      ],
      [
        103.8920085,
        1.3713685
      ],
      [
        103.89258,
        1.3713712
      ],
      [
        103.8928736,
        1.371367
      ],
      [
        103.8930776,
        1.3713682
      ],
      [
        103.8931346,
        1.371362
      ],
      [
        103.893209,
        1.371334
      ],
      [
        103.8932828,
        1.3712895
      ],
      [
        103.8933002,
        1.371279
      ],
      [
        103.8937186,
        1.3708818
      ],
      [
        103.8938825,
        1.370715
      ],
      [
        103.8939912,
        1.3705587
      ],
      [
        103.8940235,
        1.3704521
      ],
      [
        103.8940333,
        1.3702747
      ],
      [
        103.8940411,
        1.3701954
      ],
      [
        103.8940439,
        1.3701487
      ],
      [
        103.8940512,
        1.3701026
      ],
      [
        103.8940892,
        1.3699867
      ],
      [
        103.8941503,
        1.3699074
      ],
      [
        103.8942188,
        1.3698111
      ],
      [
        103.8943827,
        1.3695999
      ],
      [
        103.8945722,
        1.3694854
      ],
      [
        103.8946339,
        1.3694779
      ],
      [
        103.8947007,
        1.3694818
      ],
      [
        103.8948216,
        1.3695244
      ],
      [
        103.8951999,
        1.3698786
      ],
      [
        103.8952401,
        1.3699202
      ],
      [
        103.8953118,
        1.3699908
      ],
      [
        103.8956099,
        1.3702648
      ],
      [
        103.8956795,
        1.3703288
      ],
      [
        103.8956885,
        1.3703371
      ],
      [
        103.8958937,
        1.3705257
      ],
      [
        103.8962522,
        1.3708557
      ],
      [
        103.8967005,
        1.3712553
      ],
      [
        103.8968399,
        1.3713897
      ],
      [
        103.8969058,
        1.3714532
      ],
      [
        103.897271,
        1.3718006
      ],
      [
        103.8977241,
        1.372211
      ],
      [
        103.8978041,
        1.372282
      ],
      [
        103.8983496,
        1.3727642
      ],
      [
        103.8986528,
        1.3730196
      ],
      [
        103.8987089,
        1.3730677
      ],
      [
        103.8987729,
        1.3731203
      ],
      [
        103.8988893,
        1.3732212
      ],
      [
        103.8989747,
        1.3733026
      ],
      [
        103.8990491,
        1.3734748
      ],
      [
        103.8990545,
        1.3735793
      ],
      [
        103.8990473,
        1.3736446
      ],
      [
        103.8990438,
        1.3736759
      ],
      [
        103.8990062,
        1.373767
      ],
      [
        103.8989691,
        1.3738562
      ],
      [
        103.8986113,
        1.3741207
      ],
      [
        103.8981635,
        1.3744407
      ],
      [
        103.8981351,
        1.374461
      ],
      [
        103.8976711,
        1.3748354
      ],
      [
        103.8974476,
        1.3750439
      ],
      [
        103.896949,
        1.3756046
      ],
      [
        103.8968561,
        1.375708
      ],
      [
        103.8966545,
        1.3759072
      ],
      [
        103.8965115,
        1.3760477
      ],
      [
        103.8962419,
        1.3762425
      ],
      [
        103.8962226,
        1.3762564
      ],
      [
        103.8961322,
        1.3763161
      ],
      [
        103.8960917,
        1.3763389
      ],
      [
        103.8958751,
        1.376461
      ],
      [
        103.8957921,
        1.3764973
      ],
      [
        103.8953338,
        1.3766838
      ],
      [
        103.8950416,
        1.3767493
      ],
      [
        103.8949236,
        1.3767634
      ],
      [
        103.8947471,
        1.376773
      ],
      [
        103.8943373,
        1.3767724
      ],
      [
        103.8941971,
        1.3767723
      ],
      [
        103.8939371,
        1.3767793
      ],
      [
        103.8936389,
        1.3767818
      ],
      [
        103.8934369,
        1.3767835
      ],
      [
        103.89312,
        1.3767704
      ],
      [
        103.8929127,
        1.3767594
      ],
      [
        103.8928652,
        1.3767569
      ],
      [
        103.8927403,
        1.3767404
      ],
      [
        103.8926742,
        1.3767266
      ],
      [
        103.892404,
        1.3766701
      ],
      [
        103.8919563,
        1.3765613
      ],
      [
        103.8919078,
        1.37655
      ],
      [
        103.8916716,
        1.3764949
      ],
      [
        103.8913402,
        1.3764175
      ],
      [
        103.8911888,
        1.3763792
      ],
      [
        103.890596,
        1.3761819
      ],
      [
        103.8900086,
        1.3759179
      ],
      [
        103.8899277,
        1.3758752
      ],
      [
        103.8898678,
        1.3758376
      ],
      [
        103.8897831,
        1.375788
      ],
      [
        103.8896937,
        1.3757301
      ],
      [
        103.8892457,
        1.3754549
      ],
      [
        103.8888722,
        1.3751688
      ],
      [
        103.8888228,
        1.3751294
      ],
      [
        103.8885682,
        1.374936
      ],
      [
        103.8884199,
        1.3748225
      ],
      [
        103.8882932,
        1.3747254
      ],
      [
        103.8882604,
        1.3746898
      ],
      [
        103.8881729,
        1.3745946
      ],
      [
        103.8877944,
        1.3742638
      ],
      [
        103.8877528,
        1.3742252
      ],
      [
        103.887698,
        1.3741656
      ],
      [
        103.8873443,
        1.3737848
      ],
      [
        103.8871676,
        1.3735946
      ],
      [
        103.8870513,
        1.3734608
      ],
      [
        103.8869789,
        1.3733777
      ],
      [
        103.8869718,
        1.3733695
      ],
      [
        103.8868026,
        1.3731427
      ],
      [
        103.8865061,
        1.3727644
      ],
      [
        103.8864344,
        1.3726635
      ],
      [
        103.8862215,
        1.3723618
      ],
      [
        103.8860857,
        1.37215
      ],
      [
        103.8860235,
        1.3720695
      ],
      [
        103.8859619,
        1.3719939
      ],
      [
        103.8859349,
        1.3719589
      ],
      [
        103.8857658,
        1.3717255
      ],
      [
        103.8856593,
        1.3715896
      ],
      [
        103.8851901,
        1.3709294
      ],
      [
        103.8849243,
        1.3705618
      ],
      [
        103.8848418,
        1.3704699
      ],
      [
        103.8847614,
        1.3704203
      ],
      [
        103.8845983,
        1.3703557
      ],
      [
        103.8844201,
        1.3703243
      ],
      [
        103.8842717,
        1.3703371
      ],
      [
        103.8836013,
        1.3704986
      ],
      [
        103.8830936,
        1.3705914
      ],
      [
        103.8829812,
        1.3706181
      ],
      [
        103.8825842,
        1.3707087
      ],
      [
        103.8821513,
        1.370801
      ],
      [
        103.8819391,
        1.3708463
      ],
      [
        103.8817303,
        1.3708941
      ],
      [
        103.8812728,
        1.3709921
      ],
      [
        103.8809573,
        1.3710538
      ],
      [
        103.8808553,
        1.3710511
      ],
      [
        103.8806823,
        1.3710109
      ],
      [
        103.8805469,
        1.3709264
      ],
      [
        103.8804302,
        1.3708218
      ],
      [
        103.8803404,
        1.3706955
      ],
      [
        103.8802451,
        1.3704048
      ],
      [
        103.8802091,
        1.3702904
      ],
      [
        103.8800606,
        1.3696411
      ],
      [
        103.8800075,
        1.369426
      ],
      [
        103.8799923,
        1.3693583
      ],
      [
        103.8799613,
        1.3692217
      ],
      [
        103.8798375,
        1.3692515
      ],
      [
        103.8793527,
        1.3693517
      ],
      [
        103.8791241,
        1.3693693
      ],
      [
        103.8787885,
        1.3693653
      ],
      [
        103.8786683,
        1.3693494
      ],
      [
        103.878288,
        1.3693182
      ],
      [
        103.8779827,
        1.3692978
      ],
      [
        103.8775646,
        1.3692557
      ],
      [
        103.877251,
        1.3692241
      ],
      [
        103.8769867,
        1.369212
      ],
      [
        103.8768583,
        1.3691805
      ],
      [
        103.8765809,
        1.369121
      ],
      [
        103.8764928,
        1.3691025
      ],
      [
        103.8764893,
        1.3691019
      ],
      [
        103.8764354,
        1.3690777
      ],
      [
        103.8762811,
        1.3689804
      ],
      [
        103.8762356,
        1.3688227
      ],
      [
        103.8762129,
        1.3687368
      ],
      [
        103.8760887,
        1.368266
      ],
      [
        103.8760171,
        1.3680911
      ],
      [
        103.8759191,
        1.3678517
      ],
      [
        103.8759007,
        1.3678114
      ],
      [
        103.8757102,
        1.3673927
      ],
      [
        103.8756743,
        1.367311
      ],
      [
        103.8755255,
        1.3669729
      ],
      [
        103.875479,
        1.3668673
      ],
      [
        103.8753438,
        1.3665601
      ],
      [
        103.8752209,
        1.3662807
      ],
      [
        103.8751155,
        1.3660309
      ],
      [
        103.8749267,
        1.3656392
      ],
      [
        103.8744017,
        1.3645225
      ],
      [
        103.8743182,
        1.3643507
      ],
      [
        103.8741313,
        1.3639661
      ],
      [
        103.8740519,
        1.3638314
      ],
      [
        103.874024,
        1.3637744
      ],
      [
        103.8739726,
        1.3636801
      ],
      [
        103.873915,
        1.3635748
      ],
      [
        103.8737425,
        1.3632592
      ],
      [
        103.8736148,
        1.3630304
      ],
      [
        103.8735234,
        1.3628832
      ],
      [
        103.8734559,
        1.3627607
      ],
      [
        103.8734005,
        1.3626002
      ],
      [
        103.8733718,
        1.3624141
      ],
      [
        103.8733687,
        1.3623438
      ],
      [
        103.8733653,
        1.3622528
      ],
      [
        103.8733655,
        1.3622102
      ],
      [
        103.8733689,
        1.3620773
      ],
      [
        103.8733889,
        1.3619227
      ],
      [
        103.8734552,
        1.3616362
      ],
      [
        103.873496,
        1.3614947
      ],
      [
        103.8736009,
        1.3611118
      ],
      [
        103.8736084,
        1.3610859
      ],
      [
        103.8736679,
        1.360819
      ],
      [
        103.8736778,
        1.3607739
      ],
      [
        103.8737446,
        1.3604734
      ],
      [
        103.8737616,
        1.3603803
      ],
      [
        103.873913,
        1.3597183
      ],
      [
        103.87401,
        1.3593194
      ],
      [
        103.8741016,
        1.358973
      ],
      [
        103.8741624,
        1.3586926
      ],
      [
        103.8741787,
        1.3586187
      ],
      [
        103.8742052,
        1.358399
      ],
      [
        103.8742048,
        1.3582824
      ],
      [
        103.8741983,
        1.3582153
      ],
      [
        103.8741773,
        1.3579991
      ],
      [
        103.8741546,
        1.3577647
      ],
      [
        103.8741154,
        1.3573164
      ],
      [
        103.8740841,
        1.3570799
      ],
      [
        103.8740683,
        1.3569957
      ],
      [
        103.8740033,
        1.356643
      ],
      [
        103.8739317,
        1.3563613
      ],
      [
        103.8738953,
        1.3562556
      ],
      [
        103.8737945,
        1.3560351
      ],
      [
        103.8736041,
        1.3556795
      ],
      [
        103.8735732,
        1.3556228
      ],
      [
        103.8735038,
        1.3554911
      ],
      [
        103.8734713,
        1.3554211
      ],
      [
        103.8733303,
        1.355146
      ],
      [
        103.873163,
        1.3547847
      ],
      [
        103.8731012,
        1.3545664
      ],
      [
        103.8730408,
        1.3542392
      ],
      [
        103.8729262,
        1.3538382
      ],
      [
        103.8728906,
        1.3537108
      ],
      [
        103.8728338,
        1.3534606
      ],
      [
        103.872732,
        1.3527019
      ],
      [
        103.8727231,
        1.3526348
      ],
      [
        103.8726964,
        1.3524035
      ],
      [
        103.8726811,
        1.3522707
      ],
      [
        103.8726648,
        1.3519173
      ],
      [
        103.8726814,
        1.3517302
      ],
      [
        103.8727079,
        1.3516249
      ],
      [
        103.872741,
        1.3515319
      ],
      [
        103.8728051,
        1.3514011
      ],
      [
        103.8728756,
        1.3512964
      ],
      [
        103.8729208,
        1.3512267
      ],
      [
        103.8729804,
        1.3511473
      ],
      [
        103.8731549,
        1.3509147
      ],
      [
        103.8732229,
        1.3508262
      ],
      [
        103.8735912,
        1.3503872
      ],
      [
        103.8738053,
        1.3501233
      ],
      [
        103.8738231,
        1.350103
      ],
      [
        103.8739955,
        1.3499218
      ],
      [
        103.8739093,
        1.3498263
      ],
      [
        103.8738806,
        1.3497823
      ],
      [
        103.8737675,
        1.3496377
      ],
      [
        103.8733518,
        1.3491267
      ],
      [
        103.8729125,
        1.3485977
      ],
      [
        103.8728545,
        1.3485166
      ],
      [
        103.8727193,
        1.3483279
      ],
      [
        103.8726785,
        1.3482594
      ],
      [
        103.8726447,
        1.3482027
      ],
      [
        103.872613,
        1.3481462
      ],
      [
        103.8725747,
        1.3480807
      ],
      [
        103.8724776,
        1.347915
      ],
      [
        103.8722291,
        1.3474386
      ],
      [
        103.8719094,
        1.3467589
      ],
      [
        103.87181,
        1.3465476
      ],
      [
        103.8716,
        1.3462428
      ],
      [
        103.8715697,
        1.3461865
      ],
      [
        103.871551,
        1.3461472
      ],
      [
        103.8715207,
        1.3460865
      ],
      [
        103.87137,
        1.3457696
      ],
      [
        103.8710901,
        1.3451352
      ],
      [
        103.8709989,
        1.3449259
      ],
      [
        103.8709561,
        1.3448058
      ],
      [
        103.870907,
        1.3446599
      ],
      [
        103.8708778,
        1.3445659
      ],
      [
        103.8708322,
        1.344373
      ],
      [
        103.8707997,
        1.3441849
      ],
      [
        103.8708017,
        1.3440331
      ],
      [
        103.8707884,
        1.3434324
      ],
      [
        103.870787,
        1.3433679
      ],
      [
        103.8708058,
        1.3431339
      ],
      [
        103.8708294,
        1.3429235
      ],
      [
        103.8708338,
        1.3428407
      ],
      [
        103.8708413,
        1.3427018
      ],
      [
        103.8708513,
        1.3425332
      ],
      [
        103.8708575,
        1.3424883
      ],
      [
        103.8708607,
        1.3424327
      ],
      [
        103.8709259,
        1.3412878
      ],
      [
        103.8709265,
        1.3409978
      ],
      [
        103.8709175,
        1.3405859
      ],
      [
        103.8708837,
        1.3401454
      ],
      [
        103.8708801,
        1.3399771
      ],
      [
        103.8708778,
        1.3398678
      ],
      [
        103.8708753,
        1.3398075
      ],
      [
        103.8708602,
        1.3395252
      ],
      [
        103.8708224,
        1.3391503
      ],
      [
        103.8707595,
        1.3386391
      ],
      [
        103.8707397,
        1.3384785
      ],
      [
        103.8707127,
        1.3383053
      ],
      [
        103.870652,
        1.3377991
      ],
      [
        103.8706397,
        1.3376966
      ],
      [
        103.8706298,
        1.3376129
      ],
      [
        103.8705841,
        1.3372322
      ],
      [
        103.8705455,
        1.3369138
      ],
      [
        103.8705189,
        1.3366952
      ],
      [
        103.8704304,
        1.3359651
      ],
      [
        103.8703949,
        1.3356958
      ],
      [
        103.8703384,
        1.3352856
      ],
      [
        103.870297,
        1.3350716
      ],
      [
        103.870282,
        1.3349802
      ],
      [
        103.8701929,
        1.334709
      ],
      [
        103.8701576,
        1.3346127
      ],
      [
        103.8701346,
        1.3345499
      ],
      [
        103.8700657,
        1.3343618
      ],
      [
        103.8699321,
        1.3339955
      ],
      [
        103.8698786,
        1.3338535
      ],
      [
        103.8697415,
        1.3334342
      ],
      [
        103.8696751,
        1.3332031
      ],
      [
        103.8696653,
        1.3331694
      ],
      [
        103.8695299,
        1.3326808
      ],
      [
        103.8694511,
        1.3324061
      ],
      [
        103.8694272,
        1.3323272
      ],
      [
        103.8694095,
        1.3322514
      ],
      [
        103.8693104,
        1.3318885
      ],
      [
        103.8692037,
        1.3314686
      ],
      [
        103.8691531,
        1.3312085
      ],
      [
        103.8690712,
        1.330718
      ],
      [
        103.8687868,
        1.3293318
      ],
      [
        103.8687201,
        1.3289443
      ],
      [
        103.8686949,
        1.328825
      ],
      [
        103.8686778,
        1.3286611
      ],
      [
        103.8686706,
        1.3285712
      ],
      [
        103.8686687,
        1.3284862
      ],
      [
        103.8686775,
        1.3284337
      ],
      [
        103.8686952,
        1.3283934
      ],
      [
        103.8687429,
        1.3283275
      ],
      [
        103.8689773,
        1.3281257
      ],
      [
        103.868988,
        1.3280962
      ],
      [
        103.8690068,
        1.3280111
      ],
      [
        103.8689917,
        1.3278837
      ],
      [
        103.8689089,
        1.3277422
      ],
      [
        103.8686376,
        1.3275034
      ],
      [
        103.8685886,
        1.3274414
      ],
      [
        103.8684951,
        1.3273017
      ],
      [
        103.8684588,
        1.3272407
      ],
      [
        103.8684,
        1.3271235
      ],
      [
        103.8683051,
        1.3267545
      ],
      [
        103.8682597,
        1.3264147
      ],
      [
        103.8682262,
        1.326101
      ],
      [
        103.8681959,
        1.3258275
      ],
      [
        103.8681268,
        1.3253205
      ],
      [
        103.8680971,
        1.3252175
      ],
      [
        103.8679601,
        1.3248419
      ],
      [
        103.8678664,
        1.3246266
      ],
      [
        103.8677564,
        1.3244217
      ],
      [
        103.8676413,
        1.3242791
      ],
      [
        103.8675376,
        1.3241182
      ],
      [
        103.867147,
        1.3234641
      ],
      [
        103.8670952,
        1.3233919
      ],
      [
        103.8669373,
        1.3231722
      ],
      [
        103.8668847,
        1.3230917
      ],
      [
        103.8666751,
        1.3227711
      ],
      [
        103.8666125,
        1.3226753
      ],
      [
        103.8664631,
        1.3224467
      ],
      [
        103.8661408,
        1.3219536
      ],
      [
        103.8660947,
        1.3218831
      ],
      [
        103.8660281,
        1.3217852
      ],
      [
        103.8658927,
        1.3215863
      ],
      [
        103.8658086,
        1.3214627
      ],
      [
        103.8656597,
        1.3212547
      ],
      [
        103.8654353,
        1.3209213
      ],
      [
        103.8653116,
        1.3207378
      ],
      [
        103.8652389,
        1.320618
      ],
      [
        103.865193,
        1.3205467
      ],
      [
        103.8651456,
        1.3204741
      ],
      [
        103.8650098,
        1.3202547
      ],
      [
        103.8649269,
        1.3201287
      ],
      [
        103.8646836,
        1.3197595
      ],
      [
        103.864523,
        1.3195123
      ],
      [
        103.8643553,
        1.3192499
      ],
      [
        103.8642982,
        1.3191668
      ],
      [
        103.8642337,
        1.3190691
      ],
      [
        103.8639992,
        1.3187239
      ],
      [
        103.8639829,
        1.3186998
      ],
      [
        103.8638751,
        1.3185566
      ],
      [
        103.8638482,
        1.3185208
      ],
      [
        103.8637878,
        1.3184404
      ],
      [
        103.8635364,
        1.3181103
      ],
      [
        103.8634868,
        1.318046
      ],
      [
        103.8633808,
        1.3178995
      ],
      [
        103.8633325,
        1.3178328
      ],
      [
        103.8632899,
        1.3177786
      ],
      [
        103.863064,
        1.3174899
      ],
      [
        103.8630312,
        1.317448
      ],
      [
        103.8626408,
        1.3169331
      ],
      [
        103.8626036,
        1.316887
      ],
      [
        103.8625461,
        1.3168179
      ],
      [
        103.8625129,
        1.3167779
      ],
      [
        103.8624028,
        1.3166338
      ],
      [
        103.8621208,
        1.3162715
      ],
      [
        103.8617778,
        1.3158225
      ],
      [
        103.8615546,
        1.3155289
      ],
      [
        103.8615352,
        1.3155043
      ],
      [
        103.8611962,
        1.3150581
      ],
      [
        103.8611268,
        1.3149647
      ],
      [
        103.8610647,
        1.3148828
      ],
      [
        103.860936,
        1.3147129
      ],
      [
        103.8608088,
        1.3145373
      ],
      [
        103.8606487,
        1.3143331
      ],
      [
        103.8604587,
        1.3141108
      ],
      [
        103.8603993,
        1.3140413
      ],
      [
        103.8602816,
        1.3139015
      ],
      [
        103.8602135,
        1.3138181
      ],
      [
        103.8601443,
        1.3137281
      ],
      [
        103.8600655,
        1.3136025
      ],
      [
        103.8599335,
        1.3133546
      ],
      [
        103.8598823,
        1.3131665
      ],
      [
        103.8598679,
        1.3131134
      ],
      [
        103.8598543,
        1.3130637
      ],
      [
        103.8597988,
        1.3128599
      ],
      [
        103.8597129,
        1.3124671
      ],
      [
        103.8596264,
        1.3121601
      ],
      [
        103.8596204,
        1.3121373
      ],
      [
        103.8595694,
        1.3119818
      ],
      [
        103.85946,
        1.3117554
      ],
      [
        103.8594148,
        1.3116733
      ],
      [
        103.8593696,
        1.3116008
      ],
      [
        103.8593085,
        1.31151
      ],
      [
        103.8592174,
        1.3113803
      ],
      [
        103.8591985,
        1.3113517
      ],
      [
        103.8590758,
        1.3111584
      ],
      [
        103.8588146,
        1.3107897
      ],
      [
        103.8587351,
        1.3106732
      ],
      [
        103.8587057,
        1.3106301
      ],
      [
        103.8586304,
        1.310518
      ],
      [
        103.8586023,
        1.3104748
      ],
      [
        103.8582388,
        1.3098963
      ],
      [
        103.8578848,
        1.3093936
      ],
      [
        103.8578612,
        1.3093599
      ],
      [
        103.8578193,
        1.3093002
      ],
      [
        103.8577479,
        1.3091849
      ],
      [
        103.8574841,
        1.3087701
      ],
      [
        103.8572997,
        1.3084804
      ],
      [
        103.8571362,
        1.3082267
      ],
      [
        103.8569255,
        1.307896
      ],
      [
        103.856862,
        1.3077962
      ],
      [
        103.8566791,
        1.307519
      ],
      [
        103.8566247,
        1.3074365
      ],
      [
        103.8564912,
        1.3072412
      ],
      [
        103.8563169,
        1.3069592
      ],
      [
        103.8561389,
        1.3066952
      ],
      [
        103.8559981,
        1.3064665
      ],
      [
        103.8559588,
        1.3064085
      ],
      [
        103.8559349,
        1.3063681
      ],
      [
        103.8558424,
        1.3062118
      ],
      [
        103.8557831,
        1.3061088
      ],
      [
        103.8556605,
        1.3059212
      ],
      [
        103.8553877,
        1.3054986
      ],
      [
        103.8553086,
        1.3053662
      ],
      [
        103.855281,
        1.3053257
      ],
      [
        103.8552167,
        1.3052265
      ],
      [
        103.855125,
        1.3050849
      ],
      [
        103.8549517,
        1.3048172
      ],
      [
        103.8548921,
        1.3047252
      ],
      [
        103.8547118,
        1.3044468
      ],
      [
        103.854663,
        1.3043714
      ],
      [
        103.8545175,
        1.3041482
      ],
      [
        103.8543823,
        1.3039379
      ],
      [
        103.854247,
        1.3037276
      ],
      [
        103.8542356,
        1.3037095
      ],
      [
        103.8541924,
        1.3036427
      ],
      [
        103.8541233,
        1.3035274
      ],
      [
        103.8540728,
        1.303456
      ],
      [
        103.8539882,
        1.3033235
      ],
      [
        103.8539788,
        1.3033081
      ],
      [
        103.8537299,
        1.3029936
      ],
      [
        103.8536275,
        1.3028645
      ],
      [
        103.8534955,
        1.3027101
      ],
      [
        103.8533584,
        1.3025524
      ],
      [
        103.8533474,
        1.3025388
      ],
      [
        103.8532555,
        1.3024247
      ],
      [
        103.8531709,
        1.302327
      ],
      [
        103.8531273,
        1.3022723
      ],
      [
        103.8530616,
        1.3021909
      ],
      [
        103.8526881,
        1.3017213
      ],
      [
        103.8525876,
        1.3015881
      ],
      [
        103.852365,
        1.3013094
      ],
      [
        103.8520426,
        1.3009086
      ],
      [
        103.8519986,
        1.3008548
      ],
      [
        103.851739,
        1.3005217
      ],
      [
        103.8517202,
        1.3004928
      ],
      [
        103.8516212,
        1.3003614
      ],
      [
        103.8515765,
        1.3003084
      ],
      [
        103.8514147,
        1.3001046
      ],
      [
        103.8510932,
        1.2997268
      ],
      [
        103.8509438,
        1.2995518
      ],
      [
        103.8507974,
        1.2993745
      ],
      [
        103.8505069,
        1.2990397
      ],
      [
        103.8504346,
        1.298955
      ],
      [
        103.8502048,
        1.2986857
      ],
      [
        103.8501484,
        1.2986196
      ],
      [
        103.8500779,
        1.298537
      ],
      [
        103.8500678,
        1.2985252
      ],
      [
        103.8498774,
        1.298302
      ],
      [
        103.8498602,
        1.2982819
      ],
      [
        103.8498458,
        1.298265
      ],
      [
        103.8498195,
        1.2981714
      ],
      [
        103.8497895,
        1.2981021
      ],
      [
        103.8497283,
        1.2979751
      ],
      [
        103.8497162,
        1.2979314
      ],
      [
        103.8497117,
        1.2978971
      ],
      [
        103.8497106,
        1.2978687
      ],
      [
        103.8497135,
        1.2978359
      ],
      [
        103.8497208,
        1.2977928
      ],
      [
        103.8499544,
        1.2976056
      ],
      [
        103.850139,
        1.2974549
      ],
      [
        103.8502759,
        1.2973461
      ],
      [
        103.8503328,
        1.2973008
      ],
      [
        103.8506353,
        1.2970604
      ],
      [
        103.8506786,
        1.297026
      ],
      [
        103.8508325,
        1.2969036
      ],
      [
        103.8508556,
        1.2968853
      ],
      [
        103.8510876,
        1.2967008
      ],
      [
        103.8511117,
        1.2966816
      ],
      [
        103.8518683,
        1.2960619
      ],
      [
        103.8519011,
        1.2960284
      ],
      [
        103.8520195,
        1.2959364
      ],
      [
        103.8519278,
        1.2958444
      ],
      [
        103.851599,
        1.2955226
      ],
      [
        103.8514429,
        1.2953687
      ],
      [
        103.8512933,
        1.2952201
      ],
      [
        103.8511716,
        1.2950884
      ],
      [
        103.8510325,
        1.2949436
      ],
      [
        103.8510045,
        1.2949119
      ],
      [
        103.8507044,
        1.2945533
      ],
      [
        103.8506392,
        1.2944574
      ],
      [
        103.8505784,
        1.2943594
      ],
      [
        103.8504251,
        1.2940855
      ],
      [
        103.8501782,
        1.293633
      ],
      [
        103.850161,
        1.2936023
      ],
      [
        103.8501578,
        1.2935921
      ],
      [
        103.850061,
        1.2934243
      ],
      [
        103.8499291,
        1.2931764
      ],
      [
        103.8498462,
        1.2929921
      ],
      [
        103.8497589,
        1.2927982
      ],
      [
        103.8496728,
        1.2925727
      ],
      [
        103.8496373,
        1.2924796
      ],
      [
        103.8495883,
        1.2923329
      ],
      [
        103.8495756,
        1.2922771
      ],
      [
        103.8494611,
        1.292003
      ],
      [
        103.8494039,
        1.2918865
      ],
      [
        103.8493872,
        1.2918539
      ],
      [
        103.849306,
        1.291695
      ],
      [
        103.8492588,
        1.291595
      ],
      [
        103.8492028,
        1.2914764
      ],
      [
        103.8491934,
        1.2914565
      ],
      [
        103.8491754,
        1.2914186
      ],
      [
        103.8491648,
        1.2913961
      ],
      [
        103.8490743,
        1.2912115
      ],
      [
        103.8489885,
        1.2910365
      ],
      [
        103.8489707,
        1.2910001
      ],
      [
        103.8489484,
        1.2909612
      ],
      [
        103.8487494,
        1.2906141
      ],
      [
        103.8486578,
        1.2904743
      ],
      [
        103.8484568,
        1.2902105
      ],
      [
        103.8484334,
        1.2901798
      ],
      [
        103.8483644,
        1.2900874
      ],
      [
        103.8482911,
        1.2900039
      ],
      [
        103.8478777,
        1.2894749
      ],
      [
        103.8478651,
        1.2894585
      ],
      [
        103.8477418,
        1.2892977
      ],
      [
        103.8476781,
        1.2892162
      ],
      [
        103.8475494,
        1.2890411
      ],
      [
        103.8471637,
        1.288563
      ],
      [
        103.8468287,
        1.2881805
      ],
      [
        103.8467611,
        1.288099
      ],
      [
        103.8466323,
        1.2879436
      ],
      [
        103.8465743,
        1.2878759
      ],
      [
        103.8465058,
        1.2877959
      ],
      [
        103.8461528,
        1.2873755
      ],
      [
        103.8460811,
        1.2872905
      ],
      [
        103.8460152,
        1.2872123
      ],
      [
        103.8457809,
        1.2869328
      ],
      [
        103.8456731,
        1.286801
      ],
      [
        103.8456556,
        1.286781
      ],
      [
        103.8455703,
        1.2866833
      ],
      [
        103.8455675,
        1.28668
      ],
      [
        103.845559,
        1.28667
      ],
      [
        103.8455456,
        1.286654
      ],
      [
        103.8455278,
        1.286633
      ],
      [
        103.8455067,
        1.2866081
      ],
      [
        103.8454837,
        1.2865809
      ],
      [
        103.84546,
        1.2865528
      ],
      [
        103.8454369,
        1.2865255
      ],
      [
        103.8454159,
        1.2865006
      ],
      [
        103.8453982,
        1.2864796
      ],
      [
        103.8453847,
        1.2864636
      ],
      [
        103.8453763,
        1.2864537
      ],
      [
        103.8453734,
        1.2864503
      ],
      [
        103.8452986,
        1.2863606
      ],
      [
        103.8451925,
        1.2862278
      ],
      [
        103.8450553,
        1.286056
      ],
      [
        103.8448139,
        1.2857773
      ],
      [
        103.8447149,
        1.2856634
      ],
      [
        103.8445171,
        1.285424
      ],
      [
        103.844474,
        1.2853697
      ],
      [
        103.8441884,
        1.2850626
      ],
      [
        103.844041,
        1.2848916
      ],
      [
        103.8439798,
        1.2848055
      ],
      [
        103.8438788,
        1.2846779
      ],
      [
        103.8436784,
        1.2844355
      ],
      [
        103.8436168,
        1.2843631
      ],
      [
        103.8433167,
        1.2840131
      ],
      [
        103.8432633,
        1.2839475
      ],
      [
        103.8432298,
        1.2839081
      ],
      [
        103.8429491,
        1.283578
      ],
      [
        103.8427006,
        1.283286
      ],
      [
        103.8426141,
        1.2831793
      ],
      [
        103.8425474,
        1.2830949
      ],
      [
        103.8423006,
        1.2828
      ],
      [
        103.8421034,
        1.2825578
      ],
      [
        103.8417113,
        1.2820654
      ],
      [
        103.8416494,
        1.2820003
      ],
      [
        103.841603,
        1.281947
      ],
      [
        103.8413927,
        1.281683
      ],
      [
        103.8413544,
        1.2816357
      ],
      [
        103.8411238,
        1.2813545
      ],
      [
        103.8409135,
        1.2811041
      ]
    ]
  }
}