{
  "type": "Feature",
  "properties": {
    "relation": 1147812,
    "direction": "1",
    "fee": "yes",
    "from": "Bedok Interchange",
    "name": "Svc 14 (Bedok Interchange → Clementi Interchange)",
    "name:en": "Svc 14 (Bedok Interchange → Clementi Interchange)",
    "network": "Land Transport Authority",
    "network:short": "LTA",
    "network:wikidata": "Q3299279",
    "network:wikipedia": "en:Land Transport Authority",
    "operator": "SBS Transit",
    "operator:wikidata": "Q2661305",
    "operator:wikipedia": "en:SBS Transit",
    "public_transport:version": "2",
    "ref": "14",
    "route": "bus",
    "to": "Clementi Interchange",
    "type": "route",
    "website": "https://www.sbstransit.com.sg/"
  },
  "geometry": {
    "type": "LineString",
    "coordinates": [
      [
        103.9287434,
        1.3243349
      ],
      [
        103.9286633,
        1.3246525
      ],
      [
        103.9285775,
        1.3249788
      ],
      [
        103.9285491,
        1.3251158
      ],
      [
        103.9285131,
        1.3252416
      ],
      [
        103.9284986,
        1.3253227
      ],
      [
        103.9286722,
        1.3253554
      ],
      [
        103.928857,
        1.3253939
      ],
      [
        103.9289667,
        1.3254191
      ],
      [
        103.9290742,
        1.3254496
      ],
      [
        103.9292107,
        1.3254998
      ],
      [
        103.9293081,
        1.3255439
      ],
      [
        103.929396,
        1.3255854
      ],
      [
        103.9295489,
        1.3256598
      ],
      [
        103.9295776,
        1.3256736
      ],
      [
        103.9297195,
        1.3257419
      ],
      [
        103.9297302,
        1.3257476
      ],
      [
        103.9297759,
        1.3257759
      ],
      [
        103.9297912,
        1.3257857
      ],
      [
        103.9298057,
        1.3257968
      ],
      [
        103.9298192,
        1.325809
      ],
      [
        103.9298316,
        1.3258223
      ],
      [
        103.9298428,
        1.3258366
      ],
      [
        103.9298529,
        1.3258518
      ],
      [
        103.9298617,
        1.3258677
      ],
      [
        103.9298691,
        1.3258843
      ],
      [
        103.9298751,
        1.3259015
      ],
      [
        103.9298797,
        1.3259191
      ],
      [
        103.9298829,
        1.325937
      ],
      [
        103.9298845,
        1.3259551
      ],
      [
        103.9298846,
        1.3259733
      ],
      [
        103.9298832,
        1.3259914
      ],
      [
        103.9298804,
        1.3260094
      ],
      [
        103.929876,
        1.326027
      ],
      [
        103.9298702,
        1.3260443
      ],
      [
        103.9297984,
        1.3262085
      ],
      [
        103.9296435,
        1.3265591
      ],
      [
        103.9296291,
        1.3265917
      ],
      [
        103.9296022,
        1.3266528
      ],
      [
        103.9296684,
        1.3266811
      ],
      [
        103.929711,
        1.3267009
      ],
      [
        103.9301952,
        1.3269306
      ],
      [
        103.9304529,
        1.3270503
      ],
      [
        103.9310258,
        1.3273166
      ],
      [
        103.9310624,
        1.3273336
      ],
      [
        103.931166,
        1.327375
      ],
      [
        103.931244,
        1.3274022
      ],
      [
        103.9313096,
        1.3274211
      ],
      [
        103.9318127,
        1.3275701
      ],
      [
        103.931935,
        1.3276026
      ],
      [
        103.9321588,
        1.3276475
      ],
      [
        103.9323601,
        1.3276822
      ],
      [
        103.9325302,
        1.3277109
      ],
      [
        103.9326276,
        1.3277215
      ],
      [
        103.9328214,
        1.3277445
      ],
      [
        103.9329612,
        1.3277546
      ],
      [
        103.9330687,
        1.3277597
      ],
      [
        103.9335646,
        1.3277722
      ],
      [
        103.9335934,
        1.3277729
      ],
      [
        103.9338299,
        1.327778
      ],
      [
        103.9340931,
        1.3277852
      ],
      [
        103.9342842,
        1.3277919
      ],
      [
        103.9345602,
        1.3278217
      ],
      [
        103.9348919,
        1.327869
      ],
      [
        103.9349995,
        1.3278833
      ],
      [
        103.9349724,
        1.3280191
      ],
      [
        103.9347919,
        1.3288919
      ],
      [
        103.9347124,
        1.3292783
      ],
      [
        103.9346217,
        1.3297168
      ],
      [
        103.9345768,
        1.3299365
      ],
      [
        103.9345633,
        1.3299975
      ],
      [
        103.9344584,
        1.3304729
      ],
      [
        103.9344299,
        1.330602
      ],
      [
        103.9342871,
        1.3312364
      ],
      [
        103.9342688,
        1.3313253
      ],
      [
        103.9342433,
        1.3314484
      ],
      [
        103.9342179,
        1.3315626
      ],
      [
        103.9343148,
        1.3315838
      ],
      [
        103.9343844,
        1.3315988
      ],
      [
        103.9345494,
        1.3316336
      ],
      [
        103.9351607,
        1.3317793
      ],
      [
        103.9356134,
        1.3318809
      ],
      [
        103.9356761,
        1.331895
      ],
      [
        103.9357381,
        1.3319091
      ],
      [
        103.9359377,
        1.3319547
      ],
      [
        103.9360163,
        1.3319727
      ],
      [
        103.936356,
        1.3320556
      ],
      [
        103.9365981,
        1.3320868
      ],
      [
        103.9367724,
        1.3321026
      ],
      [
        103.9369675,
        1.3320979
      ],
      [
        103.937042,
        1.3320938
      ],
      [
        103.9372315,
        1.3320789
      ],
      [
        103.9374119,
        1.3320511
      ],
      [
        103.9376066,
        1.3320223
      ],
      [
        103.9376872,
        1.3320081
      ],
      [
        103.937717,
        1.3320016
      ],
      [
        103.9378799,
        1.3319388
      ],
      [
        103.938033,
        1.3318799
      ],
      [
        103.9382963,
        1.3317786
      ],
      [
        103.9384371,
        1.3317021
      ],
      [
        103.9386718,
        1.3315586
      ],
      [
        103.9388896,
        1.3314237
      ],
      [
        103.9389722,
        1.3313583
      ],
      [
        103.9391278,
        1.3312188
      ],
      [
        103.9392225,
        1.3311099
      ],
      [
        103.9393113,
        1.3309905
      ],
      [
        103.939338,
        1.330951
      ],
      [
        103.9394254,
        1.3308074
      ],
      [
        103.9394607,
        1.3307495
      ],
      [
        103.9395503,
        1.3305355
      ],
      [
        103.9396138,
        1.330384
      ],
      [
        103.9397327,
        1.3297793
      ],
      [
        103.9398021,
        1.3294176
      ],
      [
        103.9398547,
        1.3291474
      ],
      [
        103.9398811,
        1.3290057
      ],
      [
        103.9399342,
        1.3287129
      ],
      [
        103.9399612,
        1.3285668
      ],
      [
        103.9400162,
        1.3282688
      ],
      [
        103.94004,
        1.3281402
      ],
      [
        103.9401229,
        1.3277336
      ],
      [
        103.9401338,
        1.32768
      ],
      [
        103.9401451,
        1.3276181
      ],
      [
        103.9401562,
        1.3275567
      ],
      [
        103.9403604,
        1.326435
      ],
      [
        103.9404219,
        1.3260891
      ],
      [
        103.9404454,
        1.3259758
      ],
      [
        103.9405052,
        1.3256402
      ],
      [
        103.9405677,
        1.3255841
      ],
      [
        103.9406058,
        1.3255545
      ],
      [
        103.9406634,
        1.3255198
      ],
      [
        103.9407023,
        1.3254987
      ],
      [
        103.9407416,
        1.3254833
      ],
      [
        103.9408077,
        1.3254625
      ],
      [
        103.9415771,
        1.3256484
      ],
      [
        103.9419508,
        1.3257673
      ],
      [
        103.9425193,
        1.325961
      ],
      [
        103.9425711,
        1.3259787
      ],
      [
        103.9431323,
        1.3261871
      ],
      [
        103.9433348,
        1.3262611
      ],
      [
        103.9436924,
        1.3263927
      ],
      [
        103.943805,
        1.3264322
      ],
      [
        103.9438962,
        1.3264652
      ],
      [
        103.943909,
        1.3264696
      ],
      [
        103.9440296,
        1.3265148
      ],
      [
        103.9441014,
        1.3265429
      ],
      [
        103.9443297,
        1.3266505
      ],
      [
        103.9443516,
        1.3266613
      ],
      [
        103.9445137,
        1.3267415
      ],
      [
        103.9447371,
        1.3268478
      ],
      [
        103.9450759,
        1.3270153
      ],
      [
        103.9455529,
        1.3272412
      ],
      [
        103.9462483,
        1.3275028
      ],
      [
        103.9470368,
        1.3278027
      ],
      [
        103.947274,
        1.3278971
      ],
      [
        103.9478221,
        1.3280664
      ],
      [
        103.9481334,
        1.3282485
      ],
      [
        103.9484832,
        1.328403
      ],
      [
        103.949076,
        1.3285302
      ],
      [
        103.9494907,
        1.3285937
      ],
      [
        103.9495833,
        1.3286141
      ],
      [
        103.9496765,
        1.3286405
      ],
      [
        103.9498754,
        1.3284453
      ],
      [
        103.9499654,
        1.3283331
      ],
      [
        103.9500296,
        1.3282446
      ],
      [
        103.9501682,
        1.3280535
      ],
      [
        103.9502615,
        1.3279196
      ],
      [
        103.9503753,
        1.3277747
      ],
      [
        103.9504288,
        1.3277065
      ],
      [
        103.9504787,
        1.3276406
      ],
      [
        103.9507137,
        1.3273187
      ],
      [
        103.9507535,
        1.3272301
      ],
      [
        103.9508451,
        1.3271047
      ],
      [
        103.95108,
        1.3267836
      ],
      [
        103.9512587,
        1.3265436
      ],
      [
        103.9514546,
        1.3262675
      ],
      [
        103.951537,
        1.3261613
      ],
      [
        103.9516779,
        1.3259797
      ],
      [
        103.9520478,
        1.3255031
      ],
      [
        103.9521684,
        1.3253389
      ],
      [
        103.952355,
        1.3250849
      ],
      [
        103.9524972,
        1.3248914
      ],
      [
        103.9525992,
        1.3247635
      ],
      [
        103.9527167,
        1.3246079
      ],
      [
        103.9531249,
        1.3240672
      ],
      [
        103.9531639,
        1.3240155
      ],
      [
        103.953241,
        1.3239205
      ],
      [
        103.9536028,
        1.3234535
      ],
      [
        103.9537417,
        1.3232742
      ],
      [
        103.9538972,
        1.323073
      ],
      [
        103.9540314,
        1.3228862
      ],
      [
        103.9543023,
        1.3225323
      ],
      [
        103.9546463,
        1.322083
      ],
      [
        103.9549537,
        1.3217091
      ],
      [
        103.9549921,
        1.3216623
      ],
      [
        103.9550215,
        1.3216299
      ],
      [
        103.9550366,
        1.3216115
      ],
      [
        103.9550902,
        1.3215449
      ],
      [
        103.9551469,
        1.3214797
      ],
      [
        103.9552346,
        1.3213761
      ],
      [
        103.9553602,
        1.321205
      ],
      [
        103.9555121,
        1.3210053
      ],
      [
        103.9555454,
        1.3209611
      ],
      [
        103.9555805,
        1.3209168
      ],
      [
        103.9558054,
        1.3206164
      ],
      [
        103.955873,
        1.3205269
      ],
      [
        103.9559242,
        1.3204521
      ],
      [
        103.9560023,
        1.3203468
      ],
      [
        103.9560764,
        1.3202032
      ],
      [
        103.956089,
        1.3200715
      ],
      [
        103.9560612,
        1.3200008
      ],
      [
        103.9560281,
        1.319936
      ],
      [
        103.9559777,
        1.3198961
      ],
      [
        103.9559659,
        1.3198894
      ],
      [
        103.9559218,
        1.3198642
      ],
      [
        103.9555742,
        1.3197299
      ],
      [
        103.9554398,
        1.3196729
      ],
      [
        103.9550759,
        1.3195221
      ],
      [
        103.9548381,
        1.3193737
      ],
      [
        103.954793,
        1.3193477
      ],
      [
        103.9547657,
        1.3193313
      ],
      [
        103.9545624,
        1.3192439
      ],
      [
        103.9541291,
        1.3190933
      ],
      [
        103.9537701,
        1.3189165
      ],
      [
        103.9531986,
        1.3186013
      ],
      [
        103.9529382,
        1.3185302
      ],
      [
        103.9523151,
        1.3183171
      ],
      [
        103.9522327,
        1.3182951
      ],
      [
        103.9521173,
        1.3182637
      ],
      [
        103.9516141,
        1.3181373
      ],
      [
        103.951384,
        1.3180777
      ],
      [
        103.9513473,
        1.3180685
      ],
      [
        103.9512415,
        1.3180419
      ],
      [
        103.950974,
        1.3179717
      ],
      [
        103.9507112,
        1.3178843
      ],
      [
        103.950495,
        1.3178231
      ],
      [
        103.9502674,
        1.3177401
      ],
      [
        103.9500475,
        1.3176812
      ],
      [
        103.9495543,
        1.3175445
      ],
      [
        103.949404,
        1.3175207
      ],
      [
        103.9490031,
        1.317445
      ],
      [
        103.9488392,
        1.3174282
      ],
      [
        103.9486853,
        1.317396
      ],
      [
        103.9486132,
        1.3173693
      ],
      [
        103.9484625,
        1.3173135
      ],
      [
        103.9483795,
        1.3172828
      ],
      [
        103.9483186,
        1.3172603
      ],
      [
        103.9482871,
        1.3172486
      ],
      [
        103.9480566,
        1.3171919
      ],
      [
        103.9478439,
        1.3171376
      ],
      [
        103.9477222,
        1.3171057
      ],
      [
        103.9473539,
        1.3170065
      ],
      [
        103.9472703,
        1.3169773
      ],
      [
        103.9469637,
        1.3168643
      ],
      [
        103.9468356,
        1.3168162
      ],
      [
        103.9467178,
        1.3167768
      ],
      [
        103.9460069,
        1.316542
      ],
      [
        103.945798,
        1.3164857
      ],
      [
        103.9456912,
        1.3164581
      ],
      [
        103.945478,
        1.3164031
      ],
      [
        103.945434,
        1.3163918
      ],
      [
        103.9453836,
        1.3163774
      ],
      [
        103.9453179,
        1.3163596
      ],
      [
        103.9452613,
        1.3163445
      ],
      [
        103.9450316,
        1.3162851
      ],
      [
        103.9447109,
        1.3161856
      ],
      [
        103.9446183,
        1.3161529
      ],
      [
        103.9445728,
        1.3161372
      ],
      [
        103.9444735,
        1.316103
      ],
      [
        103.9443443,
        1.3160523
      ],
      [
        103.9441955,
        1.3159754
      ],
      [
        103.9440056,
        1.3158595
      ],
      [
        103.94373,
        1.315667
      ],
      [
        103.943691,
        1.3156483
      ],
      [
        103.9436341,
        1.3156256
      ],
      [
        103.943622,
        1.3156206
      ],
      [
        103.9433233,
        1.3155131
      ],
      [
        103.9429199,
        1.315368
      ],
      [
        103.9423397,
        1.3151982
      ],
      [
        103.9421812,
        1.3151557
      ],
      [
        103.9416354,
        1.3150466
      ],
      [
        103.9414629,
        1.3150202
      ],
      [
        103.9413167,
        1.3149961
      ],
      [
        103.9410821,
        1.3149575
      ],
      [
        103.9410492,
        1.3149525
      ],
      [
        103.9409615,
        1.314935
      ],
      [
        103.9404575,
        1.3148763
      ],
      [
        103.9403746,
        1.314864
      ],
      [
        103.9402701,
        1.3148487
      ],
      [
        103.9401605,
        1.3148345
      ],
      [
        103.9397153,
        1.3147775
      ],
      [
        103.939513,
        1.3147529
      ],
      [
        103.9394721,
        1.3147483
      ],
      [
        103.9392747,
        1.3147225
      ],
      [
        103.9389962,
        1.3146847
      ],
      [
        103.9389368,
        1.3146784
      ],
      [
        103.9389066,
        1.3146753
      ],
      [
        103.9388088,
        1.3146627
      ],
      [
        103.9386847,
        1.3146492
      ],
      [
        103.9386435,
        1.3146446
      ],
      [
        103.9384184,
        1.3146193
      ],
      [
        103.9383581,
        1.3146125
      ],
      [
        103.9383141,
        1.3146082
      ],
      [
        103.9380756,
        1.3145892
      ],
      [
        103.9380117,
        1.3145841
      ],
      [
        103.9378409,
        1.3145667
      ],
      [
        103.9377815,
        1.3145607
      ],
      [
        103.9372854,
        1.3145081
      ],
      [
        103.9372212,
        1.3145013
      ],
      [
        103.9364456,
        1.3144172
      ],
      [
        103.9363546,
        1.3144068
      ],
      [
        103.93574,
        1.3143367
      ],
      [
        103.9354692,
        1.3143019
      ],
      [
        103.9348526,
        1.3142216
      ],
      [
        103.934587,
        1.3141919
      ],
      [
        103.9344568,
        1.3141766
      ],
      [
        103.9341575,
        1.3141436
      ],
      [
        103.9339795,
        1.3141253
      ],
      [
        103.9338079,
        1.3141137
      ],
      [
        103.9337335,
        1.3141089
      ],
      [
        103.933615,
        1.3140901
      ],
      [
        103.9335372,
        1.3140802
      ],
      [
        103.933369,
        1.3140683
      ],
      [
        103.9330595,
        1.3140409
      ],
      [
        103.9328564,
        1.3140214
      ],
      [
        103.9327404,
        1.3140157
      ],
      [
        103.9325951,
        1.3140078
      ],
      [
        103.9325134,
        1.3140024
      ],
      [
        103.932269,
        1.3139861
      ],
      [
        103.9321004,
        1.3139747
      ],
      [
        103.9319141,
        1.3139608
      ],
      [
        103.9315824,
        1.3139206
      ],
      [
        103.9313642,
        1.3138942
      ],
      [
        103.9311663,
        1.3138648
      ],
      [
        103.9310466,
        1.3138464
      ],
      [
        103.9309877,
        1.3138373
      ],
      [
        103.9309383,
        1.3138263
      ],
      [
        103.9307459,
        1.3137837
      ],
      [
        103.93052,
        1.3137317
      ],
      [
        103.9303376,
        1.3136916
      ],
      [
        103.9301405,
        1.3136455
      ],
      [
        103.9297806,
        1.3135321
      ],
      [
        103.9295577,
        1.313461
      ],
      [
        103.9294785,
        1.3134395
      ],
      [
        103.9289053,
        1.3132821
      ],
      [
        103.9286808,
        1.3132222
      ],
      [
        103.9283708,
        1.3131764
      ],
      [
        103.9281152,
        1.3131425
      ],
      [
        103.9281025,
        1.3131391
      ],
      [
        103.9280211,
        1.3131223
      ],
      [
        103.9277447,
        1.3130788
      ],
      [
        103.9275759,
        1.3130505
      ],
      [
        103.9273082,
        1.313008
      ],
      [
        103.9272216,
        1.3129905
      ],
      [
        103.9271846,
        1.3129834
      ],
      [
        103.9271554,
        1.3129791
      ],
      [
        103.9268829,
        1.312934
      ],
      [
        103.9268457,
        1.3129284
      ],
      [
        103.9267731,
        1.3129147
      ],
      [
        103.9264302,
        1.3128526
      ],
      [
        103.9262875,
        1.3128294
      ],
      [
        103.92611,
        1.3128008
      ],
      [
        103.925911,
        1.3127633
      ],
      [
        103.9257187,
        1.3127272
      ],
      [
        103.925558,
        1.3126976
      ],
      [
        103.9253344,
        1.3126551
      ],
      [
        103.9251203,
        1.3126157
      ],
      [
        103.92502,
        1.3125973
      ],
      [
        103.9245982,
        1.3125247
      ],
      [
        103.9244926,
        1.3124996
      ],
      [
        103.9244599,
        1.3124923
      ],
      [
        103.9242994,
        1.3124528
      ],
      [
        103.9241141,
        1.3124223
      ],
      [
        103.9238899,
        1.312373
      ],
      [
        103.9237816,
        1.3123413
      ],
      [
        103.9236628,
        1.3123023
      ],
      [
        103.9234894,
        1.312237
      ],
      [
        103.9231472,
        1.3120932
      ],
      [
        103.9228296,
        1.3119598
      ],
      [
        103.9227377,
        1.3119212
      ],
      [
        103.9226991,
        1.311905
      ],
      [
        103.9220343,
        1.3116256
      ],
      [
        103.9218739,
        1.3115654
      ],
      [
        103.9218234,
        1.3115464
      ],
      [
        103.9216142,
        1.3115252
      ],
      [
        103.9213986,
        1.3114976
      ],
      [
        103.9211583,
        1.3114669
      ],
      [
        103.9208806,
        1.3114278
      ],
      [
        103.9206185,
        1.3113923
      ],
      [
        103.9205754,
        1.3113865
      ],
      [
        103.9204831,
        1.3113556
      ],
      [
        103.9203424,
        1.3112897
      ],
      [
        103.9200343,
        1.3111453
      ],
      [
        103.9199845,
        1.311122
      ],
      [
        103.9199273,
        1.3110967
      ],
      [
        103.9185847,
        1.310502
      ],
      [
        103.918527,
        1.3104765
      ],
      [
        103.9184919,
        1.3104612
      ],
      [
        103.9179403,
        1.310221
      ],
      [
        103.9177288,
        1.3101314
      ],
      [
        103.9173713,
        1.3099934
      ],
      [
        103.9172229,
        1.3099372
      ],
      [
        103.9171511,
        1.3099212
      ],
      [
        103.9161683,
        1.309724
      ],
      [
        103.91611,
        1.3097115
      ],
      [
        103.915653,
        1.3096254
      ],
      [
        103.9153399,
        1.3095541
      ],
      [
        103.9146521,
        1.3094157
      ],
      [
        103.9143771,
        1.3093642
      ],
      [
        103.9141625,
        1.3093202
      ],
      [
        103.9140357,
        1.3092962
      ],
      [
        103.9137479,
        1.3092329
      ],
      [
        103.9133631,
        1.3091541
      ],
      [
        103.9131519,
        1.3091125
      ],
      [
        103.9130303,
        1.3090882
      ],
      [
        103.9128253,
        1.3090472
      ],
      [
        103.912763,
        1.3090348
      ],
      [
        103.9126631,
        1.3090142
      ],
      [
        103.9124119,
        1.3089611
      ],
      [
        103.9123552,
        1.3089487
      ],
      [
        103.9122904,
        1.3089378
      ],
      [
        103.9122134,
        1.3089214
      ],
      [
        103.9119026,
        1.3088567
      ],
      [
        103.9116036,
        1.3087936
      ],
      [
        103.9113066,
        1.3087293
      ],
      [
        103.9111133,
        1.3086912
      ],
      [
        103.9109973,
        1.3086656
      ],
      [
        103.9107003,
        1.3086044
      ],
      [
        103.9103142,
        1.3085287
      ],
      [
        103.9102102,
        1.3085068
      ],
      [
        103.9100269,
        1.3084681
      ],
      [
        103.9099623,
        1.3084555
      ],
      [
        103.9095406,
        1.3083732
      ],
      [
        103.9093947,
        1.3083451
      ],
      [
        103.9087158,
        1.3081962
      ],
      [
        103.9086552,
        1.308183
      ],
      [
        103.90854,
        1.308147
      ],
      [
        103.9084508,
        1.3081116
      ],
      [
        103.9082711,
        1.308033
      ],
      [
        103.9080899,
        1.3079528
      ],
      [
        103.907914,
        1.3078584
      ],
      [
        103.9076003,
        1.3076727
      ],
      [
        103.9075851,
        1.3076631
      ],
      [
        103.9072725,
        1.3074567
      ],
      [
        103.9070915,
        1.3073355
      ],
      [
        103.9069191,
        1.3072172
      ],
      [
        103.9068455,
        1.3071659
      ],
      [
        103.9066889,
        1.3070566
      ],
      [
        103.9062272,
        1.3067346
      ],
      [
        103.9060999,
        1.3066531
      ],
      [
        103.9058091,
        1.3064669
      ],
      [
        103.9057415,
        1.3064236
      ],
      [
        103.9050555,
        1.3059603
      ],
      [
        103.904976,
        1.3059051
      ],
      [
        103.9048706,
        1.305862
      ],
      [
        103.9047522,
        1.305794
      ],
      [
        103.9044441,
        1.305596
      ],
      [
        103.9042849,
        1.3054821
      ],
      [
        103.9041343,
        1.3053904
      ],
      [
        103.9039011,
        1.3052425
      ],
      [
        103.9038661,
        1.3052221
      ],
      [
        103.9036928,
        1.3051117
      ],
      [
        103.9035267,
        1.3050056
      ],
      [
        103.9033192,
        1.3048692
      ],
      [
        103.9032811,
        1.3048422
      ],
      [
        103.9032524,
        1.3048232
      ],
      [
        103.9030024,
        1.30466
      ],
      [
        103.902966,
        1.3046368
      ],
      [
        103.9029262,
        1.3046146
      ],
      [
        103.9027803,
        1.3045137
      ],
      [
        103.9026214,
        1.3044085
      ],
      [
        103.902499,
        1.3043245
      ],
      [
        103.9022013,
        1.3041322
      ],
      [
        103.9020393,
        1.3040242
      ],
      [
        103.90203,
        1.304018
      ],
      [
        103.9019412,
        1.3039592
      ],
      [
        103.9016712,
        1.3037805
      ],
      [
        103.9012569,
        1.3034783
      ],
      [
        103.9012142,
        1.3034528
      ],
      [
        103.9011088,
        1.3033901
      ],
      [
        103.9010723,
        1.3033727
      ],
      [
        103.9006224,
        1.3031524
      ],
      [
        103.900556,
        1.303121
      ],
      [
        103.9005036,
        1.3031005
      ],
      [
        103.9004301,
        1.3030699
      ],
      [
        103.900256,
        1.3029975
      ],
      [
        103.8994217,
        1.3026286
      ],
      [
        103.8991976,
        1.302532
      ],
      [
        103.898963,
        1.3024356
      ],
      [
        103.8988397,
        1.30239
      ],
      [
        103.8987287,
        1.3023541
      ],
      [
        103.8985534,
        1.3022979
      ],
      [
        103.8982425,
        1.3022175
      ],
      [
        103.897646,
        1.3020647
      ],
      [
        103.8972611,
        1.3019743
      ],
      [
        103.8971845,
        1.3019553
      ],
      [
        103.8970817,
        1.3019275
      ],
      [
        103.8970117,
        1.3019073
      ],
      [
        103.8966965,
        1.3018125
      ],
      [
        103.8966323,
        1.3017935
      ],
      [
        103.8962902,
        1.3016847
      ],
      [
        103.8961359,
        1.3016683
      ],
      [
        103.8961359,
        1.3016683
      ],
      [
        103.8938804,
        1.30098
      ],
      [
        103.8946273,
        1.3012075
      ],
      [
        103.8937808,
        1.3009487
      ],
      [
        103.8938376,
        1.3009665
      ],
      [
        103.8937433,
        1.3009369
      ],
      [
        103.8932727,
        1.3007838
      ],
      [
        103.892783,
        1.30062
      ],
      [
        103.8909733,
        1.3000444
      ],
      [
        103.8910668,
        1.3000721
      ],
      [
        103.8916252,
        1.3002601
      ],
      [
        103.8917519,
        1.3003028
      ],
      [
        103.8906416,
        1.3000266
      ],
      [
        103.8907515,
        1.3000175
      ],
      [
        103.8908631,
        1.3000209
      ],
      [
        103.8901465,
        1.3001598
      ],
      [
        103.8899115,
        1.3002223
      ],
      [
        103.8891772,
        1.3004177
      ],
      [
        103.8886258,
        1.3005679
      ],
      [
        103.887966,
        1.300714
      ],
      [
        103.8878319,
        1.3007261
      ],
      [
        103.8877618,
        1.300732
      ],
      [
        103.8876473,
        1.3007416
      ],
      [
        103.886889,
        1.3007938
      ],
      [
        103.8861816,
        1.3008191
      ],
      [
        103.8859499,
        1.3008199
      ],
      [
        103.8856794,
        1.30084
      ],
      [
        103.8856133,
        1.3008439
      ],
      [
        103.8854758,
        1.3008541
      ],
      [
        103.8853083,
        1.300878
      ],
      [
        103.8852409,
        1.3008916
      ],
      [
        103.8851735,
        1.300912
      ],
      [
        103.8850815,
        1.3009447
      ],
      [
        103.8850221,
        1.3009771
      ],
      [
        103.8849907,
        1.3009993
      ],
      [
        103.8849572,
        1.3010241
      ],
      [
        103.8849146,
        1.3010581
      ],
      [
        103.8848616,
        1.3011068
      ],
      [
        103.8848178,
        1.3011597
      ],
      [
        103.8847616,
        1.3012413
      ],
      [
        103.8847275,
        1.3013077
      ],
      [
        103.8847027,
        1.301365
      ],
      [
        103.8846742,
        1.3014709
      ],
      [
        103.8846635,
        1.3015218
      ],
      [
        103.884648,
        1.3016324
      ],
      [
        103.8846294,
        1.3019622
      ],
      [
        103.8846073,
        1.3023552
      ],
      [
        103.8846052,
        1.3023927
      ],
      [
        103.8845967,
        1.3025437
      ],
      [
        103.8845827,
        1.3027722
      ],
      [
        103.8845743,
        1.3029084
      ],
      [
        103.8845357,
        1.3031879
      ],
      [
        103.8844804,
        1.3034075
      ],
      [
        103.8843725,
        1.30366
      ],
      [
        103.8842728,
        1.3038641
      ],
      [
        103.8840675,
        1.3041644
      ],
      [
        103.8839716,
        1.3042728
      ],
      [
        103.8838915,
        1.3043632
      ],
      [
        103.8838272,
        1.3044292
      ],
      [
        103.8835877,
        1.3046748
      ],
      [
        103.8833861,
        1.3048758
      ],
      [
        103.8829594,
        1.3053067
      ],
      [
        103.882711,
        1.3055273
      ],
      [
        103.8824591,
        1.3057105
      ],
      [
        103.882234,
        1.3058792
      ],
      [
        103.8821597,
        1.3059349
      ],
      [
        103.8820085,
        1.3060496
      ],
      [
        103.8819605,
        1.3060898
      ],
      [
        103.8814191,
        1.3064662
      ],
      [
        103.8812781,
        1.3065642
      ],
      [
        103.8808809,
        1.3067903
      ],
      [
        103.8800163,
        1.3071667
      ],
      [
        103.8796753,
        1.307291
      ],
      [
        103.8794025,
        1.3073871
      ],
      [
        103.8784093,
        1.3077281
      ],
      [
        103.878235,
        1.3077114
      ],
      [
        103.8780599,
        1.3077061
      ],
      [
        103.8778849,
        1.3077122
      ],
      [
        103.8777899,
        1.3077201
      ],
      [
        103.8777248,
        1.307722
      ],
      [
        103.8775584,
        1.3077144
      ],
      [
        103.8772681,
        1.3076563
      ],
      [
        103.8771718,
        1.3076235
      ],
      [
        103.8770232,
        1.3075492
      ],
      [
        103.8769463,
        1.3074489
      ],
      [
        103.8767653,
        1.307264
      ],
      [
        103.8766002,
        1.3071405
      ],
      [
        103.8764581,
        1.3070593
      ],
      [
        103.8762835,
        1.3069851
      ],
      [
        103.8762132,
        1.3069622
      ],
      [
        103.8760991,
        1.306933
      ],
      [
        103.8758244,
        1.3068999
      ],
      [
        103.8754671,
        1.3068705
      ],
      [
        103.87418,
        1.3067478
      ],
      [
        103.8740337,
        1.3067401
      ],
      [
        103.8733581,
        1.3067044
      ],
      [
        103.8728913,
        1.3066797
      ],
      [
        103.8724926,
        1.3066017
      ],
      [
        103.8719482,
        1.306408
      ],
      [
        103.8717118,
        1.3062943
      ],
      [
        103.8712747,
        1.3060573
      ],
      [
        103.8707696,
        1.3056888
      ],
      [
        103.8706556,
        1.3056151
      ],
      [
        103.8697104,
        1.3049754
      ],
      [
        103.8664617,
        1.3028935
      ],
      [
        103.8653177,
        1.3021435
      ],
      [
        103.8644309,
        1.301492
      ],
      [
        103.863578,
        1.3008276
      ],
      [
        103.8633847,
        1.3006881
      ],
      [
        103.8627948,
        1.3002555
      ],
      [
        103.862124,
        1.2997661
      ],
      [
        103.8620786,
        1.2997349
      ],
      [
        103.8604936,
        1.2985897
      ],
      [
        103.8603755,
        1.2984992
      ],
      [
        103.8600474,
        1.298256
      ],
      [
        103.8598604,
        1.2980982
      ],
      [
        103.8596201,
        1.297875
      ],
      [
        103.859408,
        1.297675
      ],
      [
        103.8592229,
        1.297491
      ],
      [
        103.8589223,
        1.2971794
      ],
      [
        103.8586156,
        1.2968487
      ],
      [
        103.8584176,
        1.2966396
      ],
      [
        103.8582386,
        1.2964436
      ],
      [
        103.8580287,
        1.2962023
      ],
      [
        103.8578971,
        1.2960495
      ],
      [
        103.8578133,
        1.295947
      ],
      [
        103.8576765,
        1.29577
      ],
      [
        103.857493,
        1.2955215
      ],
      [
        103.8574446,
        1.2954443
      ],
      [
        103.8570723,
        1.2948938
      ],
      [
        103.8569292,
        1.2946814
      ],
      [
        103.8567243,
        1.2943125
      ],
      [
        103.8566525,
        1.2941832
      ],
      [
        103.8564369,
        1.2938238
      ],
      [
        103.8560303,
        1.2931753
      ],
      [
        103.8559769,
        1.2930831
      ],
      [
        103.8555084,
        1.2922383
      ],
      [
        103.8553627,
        1.291989
      ],
      [
        103.8552421,
        1.2917631
      ],
      [
        103.8550495,
        1.2914024
      ],
      [
        103.8550077,
        1.291324
      ],
      [
        103.8548655,
        1.2914505
      ],
      [
        103.8547543,
        1.2915628
      ],
      [
        103.854655,
        1.291663
      ],
      [
        103.854467,
        1.2918487
      ],
      [
        103.8543182,
        1.2920088
      ],
      [
        103.8540982,
        1.2922316
      ],
      [
        103.8540891,
        1.2922407
      ],
      [
        103.8539328,
        1.2923967
      ],
      [
        103.8539248,
        1.2924047
      ],
      [
        103.8537917,
        1.2924912
      ],
      [
        103.8536185,
        1.2926038
      ],
      [
        103.8535223,
        1.292673
      ],
      [
        103.8534486,
        1.2927191
      ],
      [
        103.8533555,
        1.2927768
      ],
      [
        103.8530891,
        1.2929424
      ],
      [
        103.8527436,
        1.2931673
      ],
      [
        103.8524616,
        1.2933496
      ],
      [
        103.8521111,
        1.29352
      ],
      [
        103.8520179,
        1.293583
      ],
      [
        103.8519693,
        1.2936139
      ],
      [
        103.8519427,
        1.2936308
      ],
      [
        103.8514419,
        1.2939483
      ],
      [
        103.8512127,
        1.2940937
      ],
      [
        103.8507394,
        1.2943939
      ],
      [
        103.8506392,
        1.2944574
      ],
      [
        103.850537,
        1.2945195
      ],
      [
        103.8504482,
        1.2945744
      ],
      [
        103.8500724,
        1.2947904
      ],
      [
        103.8498643,
        1.2949103
      ],
      [
        103.8497726,
        1.2949616
      ],
      [
        103.8498427,
        1.2950632
      ],
      [
        103.8499071,
        1.2951595
      ],
      [
        103.8500682,
        1.295408
      ],
      [
        103.8501005,
        1.2954538
      ],
      [
        103.8501542,
        1.2956288
      ],
      [
        103.850167,
        1.2957264
      ],
      [
        103.8501551,
        1.2957919
      ],
      [
        103.8501379,
        1.2958404
      ],
      [
        103.8500815,
        1.2959029
      ],
      [
        103.8499393,
        1.2960308
      ],
      [
        103.8498669,
        1.2960857
      ],
      [
        103.8497607,
        1.2961709
      ],
      [
        103.8496626,
        1.296267
      ],
      [
        103.8496288,
        1.2962958
      ],
      [
        103.8495715,
        1.2963588
      ],
      [
        103.8495213,
        1.2964195
      ],
      [
        103.8494384,
        1.2965304
      ],
      [
        103.8492526,
        1.2968242
      ],
      [
        103.8491267,
        1.2970113
      ],
      [
        103.8490578,
        1.2971187
      ],
      [
        103.8489855,
        1.2972167
      ],
      [
        103.8489258,
        1.2972882
      ],
      [
        103.8488639,
        1.2973425
      ],
      [
        103.8487422,
        1.2974409
      ],
      [
        103.8486291,
        1.2975236
      ],
      [
        103.8483977,
        1.2976929
      ],
      [
        103.8481278,
        1.2979092
      ],
      [
        103.8480569,
        1.2979702
      ],
      [
        103.8479612,
        1.298048
      ],
      [
        103.847712,
        1.2982594
      ],
      [
        103.8476785,
        1.2982819
      ],
      [
        103.8476472,
        1.2982994
      ],
      [
        103.8476202,
        1.2983082
      ],
      [
        103.8475925,
        1.2983147
      ],
      [
        103.8475616,
        1.2983173
      ],
      [
        103.8475318,
        1.2983164
      ],
      [
        103.8474774,
        1.2983158
      ],
      [
        103.8474447,
        1.2983154
      ],
      [
        103.8473864,
        1.2983067
      ],
      [
        103.847315,
        1.2982863
      ],
      [
        103.8472539,
        1.2982572
      ],
      [
        103.8472,
        1.2982179
      ],
      [
        103.8470101,
        1.298026
      ],
      [
        103.8469634,
        1.2979805
      ],
      [
        103.846857,
        1.2979174
      ],
      [
        103.8467533,
        1.2978736
      ],
      [
        103.8466612,
        1.297858
      ],
      [
        103.8465491,
        1.2978528
      ],
      [
        103.8463648,
        1.2979067
      ],
      [
        103.8459222,
        1.2980223
      ],
      [
        103.8456438,
        1.2981218
      ],
      [
        103.845528,
        1.2982164
      ],
      [
        103.8453722,
        1.2983141
      ],
      [
        103.8453384,
        1.2983289
      ],
      [
        103.845117,
        1.2983968
      ],
      [
        103.8449889,
        1.2983988
      ],
      [
        103.8448834,
        1.2983585
      ],
      [
        103.8447787,
        1.2983861
      ],
      [
        103.8445262,
        1.2984601
      ],
      [
        103.844475,
        1.2984751
      ],
      [
        103.8443111,
        1.2985359
      ],
      [
        103.8441591,
        1.2985922
      ],
      [
        103.843808,
        1.2987681
      ],
      [
        103.8436442,
        1.2988513
      ],
      [
        103.8433675,
        1.2990247
      ],
      [
        103.8431461,
        1.2991707
      ],
      [
        103.8429945,
        1.2992651
      ],
      [
        103.8427006,
        1.2994319
      ],
      [
        103.8425245,
        1.2995386
      ],
      [
        103.8425042,
        1.2995482
      ],
      [
        103.8423939,
        1.2996002
      ],
      [
        103.8422907,
        1.2996393
      ],
      [
        103.8421078,
        1.2996735
      ],
      [
        103.8419558,
        1.2997034
      ],
      [
        103.8416714,
        1.2997552
      ],
      [
        103.8416394,
        1.2997589
      ],
      [
        103.8415857,
        1.2997687
      ],
      [
        103.8414658,
        1.2997943
      ],
      [
        103.8409955,
        1.2998956
      ],
      [
        103.8406914,
        1.2999586
      ],
      [
        103.8405432,
        1.2999911
      ],
      [
        103.8404913,
        1.3000021
      ],
      [
        103.8404144,
        1.3000213
      ],
      [
        103.8403176,
        1.3000465
      ],
      [
        103.8402867,
        1.3000532
      ],
      [
        103.8401977,
        1.3000711
      ],
      [
        103.840108,
        1.3000912
      ],
      [
        103.8398887,
        1.3001362
      ],
      [
        103.8394433,
        1.3002335
      ],
      [
        103.8391674,
        1.3002938
      ],
      [
        103.8390588,
        1.3003175
      ],
      [
        103.8386463,
        1.3004076
      ],
      [
        103.8384943,
        1.3004403
      ],
      [
        103.8383906,
        1.3004626
      ],
      [
        103.8381287,
        1.3005188
      ],
      [
        103.8379596,
        1.3005587
      ],
      [
        103.8378941,
        1.300573
      ],
      [
        103.8376267,
        1.3006332
      ],
      [
        103.8373671,
        1.3006861
      ],
      [
        103.8372326,
        1.3007142
      ],
      [
        103.8369933,
        1.3007768
      ],
      [
        103.8368637,
        1.3008075
      ],
      [
        103.8368154,
        1.3008166
      ],
      [
        103.8368029,
        1.3008102
      ],
      [
        103.8367205,
        1.3008021
      ],
      [
        103.8365659,
        1.3007726
      ],
      [
        103.8364751,
        1.3007427
      ],
      [
        103.8363012,
        1.3006655
      ],
      [
        103.8361168,
        1.3004766
      ],
      [
        103.8360495,
        1.3003827
      ],
      [
        103.8359432,
        1.3002864
      ],
      [
        103.8357684,
        1.3001968
      ],
      [
        103.8357486,
        1.3001932
      ],
      [
        103.8355448,
        1.3001582
      ],
      [
        103.8354594,
        1.3001868
      ],
      [
        103.8352477,
        1.3002555
      ],
      [
        103.8351245,
        1.3002963
      ],
      [
        103.8349172,
        1.3003675
      ],
      [
        103.8348361,
        1.3004088
      ],
      [
        103.8347585,
        1.3004512
      ],
      [
        103.8346068,
        1.3005663
      ],
      [
        103.8343688,
        1.3007583
      ],
      [
        103.8335171,
        1.3016338
      ],
      [
        103.8329462,
        1.3021969
      ],
      [
        103.8328781,
        1.3022697
      ],
      [
        103.8322002,
        1.3028788
      ],
      [
        103.8321743,
        1.302902
      ],
      [
        103.8321285,
        1.3029446
      ],
      [
        103.8318567,
        1.3031763
      ],
      [
        103.8317984,
        1.3032199
      ],
      [
        103.8316434,
        1.303334
      ],
      [
        103.8314278,
        1.303472
      ],
      [
        103.8311565,
        1.303581
      ],
      [
        103.8310547,
        1.3036115
      ],
      [
        103.8309872,
        1.3036209
      ],
      [
        103.8309231,
        1.3036156
      ],
      [
        103.8308646,
        1.3035938
      ],
      [
        103.8308321,
        1.3035697
      ],
      [
        103.8306549,
        1.3033617
      ],
      [
        103.8306015,
        1.3033237
      ],
      [
        103.8304669,
        1.3032869
      ],
      [
        103.8304051,
        1.3031836
      ],
      [
        103.8302861,
        1.3029974
      ],
      [
        103.8302017,
        1.3028531
      ],
      [
        103.830172,
        1.3028036
      ],
      [
        103.8301489,
        1.3027666
      ],
      [
        103.8300856,
        1.3026542
      ],
      [
        103.8297013,
        1.3019737
      ],
      [
        103.8296093,
        1.3018158
      ],
      [
        103.8295509,
        1.3016799
      ],
      [
        103.8295083,
        1.3015597
      ],
      [
        103.8294525,
        1.3013232
      ],
      [
        103.8294285,
        1.3011735
      ],
      [
        103.8294282,
        1.3011444
      ],
      [
        103.8294255,
        1.3008642
      ],
      [
        103.8294481,
        1.3007334
      ],
      [
        103.829517,
        1.3005153
      ],
      [
        103.8297073,
        1.3000805
      ],
      [
        103.8298153,
        1.2998521
      ],
      [
        103.8299323,
        1.2996047
      ],
      [
        103.8300147,
        1.2994291
      ],
      [
        103.8300464,
        1.2993613
      ],
      [
        103.8300868,
        1.2992759
      ],
      [
        103.8301392,
        1.299172
      ],
      [
        103.8301815,
        1.2990276
      ],
      [
        103.8302552,
        1.2988058
      ],
      [
        103.8303115,
        1.2985041
      ],
      [
        103.8304013,
        1.2980203
      ],
      [
        103.8304268,
        1.2978475
      ],
      [
        103.8304668,
        1.2976499
      ],
      [
        103.830497,
        1.2975096
      ],
      [
        103.8305376,
        1.2973609
      ],
      [
        103.8306271,
        1.2970912
      ],
      [
        103.8307337,
        1.2968524
      ],
      [
        103.8309003,
        1.296587
      ],
      [
        103.8310873,
        1.2963579
      ],
      [
        103.8311841,
        1.2962393
      ],
      [
        103.8312828,
        1.2961107
      ],
      [
        103.8313357,
        1.2960418
      ],
      [
        103.8313997,
        1.2959584
      ],
      [
        103.8312632,
        1.2959036
      ],
      [
        103.8309627,
        1.2957816
      ],
      [
        103.8307828,
        1.2957212
      ],
      [
        103.8305033,
        1.2956289
      ],
      [
        103.8303526,
        1.295577
      ],
      [
        103.8302696,
        1.2955474
      ],
      [
        103.8298501,
        1.295399
      ],
      [
        103.8292969,
        1.2951941
      ],
      [
        103.8292365,
        1.2951659
      ],
      [
        103.8292067,
        1.2951481
      ],
      [
        103.8291407,
        1.2951137
      ],
      [
        103.8290255,
        1.2950433
      ],
      [
        103.8288646,
        1.294935
      ],
      [
        103.828776,
        1.2948733
      ],
      [
        103.8286934,
        1.2948128
      ],
      [
        103.8285459,
        1.2947099
      ],
      [
        103.8285241,
        1.2946932
      ],
      [
        103.8281286,
        1.2944099
      ],
      [
        103.8279448,
        1.2942797
      ],
      [
        103.8278707,
        1.2942278
      ],
      [
        103.8277895,
        1.2941704
      ],
      [
        103.8275693,
        1.2940162
      ],
      [
        103.827503,
        1.2939698
      ],
      [
        103.8274186,
        1.2939095
      ],
      [
        103.8269257,
        1.2935572
      ],
      [
        103.8268165,
        1.2934795
      ],
      [
        103.8266956,
        1.2933938
      ],
      [
        103.826396,
        1.2932043
      ],
      [
        103.82631,
        1.2931347
      ],
      [
        103.8262345,
        1.2930581
      ],
      [
        103.8261397,
        1.2929403
      ],
      [
        103.8260955,
        1.2928545
      ],
      [
        103.8260653,
        1.2927957
      ],
      [
        103.8260405,
        1.2927363
      ],
      [
        103.8260313,
        1.292708
      ],
      [
        103.8259895,
        1.2925372
      ],
      [
        103.8259871,
        1.2925119
      ],
      [
        103.8259688,
        1.292288
      ],
      [
        103.8259684,
        1.2922749
      ],
      [
        103.8259661,
        1.2922113
      ],
      [
        103.8259679,
        1.2921405
      ],
      [
        103.8259736,
        1.2920251
      ],
      [
        103.8260016,
        1.2918442
      ],
      [
        103.8260407,
        1.2916839
      ],
      [
        103.8260833,
        1.2915299
      ],
      [
        103.826122,
        1.2914088
      ],
      [
        103.8261789,
        1.2912509
      ],
      [
        103.8262036,
        1.2911824
      ],
      [
        103.826262,
        1.2909981
      ],
      [
        103.8262956,
        1.2908949
      ],
      [
        103.826312,
        1.2908134
      ],
      [
        103.8263204,
        1.2906942
      ],
      [
        103.8263149,
        1.2906191
      ],
      [
        103.8263053,
        1.2905015
      ],
      [
        103.8262925,
        1.2904347
      ],
      [
        103.8262284,
        1.2902141
      ],
      [
        103.8261656,
        1.2900503
      ],
      [
        103.8260692,
        1.2898517
      ],
      [
        103.8259454,
        1.2895685
      ],
      [
        103.82581,
        1.2891949
      ],
      [
        103.8257045,
        1.2888729
      ],
      [
        103.8256733,
        1.2887143
      ],
      [
        103.8256649,
        1.2886718
      ],
      [
        103.8256442,
        1.288563
      ],
      [
        103.8255673,
        1.2881198
      ],
      [
        103.8255612,
        1.2880756
      ],
      [
        103.8254863,
        1.2873949
      ],
      [
        103.8254499,
        1.28705
      ],
      [
        103.8254303,
        1.2867892
      ],
      [
        103.8254069,
        1.2865875
      ],
      [
        103.8254001,
        1.2865288
      ],
      [
        103.8253917,
        1.2864564
      ],
      [
        103.8253817,
        1.2863433
      ],
      [
        103.8253733,
        1.2862639
      ],
      [
        103.8253647,
        1.2862061
      ],
      [
        103.8253264,
        1.2858487
      ],
      [
        103.8252797,
        1.2854474
      ],
      [
        103.8252557,
        1.285241
      ],
      [
        103.8251965,
        1.284821
      ],
      [
        103.825174,
        1.284653
      ],
      [
        103.825076,
        1.2843789
      ],
      [
        103.8249446,
        1.2840002
      ],
      [
        103.8248206,
        1.2837038
      ],
      [
        103.8247135,
        1.2834849
      ],
      [
        103.8245984,
        1.2832526
      ],
      [
        103.8243172,
        1.2826767
      ],
      [
        103.8242451,
        1.282535
      ],
      [
        103.824193,
        1.2824326
      ],
      [
        103.8240992,
        1.2822673
      ],
      [
        103.8239891,
        1.2820126
      ],
      [
        103.8239474,
        1.2819041
      ],
      [
        103.823905,
        1.2817687
      ],
      [
        103.823755,
        1.2818302
      ],
      [
        103.8236875,
        1.2818584
      ],
      [
        103.8232647,
        1.282047
      ],
      [
        103.8232085,
        1.2820717
      ],
      [
        103.8228908,
        1.282213
      ],
      [
        103.8224627,
        1.2824034
      ],
      [
        103.8222316,
        1.2825051
      ],
      [
        103.8219571,
        1.282626
      ],
      [
        103.8217156,
        1.2827395
      ],
      [
        103.8214672,
        1.2828461
      ],
      [
        103.8211945,
        1.2829464
      ],
      [
        103.8210422,
        1.282991
      ],
      [
        103.820938,
        1.2830267
      ],
      [
        103.8207219,
        1.2831008
      ],
      [
        103.8203106,
        1.2832419
      ],
      [
        103.8202409,
        1.2832657
      ],
      [
        103.8201228,
        1.2833062
      ],
      [
        103.8200518,
        1.2833338
      ],
      [
        103.8197647,
        1.2834289
      ],
      [
        103.8194117,
        1.2835499
      ],
      [
        103.8193397,
        1.2835727
      ],
      [
        103.8187553,
        1.2837473
      ],
      [
        103.818657,
        1.2837767
      ],
      [
        103.8186035,
        1.2837927
      ],
      [
        103.8185613,
        1.2838031
      ],
      [
        103.8181798,
        1.2839184
      ],
      [
        103.818003,
        1.2839652
      ],
      [
        103.8179427,
        1.2839813
      ],
      [
        103.8173586,
        1.284137
      ],
      [
        103.8170525,
        1.2842186
      ],
      [
        103.8168613,
        1.2842696
      ],
      [
        103.8166179,
        1.2843345
      ],
      [
        103.8165347,
        1.2843567
      ],
      [
        103.8162559,
        1.284431
      ],
      [
        103.8160169,
        1.2844947
      ],
      [
        103.8157253,
        1.2845725
      ],
      [
        103.8153989,
        1.2846595
      ],
      [
        103.8149474,
        1.2847799
      ],
      [
        103.8145277,
        1.2848918
      ],
      [
        103.8144462,
        1.2849132
      ],
      [
        103.8143204,
        1.2849468
      ],
      [
        103.8142733,
        1.2849593
      ],
      [
        103.8140671,
        1.2850143
      ],
      [
        103.8137694,
        1.285094
      ],
      [
        103.8136945,
        1.285114
      ],
      [
        103.8133844,
        1.2851966
      ],
      [
        103.8128569,
        1.2853373
      ],
      [
        103.8124218,
        1.2854533
      ],
      [
        103.8121255,
        1.2855323
      ],
      [
        103.8114163,
        1.2857244
      ],
      [
        103.8111207,
        1.2857826
      ],
      [
        103.8108443,
        1.2858181
      ],
      [
        103.81051,
        1.2858604
      ],
      [
        103.8104739,
        1.2858642
      ],
      [
        103.8103569,
        1.2858762
      ],
      [
        103.8102505,
        1.2858872
      ],
      [
        103.8101434,
        1.2858983
      ],
      [
        103.8099149,
        1.2859218
      ],
      [
        103.8096922,
        1.2859448
      ],
      [
        103.8092929,
        1.2859816
      ],
      [
        103.8091529,
        1.2860004
      ],
      [
        103.8091165,
        1.2860043
      ],
      [
        103.8088205,
        1.2860375
      ],
      [
        103.8083684,
        1.2860882
      ],
      [
        103.8083244,
        1.2860922
      ],
      [
        103.8082925,
        1.2860959
      ],
      [
        103.8078203,
        1.2861423
      ],
      [
        103.8075184,
        1.286174
      ],
      [
        103.8071326,
        1.2862173
      ],
      [
        103.8068562,
        1.2862573
      ],
      [
        103.8067712,
        1.2862693
      ],
      [
        103.8065729,
        1.2862988
      ],
      [
        103.8063745,
        1.2863362
      ],
      [
        103.8060607,
        1.2863882
      ],
      [
        103.8060113,
        1.2864011
      ],
      [
        103.8057075,
        1.2864907
      ],
      [
        103.8055076,
        1.2865839
      ],
      [
        103.8054411,
        1.2866143
      ],
      [
        103.8053833,
        1.2866475
      ],
      [
        103.8051283,
        1.2868014
      ],
      [
        103.8050387,
        1.2868646
      ],
      [
        103.8049766,
        1.2869115
      ],
      [
        103.804864,
        1.2870216
      ],
      [
        103.8047538,
        1.2871446
      ],
      [
        103.804569,
        1.2872048
      ],
      [
        103.8044587,
        1.2872405
      ],
      [
        103.8043679,
        1.2872595
      ],
      [
        103.8042917,
        1.2872635
      ],
      [
        103.8040823,
        1.2872571
      ],
      [
        103.8036051,
        1.2869685
      ],
      [
        103.803484,
        1.2868999
      ],
      [
        103.8031738,
        1.2866575
      ],
      [
        103.8030197,
        1.2864683
      ],
      [
        103.8029872,
        1.2864204
      ],
      [
        103.8028733,
        1.2862526
      ],
      [
        103.8026074,
        1.2857913
      ],
      [
        103.8023676,
        1.2853773
      ],
      [
        103.8023453,
        1.2853388
      ],
      [
        103.8023233,
        1.2853007
      ],
      [
        103.8022867,
        1.2852375
      ],
      [
        103.8022698,
        1.2852084
      ],
      [
        103.8022491,
        1.2851726
      ],
      [
        103.8021445,
        1.2849795
      ],
      [
        103.8020985,
        1.284898
      ],
      [
        103.8020027,
        1.2847282
      ],
      [
        103.8019863,
        1.2846999
      ],
      [
        103.8019615,
        1.2846571
      ],
      [
        103.8019193,
        1.284584
      ],
      [
        103.8018909,
        1.2845351
      ],
      [
        103.8018711,
        1.2845008
      ],
      [
        103.801557,
        1.2839032
      ],
      [
        103.8015247,
        1.2838417
      ],
      [
        103.8014171,
        1.2837509
      ],
      [
        103.8012884,
        1.2836171
      ],
      [
        103.8011918,
        1.283581
      ],
      [
        103.8010794,
        1.2835797
      ],
      [
        103.8007102,
        1.2837382
      ],
      [
        103.8001525,
        1.2841032
      ],
      [
        103.799729,
        1.2843692
      ],
      [
        103.7993857,
        1.2846095
      ],
      [
        103.7988982,
        1.2850005
      ],
      [
        103.7987631,
        1.2851236
      ],
      [
        103.7987088,
        1.2851733
      ],
      [
        103.7986927,
        1.2851927
      ],
      [
        103.7986833,
        1.2852101
      ],
      [
        103.7986739,
        1.2852255
      ],
      [
        103.7986695,
        1.2852416
      ],
      [
        103.7986652,
        1.2852567
      ],
      [
        103.7986637,
        1.2852693
      ],
      [
        103.7980644,
        1.2856717
      ],
      [
        103.7966797,
        1.2866012
      ],
      [
        103.7963672,
        1.2867782
      ],
      [
        103.7961352,
        1.2869216
      ],
      [
        103.7950771,
        1.2875029
      ],
      [
        103.7950127,
        1.2875028
      ],
      [
        103.7949671,
        1.2875088
      ],
      [
        103.7946358,
        1.2876604
      ],
      [
        103.7941214,
        1.2879176
      ],
      [
        103.7939823,
        1.2879897
      ],
      [
        103.7938445,
        1.2880611
      ],
      [
        103.7937458,
        1.2881123
      ],
      [
        103.7933642,
        1.2883225
      ],
      [
        103.7931703,
        1.2884518
      ],
      [
        103.7930028,
        1.2885716
      ],
      [
        103.7927737,
        1.288755
      ],
      [
        103.7927131,
        1.2888084
      ],
      [
        103.7926628,
        1.2888461
      ],
      [
        103.7926151,
        1.2888848
      ],
      [
        103.7925883,
        1.2889065
      ],
      [
        103.7925006,
        1.2889774
      ],
      [
        103.7922922,
        1.2891513
      ],
      [
        103.7920092,
        1.2893938
      ],
      [
        103.7917709,
        1.289598
      ],
      [
        103.791636,
        1.2897136
      ],
      [
        103.7914518,
        1.2898714
      ],
      [
        103.791095,
        1.2901772
      ],
      [
        103.7904426,
        1.2906334
      ],
      [
        103.789756,
        1.2911522
      ],
      [
        103.7887097,
        1.2918265
      ],
      [
        103.788507,
        1.2919468
      ],
      [
        103.7877731,
        1.2924602
      ],
      [
        103.7876983,
        1.2924526
      ],
      [
        103.7875956,
        1.2924873
      ],
      [
        103.7874784,
        1.2925722
      ],
      [
        103.7871675,
        1.292796
      ],
      [
        103.7870176,
        1.2928773
      ],
      [
        103.7866906,
        1.2929557
      ],
      [
        103.7865388,
        1.2929654
      ],
      [
        103.78641,
        1.2929481
      ],
      [
        103.7861685,
        1.2929098
      ],
      [
        103.7859344,
        1.2928837
      ],
      [
        103.7856402,
        1.2929393
      ],
      [
        103.7854158,
        1.2930891
      ],
      [
        103.7853581,
        1.2931407
      ],
      [
        103.7853095,
        1.293181
      ],
      [
        103.7852133,
        1.293272
      ],
      [
        103.7852735,
        1.2933356
      ],
      [
        103.7853407,
        1.2934054
      ],
      [
        103.7854522,
        1.2935367
      ],
      [
        103.7855337,
        1.2936571
      ],
      [
        103.785675,
        1.2939099
      ],
      [
        103.7857443,
        1.2940921
      ],
      [
        103.7857922,
        1.2942817
      ],
      [
        103.7858127,
        1.2943897
      ],
      [
        103.7858126,
        1.2944388
      ],
      [
        103.7858159,
        1.2945734
      ],
      [
        103.7858028,
        1.294831
      ],
      [
        103.7857723,
        1.29517
      ],
      [
        103.7857428,
        1.2954668
      ],
      [
        103.7857381,
        1.2955427
      ],
      [
        103.7857366,
        1.2955675
      ],
      [
        103.7856915,
        1.2961
      ],
      [
        103.7856602,
        1.2964808
      ],
      [
        103.785621,
        1.2969304
      ],
      [
        103.7856089,
        1.296997
      ],
      [
        103.7856054,
        1.2970196
      ],
      [
        103.7855387,
        1.2974201
      ],
      [
        103.7854278,
        1.2979153
      ],
      [
        103.7854184,
        1.2979572
      ],
      [
        103.785375,
        1.2981911
      ],
      [
        103.7853227,
        1.2985314
      ],
      [
        103.7853193,
        1.2987699
      ],
      [
        103.7853441,
        1.2990114
      ],
      [
        103.7853808,
        1.2992781
      ],
      [
        103.7853957,
        1.2993394
      ],
      [
        103.7854078,
        1.2993846
      ],
      [
        103.785436,
        1.2994958
      ],
      [
        103.7854598,
        1.2995626
      ],
      [
        103.785482,
        1.2996247
      ],
      [
        103.7856019,
        1.2999118
      ],
      [
        103.7856821,
        1.3000725
      ],
      [
        103.7856988,
        1.3001059
      ],
      [
        103.7857701,
        1.300222
      ],
      [
        103.785828,
        1.3003268
      ],
      [
        103.7858294,
        1.3003291
      ],
      [
        103.7861596,
        1.3007869
      ],
      [
        103.7864157,
        1.3011152
      ],
      [
        103.7865035,
        1.3012436
      ],
      [
        103.7865373,
        1.301301
      ],
      [
        103.7866262,
        1.3014525
      ],
      [
        103.7866697,
        1.3015594
      ],
      [
        103.786758,
        1.3017783
      ],
      [
        103.7868439,
        1.3020344
      ],
      [
        103.7870277,
        1.302756
      ],
      [
        103.7870828,
        1.302927
      ],
      [
        103.7871882,
        1.3031713
      ],
      [
        103.7872802,
        1.3033171
      ],
      [
        103.7873629,
        1.3034479
      ],
      [
        103.7873995,
        1.3034966
      ],
      [
        103.7874542,
        1.3035815
      ],
      [
        103.7874747,
        1.3036224
      ],
      [
        103.7875845,
        1.3037644
      ],
      [
        103.7877256,
        1.3039009
      ],
      [
        103.7879495,
        1.3041139
      ],
      [
        103.7881747,
        1.3042696
      ],
      [
        103.7885188,
        1.3044998
      ],
      [
        103.7886541,
        1.3045917
      ],
      [
        103.7894153,
        1.3050712
      ],
      [
        103.7894988,
        1.3051324
      ],
      [
        103.789814,
        1.3053756
      ],
      [
        103.7898591,
        1.3054104
      ],
      [
        103.7899645,
        1.3055008
      ],
      [
        103.7899989,
        1.3055427
      ],
      [
        103.7900435,
        1.3055972
      ],
      [
        103.7901287,
        1.3057013
      ],
      [
        103.7902531,
        1.3058532
      ],
      [
        103.7902976,
        1.3059124
      ],
      [
        103.790381,
        1.3060161
      ],
      [
        103.7905728,
        1.306312
      ],
      [
        103.7907937,
        1.3067838
      ],
      [
        103.7908184,
        1.3068393
      ],
      [
        103.7908872,
        1.3070194
      ],
      [
        103.7909246,
        1.3071293
      ],
      [
        103.7909677,
        1.3072592
      ],
      [
        103.7910475,
        1.3075056
      ],
      [
        103.791058,
        1.3076072
      ],
      [
        103.7910158,
        1.3077434
      ],
      [
        103.7909388,
        1.3078376
      ],
      [
        103.790809,
        1.3079484
      ],
      [
        103.7906617,
        1.308006
      ],
      [
        103.7905267,
        1.3080559
      ],
      [
        103.7903846,
        1.3081044
      ],
      [
        103.7901354,
        1.3081876
      ],
      [
        103.7898771,
        1.308227
      ],
      [
        103.7896882,
        1.3082399
      ],
      [
        103.7895769,
        1.3082421
      ],
      [
        103.7894968,
        1.3082414
      ],
      [
        103.7894169,
        1.3082386
      ],
      [
        103.7890994,
        1.3082074
      ],
      [
        103.7885954,
        1.3081421
      ],
      [
        103.7881817,
        1.3080623
      ],
      [
        103.787868,
        1.3079952
      ],
      [
        103.7877665,
        1.3079735
      ],
      [
        103.7876685,
        1.3079578
      ],
      [
        103.7875773,
        1.3079439
      ],
      [
        103.7872444,
        1.3078886
      ],
      [
        103.7861201,
        1.307636
      ],
      [
        103.78593,
        1.3076074
      ],
      [
        103.7855862,
        1.3075939
      ],
      [
        103.7853624,
        1.3075902
      ],
      [
        103.7852972,
        1.3075941
      ],
      [
        103.7851562,
        1.3076152
      ],
      [
        103.7851153,
        1.3076213
      ],
      [
        103.7850471,
        1.3076327
      ],
      [
        103.7848978,
        1.3076691
      ],
      [
        103.7846755,
        1.3077372
      ],
      [
        103.7844547,
        1.3078232
      ],
      [
        103.7842015,
        1.3079371
      ],
      [
        103.7834469,
        1.3083693
      ],
      [
        103.7830875,
        1.3085734
      ],
      [
        103.7830501,
        1.3085994
      ],
      [
        103.7829951,
        1.3086384
      ],
      [
        103.7829329,
        1.3086777
      ],
      [
        103.7823668,
        1.3090351
      ],
      [
        103.7822207,
        1.3091256
      ],
      [
        103.7821441,
        1.3091745
      ],
      [
        103.7819478,
        1.3093
      ],
      [
        103.781655,
        1.309468
      ],
      [
        103.7815205,
        1.3095467
      ],
      [
        103.7810683,
        1.3098115
      ],
      [
        103.7808005,
        1.3099869
      ],
      [
        103.7806813,
        1.3100541
      ],
      [
        103.7803669,
        1.3102512
      ],
      [
        103.7801414,
        1.310399
      ],
      [
        103.7800755,
        1.3104431
      ],
      [
        103.7798454,
        1.3105703
      ],
      [
        103.7794325,
        1.3107799
      ],
      [
        103.7792421,
        1.3108538
      ],
      [
        103.7789492,
        1.3109965
      ],
      [
        103.7786318,
        1.3111752
      ],
      [
        103.7785912,
        1.3112026
      ],
      [
        103.7784779,
        1.3112721
      ],
      [
        103.7781067,
        1.3115095
      ],
      [
        103.7778774,
        1.3116705
      ],
      [
        103.7774485,
        1.3119542
      ],
      [
        103.7770988,
        1.3121414
      ],
      [
        103.7770134,
        1.3121822
      ],
      [
        103.77678,
        1.3122808
      ],
      [
        103.7763578,
        1.3123759
      ],
      [
        103.7760991,
        1.312396
      ],
      [
        103.7757196,
        1.3124121
      ],
      [
        103.7753476,
        1.3123917
      ],
      [
        103.7750715,
        1.3123499
      ],
      [
        103.7749122,
        1.3123296
      ],
      [
        103.7747191,
        1.3123129
      ],
      [
        103.7741974,
        1.3122553
      ],
      [
        103.773667,
        1.3121902
      ],
      [
        103.7735745,
        1.3121788
      ],
      [
        103.7734433,
        1.3121655
      ],
      [
        103.7730972,
        1.3121227
      ],
      [
        103.7727639,
        1.3120702
      ],
      [
        103.7725151,
        1.3120429
      ],
      [
        103.7724537,
        1.3120362
      ],
      [
        103.7723851,
        1.3120287
      ],
      [
        103.7722121,
        1.3120098
      ],
      [
        103.7720542,
        1.3119925
      ],
      [
        103.7717336,
        1.3119574
      ],
      [
        103.7710808,
        1.3118964
      ],
      [
        103.7707602,
        1.3118665
      ],
      [
        103.7702448,
        1.3118184
      ],
      [
        103.7698385,
        1.3117804
      ],
      [
        103.7693929,
        1.3117388
      ],
      [
        103.7691973,
        1.3117278
      ],
      [
        103.7688831,
        1.3117322
      ],
      [
        103.7686666,
        1.31175
      ],
      [
        103.7684675,
        1.3117806
      ],
      [
        103.768263,
        1.3118263
      ],
      [
        103.7681096,
        1.3118723
      ],
      [
        103.7679729,
        1.311919
      ],
      [
        103.7679265,
        1.3119365
      ],
      [
        103.7678743,
        1.3119563
      ],
      [
        103.76775,
        1.3120032
      ],
      [
        103.7676648,
        1.3120352
      ],
      [
        103.7674365,
        1.3121332
      ],
      [
        103.7673028,
        1.312199
      ],
      [
        103.7669441,
        1.3124242
      ],
      [
        103.7667664,
        1.3125485
      ],
      [
        103.7667204,
        1.3125779
      ],
      [
        103.766562,
        1.3127013
      ],
      [
        103.7665296,
        1.3127326
      ],
      [
        103.7664882,
        1.3127731
      ],
      [
        103.7664641,
        1.3127989
      ],
      [
        103.7664173,
        1.3128473
      ],
      [
        103.7663613,
        1.3129051
      ],
      [
        103.7662235,
        1.3130531
      ],
      [
        103.7661051,
        1.3131898
      ],
      [
        103.7659635,
        1.3133603
      ],
      [
        103.7658411,
        1.3135288
      ],
      [
        103.7657361,
        1.3136821
      ],
      [
        103.7656546,
        1.3138253
      ],
      [
        103.7655577,
        1.3140042
      ],
      [
        103.765459,
        1.3142048
      ],
      [
        103.765316,
        1.3145368
      ],
      [
        103.7650798,
        1.3150862
      ],
      [
        103.7649907,
        1.3152954
      ],
      [
        103.764947,
        1.3153977
      ],
      [
        103.7647873,
        1.3157725
      ],
      [
        103.7647704,
        1.3158182
      ],
      [
        103.7647301,
        1.3159212
      ],
      [
        103.7646314,
        1.3158573
      ],
      [
        103.764383,
        1.315667
      ],
      [
        103.7643638,
        1.3156326
      ],
      [
        103.7643514,
        1.3155965
      ],
      [
        103.7643439,
        1.3155664
      ],
      [
        103.7643526,
        1.3155357
      ],
      [
        103.7644758,
        1.315297
      ],
      [
        103.76452,
        1.3152116
      ],
      [
        103.76452,
        1.3151815
      ],
      [
        103.7645106,
        1.315156
      ],
      [
        103.7644894,
        1.3151387
      ],
      [
        103.7641303,
        1.3149397
      ],
      [
        103.764107,
        1.3149216
      ],
      [
        103.7640907,
        1.3149021
      ],
      [
        103.7639237,
        1.3146836
      ]
    ]
  }
}