{
  "type": "Feature",
  "properties": {
    "relation": 1154455,
    "direction": "1",
    "fee": "yes",
    "from": "Boon Lay Interchange",
    "name": "Svc 154 (Boon Lay Interchange → Eunos Interchange)",
    "name:en": "Svc 154 (Boon Lay Interchange → Eunos Interchange)",
    "network": "Land Transport Authority",
    "network:short": "LTA",
    "network:wikidata": "Q3299279",
    "network:wikipedia": "en:Land Transport Authority",
    "operator": "SBS Transit",
    "operator:wikidata": "Q2661305",
    "operator:wikipedia": "en:SBS Transit",
    "public_transport:version": "2",
    "ref": "154",
    "route": "bus",
    "to": "Eunos Interchange",
    "type": "route",
    "website": "https://www.sbstransit.com.sg/"
  },
  "geometry": {
    "type": "LineString",
    "coordinates": [
      [
        103.7062823,
        1.339383
      ],
      [
        103.7061361,
        1.3398039
      ],
      [
        103.7060279,
        1.3401151
      ],
      [
        103.706017,
        1.3401465
      ],
      [
        103.7059747,
        1.3402681
      ],
      [
        103.7059442,
        1.340356
      ],
      [
        103.7059209,
        1.3404229
      ],
      [
        103.7059492,
        1.3404611
      ],
      [
        103.7059639,
        1.3404872
      ],
      [
        103.7060186,
        1.3405605
      ],
      [
        103.7067996,
        1.3408454
      ],
      [
        103.7069161,
        1.3408885
      ],
      [
        103.7070207,
        1.3409305
      ],
      [
        103.7070508,
        1.3408458
      ],
      [
        103.7070655,
        1.3408048
      ],
      [
        103.7071124,
        1.3406793
      ],
      [
        103.7071913,
        1.3404662
      ],
      [
        103.7072036,
        1.3404345
      ],
      [
        103.7073088,
        1.3402105
      ],
      [
        103.7074133,
        1.3400129
      ],
      [
        103.7074981,
        1.3398903
      ],
      [
        103.7075746,
        1.3398075
      ],
      [
        103.7076328,
        1.3397445
      ],
      [
        103.7076656,
        1.3397684
      ],
      [
        103.7077817,
        1.3398528
      ],
      [
        103.708061,
        1.3400051
      ],
      [
        103.7083397,
        1.3401235
      ],
      [
        103.7085201,
        1.3401889
      ],
      [
        103.7088846,
        1.340321
      ],
      [
        103.7092474,
        1.3404487
      ],
      [
        103.709333,
        1.3404802
      ],
      [
        103.7094912,
        1.3405431
      ],
      [
        103.7095638,
        1.3405708
      ],
      [
        103.7100188,
        1.340744
      ],
      [
        103.710782,
        1.3410279
      ],
      [
        103.7109346,
        1.3410845
      ],
      [
        103.7112332,
        1.3411836
      ],
      [
        103.7114602,
        1.341267
      ],
      [
        103.7115574,
        1.3412978
      ],
      [
        103.7115965,
        1.3413121
      ],
      [
        103.7117778,
        1.3413783
      ],
      [
        103.7137671,
        1.3421276
      ],
      [
        103.71454,
        1.3424163
      ],
      [
        103.7147525,
        1.3424939
      ],
      [
        103.7149957,
        1.3425856
      ],
      [
        103.7154745,
        1.3427726
      ],
      [
        103.7158114,
        1.3428946
      ],
      [
        103.7159426,
        1.3429386
      ],
      [
        103.7160532,
        1.3429813
      ],
      [
        103.7161178,
        1.3430072
      ],
      [
        103.7165701,
        1.3431889
      ],
      [
        103.7170782,
        1.3433763
      ],
      [
        103.7187101,
        1.3439766
      ],
      [
        103.7198129,
        1.3443889
      ],
      [
        103.7209062,
        1.344776
      ],
      [
        103.7210356,
        1.3448129
      ],
      [
        103.7211755,
        1.3448478
      ],
      [
        103.7212807,
        1.344875
      ],
      [
        103.7213668,
        1.3448959
      ],
      [
        103.7213965,
        1.3449024
      ],
      [
        103.7216051,
        1.344944
      ],
      [
        103.7216956,
        1.3449595
      ],
      [
        103.721776,
        1.3449744
      ],
      [
        103.7218924,
        1.3449958
      ],
      [
        103.7219183,
        1.3448547
      ],
      [
        103.7219336,
        1.3447716
      ],
      [
        103.7219599,
        1.3443881
      ],
      [
        103.7219599,
        1.3443655
      ],
      [
        103.7219581,
        1.3442951
      ],
      [
        103.721956,
        1.3442099
      ],
      [
        103.7219368,
        1.3440704
      ],
      [
        103.7219196,
        1.3440015
      ],
      [
        103.7218845,
        1.3438671
      ],
      [
        103.72184,
        1.3437418
      ],
      [
        103.7217782,
        1.3435965
      ],
      [
        103.721676,
        1.3434226
      ],
      [
        103.7215576,
        1.3432084
      ],
      [
        103.7215002,
        1.3430525
      ],
      [
        103.7214713,
        1.3429421
      ],
      [
        103.7214523,
        1.3428422
      ],
      [
        103.7214389,
        1.3427325
      ],
      [
        103.7214378,
        1.3427006
      ],
      [
        103.7214279,
        1.3424654
      ],
      [
        103.7214571,
        1.3421398
      ],
      [
        103.7215021,
        1.3419394
      ],
      [
        103.7215633,
        1.341771
      ],
      [
        103.721644,
        1.3416218
      ],
      [
        103.7216737,
        1.341579
      ],
      [
        103.7217051,
        1.3415362
      ],
      [
        103.7217753,
        1.3414715
      ],
      [
        103.7218313,
        1.3414299
      ],
      [
        103.7219057,
        1.3413773
      ],
      [
        103.7222741,
        1.3411737
      ],
      [
        103.7223527,
        1.3411265
      ],
      [
        103.7224493,
        1.3410651
      ],
      [
        103.7225425,
        1.3409986
      ],
      [
        103.7225983,
        1.3409559
      ],
      [
        103.7226664,
        1.3408982
      ],
      [
        103.7228214,
        1.3407643
      ],
      [
        103.7228981,
        1.3406969
      ],
      [
        103.7229688,
        1.340629
      ],
      [
        103.7230044,
        1.3405903
      ],
      [
        103.7230537,
        1.3405366
      ],
      [
        103.7233887,
        1.3401019
      ],
      [
        103.7234247,
        1.3400536
      ],
      [
        103.7238233,
        1.3393532
      ],
      [
        103.7242819,
        1.3385551
      ],
      [
        103.7243634,
        1.3384119
      ],
      [
        103.7243966,
        1.3383536
      ],
      [
        103.7244191,
        1.3383167
      ],
      [
        103.7244519,
        1.3382618
      ],
      [
        103.7248452,
        1.337601
      ],
      [
        103.7249266,
        1.3374331
      ],
      [
        103.724999,
        1.337232
      ],
      [
        103.7250741,
        1.3369893
      ],
      [
        103.725087,
        1.3369019
      ],
      [
        103.7251085,
        1.3367885
      ],
      [
        103.7251184,
        1.3366687
      ],
      [
        103.7251129,
        1.3360088
      ],
      [
        103.7251118,
        1.3358653
      ],
      [
        103.7251107,
        1.3357422
      ],
      [
        103.7251073,
        1.3351745
      ],
      [
        103.7251053,
        1.334854
      ],
      [
        103.725104,
        1.3346762
      ],
      [
        103.7250975,
        1.3342516
      ],
      [
        103.725095,
        1.3340176
      ],
      [
        103.7250705,
        1.3335676
      ],
      [
        103.7250494,
        1.3328813
      ],
      [
        103.7250452,
        1.3327591
      ],
      [
        103.7250322,
        1.3325297
      ],
      [
        103.7250326,
        1.3323899
      ],
      [
        103.7249922,
        1.3313966
      ],
      [
        103.724986,
        1.331316
      ],
      [
        103.7249422,
        1.3309221
      ],
      [
        103.7249131,
        1.3306331
      ],
      [
        103.7249083,
        1.3305725
      ],
      [
        103.7249053,
        1.3304329
      ],
      [
        103.7248582,
        1.3299196
      ],
      [
        103.724834,
        1.3294048
      ],
      [
        103.724826,
        1.3289999
      ],
      [
        103.7248367,
        1.3286902
      ],
      [
        103.7248948,
        1.3282224
      ],
      [
        103.724909,
        1.3281317
      ],
      [
        103.7249659,
        1.3278644
      ],
      [
        103.7251041,
        1.3274716
      ],
      [
        103.7253261,
        1.3269597
      ],
      [
        103.72535,
        1.3269024
      ],
      [
        103.7253648,
        1.3268617
      ],
      [
        103.7253995,
        1.3267688
      ],
      [
        103.7253193,
        1.3267403
      ],
      [
        103.7252279,
        1.3267077
      ],
      [
        103.7247266,
        1.3265279
      ],
      [
        103.7246651,
        1.3265179
      ],
      [
        103.7245847,
        1.3265072
      ],
      [
        103.7243682,
        1.3264978
      ],
      [
        103.724242,
        1.3264936
      ],
      [
        103.7241662,
        1.3264911
      ],
      [
        103.7240627,
        1.3264866
      ],
      [
        103.7239876,
        1.3264823
      ],
      [
        103.7239766,
        1.3264817
      ],
      [
        103.7236674,
        1.3264692
      ],
      [
        103.7236337,
        1.3264712
      ],
      [
        103.7231939,
        1.3264592
      ],
      [
        103.7229813,
        1.3264607
      ],
      [
        103.7228111,
        1.3264617
      ],
      [
        103.7227676,
        1.3264621
      ],
      [
        103.7226987,
        1.3264603
      ],
      [
        103.7226355,
        1.3264576
      ],
      [
        103.7225005,
        1.3264557
      ],
      [
        103.7219413,
        1.3264428
      ],
      [
        103.7217542,
        1.3264328
      ],
      [
        103.7215339,
        1.3264267
      ],
      [
        103.7213952,
        1.3264262
      ],
      [
        103.7212652,
        1.3264375
      ],
      [
        103.7211596,
        1.3264509
      ],
      [
        103.7210476,
        1.3264817
      ],
      [
        103.7209189,
        1.3265407
      ],
      [
        103.7207348,
        1.3266445
      ],
      [
        103.7199559,
        1.3271416
      ],
      [
        103.7198569,
        1.3272001
      ],
      [
        103.7197814,
        1.3270667
      ],
      [
        103.7194661,
        1.3265913
      ],
      [
        103.7194026,
        1.3264701
      ],
      [
        103.7193071,
        1.3261941
      ],
      [
        103.7192728,
        1.3257714
      ],
      [
        103.7192882,
        1.325547
      ],
      [
        103.7194047,
        1.3249474
      ],
      [
        103.7194361,
        1.3247859
      ],
      [
        103.7194902,
        1.3245024
      ],
      [
        103.7195448,
        1.324303
      ],
      [
        103.7195878,
        1.3241981
      ],
      [
        103.7196855,
        1.3240647
      ],
      [
        103.7197265,
        1.3240363
      ],
      [
        103.7197974,
        1.3239814
      ],
      [
        103.7199023,
        1.3239147
      ],
      [
        103.7200163,
        1.3239058
      ],
      [
        103.7201321,
        1.3238997
      ],
      [
        103.7204352,
        1.3239238
      ],
      [
        103.7211302,
        1.3240734
      ],
      [
        103.7213627,
        1.3241234
      ],
      [
        103.7218742,
        1.3242335
      ],
      [
        103.7227166,
        1.3244592
      ],
      [
        103.7229441,
        1.3245243
      ],
      [
        103.7235372,
        1.3246894
      ],
      [
        103.7238336,
        1.3247056
      ],
      [
        103.7244037,
        1.3248314
      ],
      [
        103.7248668,
        1.3249335
      ],
      [
        103.7249441,
        1.3249506
      ],
      [
        103.7257079,
        1.3251312
      ],
      [
        103.7262255,
        1.3252473
      ],
      [
        103.7273909,
        1.3255168
      ],
      [
        103.7274446,
        1.3255298
      ],
      [
        103.7278497,
        1.3256348
      ],
      [
        103.7282923,
        1.3257346
      ],
      [
        103.7286079,
        1.3257834
      ],
      [
        103.7294492,
        1.3259134
      ],
      [
        103.7329631,
        1.3266874
      ],
      [
        103.7332879,
        1.3267618
      ],
      [
        103.7339028,
        1.3269027
      ],
      [
        103.7353588,
        1.3272702
      ],
      [
        103.7361275,
        1.3274182
      ],
      [
        103.7367529,
        1.3274468
      ],
      [
        103.7373448,
        1.3274134
      ],
      [
        103.7382519,
        1.3272129
      ],
      [
        103.7384757,
        1.3271416
      ],
      [
        103.7387643,
        1.327028
      ],
      [
        103.7390186,
        1.3269019
      ],
      [
        103.7392776,
        1.3267734
      ],
      [
        103.7393706,
        1.3267273
      ],
      [
        103.7395285,
        1.32662
      ],
      [
        103.7396713,
        1.3265168
      ],
      [
        103.7397281,
        1.3264765
      ],
      [
        103.7403119,
        1.3260833
      ],
      [
        103.7421099,
        1.324845
      ],
      [
        103.7429484,
        1.3242815
      ],
      [
        103.7430663,
        1.3242778
      ],
      [
        103.7431444,
        1.3242655
      ],
      [
        103.7433639,
        1.3241883
      ],
      [
        103.7436153,
        1.3240733
      ],
      [
        103.7437901,
        1.3240191
      ],
      [
        103.7439064,
        1.3239878
      ],
      [
        103.7445314,
        1.3239014
      ],
      [
        103.7450129,
        1.323897
      ],
      [
        103.7450682,
        1.3238959
      ],
      [
        103.7453234,
        1.3238764
      ],
      [
        103.7455597,
        1.3238402
      ],
      [
        103.7456221,
        1.323829
      ],
      [
        103.7458158,
        1.3237754
      ],
      [
        103.7459323,
        1.3237449
      ],
      [
        103.7461766,
        1.3236843
      ],
      [
        103.7462491,
        1.3236542
      ],
      [
        103.7466015,
        1.3235202
      ],
      [
        103.7470042,
        1.3233953
      ],
      [
        103.7472763,
        1.3233327
      ],
      [
        103.7473511,
        1.3233129
      ],
      [
        103.7477822,
        1.3231991
      ],
      [
        103.747933,
        1.3231572
      ],
      [
        103.7479918,
        1.3231409
      ],
      [
        103.748732,
        1.3229291
      ],
      [
        103.7488073,
        1.3229091
      ],
      [
        103.7488572,
        1.3228968
      ],
      [
        103.7490354,
        1.3228485
      ],
      [
        103.7503707,
        1.3224167
      ],
      [
        103.7508864,
        1.3222673
      ],
      [
        103.7515886,
        1.3220687
      ],
      [
        103.7522281,
        1.3218516
      ],
      [
        103.753074,
        1.3215774
      ],
      [
        103.7535744,
        1.3214069
      ],
      [
        103.7541684,
        1.3212829
      ],
      [
        103.7544272,
        1.3211917
      ],
      [
        103.7547209,
        1.3210094
      ],
      [
        103.7547661,
        1.3209718
      ],
      [
        103.7549931,
        1.3207828
      ],
      [
        103.755264,
        1.3204731
      ],
      [
        103.7554366,
        1.3202101
      ],
      [
        103.7559942,
        1.3195347
      ],
      [
        103.7570265,
        1.3183504
      ],
      [
        103.7571023,
        1.3182697
      ],
      [
        103.7574457,
        1.3178272
      ],
      [
        103.7576469,
        1.3175914
      ],
      [
        103.7580642,
        1.3171499
      ],
      [
        103.7583174,
        1.3168514
      ],
      [
        103.7586929,
        1.316426
      ],
      [
        103.759003,
        1.3160748
      ],
      [
        103.7591006,
        1.3160389
      ],
      [
        103.7591424,
        1.3160127
      ],
      [
        103.7592852,
        1.3158703
      ],
      [
        103.7596287,
        1.3155334
      ],
      [
        103.7597852,
        1.3154449
      ],
      [
        103.7598737,
        1.3154074
      ],
      [
        103.7599958,
        1.3153859
      ],
      [
        103.7601272,
        1.3153913
      ],
      [
        103.7602526,
        1.3154322
      ],
      [
        103.7604994,
        1.3155582
      ],
      [
        103.7607206,
        1.3157305
      ],
      [
        103.7609231,
        1.3159275
      ],
      [
        103.761026,
        1.3160385
      ],
      [
        103.7611407,
        1.3161733
      ],
      [
        103.7613965,
        1.3164585
      ],
      [
        103.7618422,
        1.316979
      ],
      [
        103.7618652,
        1.317092
      ],
      [
        103.7618861,
        1.3171317
      ],
      [
        103.7620261,
        1.3173652
      ],
      [
        103.7621378,
        1.3175372
      ],
      [
        103.7622321,
        1.3176902
      ],
      [
        103.7623347,
        1.3178512
      ],
      [
        103.7624521,
        1.3180737
      ],
      [
        103.7627519,
        1.3186161
      ],
      [
        103.7628838,
        1.3188877
      ],
      [
        103.7628974,
        1.3189158
      ],
      [
        103.7629418,
        1.3189905
      ],
      [
        103.7630504,
        1.3192001
      ],
      [
        103.7632178,
        1.3189726
      ],
      [
        103.763248,
        1.3189254
      ],
      [
        103.763451,
        1.3186114
      ],
      [
        103.7635864,
        1.3183994
      ],
      [
        103.7636992,
        1.3182229
      ],
      [
        103.7641426,
        1.3175812
      ],
      [
        103.7644922,
        1.3170289
      ],
      [
        103.764531,
        1.3169567
      ],
      [
        103.7645978,
        1.3168362
      ],
      [
        103.764659,
        1.3167226
      ],
      [
        103.7647087,
        1.3166211
      ],
      [
        103.7648656,
        1.3163004
      ],
      [
        103.7648953,
        1.3162398
      ],
      [
        103.7649313,
        1.3161672
      ],
      [
        103.7649704,
        1.3160769
      ],
      [
        103.7649972,
        1.3160126
      ],
      [
        103.7650793,
        1.3158244
      ],
      [
        103.7652184,
        1.3155052
      ],
      [
        103.7652589,
        1.3154138
      ],
      [
        103.7653662,
        1.3151713
      ],
      [
        103.7655162,
        1.3148325
      ],
      [
        103.76558,
        1.3146857
      ],
      [
        103.7659325,
        1.3138921
      ],
      [
        103.765994,
        1.313776
      ],
      [
        103.7660629,
        1.3136764
      ],
      [
        103.766222,
        1.3134465
      ],
      [
        103.7663881,
        1.313238
      ],
      [
        103.7665203,
        1.3130904
      ],
      [
        103.7665366,
        1.3130769
      ],
      [
        103.766585,
        1.3130213
      ],
      [
        103.7666597,
        1.3129444
      ],
      [
        103.7667054,
        1.3129024
      ],
      [
        103.766852,
        1.3127689
      ],
      [
        103.7670004,
        1.3126488
      ],
      [
        103.7670855,
        1.3125782
      ],
      [
        103.7671796,
        1.3125115
      ],
      [
        103.7673185,
        1.3124261
      ],
      [
        103.7674946,
        1.3123315
      ],
      [
        103.7676877,
        1.312237
      ],
      [
        103.7677423,
        1.3122129
      ],
      [
        103.7678256,
        1.3121845
      ],
      [
        103.7679456,
        1.3121437
      ],
      [
        103.7679986,
        1.3121256
      ],
      [
        103.7682527,
        1.3120346
      ],
      [
        103.7685048,
        1.3119787
      ],
      [
        103.7687516,
        1.3119397
      ],
      [
        103.7689725,
        1.3119255
      ],
      [
        103.7692684,
        1.3119263
      ],
      [
        103.7698229,
        1.3119699
      ],
      [
        103.770551,
        1.3120519
      ],
      [
        103.7708721,
        1.3120881
      ],
      [
        103.771013,
        1.312104
      ],
      [
        103.7710467,
        1.3121078
      ],
      [
        103.7715306,
        1.3121624
      ],
      [
        103.7716427,
        1.312175
      ],
      [
        103.7717669,
        1.312189
      ],
      [
        103.7719014,
        1.3122526
      ],
      [
        103.7720307,
        1.3123096
      ],
      [
        103.7720513,
        1.3123274
      ],
      [
        103.7721179,
        1.3123874
      ],
      [
        103.7721616,
        1.3124732
      ],
      [
        103.7721858,
        1.3126662
      ],
      [
        103.7720662,
        1.3136334
      ],
      [
        103.7719248,
        1.3148335
      ],
      [
        103.7718911,
        1.3151146
      ],
      [
        103.7718142,
        1.3156207
      ],
      [
        103.7717727,
        1.3158935
      ],
      [
        103.7717416,
        1.3160981
      ],
      [
        103.7717008,
        1.316339
      ],
      [
        103.7716877,
        1.3164037
      ],
      [
        103.771677,
        1.3164555
      ],
      [
        103.7716525,
        1.3165753
      ],
      [
        103.7716381,
        1.3166456
      ],
      [
        103.7715722,
        1.3169677
      ],
      [
        103.7714912,
        1.3173696
      ],
      [
        103.7714403,
        1.3175684
      ],
      [
        103.7714128,
        1.317676
      ],
      [
        103.7713696,
        1.3178449
      ],
      [
        103.7713214,
        1.3180331
      ],
      [
        103.7712328,
        1.31838
      ],
      [
        103.7711123,
        1.3188586
      ],
      [
        103.7711009,
        1.3189041
      ],
      [
        103.771082,
        1.3189782
      ],
      [
        103.7710504,
        1.3191032
      ],
      [
        103.7708608,
        1.3198211
      ],
      [
        103.7707575,
        1.3202179
      ],
      [
        103.7707253,
        1.3203937
      ],
      [
        103.7707106,
        1.32058
      ],
      [
        103.7706998,
        1.3207342
      ],
      [
        103.7706984,
        1.3208414
      ],
      [
        103.7707105,
        1.3210305
      ],
      [
        103.7707631,
        1.3212683
      ],
      [
        103.7707857,
        1.3213529
      ],
      [
        103.7708167,
        1.3214637
      ],
      [
        103.7708696,
        1.3215836
      ],
      [
        103.7709357,
        1.321727
      ],
      [
        103.7711327,
        1.3220594
      ],
      [
        103.7711591,
        1.3221039
      ],
      [
        103.7712006,
        1.3221715
      ],
      [
        103.7712429,
        1.3222432
      ],
      [
        103.7712863,
        1.32231
      ],
      [
        103.7714056,
        1.3224973
      ],
      [
        103.7716858,
        1.3229483
      ],
      [
        103.7718127,
        1.3231582
      ],
      [
        103.7719893,
        1.3234321
      ],
      [
        103.7722636,
        1.3238979
      ],
      [
        103.7724232,
        1.3241268
      ],
      [
        103.7724816,
        1.3241952
      ],
      [
        103.7725345,
        1.3242578
      ],
      [
        103.772595,
        1.324329
      ],
      [
        103.7728227,
        1.3245526
      ],
      [
        103.7729425,
        1.3246456
      ],
      [
        103.7731102,
        1.3247661
      ],
      [
        103.7733397,
        1.3248856
      ],
      [
        103.7735276,
        1.3249543
      ],
      [
        103.7741424,
        1.3251372
      ],
      [
        103.7743919,
        1.3252224
      ],
      [
        103.7745979,
        1.3253282
      ],
      [
        103.7747698,
        1.3254316
      ],
      [
        103.7749003,
        1.3255351
      ],
      [
        103.7750021,
        1.3256306
      ],
      [
        103.7751107,
        1.3257432
      ],
      [
        103.7751911,
        1.3258544
      ],
      [
        103.7752961,
        1.3259993
      ],
      [
        103.7754657,
        1.3263007
      ],
      [
        103.7755185,
        1.3263975
      ],
      [
        103.7756122,
        1.326561
      ],
      [
        103.7757811,
        1.3268641
      ],
      [
        103.7757974,
        1.326893
      ],
      [
        103.7758942,
        1.327059
      ],
      [
        103.7760547,
        1.3273381
      ],
      [
        103.7762016,
        1.3275748
      ],
      [
        103.7763974,
        1.3278619
      ],
      [
        103.7765615,
        1.3280819
      ],
      [
        103.776716,
        1.3282798
      ],
      [
        103.7767939,
        1.3283763
      ],
      [
        103.7769329,
        1.3285667
      ],
      [
        103.7769977,
        1.3286456
      ],
      [
        103.7770941,
        1.3287739
      ],
      [
        103.7772979,
        1.3290474
      ],
      [
        103.7774232,
        1.3292567
      ],
      [
        103.7774766,
        1.3293664
      ],
      [
        103.7775265,
        1.3294768
      ],
      [
        103.777565,
        1.3295706
      ],
      [
        103.7776296,
        1.3297729
      ],
      [
        103.7776587,
        1.3298908
      ],
      [
        103.7776767,
        1.3299913
      ],
      [
        103.7777017,
        1.3301686
      ],
      [
        103.7777108,
        1.3302943
      ],
      [
        103.777716,
        1.330366
      ],
      [
        103.7777233,
        1.3305305
      ],
      [
        103.777729,
        1.3306605
      ],
      [
        103.7777597,
        1.3313119
      ],
      [
        103.7777748,
        1.3316098
      ],
      [
        103.7777829,
        1.3318529
      ],
      [
        103.7778178,
        1.3327758
      ],
      [
        103.7778184,
        1.3328143
      ],
      [
        103.777825,
        1.3329848
      ],
      [
        103.7778554,
        1.3336196
      ],
      [
        103.7778814,
        1.3341425
      ],
      [
        103.7779314,
        1.3344169
      ],
      [
        103.7779478,
        1.3345076
      ],
      [
        103.777996,
        1.3346564
      ],
      [
        103.7779807,
        1.3347061
      ],
      [
        103.77798,
        1.3347443
      ],
      [
        103.77799,
        1.3347959
      ],
      [
        103.7780297,
        1.3349875
      ],
      [
        103.7781397,
        1.3355233
      ],
      [
        103.7782897,
        1.3360895
      ],
      [
        103.7784539,
        1.3366997
      ],
      [
        103.7785196,
        1.3369099
      ],
      [
        103.7785995,
        1.3372097
      ],
      [
        103.7786277,
        1.3372724
      ],
      [
        103.7786529,
        1.3373354
      ],
      [
        103.778685,
        1.3374155
      ],
      [
        103.7786965,
        1.3374443
      ],
      [
        103.7787329,
        1.3375371
      ],
      [
        103.7787781,
        1.3376437
      ],
      [
        103.779034,
        1.337561
      ],
      [
        103.7790756,
        1.3375481
      ],
      [
        103.7793066,
        1.3374934
      ],
      [
        103.7797924,
        1.3373221
      ],
      [
        103.7801469,
        1.3372015
      ],
      [
        103.7804094,
        1.3371132
      ],
      [
        103.7805315,
        1.3370731
      ],
      [
        103.7807502,
        1.3370088
      ],
      [
        103.7808458,
        1.3369747
      ],
      [
        103.7809469,
        1.3369386
      ],
      [
        103.7811193,
        1.3368842
      ],
      [
        103.7814246,
        1.3367843
      ],
      [
        103.781529,
        1.3367492
      ],
      [
        103.7817294,
        1.3366846
      ],
      [
        103.7822797,
        1.3365102
      ],
      [
        103.7823882,
        1.336474
      ],
      [
        103.7827068,
        1.3363676
      ],
      [
        103.782991,
        1.3362667
      ],
      [
        103.7832794,
        1.336161
      ],
      [
        103.7833633,
        1.3361313
      ],
      [
        103.7835241,
        1.3360752
      ],
      [
        103.7837442,
        1.3359936
      ],
      [
        103.783793,
        1.3359761
      ],
      [
        103.7839039,
        1.3359363
      ],
      [
        103.7840779,
        1.3358761
      ],
      [
        103.7841331,
        1.335857
      ],
      [
        103.7842319,
        1.3358227
      ],
      [
        103.7846051,
        1.3356889
      ],
      [
        103.7853782,
        1.3354164
      ],
      [
        103.7862655,
        1.3351036
      ],
      [
        103.786371,
        1.335067
      ],
      [
        103.7864209,
        1.3350503
      ],
      [
        103.7865622,
        1.3349997
      ],
      [
        103.7868447,
        1.3349113
      ],
      [
        103.7869311,
        1.334879
      ],
      [
        103.787482,
        1.3346763
      ],
      [
        103.787571,
        1.3346452
      ],
      [
        103.7877356,
        1.3345938
      ],
      [
        103.7880693,
        1.3344895
      ],
      [
        103.7888034,
        1.3342291
      ],
      [
        103.7890846,
        1.3341294
      ],
      [
        103.7899579,
        1.3338308
      ],
      [
        103.7903044,
        1.3337123
      ],
      [
        103.7909878,
        1.3334941
      ],
      [
        103.7910787,
        1.3334608
      ],
      [
        103.7913318,
        1.3333776
      ],
      [
        103.7923541,
        1.3330272
      ],
      [
        103.792898,
        1.3328408
      ],
      [
        103.7941867,
        1.3323991
      ],
      [
        103.7945802,
        1.332251
      ],
      [
        103.7947496,
        1.332195
      ],
      [
        103.7949899,
        1.3321171
      ],
      [
        103.7954782,
        1.3319483
      ],
      [
        103.7956103,
        1.3319023
      ],
      [
        103.7956469,
        1.3318896
      ],
      [
        103.795846,
        1.3318265
      ],
      [
        103.795942,
        1.3317933
      ],
      [
        103.796429,
        1.3316253
      ],
      [
        103.7969278,
        1.331445
      ],
      [
        103.7971475,
        1.3313628
      ],
      [
        103.797668,
        1.3311775
      ],
      [
        103.7977069,
        1.3311674
      ],
      [
        103.7977925,
        1.3311375
      ],
      [
        103.7978321,
        1.3311236
      ],
      [
        103.7979109,
        1.3310961
      ],
      [
        103.7982801,
        1.3309633
      ],
      [
        103.7984311,
        1.3309142
      ],
      [
        103.7984682,
        1.3309021
      ],
      [
        103.7985026,
        1.3308894
      ],
      [
        103.7985656,
        1.3308661
      ],
      [
        103.799507,
        1.3305241
      ],
      [
        103.8008647,
        1.3300392
      ],
      [
        103.8009437,
        1.3300141
      ],
      [
        103.801374,
        1.3298777
      ],
      [
        103.8016624,
        1.3297735
      ],
      [
        103.8019173,
        1.3296878
      ],
      [
        103.8022196,
        1.3295973
      ],
      [
        103.8026494,
        1.3294421
      ],
      [
        103.8028814,
        1.3293551
      ],
      [
        103.8032393,
        1.3292122
      ],
      [
        103.8036105,
        1.3290347
      ],
      [
        103.8039652,
        1.3288218
      ],
      [
        103.804519,
        1.3284555
      ],
      [
        103.8058724,
        1.3275842
      ],
      [
        103.8059701,
        1.3275174
      ],
      [
        103.8061057,
        1.3274294
      ],
      [
        103.8064746,
        1.3271884
      ],
      [
        103.8078601,
        1.3262421
      ],
      [
        103.8081093,
        1.3260719
      ],
      [
        103.8083036,
        1.3259375
      ],
      [
        103.8083691,
        1.3258922
      ],
      [
        103.8086091,
        1.3257263
      ],
      [
        103.8095868,
        1.3250476
      ],
      [
        103.8097702,
        1.3249203
      ],
      [
        103.810104,
        1.3247
      ],
      [
        103.8101392,
        1.3246938
      ],
      [
        103.8101846,
        1.3246783
      ],
      [
        103.8102354,
        1.3246543
      ],
      [
        103.8103109,
        1.3246134
      ],
      [
        103.8103356,
        1.324601
      ],
      [
        103.8103704,
        1.324581
      ],
      [
        103.8104237,
        1.3245489
      ],
      [
        103.8108633,
        1.3243412
      ],
      [
        103.8114215,
        1.3241937
      ],
      [
        103.8118687,
        1.3240793
      ],
      [
        103.8121381,
        1.3240104
      ],
      [
        103.8124495,
        1.3239662
      ],
      [
        103.8127003,
        1.3239581
      ],
      [
        103.8128294,
        1.323953
      ],
      [
        103.8130894,
        1.3239426
      ],
      [
        103.8132145,
        1.3239332
      ],
      [
        103.8133205,
        1.3239232
      ],
      [
        103.8135914,
        1.323865
      ],
      [
        103.8136608,
        1.3238346
      ],
      [
        103.8140724,
        1.3236542
      ],
      [
        103.8142844,
        1.3235672
      ],
      [
        103.8143693,
        1.3235372
      ],
      [
        103.814522,
        1.323477
      ],
      [
        103.8147466,
        1.3234342
      ],
      [
        103.8149891,
        1.3233918
      ],
      [
        103.8153741,
        1.3233316
      ],
      [
        103.8154806,
        1.323315
      ],
      [
        103.8158219,
        1.3232794
      ],
      [
        103.8158814,
        1.3232757
      ],
      [
        103.8163681,
        1.3232454
      ],
      [
        103.8165723,
        1.3232239
      ],
      [
        103.8169835,
        1.3231981
      ],
      [
        103.8170246,
        1.3231888
      ],
      [
        103.8170973,
        1.3231471
      ],
      [
        103.8172024,
        1.3231391
      ],
      [
        103.8175411,
        1.3231152
      ],
      [
        103.8176741,
        1.3231034
      ],
      [
        103.8179912,
        1.3230682
      ],
      [
        103.8186671,
        1.3229786
      ],
      [
        103.8188374,
        1.3229612
      ],
      [
        103.8189971,
        1.3229357
      ],
      [
        103.8191137,
        1.3229115
      ],
      [
        103.8192806,
        1.3228653
      ],
      [
        103.8193917,
        1.3228357
      ],
      [
        103.8195593,
        1.32279
      ],
      [
        103.8196733,
        1.322758
      ],
      [
        103.8197613,
        1.322738
      ],
      [
        103.8198379,
        1.3227118
      ],
      [
        103.8199364,
        1.3226923
      ],
      [
        103.8200034,
        1.3226731
      ],
      [
        103.8218732,
        1.322167
      ],
      [
        103.8223822,
        1.3220204
      ],
      [
        103.8229044,
        1.3218451
      ],
      [
        103.8230607,
        1.3218602
      ],
      [
        103.8235474,
        1.3217156
      ],
      [
        103.8241009,
        1.3215241
      ],
      [
        103.8241912,
        1.3214962
      ],
      [
        103.8242161,
        1.3214877
      ],
      [
        103.8243923,
        1.3214287
      ],
      [
        103.824893,
        1.3212572
      ],
      [
        103.8251365,
        1.3212276
      ],
      [
        103.825268,
        1.3212249
      ],
      [
        103.825331,
        1.3212343
      ],
      [
        103.8253746,
        1.3212567
      ],
      [
        103.8254222,
        1.3212812
      ],
      [
        103.8255402,
        1.3213855
      ],
      [
        103.8257367,
        1.3219192
      ],
      [
        103.825813,
        1.3221165
      ],
      [
        103.8258424,
        1.3221998
      ],
      [
        103.8258496,
        1.322219
      ],
      [
        103.8260575,
        1.3227812
      ],
      [
        103.826131,
        1.3229471
      ],
      [
        103.8262186,
        1.3231255
      ],
      [
        103.8262962,
        1.3232582
      ],
      [
        103.8263888,
        1.3234135
      ],
      [
        103.8264983,
        1.3235918
      ],
      [
        103.8267258,
        1.3240596
      ],
      [
        103.8267368,
        1.3241759
      ],
      [
        103.8267307,
        1.3243075
      ],
      [
        103.8266434,
        1.3250267
      ],
      [
        103.8266319,
        1.3254858
      ],
      [
        103.826654,
        1.3257613
      ],
      [
        103.8267593,
        1.3262952
      ],
      [
        103.8269256,
        1.3268815
      ],
      [
        103.8270067,
        1.3270759
      ],
      [
        103.8270927,
        1.3272415
      ],
      [
        103.8271645,
        1.3273401
      ],
      [
        103.8271991,
        1.3273778
      ],
      [
        103.8272964,
        1.3274587
      ],
      [
        103.8274077,
        1.3275344
      ],
      [
        103.8275137,
        1.3275901
      ],
      [
        103.8276277,
        1.3276357
      ],
      [
        103.8277651,
        1.3276665
      ],
      [
        103.8278744,
        1.3276812
      ],
      [
        103.8279931,
        1.3276772
      ],
      [
        103.8281722,
        1.3276434
      ],
      [
        103.8283185,
        1.3276076
      ],
      [
        103.8285129,
        1.3275397
      ],
      [
        103.8292149,
        1.3272824
      ],
      [
        103.8304924,
        1.3267649
      ],
      [
        103.8310324,
        1.3263746
      ],
      [
        103.8317298,
        1.3260373
      ],
      [
        103.8318958,
        1.3259698
      ],
      [
        103.8321787,
        1.3259229
      ],
      [
        103.8325153,
        1.3259363
      ],
      [
        103.8327898,
        1.3259572
      ],
      [
        103.8328814,
        1.3260348
      ],
      [
        103.8329391,
        1.3260677
      ],
      [
        103.8329803,
        1.3260864
      ],
      [
        103.8330543,
        1.3261053
      ],
      [
        103.8330931,
        1.3261188
      ],
      [
        103.8331712,
        1.326152
      ],
      [
        103.8332303,
        1.3261721
      ],
      [
        103.8333442,
        1.3262204
      ],
      [
        103.833501,
        1.3262734
      ],
      [
        103.8336145,
        1.3263133
      ],
      [
        103.8337808,
        1.3263649
      ],
      [
        103.8338452,
        1.3263887
      ],
      [
        103.8338914,
        1.3263999
      ],
      [
        103.8341422,
        1.3264604
      ],
      [
        103.834405,
        1.3265282
      ],
      [
        103.8345006,
        1.3265477
      ],
      [
        103.8345892,
        1.3265591
      ],
      [
        103.8349197,
        1.326639
      ],
      [
        103.8353544,
        1.3267622
      ],
      [
        103.8356796,
        1.3268176
      ],
      [
        103.8369732,
        1.3272322
      ],
      [
        103.8370556,
        1.3272998
      ],
      [
        103.8371069,
        1.3273256
      ],
      [
        103.8371249,
        1.3273344
      ],
      [
        103.837645,
        1.3275424
      ],
      [
        103.837833,
        1.3276182
      ],
      [
        103.8381395,
        1.3277384
      ],
      [
        103.8385427,
        1.3279436
      ],
      [
        103.8391484,
        1.3283038
      ],
      [
        103.8399147,
        1.3287785
      ],
      [
        103.8403009,
        1.3290413
      ],
      [
        103.8405297,
        1.3292092
      ],
      [
        103.8405747,
        1.3292335
      ],
      [
        103.8408159,
        1.3293668
      ],
      [
        103.8411136,
        1.3295084
      ],
      [
        103.8416161,
        1.3296918
      ],
      [
        103.8420348,
        1.3297809
      ],
      [
        103.8424758,
        1.3298246
      ],
      [
        103.843847,
        1.3298279
      ],
      [
        103.8443647,
        1.3298437
      ],
      [
        103.8444784,
        1.3298471
      ],
      [
        103.8446988,
        1.3298604
      ],
      [
        103.8456873,
        1.3299001
      ],
      [
        103.8458735,
        1.3299069
      ],
      [
        103.8460185,
        1.3299122
      ],
      [
        103.8468413,
        1.3299421
      ],
      [
        103.8474196,
        1.3298966
      ],
      [
        103.8476418,
        1.3298741
      ],
      [
        103.8477847,
        1.3298181
      ],
      [
        103.8493855,
        1.3297066
      ],
      [
        103.8494952,
        1.3297016
      ],
      [
        103.8498225,
        1.3296847
      ],
      [
        103.8510901,
        1.3295812
      ],
      [
        103.852047,
        1.3295008
      ],
      [
        103.85223,
        1.3294898
      ],
      [
        103.8523765,
        1.329481
      ],
      [
        103.8528223,
        1.3294477
      ],
      [
        103.8532782,
        1.3294271
      ],
      [
        103.8535533,
        1.3293986
      ],
      [
        103.8555238,
        1.3291998
      ],
      [
        103.8557354,
        1.3291798
      ],
      [
        103.855975,
        1.3291688
      ],
      [
        103.8562107,
        1.3291677
      ],
      [
        103.8564639,
        1.3291849
      ],
      [
        103.8566275,
        1.3292079
      ],
      [
        103.8569867,
        1.3292856
      ],
      [
        103.8583619,
        1.3297274
      ],
      [
        103.8594346,
        1.3300601
      ],
      [
        103.8594749,
        1.3301194
      ],
      [
        103.8595047,
        1.3301509
      ],
      [
        103.8595403,
        1.3301792
      ],
      [
        103.8599468,
        1.3303493
      ],
      [
        103.8600276,
        1.3303769
      ],
      [
        103.8602897,
        1.3305096
      ],
      [
        103.8604413,
        1.3305733
      ],
      [
        103.8605137,
        1.3305987
      ],
      [
        103.8607295,
        1.3306588
      ],
      [
        103.8610245,
        1.3307217
      ],
      [
        103.8613684,
        1.3307508
      ],
      [
        103.8616926,
        1.3307341
      ],
      [
        103.8620057,
        1.330721
      ],
      [
        103.8626191,
        1.3306329
      ],
      [
        103.8629289,
        1.3305578
      ],
      [
        103.8632715,
        1.3304471
      ],
      [
        103.8636671,
        1.3302978
      ],
      [
        103.8640196,
        1.3301224
      ],
      [
        103.864319,
        1.3299813
      ],
      [
        103.8644933,
        1.3299185
      ],
      [
        103.8650629,
        1.3296161
      ],
      [
        103.8653972,
        1.3294658
      ],
      [
        103.8657942,
        1.3293378
      ],
      [
        103.8660417,
        1.3292657
      ],
      [
        103.8662044,
        1.3292231
      ],
      [
        103.8664084,
        1.3291711
      ],
      [
        103.866556,
        1.3291335
      ],
      [
        103.8666644,
        1.329097
      ],
      [
        103.8667556,
        1.3290742
      ],
      [
        103.866983,
        1.3290198
      ],
      [
        103.8672311,
        1.3289539
      ],
      [
        103.8675081,
        1.3288636
      ],
      [
        103.8677674,
        1.328771
      ],
      [
        103.8678835,
        1.3287344
      ],
      [
        103.8679885,
        1.3286956
      ],
      [
        103.8681816,
        1.3286013
      ],
      [
        103.8682385,
        1.3285729
      ],
      [
        103.8684793,
        1.3284595
      ],
      [
        103.8686172,
        1.3283909
      ],
      [
        103.8686802,
        1.3283614
      ],
      [
        103.8687429,
        1.3283275
      ],
      [
        103.8689327,
        1.3282719
      ],
      [
        103.8690648,
        1.3282323
      ],
      [
        103.869171,
        1.3282172
      ],
      [
        103.8693052,
        1.3282084
      ],
      [
        103.8695382,
        1.3282287
      ],
      [
        103.8697551,
        1.3282583
      ],
      [
        103.8699069,
        1.328283
      ],
      [
        103.8701914,
        1.32837
      ],
      [
        103.8705997,
        1.3284966
      ],
      [
        103.8707893,
        1.3285557
      ],
      [
        103.8714889,
        1.3287786
      ],
      [
        103.872563,
        1.3291501
      ],
      [
        103.8726811,
        1.329189
      ],
      [
        103.8728295,
        1.3292428
      ],
      [
        103.8734418,
        1.3294523
      ],
      [
        103.8738204,
        1.3295822
      ],
      [
        103.8742637,
        1.3297431
      ],
      [
        103.8743582,
        1.3297795
      ],
      [
        103.8749384,
        1.3299967
      ],
      [
        103.8773189,
        1.3308005
      ],
      [
        103.8780612,
        1.3310421
      ],
      [
        103.8783029,
        1.3311223
      ],
      [
        103.8785542,
        1.3312058
      ],
      [
        103.8788565,
        1.3313035
      ],
      [
        103.878928,
        1.3313252
      ],
      [
        103.8790493,
        1.3313621
      ],
      [
        103.8790978,
        1.3312227
      ],
      [
        103.8791233,
        1.3311405
      ],
      [
        103.8791508,
        1.3310516
      ],
      [
        103.8792313,
        1.3307256
      ],
      [
        103.8792823,
        1.330527
      ],
      [
        103.8795395,
        1.3295372
      ],
      [
        103.8797289,
        1.3289154
      ],
      [
        103.8797973,
        1.3286875
      ],
      [
        103.8798762,
        1.3284385
      ],
      [
        103.8799816,
        1.3281369
      ],
      [
        103.8800268,
        1.3280013
      ],
      [
        103.88011,
        1.3277865
      ],
      [
        103.8801523,
        1.3277452
      ],
      [
        103.8801879,
        1.3277152
      ],
      [
        103.8802301,
        1.3277059
      ],
      [
        103.8803131,
        1.3276877
      ],
      [
        103.8803638,
        1.3276797
      ],
      [
        103.8804745,
        1.3276577
      ],
      [
        103.8805358,
        1.3276564
      ],
      [
        103.8811666,
        1.3276102
      ],
      [
        103.8814171,
        1.3276035
      ],
      [
        103.8815781,
        1.327571
      ],
      [
        103.8819726,
        1.3274913
      ],
      [
        103.8821973,
        1.3273961
      ],
      [
        103.8825894,
        1.3271978
      ],
      [
        103.88282,
        1.3270812
      ],
      [
        103.8831144,
        1.3269462
      ],
      [
        103.8835965,
        1.3268139
      ],
      [
        103.8839868,
        1.3267251
      ],
      [
        103.8840229,
        1.3267433
      ],
      [
        103.8840482,
        1.3267565
      ],
      [
        103.8840732,
        1.3267774
      ],
      [
        103.8840909,
        1.3268065
      ],
      [
        103.8841483,
        1.327047
      ],
      [
        103.884213,
        1.327202
      ],
      [
        103.88429,
        1.3273045
      ],
      [
        103.8843718,
        1.3273595
      ],
      [
        103.8844374,
        1.3273818
      ],
      [
        103.8846783,
        1.3273664
      ],
      [
        103.8849435,
        1.3273513
      ],
      [
        103.8849812,
        1.3273505
      ],
      [
        103.885199,
        1.3273462
      ],
      [
        103.8852443,
        1.327352
      ],
      [
        103.8852954,
        1.3273719
      ],
      [
        103.8853271,
        1.3274026
      ],
      [
        103.8853714,
        1.3275063
      ],
      [
        103.8853964,
        1.3276032
      ],
      [
        103.8854428,
        1.3277309
      ],
      [
        103.8854562,
        1.3278587
      ],
      [
        103.8854954,
        1.3281432
      ],
      [
        103.885535,
        1.3283584
      ],
      [
        103.8855659,
        1.32846
      ],
      [
        103.8856017,
        1.3285348
      ],
      [
        103.8856606,
        1.3286273
      ],
      [
        103.8857218,
        1.3287102
      ],
      [
        103.8857999,
        1.3287738
      ],
      [
        103.8859149,
        1.3288609
      ],
      [
        103.8860335,
        1.3289224
      ],
      [
        103.8861653,
        1.3289648
      ],
      [
        103.886265,
        1.3289772
      ],
      [
        103.8863717,
        1.3289817
      ],
      [
        103.8864607,
        1.3289744
      ],
      [
        103.8866167,
        1.3289423
      ],
      [
        103.8867622,
        1.32887
      ],
      [
        103.8868723,
        1.3287928
      ],
      [
        103.8869563,
        1.3287063
      ],
      [
        103.8870222,
        1.3286268
      ],
      [
        103.8870534,
        1.3285764
      ],
      [
        103.8871117,
        1.3284932
      ],
      [
        103.8871862,
        1.3283698
      ],
      [
        103.8872191,
        1.3283153
      ],
      [
        103.8874155,
        1.3279811
      ],
      [
        103.8874882,
        1.3278845
      ],
      [
        103.8878807,
        1.3272615
      ],
      [
        103.8880898,
        1.3269051
      ],
      [
        103.8881384,
        1.3268179
      ],
      [
        103.888182,
        1.3267396
      ],
      [
        103.8882676,
        1.3265711
      ],
      [
        103.8883999,
        1.326177
      ],
      [
        103.8884302,
        1.3260611
      ],
      [
        103.8884468,
        1.3259974
      ],
      [
        103.8884979,
        1.325878
      ],
      [
        103.8886363,
        1.3259133
      ],
      [
        103.8888006,
        1.3259501
      ],
      [
        103.8890717,
        1.326035
      ],
      [
        103.8892912,
        1.326133
      ],
      [
        103.8895468,
        1.3262741
      ],
      [
        103.8898181,
        1.3264022
      ],
      [
        103.8898378,
        1.3264166
      ],
      [
        103.890073,
        1.3265083
      ],
      [
        103.8901015,
        1.32652
      ],
      [
        103.8901917,
        1.326557
      ],
      [
        103.8903998,
        1.3266416
      ],
      [
        103.8904187,
        1.3265397
      ],
      [
        103.8904274,
        1.3264874
      ],
      [
        103.8904625,
        1.3263026
      ],
      [
        103.8905141,
        1.3259644
      ],
      [
        103.8905503,
        1.3256917
      ],
      [
        103.8905779,
        1.3255365
      ],
      [
        103.8906053,
        1.3253825
      ],
      [
        103.8906259,
        1.3252622
      ],
      [
        103.8906643,
        1.3250374
      ],
      [
        103.890708,
        1.3247814
      ],
      [
        103.8907487,
        1.3245497
      ],
      [
        103.8907919,
        1.3242905
      ],
      [
        103.8908963,
        1.3237683
      ],
      [
        103.8910022,
        1.3232199
      ],
      [
        103.8910338,
        1.3230596
      ],
      [
        103.8910913,
        1.3227865
      ],
      [
        103.8911138,
        1.3226823
      ],
      [
        103.8912633,
        1.3219893
      ],
      [
        103.8913157,
        1.321736
      ],
      [
        103.8914014,
        1.3213221
      ],
      [
        103.8914636,
        1.3210117
      ],
      [
        103.8915315,
        1.3207093
      ],
      [
        103.8915916,
        1.3204698
      ],
      [
        103.8916696,
        1.3201068
      ],
      [
        103.891684,
        1.320045
      ],
      [
        103.8917087,
        1.3199218
      ],
      [
        103.8917211,
        1.3198702
      ],
      [
        103.8918142,
        1.3194833
      ],
      [
        103.8918257,
        1.3194296
      ],
      [
        103.8919594,
        1.3188786
      ],
      [
        103.8920273,
        1.3185071
      ],
      [
        103.8920627,
        1.3182923
      ],
      [
        103.8920781,
        1.3181625
      ],
      [
        103.8921409,
        1.3178516
      ],
      [
        103.8922766,
        1.3173167
      ],
      [
        103.8923925,
        1.317181
      ],
      [
        103.892512,
        1.3170941
      ],
      [
        103.8925297,
        1.3170813
      ],
      [
        103.892712,
        1.3169828
      ],
      [
        103.8927954,
        1.316995
      ],
      [
        103.8928912,
        1.3170109
      ],
      [
        103.8931312,
        1.3170404
      ],
      [
        103.8933148,
        1.3170664
      ],
      [
        103.8933724,
        1.3170745
      ],
      [
        103.8935253,
        1.3170912
      ],
      [
        103.8936257,
        1.3171021
      ],
      [
        103.8936918,
        1.3171093
      ],
      [
        103.893709,
        1.3171129
      ],
      [
        103.8938035,
        1.3171273
      ],
      [
        103.8939496,
        1.3171442
      ],
      [
        103.8945848,
        1.3172481
      ],
      [
        103.8947655,
        1.3172769
      ],
      [
        103.8949655,
        1.3173059
      ],
      [
        103.8951993,
        1.3173399
      ],
      [
        103.8955131,
        1.3173866
      ],
      [
        103.8956038,
        1.3174008
      ],
      [
        103.8957052,
        1.3174166
      ],
      [
        103.8964048,
        1.317524
      ],
      [
        103.8965732,
        1.3175486
      ],
      [
        103.8966982,
        1.3175674
      ],
      [
        103.8967271,
        1.3175718
      ],
      [
        103.896764,
        1.317579
      ],
      [
        103.8967966,
        1.3175854
      ],
      [
        103.8971958,
        1.3176546
      ],
      [
        103.8972908,
        1.3176819
      ],
      [
        103.8973417,
        1.3176917
      ],
      [
        103.8975633,
        1.3177341
      ],
      [
        103.8975884,
        1.3177389
      ],
      [
        103.8979881,
        1.3178213
      ],
      [
        103.8980094,
        1.3178254
      ],
      [
        103.8980267,
        1.3178287
      ],
      [
        103.8980801,
        1.3178389
      ],
      [
        103.8982957,
        1.3178802
      ],
      [
        103.8986597,
        1.3179529
      ],
      [
        103.8989778,
        1.3180164
      ],
      [
        103.8991872,
        1.3180606
      ],
      [
        103.8997118,
        1.3181712
      ],
      [
        103.899828,
        1.3181937
      ],
      [
        103.8998752,
        1.3182028
      ],
      [
        103.9003472,
        1.3182941
      ],
      [
        103.9003269,
        1.3183878
      ],
      [
        103.9003472,
        1.3182941
      ],
      [
        103.9001431,
        1.319162
      ],
      [
        103.900165,
        1.319067
      ],
      [
        103.9001325,
        1.3192084
      ],
      [
        103.9001714,
        1.3194638
      ],
      [
        103.9003948,
        1.3195093
      ],
      [
        103.9012983,
        1.3196935
      ],
      [
        103.9020756,
        1.319848
      ],
      [
        103.9021223,
        1.3198397
      ],
      [
        103.9021587,
        1.3198131
      ],
      [
        103.9021926,
        1.3197085
      ],
      [
        103.9022135,
        1.319602
      ],
      [
        103.9021849,
        1.3195632
      ],
      [
        103.9021377,
        1.3195418
      ],
      [
        103.9013363,
        1.3194386
      ],
      [
        103.9011682,
        1.319419
      ],
      [
        103.9004412,
        1.3192715
      ]
    ]
  }
}