{
  "type": "Feature",
  "properties": {
    "relation": 12396936,
    "direction": "2",
    "distance": "22.0",
    "fee": "yes",
    "from": "Bedok Interchange",
    "name": "Svc 155 (Bedok Interchange → Toa Payoh Interchange)",
    "name:en": "Svc 155 (Bedok Interchange → Toa Payoh Interchange)",
    "network": "Land Transport Authority",
    "network:short": "LTA",
    "network:wikidata": "Q3299279",
    "network:wikipedia": "en:Land Transport Authority",
    "operator": "SBS Transit",
    "operator:wikidata": "Q2661305",
    "operator:wikipedia": "en:SBS Transit",
    "public_transport:version": "2",
    "ref": "155",
    "route": "bus",
    "to": "Toa Payoh Interchange",
    "type": "route",
    "website": "https://www.sbstransit.com.sg/"
  },
  "geometry": {
    "type": "LineString",
    "coordinates": [
      [
        103.9287434,
        1.3243349
      ],
      [
        103.9286633,
        1.3246525
      ],
      [
        103.9285775,
        1.3249788
      ],
      [
        103.9285491,
        1.3251158
      ],
      [
        103.9285131,
        1.3252416
      ],
      [
        103.9284986,
        1.3253227
      ],
      [
        103.9286722,
        1.3253554
      ],
      [
        103.928857,
        1.3253939
      ],
      [
        103.9289667,
        1.3254191
      ],
      [
        103.9290742,
        1.3254496
      ],
      [
        103.9292107,
        1.3254998
      ],
      [
        103.9293081,
        1.3255439
      ],
      [
        103.929396,
        1.3255854
      ],
      [
        103.9295489,
        1.3256598
      ],
      [
        103.9295776,
        1.3256736
      ],
      [
        103.9297195,
        1.3257419
      ],
      [
        103.9297302,
        1.3257476
      ],
      [
        103.9297759,
        1.3257759
      ],
      [
        103.9297912,
        1.3257857
      ],
      [
        103.9298057,
        1.3257968
      ],
      [
        103.9298192,
        1.325809
      ],
      [
        103.9298316,
        1.3258223
      ],
      [
        103.9298428,
        1.3258366
      ],
      [
        103.9298529,
        1.3258518
      ],
      [
        103.9298617,
        1.3258677
      ],
      [
        103.9298691,
        1.3258843
      ],
      [
        103.9298751,
        1.3259015
      ],
      [
        103.9298797,
        1.3259191
      ],
      [
        103.9298829,
        1.325937
      ],
      [
        103.9298845,
        1.3259551
      ],
      [
        103.9298846,
        1.3259733
      ],
      [
        103.9298832,
        1.3259914
      ],
      [
        103.9298804,
        1.3260094
      ],
      [
        103.929876,
        1.326027
      ],
      [
        103.9298702,
        1.3260443
      ],
      [
        103.9297984,
        1.3262085
      ],
      [
        103.9296435,
        1.3265591
      ],
      [
        103.9296291,
        1.3265917
      ],
      [
        103.9296022,
        1.3266528
      ],
      [
        103.9296684,
        1.3266811
      ],
      [
        103.929711,
        1.3267009
      ],
      [
        103.9301952,
        1.3269306
      ],
      [
        103.9304529,
        1.3270503
      ],
      [
        103.9310258,
        1.3273166
      ],
      [
        103.9310624,
        1.3273336
      ],
      [
        103.931166,
        1.327375
      ],
      [
        103.931244,
        1.3274022
      ],
      [
        103.9313096,
        1.3274211
      ],
      [
        103.9318127,
        1.3275701
      ],
      [
        103.931935,
        1.3276026
      ],
      [
        103.9321588,
        1.3276475
      ],
      [
        103.9323601,
        1.3276822
      ],
      [
        103.9325302,
        1.3277109
      ],
      [
        103.9326276,
        1.3277215
      ],
      [
        103.9328214,
        1.3277445
      ],
      [
        103.9329612,
        1.3277546
      ],
      [
        103.9330687,
        1.3277597
      ],
      [
        103.9335646,
        1.3277722
      ],
      [
        103.9335934,
        1.3277729
      ],
      [
        103.9338299,
        1.327778
      ],
      [
        103.9340931,
        1.3277852
      ],
      [
        103.9342842,
        1.3277919
      ],
      [
        103.9345602,
        1.3278217
      ],
      [
        103.9348919,
        1.327869
      ],
      [
        103.9349995,
        1.3278833
      ],
      [
        103.9350704,
        1.3278931
      ],
      [
        103.9350831,
        1.3278308
      ],
      [
        103.9350964,
        1.3277583
      ],
      [
        103.935123,
        1.3276093
      ],
      [
        103.9352088,
        1.3271323
      ],
      [
        103.9352768,
        1.3267546
      ],
      [
        103.9353151,
        1.3265416
      ],
      [
        103.935322,
        1.3265031
      ],
      [
        103.9353973,
        1.3260849
      ],
      [
        103.9354122,
        1.3260023
      ],
      [
        103.9354902,
        1.3255685
      ],
      [
        103.9356081,
        1.3249136
      ],
      [
        103.935627,
        1.3248086
      ],
      [
        103.9356458,
        1.3247041
      ],
      [
        103.9356683,
        1.3245481
      ],
      [
        103.9356043,
        1.3245391
      ],
      [
        103.934737,
        1.324448
      ],
      [
        103.9338848,
        1.3243309
      ],
      [
        103.9338205,
        1.3243218
      ],
      [
        103.9334767,
        1.3242846
      ],
      [
        103.9329172,
        1.3242095
      ],
      [
        103.9327897,
        1.324192
      ],
      [
        103.9323706,
        1.3241225
      ],
      [
        103.9322529,
        1.324027
      ],
      [
        103.9321523,
        1.3239251
      ],
      [
        103.9321271,
        1.3238877
      ],
      [
        103.9321054,
        1.3238553
      ],
      [
        103.9320554,
        1.3237497
      ],
      [
        103.932051,
        1.323695
      ],
      [
        103.9320416,
        1.3235789
      ],
      [
        103.9320554,
        1.3233661
      ],
      [
        103.9321005,
        1.3230401
      ],
      [
        103.9321202,
        1.3229081
      ],
      [
        103.9321329,
        1.3228321
      ],
      [
        103.9322003,
        1.3224297
      ],
      [
        103.932284,
        1.3220073
      ],
      [
        103.9323899,
        1.3214273
      ],
      [
        103.9325363,
        1.3207
      ],
      [
        103.9326408,
        1.3201818
      ],
      [
        103.9327232,
        1.3197362
      ],
      [
        103.9327727,
        1.3194892
      ],
      [
        103.9328195,
        1.3192737
      ],
      [
        103.9328757,
        1.3190101
      ],
      [
        103.932892,
        1.3189394
      ],
      [
        103.9329141,
        1.318825
      ],
      [
        103.9329231,
        1.3187621
      ],
      [
        103.9329842,
        1.3183378
      ],
      [
        103.9331842,
        1.3168562
      ],
      [
        103.9332154,
        1.3166453
      ],
      [
        103.9333243,
        1.3159982
      ],
      [
        103.9334939,
        1.3152104
      ],
      [
        103.9335649,
        1.3148778
      ],
      [
        103.9336108,
        1.3146907
      ],
      [
        103.9337024,
        1.3142407
      ],
      [
        103.9337166,
        1.3141864
      ],
      [
        103.9337335,
        1.3141089
      ],
      [
        103.933751,
        1.314035
      ],
      [
        103.9338854,
        1.3134137
      ],
      [
        103.9340009,
        1.3129367
      ],
      [
        103.9341187,
        1.3124899
      ],
      [
        103.9342098,
        1.3121709
      ],
      [
        103.9342662,
        1.3119816
      ],
      [
        103.9343585,
        1.3116716
      ],
      [
        103.9343832,
        1.3115874
      ],
      [
        103.9343846,
        1.3115763
      ],
      [
        103.9343853,
        1.3115662
      ],
      [
        103.9343852,
        1.3115561
      ],
      [
        103.9343842,
        1.311546
      ],
      [
        103.9343824,
        1.311536
      ],
      [
        103.9343797,
        1.3115262
      ],
      [
        103.9343762,
        1.3115167
      ],
      [
        103.9343719,
        1.3115075
      ],
      [
        103.9343669,
        1.3114987
      ],
      [
        103.9343611,
        1.3114903
      ],
      [
        103.9343547,
        1.3114825
      ],
      [
        103.9343476,
        1.3114752
      ],
      [
        103.9343399,
        1.3114686
      ],
      [
        103.9343317,
        1.3114627
      ],
      [
        103.934303,
        1.3114463
      ],
      [
        103.9342035,
        1.3114035
      ],
      [
        103.9336243,
        1.3111408
      ],
      [
        103.9332618,
        1.3109746
      ],
      [
        103.9328447,
        1.3107751
      ],
      [
        103.9326448,
        1.3106905
      ],
      [
        103.932396,
        1.3106062
      ],
      [
        103.9323427,
        1.3105889
      ],
      [
        103.9318298,
        1.310429
      ],
      [
        103.9316814,
        1.3103845
      ],
      [
        103.9315142,
        1.3103333
      ],
      [
        103.9312929,
        1.3102763
      ],
      [
        103.930993,
        1.3101794
      ],
      [
        103.9307741,
        1.3101286
      ],
      [
        103.9303474,
        1.3099775
      ],
      [
        103.9303336,
        1.3099725
      ],
      [
        103.930297,
        1.3099608
      ],
      [
        103.93022,
        1.3099397
      ],
      [
        103.929836,
        1.3098297
      ],
      [
        103.9297124,
        1.3097858
      ],
      [
        103.9295553,
        1.3097301
      ],
      [
        103.9294067,
        1.3096773
      ],
      [
        103.9292596,
        1.3096207
      ],
      [
        103.9291528,
        1.309585
      ],
      [
        103.9291359,
        1.3095793
      ],
      [
        103.928988,
        1.3095372
      ],
      [
        103.9289328,
        1.3095249
      ],
      [
        103.9286758,
        1.3094696
      ],
      [
        103.9286021,
        1.3094526
      ],
      [
        103.9284803,
        1.309426
      ],
      [
        103.9283778,
        1.3094035
      ],
      [
        103.9282978,
        1.3093857
      ],
      [
        103.9282132,
        1.3093705
      ],
      [
        103.9277006,
        1.3093122
      ],
      [
        103.9272246,
        1.3092278
      ],
      [
        103.9268891,
        1.3091856
      ],
      [
        103.9265795,
        1.309135
      ],
      [
        103.9265614,
        1.3091316
      ],
      [
        103.9264947,
        1.3091181
      ],
      [
        103.9264497,
        1.3091073
      ],
      [
        103.9264028,
        1.3090947
      ],
      [
        103.9263551,
        1.3090798
      ],
      [
        103.9262893,
        1.309059
      ],
      [
        103.9260399,
        1.3089722
      ],
      [
        103.9260163,
        1.3089606
      ],
      [
        103.9259229,
        1.3089279
      ],
      [
        103.9258892,
        1.3090378
      ],
      [
        103.9258706,
        1.3091099
      ],
      [
        103.9258177,
        1.3093149
      ],
      [
        103.9257142,
        1.3097767
      ],
      [
        103.9256667,
        1.3099607
      ],
      [
        103.9255754,
        1.3101846
      ],
      [
        103.9255525,
        1.3102407
      ],
      [
        103.9254767,
        1.3104754
      ],
      [
        103.9254767,
        1.3104754
      ],
      [
        103.925431,
        1.3105683
      ],
      [
        103.9253853,
        1.3106438
      ],
      [
        103.9252158,
        1.31084
      ],
      [
        103.9250241,
        1.3110637
      ],
      [
        103.9248679,
        1.3112136
      ],
      [
        103.9247397,
        1.3113455
      ],
      [
        103.9245983,
        1.3114949
      ],
      [
        103.9244056,
        1.3116951
      ],
      [
        103.9242321,
        1.3118651
      ],
      [
        103.9241486,
        1.3119571
      ],
      [
        103.9237749,
        1.3122093
      ],
      [
        103.9237002,
        1.3122249
      ],
      [
        103.9236196,
        1.312237
      ],
      [
        103.9234894,
        1.312237
      ],
      [
        103.9231472,
        1.3120932
      ],
      [
        103.9228296,
        1.3119598
      ],
      [
        103.9227377,
        1.3119212
      ],
      [
        103.9226991,
        1.311905
      ],
      [
        103.9220343,
        1.3116256
      ],
      [
        103.9218739,
        1.3115654
      ],
      [
        103.9218234,
        1.3115464
      ],
      [
        103.9216142,
        1.3115252
      ],
      [
        103.9213986,
        1.3114976
      ],
      [
        103.9211583,
        1.3114669
      ],
      [
        103.9208806,
        1.3114278
      ],
      [
        103.9206185,
        1.3113923
      ],
      [
        103.9205754,
        1.3113865
      ],
      [
        103.9204831,
        1.3113556
      ],
      [
        103.9203424,
        1.3112897
      ],
      [
        103.9200343,
        1.3111453
      ],
      [
        103.9199845,
        1.311122
      ],
      [
        103.9199273,
        1.3110967
      ],
      [
        103.9185847,
        1.310502
      ],
      [
        103.918527,
        1.3104765
      ],
      [
        103.9184919,
        1.3104612
      ],
      [
        103.9179403,
        1.310221
      ],
      [
        103.9177288,
        1.3101314
      ],
      [
        103.9173713,
        1.3099934
      ],
      [
        103.9172229,
        1.3099372
      ],
      [
        103.9171511,
        1.3099212
      ],
      [
        103.9161683,
        1.309724
      ],
      [
        103.91611,
        1.3097115
      ],
      [
        103.915653,
        1.3096254
      ],
      [
        103.9153399,
        1.3095541
      ],
      [
        103.9146521,
        1.3094157
      ],
      [
        103.9143771,
        1.3093642
      ],
      [
        103.9141625,
        1.3093202
      ],
      [
        103.9140357,
        1.3092962
      ],
      [
        103.9137479,
        1.3092329
      ],
      [
        103.9133631,
        1.3091541
      ],
      [
        103.9131519,
        1.3091125
      ],
      [
        103.9130303,
        1.3090882
      ],
      [
        103.9128253,
        1.3090472
      ],
      [
        103.912763,
        1.3090348
      ],
      [
        103.9126631,
        1.3090142
      ],
      [
        103.9124119,
        1.3089611
      ],
      [
        103.9123552,
        1.3089487
      ],
      [
        103.9122904,
        1.3089378
      ],
      [
        103.9122758,
        1.3089911
      ],
      [
        103.9122429,
        1.3090558
      ],
      [
        103.9121605,
        1.3092232
      ],
      [
        103.9121292,
        1.309287
      ],
      [
        103.9118848,
        1.3098664
      ],
      [
        103.9117022,
        1.3103182
      ],
      [
        103.911509,
        1.3107675
      ],
      [
        103.9113162,
        1.3112138
      ],
      [
        103.9111553,
        1.311584
      ],
      [
        103.9110657,
        1.31179
      ],
      [
        103.9109742,
        1.3120038
      ],
      [
        103.9108398,
        1.312313
      ],
      [
        103.910628,
        1.312788
      ],
      [
        103.9106122,
        1.3128291
      ],
      [
        103.9105905,
        1.3128835
      ],
      [
        103.9101605,
        1.3138784
      ],
      [
        103.9099546,
        1.3143528
      ],
      [
        103.9097507,
        1.3148539
      ],
      [
        103.9097154,
        1.3149408
      ],
      [
        103.9096802,
        1.3150187
      ],
      [
        103.9094967,
        1.315425
      ],
      [
        103.9094908,
        1.3154373
      ],
      [
        103.9092423,
        1.3159594
      ],
      [
        103.909046,
        1.3164204
      ],
      [
        103.9089891,
        1.3165539
      ],
      [
        103.9089245,
        1.3166941
      ],
      [
        103.9088959,
        1.3167397
      ],
      [
        103.9088778,
        1.3167678
      ],
      [
        103.9088527,
        1.3168009
      ],
      [
        103.9088333,
        1.3168149
      ],
      [
        103.9088195,
        1.3168344
      ],
      [
        103.9088128,
        1.3168574
      ],
      [
        103.908813,
        1.3168769
      ],
      [
        103.9088183,
        1.3168955
      ],
      [
        103.9088313,
        1.3169154
      ],
      [
        103.9088075,
        1.3169801
      ],
      [
        103.9087965,
        1.3170137
      ],
      [
        103.9086794,
        1.3172637
      ],
      [
        103.9085346,
        1.3176144
      ],
      [
        103.9084588,
        1.3178397
      ],
      [
        103.9083819,
        1.3180682
      ],
      [
        103.9083722,
        1.3181008
      ],
      [
        103.9083274,
        1.3182091
      ],
      [
        103.908269,
        1.3181948
      ],
      [
        103.907958,
        1.3181232
      ],
      [
        103.9077708,
        1.3180886
      ],
      [
        103.9077187,
        1.3180787
      ],
      [
        103.9076989,
        1.3180749
      ],
      [
        103.9075787,
        1.318052
      ],
      [
        103.9075433,
        1.3180452
      ],
      [
        103.9072939,
        1.3179976
      ],
      [
        103.907257,
        1.3179906
      ],
      [
        103.9071909,
        1.317978
      ],
      [
        103.9070882,
        1.3179583
      ],
      [
        103.9070386,
        1.3179489
      ],
      [
        103.9069602,
        1.3179339
      ],
      [
        103.906852,
        1.3179132
      ],
      [
        103.9066367,
        1.3178752
      ],
      [
        103.9065011,
        1.317854
      ],
      [
        103.9061485,
        1.3177993
      ],
      [
        103.9059104,
        1.3177701
      ],
      [
        103.9057837,
        1.3177517
      ],
      [
        103.90553,
        1.3177093
      ],
      [
        103.9054064,
        1.3176821
      ],
      [
        103.9053014,
        1.3176633
      ],
      [
        103.9051829,
        1.3176431
      ],
      [
        103.9050407,
        1.3176134
      ],
      [
        103.904962,
        1.3175957
      ],
      [
        103.904717,
        1.3175457
      ],
      [
        103.9044064,
        1.3174807
      ],
      [
        103.9042826,
        1.3174548
      ],
      [
        103.9042498,
        1.3174486
      ],
      [
        103.9041315,
        1.3174232
      ],
      [
        103.9040381,
        1.3174037
      ],
      [
        103.9037911,
        1.3173521
      ],
      [
        103.9036274,
        1.3173119
      ],
      [
        103.9032769,
        1.3172365
      ],
      [
        103.9032062,
        1.3172213
      ],
      [
        103.9028281,
        1.3171524
      ],
      [
        103.9025597,
        1.3170971
      ],
      [
        103.9024471,
        1.3170786
      ],
      [
        103.9023701,
        1.3170659
      ],
      [
        103.9022736,
        1.3170475
      ],
      [
        103.90213,
        1.3170224
      ],
      [
        103.9019665,
        1.3169939
      ],
      [
        103.9019162,
        1.3169855
      ],
      [
        103.9013243,
        1.3168755
      ],
      [
        103.9009374,
        1.3168027
      ],
      [
        103.9007228,
        1.3167649
      ],
      [
        103.900643,
        1.3167499
      ],
      [
        103.9001882,
        1.3166598
      ],
      [
        103.8999264,
        1.3166079
      ],
      [
        103.8998629,
        1.3165953
      ],
      [
        103.8995744,
        1.3165358
      ],
      [
        103.8994174,
        1.3165088
      ],
      [
        103.899132,
        1.3164572
      ],
      [
        103.8988598,
        1.3164022
      ],
      [
        103.8986883,
        1.3163673
      ],
      [
        103.8986671,
        1.3163633
      ],
      [
        103.8985835,
        1.3163473
      ],
      [
        103.8985349,
        1.3163379
      ],
      [
        103.8983399,
        1.3163043
      ],
      [
        103.8981947,
        1.3162753
      ],
      [
        103.8981203,
        1.3162616
      ],
      [
        103.8979907,
        1.316238
      ],
      [
        103.8976895,
        1.3161858
      ],
      [
        103.8975891,
        1.3161684
      ],
      [
        103.8974305,
        1.3161346
      ],
      [
        103.8969067,
        1.3160229
      ],
      [
        103.8968612,
        1.3160174
      ],
      [
        103.8967207,
        1.3159826
      ],
      [
        103.896425,
        1.3159295
      ],
      [
        103.8959671,
        1.3158546
      ],
      [
        103.8956083,
        1.3157821
      ],
      [
        103.8954245,
        1.3157421
      ],
      [
        103.8950585,
        1.3156699
      ],
      [
        103.894863,
        1.3156285
      ],
      [
        103.8947697,
        1.3156085
      ],
      [
        103.8945907,
        1.3155734
      ],
      [
        103.8944118,
        1.3155382
      ],
      [
        103.8942396,
        1.315502
      ],
      [
        103.8941159,
        1.31548
      ],
      [
        103.8940282,
        1.3154631
      ],
      [
        103.8939457,
        1.3154479
      ],
      [
        103.893669,
        1.3153883
      ],
      [
        103.8934132,
        1.3153356
      ],
      [
        103.8931662,
        1.3152838
      ],
      [
        103.8930914,
        1.3152682
      ],
      [
        103.892931,
        1.3152355
      ],
      [
        103.8926019,
        1.3151609
      ],
      [
        103.8924077,
        1.3151205
      ],
      [
        103.8923351,
        1.3151054
      ],
      [
        103.8922684,
        1.315095
      ],
      [
        103.8921061,
        1.3150696
      ],
      [
        103.8921402,
        1.3152378
      ],
      [
        103.8921848,
        1.3154556
      ],
      [
        103.8922682,
        1.3157935
      ],
      [
        103.8922924,
        1.3159081
      ],
      [
        103.8923093,
        1.3160121
      ],
      [
        103.8923192,
        1.3162279
      ],
      [
        103.8923079,
        1.3164787
      ],
      [
        103.8922508,
        1.3167682
      ],
      [
        103.8922266,
        1.3169065
      ],
      [
        103.892217,
        1.3169538
      ],
      [
        103.8921721,
        1.3171757
      ],
      [
        103.8920357,
        1.3177703
      ],
      [
        103.8919981,
        1.3179359
      ],
      [
        103.8919757,
        1.3180549
      ],
      [
        103.8919401,
        1.3182459
      ],
      [
        103.8917841,
        1.3188987
      ],
      [
        103.8917291,
        1.3190817
      ],
      [
        103.8916945,
        1.3192212
      ],
      [
        103.8916476,
        1.3194086
      ],
      [
        103.8915333,
        1.3196112
      ],
      [
        103.8913997,
        1.3197048
      ],
      [
        103.8912695,
        1.3197723
      ],
      [
        103.8910553,
        1.3197703
      ],
      [
        103.8900245,
        1.3195411
      ],
      [
        103.8897227,
        1.3194779
      ],
      [
        103.8894242,
        1.3194153
      ],
      [
        103.8890898,
        1.3193458
      ],
      [
        103.8889625,
        1.3193195
      ],
      [
        103.8888731,
        1.319302
      ],
      [
        103.8888245,
        1.3192925
      ],
      [
        103.8886763,
        1.3192635
      ],
      [
        103.8881886,
        1.3191682
      ],
      [
        103.8880071,
        1.3191327
      ],
      [
        103.887788,
        1.3190899
      ],
      [
        103.8867108,
        1.3188792
      ],
      [
        103.8865243,
        1.3188429
      ],
      [
        103.8864246,
        1.3188234
      ],
      [
        103.8858608,
        1.3186991
      ],
      [
        103.885846,
        1.3186968
      ],
      [
        103.8857782,
        1.3186826
      ],
      [
        103.8857078,
        1.3186686
      ],
      [
        103.8856794,
        1.3186638
      ],
      [
        103.8853316,
        1.3185972
      ],
      [
        103.8851426,
        1.3185684
      ],
      [
        103.8851153,
        1.3185642
      ],
      [
        103.8849174,
        1.3185424
      ],
      [
        103.8847644,
        1.3185374
      ],
      [
        103.8844706,
        1.3185279
      ],
      [
        103.8842018,
        1.3185221
      ],
      [
        103.8839133,
        1.3185083
      ],
      [
        103.8838505,
        1.3185033
      ],
      [
        103.8837733,
        1.3185024
      ],
      [
        103.8835971,
        1.3184975
      ],
      [
        103.8833201,
        1.3184957
      ],
      [
        103.8832507,
        1.3184938
      ],
      [
        103.883012,
        1.3184889
      ],
      [
        103.8828631,
        1.3184847
      ],
      [
        103.8826492,
        1.3184798
      ],
      [
        103.8824795,
        1.3184729
      ],
      [
        103.8820612,
        1.3184734
      ],
      [
        103.8819793,
        1.3184721
      ],
      [
        103.8818453,
        1.3184737
      ],
      [
        103.8818394,
        1.3185739
      ],
      [
        103.8818329,
        1.3186463
      ],
      [
        103.8818072,
        1.3189889
      ],
      [
        103.8817714,
        1.3191796
      ],
      [
        103.8817519,
        1.3196022
      ],
      [
        103.881675,
        1.3203792
      ],
      [
        103.8815307,
        1.321477
      ],
      [
        103.8815254,
        1.321517
      ],
      [
        103.8815091,
        1.3216179
      ],
      [
        103.8814769,
        1.3218647
      ],
      [
        103.8814469,
        1.3220729
      ],
      [
        103.8814191,
        1.3222922
      ],
      [
        103.8814121,
        1.3223439
      ],
      [
        103.8813549,
        1.3227097
      ],
      [
        103.8812887,
        1.3230738
      ],
      [
        103.8812299,
        1.3233656
      ],
      [
        103.8811633,
        1.3236838
      ],
      [
        103.8811311,
        1.3238268
      ],
      [
        103.8810852,
        1.3240457
      ],
      [
        103.8810578,
        1.3241544
      ],
      [
        103.8810405,
        1.3242228
      ],
      [
        103.8809518,
        1.3245744
      ],
      [
        103.8808042,
        1.3252096
      ],
      [
        103.880759,
        1.3253718
      ],
      [
        103.8807215,
        1.3255065
      ],
      [
        103.8806892,
        1.325613
      ],
      [
        103.8806671,
        1.3257021
      ],
      [
        103.8805432,
        1.3261297
      ],
      [
        103.8804158,
        1.3265201
      ],
      [
        103.8803648,
        1.3266843
      ],
      [
        103.8802828,
        1.3269378
      ],
      [
        103.8801164,
        1.3274244
      ],
      [
        103.8802049,
        1.327533
      ],
      [
        103.8802543,
        1.3275629
      ],
      [
        103.8803162,
        1.327592
      ],
      [
        103.8804745,
        1.3276577
      ],
      [
        103.8805358,
        1.3276564
      ],
      [
        103.8811666,
        1.3276102
      ],
      [
        103.8814171,
        1.3276035
      ],
      [
        103.8815781,
        1.327571
      ],
      [
        103.8819726,
        1.3274913
      ],
      [
        103.8821973,
        1.3273961
      ],
      [
        103.8825894,
        1.3271978
      ],
      [
        103.88282,
        1.3270812
      ],
      [
        103.8831144,
        1.3269462
      ],
      [
        103.8835965,
        1.3268139
      ],
      [
        103.8839868,
        1.3267251
      ],
      [
        103.8840229,
        1.3267433
      ],
      [
        103.8840482,
        1.3267565
      ],
      [
        103.8840732,
        1.3267774
      ],
      [
        103.8840909,
        1.3268065
      ],
      [
        103.8841483,
        1.327047
      ],
      [
        103.884213,
        1.327202
      ],
      [
        103.88429,
        1.3273045
      ],
      [
        103.8843718,
        1.3273595
      ],
      [
        103.8844374,
        1.3273818
      ],
      [
        103.8846783,
        1.3273664
      ],
      [
        103.8849435,
        1.3273513
      ],
      [
        103.8849812,
        1.3273505
      ],
      [
        103.885199,
        1.3273462
      ],
      [
        103.8852443,
        1.327352
      ],
      [
        103.8852954,
        1.3273719
      ],
      [
        103.8853271,
        1.3274026
      ],
      [
        103.8853714,
        1.3275063
      ],
      [
        103.8853964,
        1.3276032
      ],
      [
        103.8854428,
        1.3277309
      ],
      [
        103.8854562,
        1.3278587
      ],
      [
        103.8854954,
        1.3281432
      ],
      [
        103.885535,
        1.3283584
      ],
      [
        103.8855659,
        1.32846
      ],
      [
        103.8856017,
        1.3285348
      ],
      [
        103.8856606,
        1.3286273
      ],
      [
        103.8857218,
        1.3287102
      ],
      [
        103.8857999,
        1.3287738
      ],
      [
        103.8859149,
        1.3288609
      ],
      [
        103.8860335,
        1.3289224
      ],
      [
        103.8861653,
        1.3289648
      ],
      [
        103.886265,
        1.3289772
      ],
      [
        103.8863717,
        1.3289817
      ],
      [
        103.8864607,
        1.3289744
      ],
      [
        103.8866167,
        1.3289423
      ],
      [
        103.8867622,
        1.32887
      ],
      [
        103.8868723,
        1.3287928
      ],
      [
        103.8869563,
        1.3287063
      ],
      [
        103.8870222,
        1.3286268
      ],
      [
        103.8870534,
        1.3285764
      ],
      [
        103.8871117,
        1.3284932
      ],
      [
        103.8871862,
        1.3283698
      ],
      [
        103.8872191,
        1.3283153
      ],
      [
        103.8874155,
        1.3279811
      ],
      [
        103.8874882,
        1.3278845
      ],
      [
        103.8878807,
        1.3272615
      ],
      [
        103.8880898,
        1.3269051
      ],
      [
        103.8881384,
        1.3268179
      ],
      [
        103.888182,
        1.3267396
      ],
      [
        103.8882676,
        1.3265711
      ],
      [
        103.8883999,
        1.326177
      ],
      [
        103.8884302,
        1.3260611
      ],
      [
        103.8884468,
        1.3259974
      ],
      [
        103.8884979,
        1.325878
      ],
      [
        103.888516,
        1.3258009
      ],
      [
        103.8885503,
        1.3256757
      ],
      [
        103.8886302,
        1.3253173
      ],
      [
        103.8886838,
        1.325096
      ],
      [
        103.8886959,
        1.3250157
      ],
      [
        103.8887722,
        1.3246961
      ],
      [
        103.888845,
        1.3243699
      ],
      [
        103.8889558,
        1.3239152
      ],
      [
        103.8889691,
        1.3238677
      ],
      [
        103.8889743,
        1.323752
      ],
      [
        103.8889641,
        1.3236366
      ],
      [
        103.8889448,
        1.3235847
      ],
      [
        103.8889268,
        1.3235591
      ],
      [
        103.8888798,
        1.3234997
      ],
      [
        103.8886466,
        1.3234946
      ],
      [
        103.888438,
        1.3235074
      ],
      [
        103.8879888,
        1.3235605
      ],
      [
        103.8878325,
        1.3235832
      ],
      [
        103.8873766,
        1.3236464
      ],
      [
        103.8867975,
        1.323727
      ],
      [
        103.88637,
        1.3237832
      ],
      [
        103.8862793,
        1.3237962
      ],
      [
        103.8862563,
        1.3237995
      ],
      [
        103.886195,
        1.3238083
      ],
      [
        103.8861349,
        1.3238173
      ],
      [
        103.8860783,
        1.3238259
      ],
      [
        103.8860159,
        1.3238343
      ],
      [
        103.8859281,
        1.3238463
      ],
      [
        103.8858371,
        1.3238586
      ],
      [
        103.8856953,
        1.3238779
      ],
      [
        103.8856057,
        1.3238891
      ],
      [
        103.8855356,
        1.3238978
      ],
      [
        103.885297,
        1.3239276
      ],
      [
        103.8850524,
        1.3239615
      ],
      [
        103.885062,
        1.3240471
      ],
      [
        103.8850525,
        1.3241903
      ],
      [
        103.8850525,
        1.3243273
      ],
      [
        103.8850407,
        1.3245996
      ],
      [
        103.8850647,
        1.3247737
      ],
      [
        103.885083,
        1.3248878
      ],
      [
        103.885087,
        1.3249259
      ],
      [
        103.8851924,
        1.3256738
      ],
      [
        103.8851961,
        1.3257036
      ],
      [
        103.8852105,
        1.3257964
      ],
      [
        103.8852144,
        1.3258479
      ],
      [
        103.8852458,
        1.3261734
      ],
      [
        103.8853134,
        1.3265958
      ],
      [
        103.8853205,
        1.3266328
      ],
      [
        103.8853457,
        1.3268192
      ],
      [
        103.8853425,
        1.3269719
      ],
      [
        103.8853374,
        1.3270529
      ],
      [
        103.885332,
        1.3271012
      ],
      [
        103.8853286,
        1.3271564
      ],
      [
        103.8852395,
        1.3272289
      ],
      [
        103.8852078,
        1.3272506
      ],
      [
        103.8851622,
        1.3272659
      ],
      [
        103.8849778,
        1.3272834
      ],
      [
        103.8849394,
        1.3272871
      ],
      [
        103.8846768,
        1.3273041
      ],
      [
        103.8844424,
        1.3272918
      ],
      [
        103.884328,
        1.3272453
      ],
      [
        103.8842906,
        1.3272118
      ],
      [
        103.8842602,
        1.3271639
      ],
      [
        103.884221,
        1.3270692
      ],
      [
        103.8841283,
        1.3266989
      ],
      [
        103.8841106,
        1.326625
      ],
      [
        103.8840474,
        1.3264158
      ],
      [
        103.8839917,
        1.3262418
      ],
      [
        103.8839556,
        1.3260519
      ],
      [
        103.8839186,
        1.3258114
      ],
      [
        103.88389,
        1.3256721
      ],
      [
        103.8838544,
        1.3255713
      ],
      [
        103.8837858,
        1.3254429
      ],
      [
        103.8836827,
        1.3253166
      ],
      [
        103.8835473,
        1.3251979
      ],
      [
        103.8834317,
        1.3251479
      ],
      [
        103.8832858,
        1.325098
      ],
      [
        103.8831273,
        1.3250715
      ],
      [
        103.8829171,
        1.3250776
      ],
      [
        103.8827091,
        1.3251329
      ],
      [
        103.8825717,
        1.3251704
      ],
      [
        103.882495,
        1.325191
      ],
      [
        103.8822312,
        1.3252618
      ],
      [
        103.8818451,
        1.325365
      ],
      [
        103.8814723,
        1.3254603
      ],
      [
        103.8811849,
        1.3255203
      ],
      [
        103.88114,
        1.3255164
      ],
      [
        103.8809114,
        1.3254467
      ],
      [
        103.880866,
        1.3254329
      ],
      [
        103.8807215,
        1.3255065
      ],
      [
        103.8806892,
        1.325613
      ],
      [
        103.8806671,
        1.3257021
      ],
      [
        103.8805432,
        1.3261297
      ],
      [
        103.8804158,
        1.3265201
      ],
      [
        103.8803648,
        1.3266843
      ],
      [
        103.8802828,
        1.3269378
      ],
      [
        103.8801164,
        1.3274244
      ],
      [
        103.8800637,
        1.3275847
      ],
      [
        103.8800006,
        1.3277763
      ],
      [
        103.8799736,
        1.3278585
      ],
      [
        103.879936,
        1.3279728
      ],
      [
        103.879893,
        1.3280919
      ],
      [
        103.87986,
        1.328163
      ],
      [
        103.8797785,
        1.3283925
      ],
      [
        103.8794115,
        1.329506
      ],
      [
        103.8792268,
        1.3302004
      ],
      [
        103.8791773,
        1.3303708
      ],
      [
        103.8789881,
        1.3310965
      ],
      [
        103.8789662,
        1.3311807
      ],
      [
        103.878928,
        1.3313252
      ],
      [
        103.8789169,
        1.3313823
      ],
      [
        103.8788613,
        1.331632
      ],
      [
        103.8788557,
        1.3316649
      ],
      [
        103.8788303,
        1.3317821
      ],
      [
        103.8787906,
        1.3319595
      ],
      [
        103.878647,
        1.3325697
      ],
      [
        103.8785424,
        1.3330309
      ],
      [
        103.8785214,
        1.3331212
      ],
      [
        103.8785065,
        1.3331884
      ],
      [
        103.8784924,
        1.3332571
      ],
      [
        103.8784604,
        1.3334133
      ],
      [
        103.8783931,
        1.3337835
      ],
      [
        103.8783225,
        1.3340633
      ],
      [
        103.878301,
        1.3341947
      ],
      [
        103.878125,
        1.3349813
      ],
      [
        103.8781019,
        1.3350836
      ],
      [
        103.878068,
        1.3352386
      ],
      [
        103.8780489,
        1.3353209
      ],
      [
        103.8780049,
        1.3355159
      ],
      [
        103.8779792,
        1.3356415
      ],
      [
        103.8779493,
        1.3357719
      ],
      [
        103.8778316,
        1.3362862
      ],
      [
        103.8777861,
        1.3364766
      ],
      [
        103.8777297,
        1.3366321
      ],
      [
        103.8777028,
        1.3366859
      ],
      [
        103.877668,
        1.3367555
      ],
      [
        103.8775312,
        1.3368815
      ],
      [
        103.8770833,
        1.337265
      ],
      [
        103.8769657,
        1.3373599
      ],
      [
        103.8768642,
        1.3374241
      ],
      [
        103.8767886,
        1.3374552
      ],
      [
        103.8767149,
        1.3374817
      ],
      [
        103.8765594,
        1.3375379
      ],
      [
        103.8764096,
        1.3375871
      ],
      [
        103.8763463,
        1.3376033
      ],
      [
        103.8762698,
        1.3376272
      ],
      [
        103.8761868,
        1.337655
      ],
      [
        103.8759523,
        1.3377321
      ],
      [
        103.8759096,
        1.3377438
      ],
      [
        103.875865,
        1.3377489
      ],
      [
        103.875692,
        1.337769
      ],
      [
        103.8756163,
        1.3377659
      ],
      [
        103.8755262,
        1.3377555
      ],
      [
        103.875464,
        1.3377483
      ],
      [
        103.8752249,
        1.3377207
      ],
      [
        103.8751229,
        1.3377078
      ],
      [
        103.8745844,
        1.3376383
      ],
      [
        103.8741188,
        1.3375725
      ],
      [
        103.8740232,
        1.3375615
      ],
      [
        103.8739803,
        1.3375566
      ],
      [
        103.8736976,
        1.337524
      ],
      [
        103.8734654,
        1.3375096
      ],
      [
        103.8732946,
        1.3375018
      ],
      [
        103.8731113,
        1.337507
      ],
      [
        103.8727844,
        1.3375287
      ],
      [
        103.872474,
        1.3375591
      ],
      [
        103.8723906,
        1.3375673
      ],
      [
        103.8722964,
        1.3375766
      ],
      [
        103.8722265,
        1.3375834
      ],
      [
        103.8721105,
        1.3375948
      ],
      [
        103.8719935,
        1.3376062
      ],
      [
        103.8715781,
        1.337645
      ],
      [
        103.8713591,
        1.3376637
      ],
      [
        103.8711372,
        1.337676
      ],
      [
        103.8707377,
        1.3376929
      ],
      [
        103.8706397,
        1.3376966
      ],
      [
        103.8704718,
        1.3376992
      ],
      [
        103.8704856,
        1.3378167
      ],
      [
        103.8705194,
        1.3381037
      ],
      [
        103.8705658,
        1.3384989
      ],
      [
        103.8705805,
        1.3386727
      ],
      [
        103.8706437,
        1.3392103
      ],
      [
        103.8706664,
        1.3393886
      ],
      [
        103.8706705,
        1.3394212
      ],
      [
        103.8706788,
        1.3394868
      ],
      [
        103.8706833,
        1.3395367
      ],
      [
        103.8707195,
        1.3399343
      ],
      [
        103.8706863,
        1.3404431
      ],
      [
        103.8706665,
        1.3406347
      ],
      [
        103.8705924,
        1.3413526
      ],
      [
        103.8705537,
        1.3417275
      ],
      [
        103.870529,
        1.3420371
      ],
      [
        103.8705134,
        1.3421728
      ],
      [
        103.8704185,
        1.3423405
      ],
      [
        103.8703599,
        1.3424341
      ],
      [
        103.8702954,
        1.3425078
      ],
      [
        103.8702138,
        1.3425426
      ],
      [
        103.8701176,
        1.3425522
      ],
      [
        103.8699113,
        1.3425275
      ],
      [
        103.8698607,
        1.3425254
      ],
      [
        103.8697619,
        1.3425152
      ],
      [
        103.869534,
        1.3425163
      ],
      [
        103.8691715,
        1.3425737
      ],
      [
        103.8689975,
        1.3426289
      ],
      [
        103.8685643,
        1.3428196
      ],
      [
        103.8684196,
        1.3428911
      ],
      [
        103.8676365,
        1.3432792
      ],
      [
        103.8676145,
        1.3432907
      ],
      [
        103.8674256,
        1.3433894
      ],
      [
        103.8673894,
        1.3434079
      ],
      [
        103.8671485,
        1.3435305
      ],
      [
        103.8667743,
        1.3436978
      ],
      [
        103.8663265,
        1.3438979
      ],
      [
        103.8659874,
        1.3440505
      ],
      [
        103.865663,
        1.3441657
      ],
      [
        103.865463,
        1.3442052
      ],
      [
        103.8653102,
        1.3442258
      ],
      [
        103.8650374,
        1.3442359
      ],
      [
        103.8648312,
        1.3442284
      ],
      [
        103.8646417,
        1.3442106
      ],
      [
        103.8644068,
        1.3441568
      ],
      [
        103.8642725,
        1.3441151
      ],
      [
        103.8642052,
        1.3440942
      ],
      [
        103.8640959,
        1.344063
      ],
      [
        103.8637022,
        1.3439505
      ],
      [
        103.8636543,
        1.3439356
      ],
      [
        103.8635898,
        1.3439165
      ],
      [
        103.8631018,
        1.3437229
      ],
      [
        103.8630426,
        1.3437002
      ],
      [
        103.8624745,
        1.3435174
      ],
      [
        103.8618157,
        1.3434084
      ],
      [
        103.8616925,
        1.3433888
      ],
      [
        103.8616433,
        1.3433836
      ],
      [
        103.8615147,
        1.3433677
      ],
      [
        103.8614875,
        1.3433643
      ],
      [
        103.8613292,
        1.3433477
      ],
      [
        103.8612929,
        1.3433386
      ],
      [
        103.8612582,
        1.3433278
      ],
      [
        103.8612084,
        1.3433075
      ],
      [
        103.8610871,
        1.3432534
      ],
      [
        103.8610395,
        1.3432347
      ],
      [
        103.8609745,
        1.343213
      ],
      [
        103.860911,
        1.3431957
      ],
      [
        103.8608475,
        1.3431812
      ],
      [
        103.860785,
        1.3431706
      ],
      [
        103.8607312,
        1.3431654
      ],
      [
        103.860672,
        1.3431618
      ],
      [
        103.8606056,
        1.3431567
      ],
      [
        103.8605022,
        1.3431547
      ],
      [
        103.8602071,
        1.3431661
      ],
      [
        103.8599221,
        1.3432164
      ],
      [
        103.8593715,
        1.3432114
      ],
      [
        103.8585251,
        1.3431908
      ],
      [
        103.8582742,
        1.3431902
      ],
      [
        103.8580018,
        1.3431934
      ],
      [
        103.8579257,
        1.3432016
      ],
      [
        103.8578607,
        1.3432307
      ],
      [
        103.8577395,
        1.3432251
      ],
      [
        103.8576926,
        1.3432237
      ],
      [
        103.8573859,
        1.3432082
      ],
      [
        103.8570978,
        1.3431897
      ],
      [
        103.8567844,
        1.3431787
      ],
      [
        103.8556677,
        1.3431466
      ],
      [
        103.8551239,
        1.3431345
      ],
      [
        103.8548427,
        1.3431291
      ],
      [
        103.8546034,
        1.343059
      ],
      [
        103.8543693,
        1.3430428
      ],
      [
        103.8541936,
        1.3429892
      ],
      [
        103.854064,
        1.3429193
      ],
      [
        103.8539559,
        1.3428154
      ],
      [
        103.8538953,
        1.3427204
      ],
      [
        103.8538216,
        1.3425655
      ],
      [
        103.8537716,
        1.3423161
      ],
      [
        103.8537373,
        1.3420753
      ],
      [
        103.8536314,
        1.3415074
      ],
      [
        103.8535528,
        1.3412253
      ],
      [
        103.8533985,
        1.3409442
      ],
      [
        103.853351,
        1.3407989
      ],
      [
        103.8533136,
        1.3407001
      ],
      [
        103.85326,
        1.3405499
      ],
      [
        103.8532297,
        1.340469
      ],
      [
        103.8531637,
        1.3403051
      ],
      [
        103.853102,
        1.3401559
      ],
      [
        103.8530303,
        1.3400259
      ],
      [
        103.8529166,
        1.3398249
      ],
      [
        103.8527987,
        1.3396125
      ],
      [
        103.8527217,
        1.3394873
      ],
      [
        103.8524455,
        1.3391544
      ],
      [
        103.8524087,
        1.33911
      ],
      [
        103.8523436,
        1.3390316
      ],
      [
        103.8522366,
        1.3391217
      ],
      [
        103.8519648,
        1.3393584
      ],
      [
        103.8518335,
        1.3394632
      ],
      [
        103.8517134,
        1.3395448
      ],
      [
        103.8515452,
        1.3396446
      ],
      [
        103.8514244,
        1.3396695
      ],
      [
        103.8512161,
        1.3396622
      ],
      [
        103.851099,
        1.3396344
      ],
      [
        103.8509718,
        1.3395504
      ],
      [
        103.8508537,
        1.3393567
      ],
      [
        103.8507124,
        1.3391336
      ],
      [
        103.8506434,
        1.3390246
      ],
      [
        103.8506229,
        1.3389899
      ],
      [
        103.8505356,
        1.3388418
      ],
      [
        103.8504981,
        1.3387783
      ],
      [
        103.8504828,
        1.3387515
      ],
      [
        103.8504695,
        1.3387274
      ],
      [
        103.8504439,
        1.3386809
      ],
      [
        103.850403,
        1.3386125
      ],
      [
        103.8503868,
        1.3385861
      ],
      [
        103.8503774,
        1.3385708
      ],
      [
        103.8503386,
        1.3385075
      ],
      [
        103.8500405,
        1.3380206
      ],
      [
        103.8498788,
        1.3377101
      ],
      [
        103.8498626,
        1.3376732
      ],
      [
        103.8498496,
        1.3376394
      ],
      [
        103.8498451,
        1.3375726
      ],
      [
        103.849846,
        1.3375593
      ],
      [
        103.8498486,
        1.3375148
      ],
      [
        103.8498525,
        1.3374486
      ],
      [
        103.8498598,
        1.3373259
      ],
      [
        103.8498702,
        1.3372405
      ],
      [
        103.8498893,
        1.3370832
      ],
      [
        103.8499492,
        1.336862
      ],
      [
        103.8500442,
        1.3366716
      ],
      [
        103.8501438,
        1.3364855
      ],
      [
        103.8502979,
        1.3362746
      ],
      [
        103.85048,
        1.3359805
      ],
      [
        103.8507719,
        1.3355834
      ],
      [
        103.8508641,
        1.3354601
      ],
      [
        103.8509673,
        1.3353018
      ],
      [
        103.851064,
        1.3351437
      ],
      [
        103.8511559,
        1.3349594
      ],
      [
        103.851202,
        1.3348601
      ],
      [
        103.8512672,
        1.3346784
      ],
      [
        103.8512942,
        1.3345835
      ],
      [
        103.8513154,
        1.3345089
      ],
      [
        103.8513395,
        1.3344245
      ],
      [
        103.8514161,
        1.3340213
      ],
      [
        103.8514799,
        1.3336298
      ],
      [
        103.8514933,
        1.3335294
      ],
      [
        103.8515051,
        1.3334416
      ],
      [
        103.8515156,
        1.3333628
      ],
      [
        103.8516124,
        1.3325852
      ],
      [
        103.8517332,
        1.3317934
      ],
      [
        103.851752,
        1.3316694
      ],
      [
        103.8518042,
        1.3313377
      ],
      [
        103.8518172,
        1.3312706
      ],
      [
        103.8518313,
        1.3311759
      ],
      [
        103.8517614,
        1.331162
      ],
      [
        103.8508422,
        1.3310289
      ],
      [
        103.850655,
        1.3310014
      ],
      [
        103.8505176,
        1.3309865
      ],
      [
        103.8503556,
        1.3309748
      ],
      [
        103.8502454,
        1.3309736
      ],
      [
        103.8500505,
        1.3309907
      ],
      [
        103.8496967,
        1.3310298
      ],
      [
        103.8495342,
        1.3310502
      ],
      [
        103.8492632,
        1.3310952
      ],
      [
        103.8490063,
        1.3311259
      ],
      [
        103.848657,
        1.3311742
      ],
      [
        103.8484541,
        1.3312029
      ],
      [
        103.847813,
        1.3312841
      ],
      [
        103.8477321,
        1.3312964
      ],
      [
        103.8476758,
        1.3313057
      ],
      [
        103.8475952,
        1.331319
      ],
      [
        103.8475702,
        1.3314206
      ],
      [
        103.847546,
        1.3315009
      ],
      [
        103.8475064,
        1.3316175
      ],
      [
        103.8474931,
        1.3316237
      ],
      [
        103.84748,
        1.3316275
      ],
      [
        103.8473008,
        1.3316302
      ],
      [
        103.8470626,
        1.3316991
      ],
      [
        103.846909,
        1.3317975
      ],
      [
        103.8468287,
        1.3318605
      ],
      [
        103.8467952,
        1.3319138
      ],
      [
        103.8467217,
        1.3320515
      ],
      [
        103.8466995,
        1.3321823
      ],
      [
        103.8466995,
        1.3323142
      ],
      [
        103.8467778,
        1.332553
      ],
      [
        103.8467805,
        1.3325661
      ],
      [
        103.8467801,
        1.3325799
      ],
      [
        103.8467763,
        1.3325922
      ],
      [
        103.8467646,
        1.3326024
      ],
      [
        103.8466666,
        1.3326462
      ],
      [
        103.8465995,
        1.3326596
      ]
    ]
  }
}