{
  "type": "Feature",
  "properties": {
    "relation": 1147805,
    "direction": "1",
    "fee": "yes",
    "from": "Pasir Ris Interchange",
    "name": "Svc 15 (Pasir Ris Interchange ↺ Marine Parade Road)",
    "name:en": "Svc 15 (Pasir Ris Interchange ↺ Marine Parade Road)",
    "network": "Land Transport Authority",
    "network:short": "LTA",
    "network:wikidata": "Q3299279",
    "network:wikipedia": "en:Land Transport Authority",
    "operator": "Go-Ahead Singapore",
    "operator:wikidata": "Q24698874",
    "operator:wikipedia": "en:Go-Ahead Singapore",
    "public_transport:version": "2",
    "ref": "15",
    "roundtrip": "yes",
    "route": "bus",
    "to": "Pasir Ris Interchange",
    "type": "route",
    "via": "Marine Parade Road",
    "website": "https://go-aheadsingapore.com/bus-services/"
  },
  "geometry": {
    "type": "LineString",
    "coordinates": [
      [
        103.9485976,
        1.3735437
      ],
      [
        103.9485175,
        1.3735669
      ],
      [
        103.9484386,
        1.3736764
      ],
      [
        103.9484088,
        1.3737805
      ],
      [
        103.9484229,
        1.3739023
      ],
      [
        103.9484646,
        1.3740787
      ],
      [
        103.9485192,
        1.3742512
      ],
      [
        103.9485761,
        1.3744308
      ],
      [
        103.9486404,
        1.3746339
      ],
      [
        103.9486862,
        1.3747786
      ],
      [
        103.9487038,
        1.3748343
      ],
      [
        103.9487311,
        1.3748618
      ],
      [
        103.9487827,
        1.3748628
      ],
      [
        103.9489614,
        1.374809
      ],
      [
        103.9492107,
        1.374734
      ],
      [
        103.9492107,
        1.374734
      ],
      [
        103.9492813,
        1.3749702
      ],
      [
        103.9492647,
        1.3749088
      ],
      [
        103.9492671,
        1.3750976
      ],
      [
        103.9491986,
        1.375123
      ],
      [
        103.9489497,
        1.3752189
      ],
      [
        103.9488703,
        1.3752472
      ],
      [
        103.9485121,
        1.3753921
      ],
      [
        103.9484328,
        1.375427
      ],
      [
        103.9483697,
        1.3754525
      ],
      [
        103.9481926,
        1.3755245
      ],
      [
        103.948043,
        1.3755892
      ],
      [
        103.9477125,
        1.3757454
      ],
      [
        103.9470404,
        1.3761019
      ],
      [
        103.9469551,
        1.3761471
      ],
      [
        103.9469206,
        1.3760804
      ],
      [
        103.9467733,
        1.3757962
      ],
      [
        103.9464438,
        1.3751988
      ],
      [
        103.9463581,
        1.3750769
      ],
      [
        103.9462285,
        1.374888
      ],
      [
        103.9461458,
        1.3747648
      ],
      [
        103.9461071,
        1.3747075
      ],
      [
        103.9460475,
        1.3746247
      ],
      [
        103.9458083,
        1.3742924
      ],
      [
        103.9456922,
        1.3741233
      ],
      [
        103.9454255,
        1.3737541
      ],
      [
        103.9453549,
        1.3736312
      ],
      [
        103.9452996,
        1.3735289
      ],
      [
        103.9452475,
        1.3734067
      ],
      [
        103.9451037,
        1.3731014
      ],
      [
        103.9450976,
        1.373084
      ],
      [
        103.9450801,
        1.3730333
      ],
      [
        103.9451156,
        1.3730191
      ],
      [
        103.9453246,
        1.3729488
      ],
      [
        103.9454915,
        1.3728656
      ],
      [
        103.9457938,
        1.3726637
      ],
      [
        103.9464526,
        1.3724029
      ],
      [
        103.9468894,
        1.3722318
      ],
      [
        103.9470159,
        1.3721843
      ],
      [
        103.9470812,
        1.3721575
      ],
      [
        103.9471857,
        1.3721263
      ],
      [
        103.9472937,
        1.3720781
      ],
      [
        103.9472771,
        1.3720224
      ],
      [
        103.9472619,
        1.3719732
      ],
      [
        103.9472388,
        1.3718965
      ],
      [
        103.9472291,
        1.3718272
      ],
      [
        103.9472006,
        1.3714957
      ],
      [
        103.9471675,
        1.3712814
      ],
      [
        103.9470905,
        1.371108
      ],
      [
        103.9470704,
        1.370882
      ],
      [
        103.9470692,
        1.370808
      ],
      [
        103.9470482,
        1.3706448
      ],
      [
        103.9466334,
        1.3683938
      ],
      [
        103.9464735,
        1.3675698
      ],
      [
        103.9464606,
        1.3675031
      ],
      [
        103.9462396,
        1.366668
      ],
      [
        103.9461374,
        1.3662979
      ],
      [
        103.9460404,
        1.3659777
      ],
      [
        103.9459472,
        1.3656801
      ],
      [
        103.9456033,
        1.3644389
      ],
      [
        103.9453416,
        1.3638313
      ],
      [
        103.945261,
        1.3637259
      ],
      [
        103.9451461,
        1.3636004
      ],
      [
        103.9449831,
        1.3635053
      ],
      [
        103.9445259,
        1.3631653
      ],
      [
        103.9440328,
        1.3628597
      ],
      [
        103.9438333,
        1.362742
      ],
      [
        103.9435748,
        1.36259
      ],
      [
        103.9432879,
        1.3624169
      ],
      [
        103.9430613,
        1.362282
      ],
      [
        103.9426825,
        1.3620668
      ],
      [
        103.9425473,
        1.3619331
      ],
      [
        103.9424207,
        1.3617712
      ],
      [
        103.9422974,
        1.3615451
      ],
      [
        103.9422231,
        1.3613112
      ],
      [
        103.9421864,
        1.3609928
      ],
      [
        103.9421763,
        1.3608048
      ],
      [
        103.9421538,
        1.3606913
      ],
      [
        103.9421578,
        1.360525
      ],
      [
        103.9421618,
        1.3604378
      ],
      [
        103.9421725,
        1.3603145
      ],
      [
        103.9421732,
        1.3602246
      ],
      [
        103.942181,
        1.3599489
      ],
      [
        103.9421844,
        1.3597229
      ],
      [
        103.9421939,
        1.359384
      ],
      [
        103.9421936,
        1.3592909
      ],
      [
        103.9421927,
        1.3590404
      ],
      [
        103.9421926,
        1.3590165
      ],
      [
        103.9421946,
        1.3589223
      ],
      [
        103.9421952,
        1.3588406
      ],
      [
        103.9421982,
        1.3584304
      ],
      [
        103.9422017,
        1.3582802
      ],
      [
        103.9422114,
        1.3581845
      ],
      [
        103.9422255,
        1.3580729
      ],
      [
        103.9422439,
        1.3579728
      ],
      [
        103.9422782,
        1.3578533
      ],
      [
        103.9423159,
        1.3577497
      ],
      [
        103.9423709,
        1.3576289
      ],
      [
        103.9424288,
        1.3575024
      ],
      [
        103.9425353,
        1.3573461
      ],
      [
        103.9427953,
        1.3571101
      ],
      [
        103.9430203,
        1.3569714
      ],
      [
        103.9432603,
        1.3568588
      ],
      [
        103.9436001,
        1.3567854
      ],
      [
        103.9439573,
        1.356779
      ],
      [
        103.9440631,
        1.3567752
      ],
      [
        103.9441334,
        1.3567737
      ],
      [
        103.9451045,
        1.3567929
      ],
      [
        103.9455045,
        1.3568008
      ],
      [
        103.9460439,
        1.3567971
      ],
      [
        103.9461144,
        1.3567961
      ],
      [
        103.946241,
        1.3567963
      ],
      [
        103.9463231,
        1.3567952
      ],
      [
        103.9463234,
        1.3566616
      ],
      [
        103.9463242,
        1.3566028
      ],
      [
        103.9463335,
        1.3559111
      ],
      [
        103.9463386,
        1.3553721
      ],
      [
        103.9463394,
        1.3552833
      ],
      [
        103.9463469,
        1.3548094
      ],
      [
        103.9463433,
        1.3544763
      ],
      [
        103.9463429,
        1.3544149
      ],
      [
        103.9463423,
        1.3543384
      ],
      [
        103.9463423,
        1.3540433
      ],
      [
        103.9463318,
        1.3538547
      ],
      [
        103.9463228,
        1.3537776
      ],
      [
        103.9463137,
        1.3536999
      ],
      [
        103.9462816,
        1.3534831
      ],
      [
        103.9461995,
        1.3531821
      ],
      [
        103.946162,
        1.3530979
      ],
      [
        103.9460837,
        1.3528995
      ],
      [
        103.946022,
        1.3527952
      ],
      [
        103.9458085,
        1.3525211
      ],
      [
        103.9456733,
        1.3523768
      ],
      [
        103.9456555,
        1.3523608
      ],
      [
        103.9455259,
        1.3522414
      ],
      [
        103.945252,
        1.3520341
      ],
      [
        103.944976,
        1.3518749
      ],
      [
        103.9447697,
        1.3517922
      ],
      [
        103.9445995,
        1.3517489
      ],
      [
        103.9445166,
        1.3517323
      ],
      [
        103.9444059,
        1.3517047
      ],
      [
        103.9443183,
        1.3516938
      ],
      [
        103.9442085,
        1.3516801
      ],
      [
        103.9438588,
        1.3516736
      ],
      [
        103.9433477,
        1.3516789
      ],
      [
        103.9432769,
        1.3516797
      ],
      [
        103.9432066,
        1.3516804
      ],
      [
        103.9425156,
        1.3516793
      ],
      [
        103.9422888,
        1.3516798
      ],
      [
        103.9419319,
        1.3516784
      ],
      [
        103.9417595,
        1.3516461
      ],
      [
        103.9416906,
        1.3516127
      ],
      [
        103.9416484,
        1.3515818
      ],
      [
        103.9416399,
        1.3515713
      ],
      [
        103.9416015,
        1.3515253
      ],
      [
        103.9415488,
        1.3514363
      ],
      [
        103.9415498,
        1.3511462
      ],
      [
        103.9415576,
        1.3508671
      ],
      [
        103.9416088,
        1.3503862
      ],
      [
        103.9416379,
        1.3502262
      ],
      [
        103.941698,
        1.3499131
      ],
      [
        103.9417115,
        1.349861
      ],
      [
        103.9417376,
        1.3497317
      ],
      [
        103.9420664,
        1.3484846
      ],
      [
        103.9421424,
        1.3481606
      ],
      [
        103.9421907,
        1.3479592
      ],
      [
        103.9422293,
        1.3477945
      ],
      [
        103.9422518,
        1.3477199
      ],
      [
        103.9422686,
        1.3476656
      ],
      [
        103.9423317,
        1.347498
      ],
      [
        103.9424193,
        1.3472606
      ],
      [
        103.9425231,
        1.3470585
      ],
      [
        103.9425686,
        1.3469737
      ],
      [
        103.9426196,
        1.3468988
      ],
      [
        103.9427821,
        1.3467001
      ],
      [
        103.9429115,
        1.3465484
      ],
      [
        103.942934,
        1.3465215
      ],
      [
        103.9429736,
        1.3464741
      ],
      [
        103.9430816,
        1.3463479
      ],
      [
        103.9429306,
        1.3462242
      ],
      [
        103.9428815,
        1.3461841
      ],
      [
        103.9425343,
        1.3459005
      ],
      [
        103.9424996,
        1.3458722
      ],
      [
        103.942224,
        1.3456781
      ],
      [
        103.9419632,
        1.3455185
      ],
      [
        103.941379,
        1.3452177
      ],
      [
        103.9409479,
        1.3450234
      ],
      [
        103.940776,
        1.3449573
      ],
      [
        103.9407193,
        1.344941
      ],
      [
        103.9405303,
        1.3448868
      ],
      [
        103.940092,
        1.3447951
      ],
      [
        103.9396674,
        1.3447305
      ],
      [
        103.9394416,
        1.3447071
      ],
      [
        103.9392153,
        1.344694
      ],
      [
        103.9386141,
        1.3446718
      ],
      [
        103.93848,
        1.3446786
      ],
      [
        103.938436,
        1.3446785
      ],
      [
        103.9383241,
        1.3446783
      ],
      [
        103.9381714,
        1.3446788
      ],
      [
        103.9381457,
        1.344677
      ],
      [
        103.9379297,
        1.3446891
      ],
      [
        103.9377524,
        1.3447248
      ],
      [
        103.937617,
        1.3447499
      ],
      [
        103.9374984,
        1.3447898
      ],
      [
        103.9371162,
        1.3449518
      ],
      [
        103.9368132,
        1.3450802
      ],
      [
        103.9362206,
        1.3453314
      ],
      [
        103.9358943,
        1.3454608
      ],
      [
        103.9357669,
        1.3455072
      ],
      [
        103.9354324,
        1.3456478
      ],
      [
        103.9351006,
        1.3457826
      ],
      [
        103.9348293,
        1.3459079
      ],
      [
        103.9345517,
        1.3460213
      ],
      [
        103.933747,
        1.3463689
      ],
      [
        103.9336701,
        1.3464011
      ],
      [
        103.9330558,
        1.3466482
      ],
      [
        103.9326792,
        1.3467996
      ],
      [
        103.9319178,
        1.3471095
      ],
      [
        103.9316643,
        1.3472341
      ],
      [
        103.9310638,
        1.3475265
      ],
      [
        103.9305017,
        1.3478144
      ],
      [
        103.9302202,
        1.3479619
      ],
      [
        103.9301645,
        1.3479917
      ],
      [
        103.930074,
        1.348037
      ],
      [
        103.9300345,
        1.3480598
      ],
      [
        103.929908,
        1.3481247
      ],
      [
        103.9297781,
        1.3481925
      ],
      [
        103.9297559,
        1.348204
      ],
      [
        103.9293345,
        1.3484479
      ],
      [
        103.9291443,
        1.3485536
      ],
      [
        103.9290598,
        1.3486019
      ],
      [
        103.9289871,
        1.348639
      ],
      [
        103.9286485,
        1.3488288
      ],
      [
        103.9285803,
        1.3488675
      ],
      [
        103.9284967,
        1.3489145
      ],
      [
        103.9284344,
        1.3489513
      ],
      [
        103.9281041,
        1.3491214
      ],
      [
        103.927734,
        1.3493137
      ],
      [
        103.9276574,
        1.3493559
      ],
      [
        103.9275599,
        1.3494096
      ],
      [
        103.9272515,
        1.3495794
      ],
      [
        103.9271376,
        1.3496422
      ],
      [
        103.9266494,
        1.3498487
      ],
      [
        103.9264724,
        1.3499157
      ],
      [
        103.9262994,
        1.3499804
      ],
      [
        103.9262478,
        1.3499878
      ],
      [
        103.9261841,
        1.3499844
      ],
      [
        103.9261636,
        1.3499787
      ],
      [
        103.9260828,
        1.3499543
      ],
      [
        103.9259279,
        1.349842
      ],
      [
        103.9255558,
        1.3491137
      ],
      [
        103.925356,
        1.3488562
      ],
      [
        103.9252273,
        1.3487087
      ],
      [
        103.925124,
        1.3486042
      ],
      [
        103.9249429,
        1.3484527
      ],
      [
        103.9247108,
        1.3482774
      ],
      [
        103.9243991,
        1.3480591
      ],
      [
        103.9241348,
        1.3479185
      ],
      [
        103.9234027,
        1.3475661
      ],
      [
        103.9231715,
        1.3474544
      ],
      [
        103.9230977,
        1.3473944
      ],
      [
        103.9228766,
        1.3472795
      ],
      [
        103.9226554,
        1.3471769
      ],
      [
        103.9225975,
        1.3471484
      ],
      [
        103.9216195,
        1.3467274
      ],
      [
        103.9214666,
        1.3466616
      ],
      [
        103.9201489,
        1.3461159
      ],
      [
        103.9198407,
        1.3459541
      ],
      [
        103.919488,
        1.3457548
      ],
      [
        103.9193919,
        1.3456831
      ],
      [
        103.9193353,
        1.3456409
      ],
      [
        103.9192003,
        1.3455057
      ],
      [
        103.9190635,
        1.345318
      ],
      [
        103.9189403,
        1.3451222
      ],
      [
        103.9188707,
        1.344984
      ],
      [
        103.9188276,
        1.3448579
      ],
      [
        103.9187829,
        1.3447049
      ],
      [
        103.9187028,
        1.3443975
      ],
      [
        103.9186872,
        1.3419258
      ],
      [
        103.9186876,
        1.3417989
      ],
      [
        103.9186872,
        1.3416702
      ],
      [
        103.9186646,
        1.3414918
      ],
      [
        103.9186536,
        1.341405
      ],
      [
        103.9185971,
        1.3411264
      ],
      [
        103.9185394,
        1.3409077
      ],
      [
        103.9183224,
        1.3401817
      ],
      [
        103.9182836,
        1.3400521
      ],
      [
        103.9182644,
        1.3399828
      ],
      [
        103.918259,
        1.3399522
      ],
      [
        103.9181666,
        1.339545
      ],
      [
        103.9180744,
        1.3391212
      ],
      [
        103.9180096,
        1.3388302
      ],
      [
        103.9179867,
        1.3386525
      ],
      [
        103.9179758,
        1.3385056
      ],
      [
        103.917971,
        1.3383855
      ],
      [
        103.9179752,
        1.3383246
      ],
      [
        103.9179765,
        1.3382639
      ],
      [
        103.9179845,
        1.3381811
      ],
      [
        103.9178688,
        1.3381572
      ],
      [
        103.9177787,
        1.3381384
      ],
      [
        103.9174649,
        1.3380772
      ],
      [
        103.9169379,
        1.3379876
      ],
      [
        103.9167484,
        1.3379542
      ],
      [
        103.9160819,
        1.3378248
      ],
      [
        103.916054,
        1.3378194
      ],
      [
        103.9158407,
        1.3377686
      ],
      [
        103.9155983,
        1.3377072
      ],
      [
        103.9153551,
        1.3376457
      ],
      [
        103.9151886,
        1.3375927
      ],
      [
        103.915119,
        1.3375691
      ],
      [
        103.9150466,
        1.3375416
      ],
      [
        103.9149578,
        1.3375034
      ],
      [
        103.9148689,
        1.3374613
      ],
      [
        103.9146052,
        1.3373324
      ],
      [
        103.9143408,
        1.3372166
      ],
      [
        103.91381,
        1.3369725
      ],
      [
        103.9135276,
        1.3368381
      ],
      [
        103.9134669,
        1.3368052
      ],
      [
        103.913377,
        1.3367655
      ],
      [
        103.9126721,
        1.3363958
      ],
      [
        103.9121742,
        1.3361547
      ],
      [
        103.9116084,
        1.3358865
      ],
      [
        103.9115791,
        1.3358733
      ],
      [
        103.9114414,
        1.335813
      ],
      [
        103.9111457,
        1.3356815
      ],
      [
        103.9109404,
        1.3356003
      ],
      [
        103.9106561,
        1.3355152
      ],
      [
        103.9103658,
        1.3354393
      ],
      [
        103.9100225,
        1.3353496
      ],
      [
        103.9095774,
        1.3352263
      ],
      [
        103.9091873,
        1.335136
      ],
      [
        103.9091001,
        1.335122
      ],
      [
        103.9089833,
        1.3350889
      ],
      [
        103.9081336,
        1.3348955
      ],
      [
        103.9081188,
        1.3348928
      ],
      [
        103.9072022,
        1.3347272
      ],
      [
        103.9068189,
        1.3346494
      ],
      [
        103.9064724,
        1.3345814
      ],
      [
        103.9058052,
        1.3343219
      ],
      [
        103.905705,
        1.3342782
      ],
      [
        103.9056131,
        1.3342324
      ],
      [
        103.904472,
        1.3336733
      ],
      [
        103.9041284,
        1.333491
      ],
      [
        103.9038551,
        1.3333249
      ],
      [
        103.903667,
        1.3331928
      ],
      [
        103.9035109,
        1.3330571
      ],
      [
        103.9030735,
        1.3326138
      ],
      [
        103.9028559,
        1.3323825
      ],
      [
        103.9025713,
        1.332076
      ],
      [
        103.902557,
        1.331951
      ],
      [
        103.90256,
        1.3318898
      ],
      [
        103.9025623,
        1.3318438
      ],
      [
        103.9026287,
        1.3316585
      ],
      [
        103.9031951,
        1.3310741
      ],
      [
        103.9035885,
        1.3307107
      ],
      [
        103.9036879,
        1.3306196
      ],
      [
        103.9039049,
        1.3304206
      ],
      [
        103.9042177,
        1.3301132
      ],
      [
        103.9043679,
        1.3299758
      ],
      [
        103.9045229,
        1.3298309
      ],
      [
        103.9047559,
        1.3296132
      ],
      [
        103.9048186,
        1.3295581
      ],
      [
        103.9048762,
        1.3294999
      ],
      [
        103.9050245,
        1.3293395
      ],
      [
        103.9052851,
        1.3290077
      ],
      [
        103.9054392,
        1.3287624
      ],
      [
        103.9055834,
        1.328444
      ],
      [
        103.9057215,
        1.3280706
      ],
      [
        103.9057949,
        1.3278657
      ],
      [
        103.9058693,
        1.3275955
      ],
      [
        103.9058888,
        1.327504
      ],
      [
        103.9059068,
        1.327363
      ],
      [
        103.9059286,
        1.3271445
      ],
      [
        103.905937,
        1.3270305
      ],
      [
        103.9059482,
        1.3267762
      ],
      [
        103.9059444,
        1.32658
      ],
      [
        103.9059389,
        1.3263512
      ],
      [
        103.905926,
        1.326112
      ],
      [
        103.9058883,
        1.3258047
      ],
      [
        103.9058484,
        1.3254844
      ],
      [
        103.9057993,
        1.32508
      ],
      [
        103.9057423,
        1.3247216
      ],
      [
        103.9056954,
        1.3243606
      ],
      [
        103.9056314,
        1.3239636
      ],
      [
        103.9056036,
        1.3237708
      ],
      [
        103.9055538,
        1.323413
      ],
      [
        103.9055108,
        1.3231165
      ],
      [
        103.9055047,
        1.3230773
      ],
      [
        103.9054926,
        1.3229988
      ],
      [
        103.9054541,
        1.3227498
      ],
      [
        103.9054213,
        1.3225084
      ],
      [
        103.9053947,
        1.3223124
      ],
      [
        103.9053799,
        1.3222061
      ],
      [
        103.9053323,
        1.321816
      ],
      [
        103.9053093,
        1.3216228
      ],
      [
        103.9052938,
        1.3214984
      ],
      [
        103.9052236,
        1.3208761
      ],
      [
        103.905168,
        1.3203728
      ],
      [
        103.9051551,
        1.3202563
      ],
      [
        103.9051503,
        1.3202083
      ],
      [
        103.9051371,
        1.320099
      ],
      [
        103.9050978,
        1.3197569
      ],
      [
        103.9050669,
        1.3193774
      ],
      [
        103.905065,
        1.3192761
      ],
      [
        103.9050664,
        1.3191856
      ],
      [
        103.9050718,
        1.3190797
      ],
      [
        103.9050821,
        1.318734
      ],
      [
        103.9050972,
        1.3185273
      ],
      [
        103.9050998,
        1.318441
      ],
      [
        103.9051403,
        1.3180151
      ],
      [
        103.9051685,
        1.3177778
      ],
      [
        103.9051701,
        1.3177647
      ],
      [
        103.9051735,
        1.3177319
      ],
      [
        103.9051829,
        1.3176431
      ],
      [
        103.9052053,
        1.3175146
      ],
      [
        103.9052653,
        1.3171718
      ],
      [
        103.9053219,
        1.3169703
      ],
      [
        103.905383,
        1.3168027
      ],
      [
        103.9055972,
        1.3161499
      ],
      [
        103.9057742,
        1.3157099
      ],
      [
        103.9059418,
        1.3152899
      ],
      [
        103.9060481,
        1.3150521
      ],
      [
        103.9061325,
        1.3148658
      ],
      [
        103.9063417,
        1.3143444
      ],
      [
        103.90636,
        1.3142988
      ],
      [
        103.9063706,
        1.3142732
      ],
      [
        103.9064605,
        1.3142966
      ],
      [
        103.9063706,
        1.3142732
      ],
      [
        103.9068791,
        1.3143738
      ],
      [
        103.9067267,
        1.3143431
      ],
      [
        103.9077499,
        1.3145483
      ],
      [
        103.907551,
        1.3145086
      ],
      [
        103.9073578,
        1.3144701
      ],
      [
        103.9078817,
        1.3145746
      ],
      [
        103.9083631,
        1.3146707
      ],
      [
        103.9085509,
        1.3147081
      ],
      [
        103.9087178,
        1.3147414
      ],
      [
        103.9096264,
        1.3149211
      ],
      [
        103.9093902,
        1.3148745
      ],
      [
        103.9089007,
        1.3147779
      ],
      [
        103.9097154,
        1.3149408
      ],
      [
        103.9098001,
        1.3148688
      ],
      [
        103.9100037,
        1.3143659
      ],
      [
        103.9101873,
        1.3138843
      ],
      [
        103.9106166,
        1.3128939
      ],
      [
        103.9106405,
        1.3128387
      ],
      [
        103.9106554,
        1.312799
      ],
      [
        103.9106995,
        1.3127025
      ],
      [
        103.9108652,
        1.3123203
      ],
      [
        103.9110013,
        1.3120091
      ],
      [
        103.9110694,
        1.311852
      ],
      [
        103.9110928,
        1.3117952
      ],
      [
        103.9111801,
        1.3115941
      ],
      [
        103.9113403,
        1.3112254
      ],
      [
        103.9115219,
        1.3108054
      ],
      [
        103.9115359,
        1.3107731
      ],
      [
        103.9117277,
        1.3103299
      ],
      [
        103.9119172,
        1.3098728
      ],
      [
        103.9121975,
        1.3093192
      ],
      [
        103.9122279,
        1.309253
      ],
      [
        103.9123105,
        1.3090741
      ],
      [
        103.9123381,
        1.3090018
      ],
      [
        103.9123552,
        1.3089487
      ],
      [
        103.9123772,
        1.3088847
      ],
      [
        103.9124051,
        1.3088082
      ],
      [
        103.9124428,
        1.3087195
      ],
      [
        103.9125562,
        1.3084517
      ],
      [
        103.9125848,
        1.3083821
      ],
      [
        103.9126425,
        1.3082419
      ],
      [
        103.9127081,
        1.3080824
      ],
      [
        103.9130835,
        1.3072623
      ],
      [
        103.9132659,
        1.3068333
      ],
      [
        103.91342,
        1.3065248
      ],
      [
        103.9134691,
        1.3064283
      ],
      [
        103.9135134,
        1.3062969
      ],
      [
        103.9134081,
        1.3062755
      ],
      [
        103.9132926,
        1.3062556
      ],
      [
        103.912669,
        1.3061306
      ],
      [
        103.9123499,
        1.3060583
      ],
      [
        103.9120846,
        1.3059929
      ],
      [
        103.9119826,
        1.3059678
      ],
      [
        103.9118272,
        1.3059331
      ],
      [
        103.9114863,
        1.3058545
      ],
      [
        103.9111832,
        1.3057915
      ],
      [
        103.9110533,
        1.3057601
      ],
      [
        103.9109278,
        1.3057298
      ],
      [
        103.9108509,
        1.3057111
      ],
      [
        103.9107895,
        1.3056963
      ],
      [
        103.9107266,
        1.305681
      ],
      [
        103.9104466,
        1.3055961
      ],
      [
        103.9101629,
        1.305487
      ],
      [
        103.9100921,
        1.3054532
      ],
      [
        103.9099751,
        1.3053973
      ],
      [
        103.9098823,
        1.305353
      ],
      [
        103.9097482,
        1.3052891
      ],
      [
        103.909556,
        1.3051999
      ],
      [
        103.9092495,
        1.3050577
      ],
      [
        103.9091846,
        1.3050276
      ],
      [
        103.9090052,
        1.3049443
      ],
      [
        103.9088248,
        1.3048606
      ],
      [
        103.9085231,
        1.3047206
      ],
      [
        103.9084323,
        1.3046772
      ],
      [
        103.908352,
        1.3046346
      ],
      [
        103.9082473,
        1.3045834
      ],
      [
        103.9079526,
        1.304432
      ],
      [
        103.9075822,
        1.3042079
      ],
      [
        103.9067927,
        1.3036856
      ],
      [
        103.9067077,
        1.3036296
      ],
      [
        103.906652,
        1.3035893
      ],
      [
        103.9066309,
        1.3035738
      ],
      [
        103.9064919,
        1.3034811
      ],
      [
        103.9063821,
        1.3034125
      ],
      [
        103.9061441,
        1.3032417
      ],
      [
        103.9059425,
        1.3030996
      ],
      [
        103.9056072,
        1.3028607
      ],
      [
        103.9054461,
        1.3027613
      ],
      [
        103.9054007,
        1.3027333
      ],
      [
        103.9051871,
        1.3026072
      ],
      [
        103.9050845,
        1.3025315
      ],
      [
        103.9047437,
        1.3022898
      ],
      [
        103.9046639,
        1.302233
      ],
      [
        103.9044685,
        1.3020871
      ],
      [
        103.9041582,
        1.3019165
      ],
      [
        103.9040802,
        1.3018628
      ],
      [
        103.9037985,
        1.3016716
      ],
      [
        103.9036835,
        1.3016016
      ],
      [
        103.9036138,
        1.3015582
      ],
      [
        103.9034688,
        1.3014492
      ],
      [
        103.902563,
        1.3007747
      ],
      [
        103.902504,
        1.3007252
      ],
      [
        103.9023586,
        1.3006189
      ],
      [
        103.9022943,
        1.3005384
      ],
      [
        103.9022682,
        1.3003808
      ],
      [
        103.9022475,
        1.3002838
      ],
      [
        103.9021991,
        1.3001972
      ],
      [
        103.9021274,
        1.3001287
      ],
      [
        103.9020386,
        1.3000844
      ],
      [
        103.9019408,
        1.3000681
      ],
      [
        103.9018416,
        1.3000816
      ],
      [
        103.9017971,
        1.3001024
      ],
      [
        103.901751,
        1.3001239
      ],
      [
        103.901677,
        1.3001912
      ],
      [
        103.9016263,
        1.3002775
      ],
      [
        103.9016036,
        1.3003748
      ],
      [
        103.9016076,
        1.3004592
      ],
      [
        103.9016328,
        1.3005398
      ],
      [
        103.9016799,
        1.3006145
      ],
      [
        103.9017449,
        1.3006742
      ],
      [
        103.9018234,
        1.3007147
      ],
      [
        103.90193,
        1.3007341
      ],
      [
        103.9020373,
        1.3007183
      ],
      [
        103.9021337,
        1.3006689
      ],
      [
        103.9021979,
        1.300693
      ],
      [
        103.9022711,
        1.3007205
      ],
      [
        103.9023717,
        1.3007728
      ],
      [
        103.9026521,
        1.3009764
      ],
      [
        103.9028317,
        1.3011048
      ],
      [
        103.9033705,
        1.3015282
      ],
      [
        103.903468,
        1.3016048
      ],
      [
        103.9035465,
        1.3016585
      ],
      [
        103.9038309,
        1.3018606
      ],
      [
        103.904042,
        1.3020017
      ],
      [
        103.9046536,
        1.3023825
      ],
      [
        103.9049543,
        1.3025698
      ],
      [
        103.9053435,
        1.3028086
      ],
      [
        103.9053929,
        1.3028409
      ],
      [
        103.9055144,
        1.3029205
      ],
      [
        103.9055688,
        1.3029559
      ],
      [
        103.9060652,
        1.3032975
      ],
      [
        103.9064042,
        1.303578
      ],
      [
        103.9065518,
        1.3036818
      ],
      [
        103.906574,
        1.3036998
      ],
      [
        103.9066354,
        1.3037482
      ],
      [
        103.9067068,
        1.3038001
      ],
      [
        103.9068487,
        1.3038616
      ],
      [
        103.9070074,
        1.303975
      ],
      [
        103.9072901,
        1.3041647
      ],
      [
        103.9075188,
        1.304289
      ],
      [
        103.9077281,
        1.3044065
      ],
      [
        103.9078712,
        1.3044855
      ],
      [
        103.908002,
        1.3045639
      ],
      [
        103.908199,
        1.304652
      ],
      [
        103.9082653,
        1.3046852
      ],
      [
        103.9084121,
        1.3047612
      ],
      [
        103.9084902,
        1.304802
      ],
      [
        103.9085547,
        1.3048338
      ],
      [
        103.9086395,
        1.3048783
      ],
      [
        103.9091173,
        1.3051121
      ],
      [
        103.9092189,
        1.3051618
      ],
      [
        103.9094617,
        1.3052747
      ],
      [
        103.9096823,
        1.3053772
      ],
      [
        103.9098149,
        1.3054415
      ],
      [
        103.9099218,
        1.3054888
      ],
      [
        103.9100368,
        1.3055397
      ],
      [
        103.910132,
        1.3055611
      ],
      [
        103.9104015,
        1.3056728
      ],
      [
        103.9107762,
        1.3057893
      ],
      [
        103.9110559,
        1.3058628
      ],
      [
        103.9114362,
        1.3059497
      ],
      [
        103.9119476,
        1.3060694
      ],
      [
        103.9122487,
        1.3061448
      ],
      [
        103.9126383,
        1.3062366
      ],
      [
        103.9132507,
        1.3063806
      ],
      [
        103.9133551,
        1.3063974
      ],
      [
        103.9133148,
        1.3065007
      ],
      [
        103.9133104,
        1.30651
      ],
      [
        103.9126396,
        1.3080661
      ],
      [
        103.9124557,
        1.3085057
      ],
      [
        103.9123975,
        1.308647
      ],
      [
        103.9123639,
        1.3087308
      ],
      [
        103.9123446,
        1.3087798
      ],
      [
        103.9123118,
        1.3088665
      ],
      [
        103.9122904,
        1.3089378
      ],
      [
        103.9122758,
        1.3089911
      ],
      [
        103.9122429,
        1.3090558
      ],
      [
        103.9121605,
        1.3092232
      ],
      [
        103.9121292,
        1.309287
      ],
      [
        103.9118848,
        1.3098664
      ],
      [
        103.9117022,
        1.3103182
      ],
      [
        103.911509,
        1.3107675
      ],
      [
        103.9113162,
        1.3112138
      ],
      [
        103.9111553,
        1.311584
      ],
      [
        103.9110657,
        1.31179
      ],
      [
        103.9109742,
        1.3120038
      ],
      [
        103.9108398,
        1.312313
      ],
      [
        103.910628,
        1.312788
      ],
      [
        103.9106122,
        1.3128291
      ],
      [
        103.9105905,
        1.3128835
      ],
      [
        103.9101605,
        1.3138784
      ],
      [
        103.9099546,
        1.3143528
      ],
      [
        103.9097507,
        1.3148539
      ],
      [
        103.9097154,
        1.3149408
      ],
      [
        103.9096264,
        1.3149211
      ],
      [
        103.9093902,
        1.3148745
      ],
      [
        103.9089007,
        1.3147779
      ],
      [
        103.9087178,
        1.3147414
      ],
      [
        103.9085509,
        1.3147081
      ],
      [
        103.9083631,
        1.3146707
      ],
      [
        103.9078817,
        1.3145746
      ],
      [
        103.9077499,
        1.3145483
      ],
      [
        103.907551,
        1.3145086
      ],
      [
        103.9073578,
        1.3144701
      ],
      [
        103.9068791,
        1.3143738
      ],
      [
        103.9067267,
        1.3143431
      ],
      [
        103.9064605,
        1.3142966
      ],
      [
        103.9063706,
        1.3142732
      ],
      [
        103.9062223,
        1.3142442
      ],
      [
        103.9062117,
        1.3142718
      ],
      [
        103.9061959,
        1.3143118
      ],
      [
        103.906028,
        1.3147357
      ],
      [
        103.9058209,
        1.3152874
      ],
      [
        103.9055659,
        1.3159403
      ],
      [
        103.9053553,
        1.3164941
      ],
      [
        103.9052572,
        1.3167449
      ],
      [
        103.9052193,
        1.3168418
      ],
      [
        103.9051727,
        1.3169667
      ],
      [
        103.9051258,
        1.3171514
      ],
      [
        103.9050615,
        1.3174885
      ],
      [
        103.9050407,
        1.3176134
      ],
      [
        103.9050299,
        1.3177584
      ],
      [
        103.9050066,
        1.3180862
      ],
      [
        103.9049944,
        1.3182579
      ],
      [
        103.9049729,
        1.3185435
      ],
      [
        103.9049263,
        1.3190791
      ],
      [
        103.9049157,
        1.3192539
      ],
      [
        103.9049137,
        1.3193585
      ],
      [
        103.9049106,
        1.319521
      ],
      [
        103.9049394,
        1.3198309
      ],
      [
        103.9049789,
        1.3202557
      ],
      [
        103.9050499,
        1.3211034
      ],
      [
        103.9050812,
        1.3213293
      ],
      [
        103.9051052,
        1.3215193
      ],
      [
        103.9051143,
        1.3216149
      ],
      [
        103.9051265,
        1.3217344
      ],
      [
        103.9051818,
        1.3222157
      ],
      [
        103.9052545,
        1.3227202
      ],
      [
        103.9053134,
        1.3231446
      ],
      [
        103.905354,
        1.3234301
      ],
      [
        103.9054173,
        1.3238569
      ],
      [
        103.9054802,
        1.3243171
      ],
      [
        103.9054897,
        1.3243824
      ],
      [
        103.9055414,
        1.3247369
      ],
      [
        103.9056419,
        1.3254965
      ],
      [
        103.9056816,
        1.3257969
      ],
      [
        103.9057124,
        1.3260302
      ],
      [
        103.9057451,
        1.3262442
      ],
      [
        103.9057624,
        1.3265443
      ],
      [
        103.9057759,
        1.3267778
      ],
      [
        103.905767,
        1.3270933
      ],
      [
        103.9057269,
        1.3274063
      ],
      [
        103.9056387,
        1.3278766
      ],
      [
        103.9055426,
        1.3281588
      ],
      [
        103.9054917,
        1.328274
      ],
      [
        103.9054392,
        1.3283933
      ],
      [
        103.9053891,
        1.3284798
      ],
      [
        103.9052362,
        1.3287309
      ],
      [
        103.9049597,
        1.3291437
      ],
      [
        103.9047428,
        1.3293878
      ],
      [
        103.904688,
        1.3294477
      ],
      [
        103.9046391,
        1.3295016
      ],
      [
        103.9044189,
        1.3297121
      ],
      [
        103.9042334,
        1.3298913
      ],
      [
        103.9039089,
        1.3302049
      ],
      [
        103.903789,
        1.3303207
      ],
      [
        103.9034397,
        1.3306545
      ],
      [
        103.903211,
        1.3308731
      ],
      [
        103.9029873,
        1.3310869
      ],
      [
        103.9025746,
        1.3314965
      ],
      [
        103.9023308,
        1.3317476
      ],
      [
        103.9022997,
        1.3317793
      ],
      [
        103.9022246,
        1.3318465
      ],
      [
        103.9023263,
        1.3319602
      ],
      [
        103.9023864,
        1.3320215
      ],
      [
        103.9025166,
        1.3321524
      ],
      [
        103.9029748,
        1.3326153
      ],
      [
        103.9033415,
        1.3329955
      ],
      [
        103.9034056,
        1.3330529
      ],
      [
        103.9035771,
        1.3332109
      ],
      [
        103.9038076,
        1.3333933
      ],
      [
        103.9040891,
        1.3335641
      ],
      [
        103.9044316,
        1.3337421
      ],
      [
        103.9048646,
        1.3339669
      ],
      [
        103.9051463,
        1.3341131
      ],
      [
        103.9055524,
        1.3343359
      ],
      [
        103.9056484,
        1.3343883
      ],
      [
        103.9057436,
        1.3344269
      ],
      [
        103.9062372,
        1.3346337
      ],
      [
        103.9069292,
        1.3347731
      ],
      [
        103.9073325,
        1.3348323
      ],
      [
        103.9082978,
        1.3350071
      ],
      [
        103.9089663,
        1.3351654
      ],
      [
        103.9090817,
        1.3351941
      ],
      [
        103.9091691,
        1.3352172
      ],
      [
        103.9099507,
        1.3354033
      ],
      [
        103.9105508,
        1.3355507
      ],
      [
        103.9108734,
        1.335656
      ],
      [
        103.911566,
        1.3359492
      ],
      [
        103.912401,
        1.336347
      ],
      [
        103.9127222,
        1.3365048
      ],
      [
        103.9133471,
        1.3368435
      ],
      [
        103.9134356,
        1.3368836
      ],
      [
        103.9135007,
        1.3369139
      ],
      [
        103.9145737,
        1.3374001
      ],
      [
        103.9148966,
        1.3375608
      ],
      [
        103.9150084,
        1.3376107
      ],
      [
        103.9150843,
        1.3376391
      ],
      [
        103.9151629,
        1.3376662
      ],
      [
        103.9153261,
        1.3377144
      ],
      [
        103.9156024,
        1.3377839
      ],
      [
        103.9158284,
        1.337843
      ],
      [
        103.9160385,
        1.337894
      ],
      [
        103.9160574,
        1.3378976
      ],
      [
        103.9170536,
        1.3380854
      ],
      [
        103.9173896,
        1.3381468
      ],
      [
        103.9176553,
        1.3382537
      ],
      [
        103.9177378,
        1.3383107
      ],
      [
        103.9177841,
        1.3383649
      ],
      [
        103.9178102,
        1.3384099
      ],
      [
        103.9178487,
        1.3385322
      ],
      [
        103.9178834,
        1.3388536
      ],
      [
        103.9179637,
        1.3392244
      ],
      [
        103.9180159,
        1.3394655
      ],
      [
        103.9180952,
        1.3398348
      ],
      [
        103.9181311,
        1.3399943
      ],
      [
        103.9181442,
        1.3400514
      ],
      [
        103.9181648,
        1.3401147
      ],
      [
        103.9181972,
        1.3402269
      ],
      [
        103.9184021,
        1.3409362
      ],
      [
        103.9184623,
        1.3411523
      ],
      [
        103.9185142,
        1.3413844
      ],
      [
        103.9185554,
        1.3416749
      ],
      [
        103.9185585,
        1.3417968
      ],
      [
        103.9185676,
        1.3433083
      ],
      [
        103.9185679,
        1.3437514
      ],
      [
        103.91857,
        1.3442431
      ],
      [
        103.9185737,
        1.3443361
      ],
      [
        103.9185781,
        1.3449232
      ],
      [
        103.9185747,
        1.3449687
      ],
      [
        103.9185781,
        1.3450677
      ],
      [
        103.9185848,
        1.3451655
      ],
      [
        103.9185918,
        1.3452661
      ],
      [
        103.918626,
        1.345347
      ],
      [
        103.9186491,
        1.3454116
      ],
      [
        103.9186664,
        1.3454516
      ],
      [
        103.9186816,
        1.345482
      ],
      [
        103.9187025,
        1.3455158
      ],
      [
        103.9188071,
        1.345682
      ],
      [
        103.9188339,
        1.3457035
      ],
      [
        103.9189764,
        1.3458181
      ],
      [
        103.9194611,
        1.3461381
      ],
      [
        103.9198668,
        1.3463624
      ],
      [
        103.9203081,
        1.3465568
      ],
      [
        103.9223856,
        1.3474262
      ],
      [
        103.923953,
        1.3480729
      ],
      [
        103.9242142,
        1.3482074
      ],
      [
        103.9244952,
        1.3483913
      ],
      [
        103.9245371,
        1.3484257
      ],
      [
        103.9246925,
        1.3485532
      ],
      [
        103.9248441,
        1.34872
      ],
      [
        103.9249526,
        1.3488395
      ],
      [
        103.9251254,
        1.3490615
      ],
      [
        103.9252115,
        1.3491908
      ],
      [
        103.9252988,
        1.3493881
      ],
      [
        103.9253839,
        1.3495858
      ],
      [
        103.9256216,
        1.3501377
      ],
      [
        103.9256861,
        1.3502876
      ],
      [
        103.9257313,
        1.3503905
      ],
      [
        103.9257717,
        1.3504403
      ],
      [
        103.9258247,
        1.350464
      ],
      [
        103.9258832,
        1.3504667
      ],
      [
        103.9259466,
        1.3504561
      ],
      [
        103.9260674,
        1.3504001
      ],
      [
        103.9262101,
        1.3503215
      ],
      [
        103.9263141,
        1.3502621
      ],
      [
        103.9263408,
        1.3502469
      ],
      [
        103.9264227,
        1.3502001
      ],
      [
        103.9265175,
        1.3501485
      ],
      [
        103.9269368,
        1.3499174
      ],
      [
        103.9271436,
        1.3498062
      ],
      [
        103.9275921,
        1.3495555
      ],
      [
        103.9277893,
        1.3494463
      ],
      [
        103.9281589,
        1.3492352
      ],
      [
        103.928286,
        1.349163
      ],
      [
        103.9284813,
        1.3490642
      ],
      [
        103.9285503,
        1.3490293
      ],
      [
        103.9286381,
        1.348983
      ],
      [
        103.9287105,
        1.3489427
      ],
      [
        103.9292988,
        1.3486162
      ],
      [
        103.9297942,
        1.3483444
      ],
      [
        103.9298428,
        1.3483165
      ],
      [
        103.9301186,
        1.3481655
      ],
      [
        103.9303784,
        1.3480317
      ],
      [
        103.930826,
        1.3478067
      ],
      [
        103.9311152,
        1.3476516
      ],
      [
        103.9313534,
        1.3475238
      ],
      [
        103.9316661,
        1.3473715
      ],
      [
        103.9317013,
        1.3473553
      ],
      [
        103.9327387,
        1.3469204
      ],
      [
        103.9338008,
        1.3464713
      ],
      [
        103.934225,
        1.3462972
      ],
      [
        103.9342898,
        1.3462698
      ],
      [
        103.934429,
        1.3462108
      ],
      [
        103.9344471,
        1.3462031
      ],
      [
        103.9345425,
        1.3461627
      ],
      [
        103.9347528,
        1.3460719
      ],
      [
        103.9349255,
        1.346007
      ],
      [
        103.9354479,
        1.3457914
      ],
      [
        103.9358109,
        1.3456403
      ],
      [
        103.9358712,
        1.3456153
      ],
      [
        103.9359692,
        1.3455635
      ],
      [
        103.9362299,
        1.3454602
      ],
      [
        103.9363672,
        1.3454051
      ],
      [
        103.9369371,
        1.345175
      ],
      [
        103.9371738,
        1.3450794
      ],
      [
        103.93732,
        1.3450204
      ],
      [
        103.9375479,
        1.3449438
      ],
      [
        103.9376778,
        1.3449023
      ],
      [
        103.9377959,
        1.3448778
      ],
      [
        103.9379205,
        1.3448587
      ],
      [
        103.9380727,
        1.3448427
      ],
      [
        103.9381808,
        1.3448444
      ],
      [
        103.9383309,
        1.3448481
      ],
      [
        103.9384379,
        1.3448475
      ],
      [
        103.9384806,
        1.3448479
      ],
      [
        103.9386503,
        1.3448499
      ],
      [
        103.9394127,
        1.3448587
      ],
      [
        103.9395261,
        1.3448662
      ],
      [
        103.9396354,
        1.3448783
      ],
      [
        103.939837,
        1.3449101
      ],
      [
        103.9401382,
        1.3449669
      ],
      [
        103.9406584,
        1.345099
      ],
      [
        103.9407102,
        1.3451122
      ],
      [
        103.9408918,
        1.3451814
      ],
      [
        103.9412333,
        1.3453368
      ],
      [
        103.9415584,
        1.3454965
      ],
      [
        103.9419944,
        1.3457477
      ],
      [
        103.9421432,
        1.3458436
      ],
      [
        103.9421903,
        1.3458772
      ],
      [
        103.9422983,
        1.3459592
      ],
      [
        103.9423931,
        1.3460978
      ],
      [
        103.9424687,
        1.346235
      ],
      [
        103.942498,
        1.3463728
      ],
      [
        103.942503,
        1.3463966
      ],
      [
        103.9424897,
        1.3465565
      ],
      [
        103.9424438,
        1.346731
      ],
      [
        103.9423433,
        1.347028
      ],
      [
        103.9422523,
        1.3472253
      ],
      [
        103.9421734,
        1.3474417
      ],
      [
        103.9420938,
        1.3476753
      ],
      [
        103.9420742,
        1.3477327
      ],
      [
        103.9419788,
        1.3481368
      ],
      [
        103.9419441,
        1.3482837
      ],
      [
        103.941644,
        1.3495631
      ],
      [
        103.9416236,
        1.3496499
      ],
      [
        103.9415742,
        1.3498226
      ],
      [
        103.941527,
        1.3500722
      ],
      [
        103.9414863,
        1.3503241
      ],
      [
        103.9414707,
        1.3504302
      ],
      [
        103.9414164,
        1.3510617
      ],
      [
        103.9414165,
        1.3511217
      ],
      [
        103.9414097,
        1.3514397
      ],
      [
        103.9414012,
        1.351626
      ],
      [
        103.9413999,
        1.351688
      ],
      [
        103.9413955,
        1.3517953
      ],
      [
        103.9415453,
        1.3517928
      ],
      [
        103.9415925,
        1.3517936
      ],
      [
        103.9418173,
        1.3517757
      ],
      [
        103.9424323,
        1.3517736
      ],
      [
        103.942793,
        1.3517702
      ],
      [
        103.943013,
        1.3517689
      ],
      [
        103.9432076,
        1.3517683
      ],
      [
        103.9432755,
        1.3517687
      ],
      [
        103.9433491,
        1.3517691
      ],
      [
        103.9437039,
        1.351771
      ],
      [
        103.9438188,
        1.3517721
      ],
      [
        103.9440052,
        1.3517732
      ],
      [
        103.9441706,
        1.3517771
      ],
      [
        103.9443121,
        1.3517907
      ],
      [
        103.9443998,
        1.3518108
      ],
      [
        103.9445002,
        1.3518336
      ],
      [
        103.9445767,
        1.3518523
      ],
      [
        103.9446749,
        1.3518775
      ],
      [
        103.9449293,
        1.3519755
      ],
      [
        103.9451583,
        1.3521098
      ],
      [
        103.9452802,
        1.3521997
      ],
      [
        103.9454375,
        1.3523222
      ],
      [
        103.9455544,
        1.3524235
      ],
      [
        103.9455952,
        1.3524604
      ],
      [
        103.9456905,
        1.3525591
      ],
      [
        103.945815,
        1.3527085
      ],
      [
        103.945885,
        1.3528064
      ],
      [
        103.9459766,
        1.3529421
      ],
      [
        103.9460589,
        1.3531318
      ],
      [
        103.9461235,
        1.3533216
      ],
      [
        103.9461653,
        1.3534952
      ],
      [
        103.9461975,
        1.3536847
      ],
      [
        103.9462218,
        1.3538787
      ],
      [
        103.9462362,
        1.3540483
      ],
      [
        103.9462402,
        1.3543371
      ],
      [
        103.9462427,
        1.3544166
      ],
      [
        103.9462428,
        1.3544773
      ],
      [
        103.9462432,
        1.3548009
      ],
      [
        103.9462417,
        1.3552843
      ],
      [
        103.9462418,
        1.3553748
      ],
      [
        103.9462419,
        1.3555129
      ],
      [
        103.946242,
        1.3557171
      ],
      [
        103.9462407,
        1.3558696
      ],
      [
        103.9462396,
        1.3559916
      ],
      [
        103.9462387,
        1.3561753
      ],
      [
        103.9462365,
        1.3566002
      ],
      [
        103.9462362,
        1.3566594
      ],
      [
        103.9461147,
        1.3566608
      ],
      [
        103.9460532,
        1.3566597
      ],
      [
        103.9451057,
        1.3566572
      ],
      [
        103.9441307,
        1.3566516
      ],
      [
        103.9440589,
        1.3566557
      ],
      [
        103.9439544,
        1.3566642
      ],
      [
        103.9439096,
        1.3566642
      ],
      [
        103.9436117,
        1.3566811
      ],
      [
        103.9432688,
        1.3567465
      ],
      [
        103.9432214,
        1.3567555
      ],
      [
        103.9429827,
        1.3568802
      ],
      [
        103.9427457,
        1.3570571
      ],
      [
        103.9424835,
        1.3572886
      ],
      [
        103.9422902,
        1.3575619
      ],
      [
        103.9422158,
        1.3577182
      ],
      [
        103.942182,
        1.3578102
      ],
      [
        103.9421663,
        1.357868
      ],
      [
        103.9421197,
        1.3580835
      ],
      [
        103.942101,
        1.3582733
      ],
      [
        103.9420958,
        1.3583564
      ],
      [
        103.9420936,
        1.3584077
      ],
      [
        103.9420919,
        1.3584763
      ],
      [
        103.9420914,
        1.3585213
      ],
      [
        103.9420918,
        1.3585956
      ],
      [
        103.9420892,
        1.3588393
      ],
      [
        103.9420883,
        1.3589198
      ],
      [
        103.9420883,
        1.3590154
      ],
      [
        103.9420877,
        1.3590424
      ],
      [
        103.9420893,
        1.3593438
      ],
      [
        103.9420913,
        1.3596648
      ],
      [
        103.942069,
        1.3600104
      ],
      [
        103.9420756,
        1.3602306
      ],
      [
        103.9420736,
        1.3603131
      ],
      [
        103.9420628,
        1.360432
      ],
      [
        103.942059,
        1.3605297
      ],
      [
        103.9420429,
        1.3608207
      ],
      [
        103.9420431,
        1.3609595
      ],
      [
        103.9420496,
        1.3611168
      ],
      [
        103.9420695,
        1.3612515
      ],
      [
        103.9421317,
        1.361471
      ],
      [
        103.9422137,
        1.361682
      ],
      [
        103.9423114,
        1.361862
      ],
      [
        103.9424368,
        1.3620416
      ],
      [
        103.9426493,
        1.362233
      ],
      [
        103.9429913,
        1.3624786
      ],
      [
        103.9434527,
        1.3627735
      ],
      [
        103.9436349,
        1.3628646
      ],
      [
        103.9437252,
        1.3629075
      ],
      [
        103.9438165,
        1.3629641
      ],
      [
        103.9440301,
        1.363103
      ],
      [
        103.9443649,
        1.3632867
      ],
      [
        103.9448074,
        1.3635866
      ],
      [
        103.9449708,
        1.363722
      ],
      [
        103.9451195,
        1.3638912
      ],
      [
        103.9453844,
        1.364311
      ],
      [
        103.9457139,
        1.3653297
      ],
      [
        103.9457557,
        1.3654958
      ],
      [
        103.9457792,
        1.3655714
      ],
      [
        103.9459161,
        1.3660127
      ],
      [
        103.9459892,
        1.366265
      ],
      [
        103.9461071,
        1.3666796
      ],
      [
        103.946115,
        1.3667072
      ],
      [
        103.9463357,
        1.3675364
      ],
      [
        103.9463912,
        1.3678231
      ],
      [
        103.9465035,
        1.3684355
      ],
      [
        103.9468324,
        1.3700759
      ],
      [
        103.9468894,
        1.3703829
      ],
      [
        103.9469571,
        1.3707978
      ],
      [
        103.9469724,
        1.3708921
      ],
      [
        103.9469772,
        1.3709216
      ],
      [
        103.9470156,
        1.3712397
      ],
      [
        103.947102,
        1.371514
      ],
      [
        103.9471193,
        1.3717932
      ],
      [
        103.9471334,
        1.3719584
      ],
      [
        103.9470961,
        1.3720364
      ],
      [
        103.9470514,
        1.3720818
      ],
      [
        103.9470222,
        1.3721087
      ],
      [
        103.9466985,
        1.3722431
      ],
      [
        103.9457782,
        1.3726165
      ],
      [
        103.9455688,
        1.3727207
      ],
      [
        103.9454157,
        1.3727883
      ],
      [
        103.9451998,
        1.3728595
      ],
      [
        103.9450719,
        1.3729134
      ],
      [
        103.9450335,
        1.3729296
      ],
      [
        103.9449494,
        1.3729628
      ],
      [
        103.9449919,
        1.3730689
      ],
      [
        103.9450135,
        1.3731184
      ],
      [
        103.9450217,
        1.3731369
      ],
      [
        103.9450591,
        1.3732221
      ],
      [
        103.9451636,
        1.373446
      ],
      [
        103.9452257,
        1.3735715
      ],
      [
        103.9452936,
        1.3736953
      ],
      [
        103.9454334,
        1.3738989
      ],
      [
        103.9456198,
        1.3741623
      ],
      [
        103.9457451,
        1.3743366
      ],
      [
        103.9459817,
        1.3746686
      ],
      [
        103.9460454,
        1.374758
      ],
      [
        103.9460828,
        1.3748098
      ],
      [
        103.9461732,
        1.3749347
      ],
      [
        103.9462833,
        1.3750871
      ],
      [
        103.9463009,
        1.3751114
      ],
      [
        103.9463887,
        1.3752317
      ],
      [
        103.9467054,
        1.3758195
      ],
      [
        103.9467362,
        1.375879
      ],
      [
        103.9468579,
        1.3761138
      ],
      [
        103.9468912,
        1.3761783
      ],
      [
        103.9469372,
        1.376269
      ],
      [
        103.9469982,
        1.3762374
      ],
      [
        103.9470855,
        1.3761914
      ],
      [
        103.9477728,
        1.3758294
      ],
      [
        103.9479831,
        1.3757284
      ],
      [
        103.9481728,
        1.3756513
      ],
      [
        103.9484098,
        1.37555
      ],
      [
        103.9484777,
        1.3755243
      ],
      [
        103.9485552,
        1.3754944
      ],
      [
        103.9486286,
        1.3754654
      ],
      [
        103.9488444,
        1.3753796
      ],
      [
        103.9492402,
        1.3752152
      ],
      [
        103.949349,
        1.3751815
      ],
      [
        103.9493175,
        1.3750796
      ],
      [
        103.9492813,
        1.3749702
      ],
      [
        103.9492647,
        1.3749088
      ],
      [
        103.9492107,
        1.374734
      ],
      [
        103.948911,
        1.373622
      ],
      [
        103.9488692,
        1.3735524
      ],
      [
        103.9488217,
        1.3735233
      ],
      [
        103.9487375,
        1.3735015
      ],
      [
        103.9485976,
        1.3735437
      ]
    ]
  }
}