{
  "type": "Feature",
  "properties": {
    "relation": 6622977,
    "direction": "2",
    "distance": "23.7",
    "fee": "yes",
    "from": "Clementi Interchange",
    "name": "Svc 165 (Clementi Interchange → Hougang Central Interchange)",
    "name:en": "Svc 165 (Clementi Interchange → Hougang Central Interchange)",
    "network": "Land Transport Authority",
    "network:short": "LTA",
    "network:wikidata": "Q3299279",
    "network:wikipedia": "en:Land Transport Authority",
    "opening_hours": "Mo-Su 05:45-00:00",
    "operator": "SBS Transit",
    "operator:wikidata": "Q2661305",
    "operator:wikipedia": "en:SBS Transit",
    "public_transport:version": "2",
    "ref": "165",
    "route": "bus",
    "to": "Hougang Central Interchange",
    "type": "route",
    "website": "https://www.sbstransit.com.sg/"
  },
  "geometry": {
    "type": "LineString",
    "coordinates": [
      [
        103.7643526,
        1.3155357
      ],
      [
        103.7644758,
        1.315297
      ],
      [
        103.76452,
        1.3152116
      ],
      [
        103.76452,
        1.3151815
      ],
      [
        103.7645106,
        1.315156
      ],
      [
        103.7644894,
        1.3151387
      ],
      [
        103.7641303,
        1.3149397
      ],
      [
        103.764107,
        1.3149216
      ],
      [
        103.7640907,
        1.3149021
      ],
      [
        103.7639237,
        1.3146836
      ],
      [
        103.7639127,
        1.3146551
      ],
      [
        103.7639084,
        1.3146311
      ],
      [
        103.7638915,
        1.3144047
      ],
      [
        103.7638781,
        1.3143689
      ],
      [
        103.7638561,
        1.3143364
      ],
      [
        103.763828,
        1.3143093
      ],
      [
        103.7638059,
        1.3142996
      ],
      [
        103.7637751,
        1.3142875
      ],
      [
        103.7637301,
        1.3142821
      ],
      [
        103.7636736,
        1.3142856
      ],
      [
        103.7636139,
        1.3142992
      ],
      [
        103.7635563,
        1.3143126
      ],
      [
        103.7635141,
        1.3143218
      ],
      [
        103.7635134,
        1.31423
      ],
      [
        103.7635088,
        1.3140358
      ],
      [
        103.763508,
        1.3137872
      ],
      [
        103.7635088,
        1.3136825
      ],
      [
        103.7635096,
        1.313585
      ],
      [
        103.7635198,
        1.313418
      ],
      [
        103.7635461,
        1.3132606
      ],
      [
        103.7635905,
        1.3131287
      ],
      [
        103.7636757,
        1.3129858
      ],
      [
        103.7637247,
        1.312927
      ],
      [
        103.7638784,
        1.3127743
      ],
      [
        103.7640142,
        1.3126392
      ],
      [
        103.7642236,
        1.3124311
      ],
      [
        103.7643797,
        1.3122759
      ],
      [
        103.7645381,
        1.3121185
      ],
      [
        103.7646919,
        1.3119656
      ],
      [
        103.7648414,
        1.3118171
      ],
      [
        103.7648777,
        1.3117809
      ],
      [
        103.7650183,
        1.3116412
      ],
      [
        103.7650745,
        1.3116197
      ],
      [
        103.7651274,
        1.3116111
      ],
      [
        103.7651814,
        1.3116146
      ],
      [
        103.765236,
        1.3116372
      ],
      [
        103.7652905,
        1.3116781
      ],
      [
        103.7654403,
        1.3118336
      ],
      [
        103.7654545,
        1.3118483
      ],
      [
        103.7654766,
        1.3118712
      ],
      [
        103.7655205,
        1.3119168
      ],
      [
        103.7655363,
        1.3119332
      ],
      [
        103.7655965,
        1.3119957
      ],
      [
        103.7658423,
        1.3122507
      ],
      [
        103.7660239,
        1.3124391
      ],
      [
        103.7662169,
        1.3126518
      ],
      [
        103.7663353,
        1.3127677
      ],
      [
        103.7663602,
        1.3127889
      ],
      [
        103.7664173,
        1.3128473
      ],
      [
        103.766585,
        1.3130213
      ],
      [
        103.7666597,
        1.3129444
      ],
      [
        103.7667054,
        1.3129024
      ],
      [
        103.766852,
        1.3127689
      ],
      [
        103.7670004,
        1.3126488
      ],
      [
        103.7670855,
        1.3125782
      ],
      [
        103.7671796,
        1.3125115
      ],
      [
        103.7673185,
        1.3124261
      ],
      [
        103.7674946,
        1.3123315
      ],
      [
        103.7676877,
        1.312237
      ],
      [
        103.7677423,
        1.3122129
      ],
      [
        103.7678256,
        1.3121845
      ],
      [
        103.7679456,
        1.3121437
      ],
      [
        103.7679986,
        1.3121256
      ],
      [
        103.7682527,
        1.3120346
      ],
      [
        103.7685048,
        1.3119787
      ],
      [
        103.7687516,
        1.3119397
      ],
      [
        103.7689725,
        1.3119255
      ],
      [
        103.7692684,
        1.3119263
      ],
      [
        103.7698229,
        1.3119699
      ],
      [
        103.770551,
        1.3120519
      ],
      [
        103.7708721,
        1.3120881
      ],
      [
        103.771013,
        1.312104
      ],
      [
        103.7710467,
        1.3121078
      ],
      [
        103.7715306,
        1.3121624
      ],
      [
        103.7716427,
        1.312175
      ],
      [
        103.7717669,
        1.312189
      ],
      [
        103.7719014,
        1.3122526
      ],
      [
        103.7720307,
        1.3123096
      ],
      [
        103.7720513,
        1.3123274
      ],
      [
        103.7721179,
        1.3123874
      ],
      [
        103.7721616,
        1.3124732
      ],
      [
        103.7721858,
        1.3126662
      ],
      [
        103.7720662,
        1.3136334
      ],
      [
        103.7719248,
        1.3148335
      ],
      [
        103.7718911,
        1.3151146
      ],
      [
        103.7718142,
        1.3156207
      ],
      [
        103.7717727,
        1.3158935
      ],
      [
        103.7717416,
        1.3160981
      ],
      [
        103.7717008,
        1.316339
      ],
      [
        103.7716877,
        1.3164037
      ],
      [
        103.771677,
        1.3164555
      ],
      [
        103.7716525,
        1.3165753
      ],
      [
        103.7716381,
        1.3166456
      ],
      [
        103.7715722,
        1.3169677
      ],
      [
        103.7714912,
        1.3173696
      ],
      [
        103.7714403,
        1.3175684
      ],
      [
        103.7714128,
        1.317676
      ],
      [
        103.7713696,
        1.3178449
      ],
      [
        103.7713214,
        1.3180331
      ],
      [
        103.7712328,
        1.31838
      ],
      [
        103.7711123,
        1.3188586
      ],
      [
        103.7711009,
        1.3189041
      ],
      [
        103.771082,
        1.3189782
      ],
      [
        103.7710504,
        1.3191032
      ],
      [
        103.7712525,
        1.3191523
      ],
      [
        103.7713552,
        1.3191756
      ],
      [
        103.7715863,
        1.3192093
      ],
      [
        103.7717125,
        1.3192277
      ],
      [
        103.7719243,
        1.3192585
      ],
      [
        103.7720179,
        1.3192767
      ],
      [
        103.7721109,
        1.3192985
      ],
      [
        103.7722217,
        1.3193333
      ],
      [
        103.77255,
        1.3194636
      ],
      [
        103.7726399,
        1.3195119
      ],
      [
        103.7727765,
        1.3195791
      ],
      [
        103.7734625,
        1.3198779
      ],
      [
        103.7735036,
        1.3198954
      ],
      [
        103.7737993,
        1.3200215
      ],
      [
        103.7739212,
        1.3200736
      ],
      [
        103.7739941,
        1.3201057
      ],
      [
        103.774126,
        1.3201609
      ],
      [
        103.7748118,
        1.3205117
      ],
      [
        103.7753653,
        1.320753
      ],
      [
        103.7755678,
        1.320804
      ],
      [
        103.7757777,
        1.3208231
      ],
      [
        103.7761828,
        1.3208092
      ],
      [
        103.7762305,
        1.3208079
      ],
      [
        103.776441,
        1.3208079
      ],
      [
        103.7767415,
        1.3208173
      ],
      [
        103.7769376,
        1.3208265
      ],
      [
        103.7770028,
        1.3208308
      ],
      [
        103.7771052,
        1.3208392
      ],
      [
        103.7774158,
        1.3208608
      ],
      [
        103.7780742,
        1.3209317
      ],
      [
        103.778368,
        1.3209636
      ],
      [
        103.779037,
        1.3210421
      ],
      [
        103.7791186,
        1.3210493
      ],
      [
        103.7792165,
        1.3210557
      ],
      [
        103.7793085,
        1.3210595
      ],
      [
        103.7793989,
        1.3210615
      ],
      [
        103.779454,
        1.3210608
      ],
      [
        103.7795217,
        1.3210589
      ],
      [
        103.7796599,
        1.3210498
      ],
      [
        103.7796948,
        1.3210472
      ],
      [
        103.7797943,
        1.321037
      ],
      [
        103.7798944,
        1.3210224
      ],
      [
        103.7799863,
        1.3210053
      ],
      [
        103.7800563,
        1.3209907
      ],
      [
        103.7801352,
        1.320972
      ],
      [
        103.7802102,
        1.3209525
      ],
      [
        103.780244,
        1.3209427
      ],
      [
        103.7802773,
        1.320933
      ],
      [
        103.7803769,
        1.3209004
      ],
      [
        103.7804697,
        1.3208656
      ],
      [
        103.7806025,
        1.3208127
      ],
      [
        103.7807375,
        1.3207549
      ],
      [
        103.7808617,
        1.3206971
      ],
      [
        103.7810038,
        1.3206316
      ],
      [
        103.781215,
        1.3205196
      ],
      [
        103.7813182,
        1.3204529
      ],
      [
        103.7814252,
        1.3203805
      ],
      [
        103.7815737,
        1.3202603
      ],
      [
        103.7821139,
        1.3197474
      ],
      [
        103.782465,
        1.3194195
      ],
      [
        103.7824936,
        1.3193917
      ],
      [
        103.7826945,
        1.3191882
      ],
      [
        103.7829032,
        1.3190127
      ],
      [
        103.7831021,
        1.3188552
      ],
      [
        103.7832558,
        1.318736
      ],
      [
        103.7835234,
        1.3185571
      ],
      [
        103.7836413,
        1.3184939
      ],
      [
        103.783698,
        1.3184711
      ],
      [
        103.7838387,
        1.3184214
      ],
      [
        103.7838717,
        1.3184127
      ],
      [
        103.7840625,
        1.3183741
      ],
      [
        103.7842542,
        1.3183486
      ],
      [
        103.7843358,
        1.3183378
      ],
      [
        103.7845447,
        1.3183101
      ],
      [
        103.784834,
        1.31828
      ],
      [
        103.7849811,
        1.3182582
      ],
      [
        103.7854814,
        1.3182103
      ],
      [
        103.7856518,
        1.3181879
      ],
      [
        103.7859757,
        1.3181386
      ],
      [
        103.7866022,
        1.3180435
      ],
      [
        103.7867839,
        1.3179722
      ],
      [
        103.7869894,
        1.3178767
      ],
      [
        103.7872842,
        1.3176699
      ],
      [
        103.787381,
        1.3175868
      ],
      [
        103.787416,
        1.3175493
      ],
      [
        103.7874609,
        1.3174998
      ],
      [
        103.7875264,
        1.3174284
      ],
      [
        103.7884146,
        1.3166092
      ],
      [
        103.7889379,
        1.316125
      ],
      [
        103.7894528,
        1.315677
      ],
      [
        103.7899109,
        1.315184
      ],
      [
        103.7901101,
        1.3149879
      ],
      [
        103.7901947,
        1.3149132
      ],
      [
        103.7903412,
        1.3147846
      ],
      [
        103.7905235,
        1.3146297
      ],
      [
        103.7909004,
        1.3143841
      ],
      [
        103.7911164,
        1.3142691
      ],
      [
        103.7913172,
        1.3141633
      ],
      [
        103.7915966,
        1.3140335
      ],
      [
        103.7918353,
        1.3139356
      ],
      [
        103.7923079,
        1.3137806
      ],
      [
        103.7928379,
        1.3136053
      ],
      [
        103.7929695,
        1.3135681
      ],
      [
        103.7930404,
        1.3135379
      ],
      [
        103.7930958,
        1.3135155
      ],
      [
        103.7931594,
        1.313482
      ],
      [
        103.7932288,
        1.3134393
      ],
      [
        103.7933252,
        1.3133783
      ],
      [
        103.7936718,
        1.3131552
      ],
      [
        103.7940429,
        1.3128523
      ],
      [
        103.7944318,
        1.3125496
      ],
      [
        103.794671,
        1.3123634
      ],
      [
        103.794828,
        1.3122575
      ],
      [
        103.7950148,
        1.312167
      ],
      [
        103.7952191,
        1.3121136
      ],
      [
        103.7954237,
        1.3120829
      ],
      [
        103.7956457,
        1.3120917
      ],
      [
        103.7958554,
        1.3121265
      ],
      [
        103.7959251,
        1.312149
      ],
      [
        103.7959636,
        1.3121708
      ],
      [
        103.7960402,
        1.3121966
      ],
      [
        103.7961584,
        1.3122549
      ],
      [
        103.7964462,
        1.3124114
      ],
      [
        103.7965187,
        1.3124452
      ],
      [
        103.7966225,
        1.3125036
      ],
      [
        103.7967166,
        1.312547
      ],
      [
        103.7969557,
        1.3126573
      ],
      [
        103.7971888,
        1.3127575
      ],
      [
        103.7973941,
        1.3128503
      ],
      [
        103.7975004,
        1.3128926
      ],
      [
        103.7978321,
        1.3129736
      ],
      [
        103.7979883,
        1.3129784
      ],
      [
        103.7982936,
        1.312942
      ],
      [
        103.7984316,
        1.312911
      ],
      [
        103.7987135,
        1.312791
      ],
      [
        103.7988974,
        1.312694
      ],
      [
        103.7991134,
        1.312562
      ],
      [
        103.799205,
        1.3125073
      ],
      [
        103.7996131,
        1.3122611
      ],
      [
        103.7997261,
        1.3122007
      ],
      [
        103.8001015,
        1.3120293
      ],
      [
        103.8004024,
        1.3118938
      ],
      [
        103.8008324,
        1.3117204
      ],
      [
        103.8010298,
        1.3116569
      ],
      [
        103.8012614,
        1.3115873
      ],
      [
        103.8016381,
        1.3114697
      ],
      [
        103.8017726,
        1.3114336
      ],
      [
        103.8021459,
        1.311337
      ],
      [
        103.8024746,
        1.3112537
      ],
      [
        103.8029379,
        1.3111222
      ],
      [
        103.8031453,
        1.3111313
      ],
      [
        103.8032601,
        1.3111445
      ],
      [
        103.8033313,
        1.3111679
      ],
      [
        103.8033973,
        1.3112269
      ],
      [
        103.8035676,
        1.3114421
      ],
      [
        103.8036963,
        1.3117087
      ],
      [
        103.803806,
        1.312092
      ],
      [
        103.8038834,
        1.3123684
      ],
      [
        103.8039733,
        1.3126603
      ],
      [
        103.8039824,
        1.3126866
      ],
      [
        103.8041733,
        1.3132373
      ],
      [
        103.804221,
        1.3133801
      ],
      [
        103.8042593,
        1.3134886
      ],
      [
        103.8043852,
        1.3138534
      ],
      [
        103.8045659,
        1.3143325
      ],
      [
        103.8047072,
        1.3146344
      ],
      [
        103.8048426,
        1.3149008
      ],
      [
        103.8049315,
        1.3150212
      ],
      [
        103.8050549,
        1.3151701
      ],
      [
        103.8051859,
        1.3153152
      ],
      [
        103.8052567,
        1.3153935
      ],
      [
        103.8056181,
        1.3157251
      ],
      [
        103.8057085,
        1.3158116
      ],
      [
        103.806017,
        1.3160927
      ],
      [
        103.8062525,
        1.3163244
      ],
      [
        103.8064054,
        1.3164612
      ],
      [
        103.8065377,
        1.3165881
      ],
      [
        103.8066627,
        1.3166903
      ],
      [
        103.8067682,
        1.3167824
      ],
      [
        103.8069338,
        1.3169176
      ],
      [
        103.8071737,
        1.3171398
      ],
      [
        103.8072248,
        1.3171839
      ],
      [
        103.8072865,
        1.3172442
      ],
      [
        103.8087044,
        1.3185349
      ],
      [
        103.8091242,
        1.3188752
      ],
      [
        103.8092817,
        1.3189916
      ],
      [
        103.8094818,
        1.3191197
      ],
      [
        103.8099151,
        1.3193508
      ],
      [
        103.8100346,
        1.3194043
      ],
      [
        103.8106778,
        1.3196924
      ],
      [
        103.810878,
        1.3198009
      ],
      [
        103.810915,
        1.3198181
      ],
      [
        103.8109155,
        1.319826
      ],
      [
        103.810918,
        1.3198339
      ],
      [
        103.8109207,
        1.3198411
      ],
      [
        103.8109257,
        1.3198476
      ],
      [
        103.8109341,
        1.3198551
      ],
      [
        103.8110201,
        1.3199042
      ],
      [
        103.8113235,
        1.3201274
      ],
      [
        103.8114545,
        1.3202351
      ],
      [
        103.8115696,
        1.320338
      ],
      [
        103.8116597,
        1.3204199
      ],
      [
        103.8116719,
        1.320431
      ],
      [
        103.8117292,
        1.3204933
      ],
      [
        103.8120392,
        1.3208303
      ],
      [
        103.8126275,
        1.3215086
      ],
      [
        103.8127837,
        1.321735
      ],
      [
        103.812886,
        1.3219701
      ],
      [
        103.8129846,
        1.3223613
      ],
      [
        103.813033,
        1.3225913
      ],
      [
        103.8130755,
        1.3227834
      ],
      [
        103.8131071,
        1.3229282
      ],
      [
        103.8131374,
        1.3230618
      ],
      [
        103.8131682,
        1.3232032
      ],
      [
        103.813205,
        1.3234102
      ],
      [
        103.8132812,
        1.3237379
      ],
      [
        103.8133205,
        1.3239232
      ],
      [
        103.8133317,
        1.3239743
      ],
      [
        103.8134019,
        1.3242959
      ],
      [
        103.8134384,
        1.3245053
      ],
      [
        103.8135163,
        1.3248931
      ],
      [
        103.8135218,
        1.3249467
      ],
      [
        103.8135367,
        1.325107
      ],
      [
        103.8135625,
        1.3252916
      ],
      [
        103.8136071,
        1.3257512
      ],
      [
        103.8136463,
        1.326171
      ],
      [
        103.8137185,
        1.3269021
      ],
      [
        103.8137266,
        1.3269838
      ],
      [
        103.8137698,
        1.3274719
      ],
      [
        103.8137768,
        1.3275361
      ],
      [
        103.8138158,
        1.3278942
      ],
      [
        103.8138181,
        1.3279156
      ],
      [
        103.8138877,
        1.3282992
      ],
      [
        103.8139025,
        1.3283667
      ],
      [
        103.8139265,
        1.3284337
      ],
      [
        103.8139472,
        1.3284941
      ],
      [
        103.8139699,
        1.3285366
      ],
      [
        103.8139966,
        1.3285674
      ],
      [
        103.8140379,
        1.3285939
      ],
      [
        103.8140937,
        1.3287749
      ],
      [
        103.8142819,
        1.3291741
      ],
      [
        103.8144061,
        1.3293576
      ],
      [
        103.8145377,
        1.3295436
      ],
      [
        103.8146587,
        1.32972
      ],
      [
        103.8147797,
        1.3298964
      ],
      [
        103.81481,
        1.3299406
      ],
      [
        103.8149075,
        1.3300689
      ],
      [
        103.8150515,
        1.3303146
      ],
      [
        103.8150726,
        1.3303223
      ],
      [
        103.8152374,
        1.3305693
      ],
      [
        103.8152597,
        1.3306027
      ],
      [
        103.8153007,
        1.3306639
      ],
      [
        103.8155222,
        1.3310365
      ],
      [
        103.8156134,
        1.3312255
      ],
      [
        103.8157006,
        1.3314253
      ],
      [
        103.8157584,
        1.3315856
      ],
      [
        103.8158938,
        1.331801
      ],
      [
        103.8160264,
        1.3320087
      ],
      [
        103.8162479,
        1.3323693
      ],
      [
        103.8164087,
        1.3326049
      ],
      [
        103.8164663,
        1.3326909
      ],
      [
        103.8166836,
        1.333013
      ],
      [
        103.8167842,
        1.3331589
      ],
      [
        103.816917,
        1.3333494
      ],
      [
        103.81698,
        1.3334954
      ],
      [
        103.8170455,
        1.333599
      ],
      [
        103.817102,
        1.333675
      ],
      [
        103.8171891,
        1.3337791
      ],
      [
        103.8172888,
        1.3338989
      ],
      [
        103.817354,
        1.3339662
      ],
      [
        103.8174673,
        1.3340808
      ],
      [
        103.8175887,
        1.3342209
      ],
      [
        103.8176921,
        1.3343374
      ],
      [
        103.8177777,
        1.334438
      ],
      [
        103.8178338,
        1.3345012
      ],
      [
        103.8178896,
        1.3345578
      ],
      [
        103.8179424,
        1.334622
      ],
      [
        103.8180234,
        1.3346868
      ],
      [
        103.8180917,
        1.334736
      ],
      [
        103.8181411,
        1.3347795
      ],
      [
        103.8181974,
        1.3348405
      ],
      [
        103.8182369,
        1.3348954
      ],
      [
        103.8183089,
        1.3350505
      ],
      [
        103.8183643,
        1.3352075
      ],
      [
        103.8183866,
        1.3353227
      ],
      [
        103.8184087,
        1.3354408
      ],
      [
        103.8184826,
        1.3357515
      ],
      [
        103.8185117,
        1.3358545
      ],
      [
        103.8186818,
        1.3363351
      ],
      [
        103.8187771,
        1.3365603
      ],
      [
        103.8188642,
        1.3367386
      ],
      [
        103.8189557,
        1.3369138
      ],
      [
        103.8190158,
        1.3369947
      ],
      [
        103.819178,
        1.3373649
      ],
      [
        103.8193067,
        1.3376857
      ],
      [
        103.8194344,
        1.3380057
      ],
      [
        103.8196111,
        1.3384304
      ],
      [
        103.8196573,
        1.3385304
      ],
      [
        103.8197014,
        1.3386263
      ],
      [
        103.819793,
        1.3387906
      ],
      [
        103.8198669,
        1.3389006
      ],
      [
        103.819978,
        1.3390654
      ],
      [
        103.8200391,
        1.3391451
      ],
      [
        103.8200981,
        1.3392164
      ],
      [
        103.8201961,
        1.3393227
      ],
      [
        103.8203048,
        1.3394474
      ],
      [
        103.8204587,
        1.3395916
      ],
      [
        103.8206292,
        1.3397173
      ],
      [
        103.8207625,
        1.3398116
      ],
      [
        103.8208978,
        1.3398852
      ],
      [
        103.821031,
        1.3399562
      ],
      [
        103.8211872,
        1.3400214
      ],
      [
        103.8214508,
        1.3401144
      ],
      [
        103.8217655,
        1.3402217
      ],
      [
        103.8223562,
        1.3404182
      ],
      [
        103.8227503,
        1.3405516
      ],
      [
        103.823603,
        1.3408355
      ],
      [
        103.8239757,
        1.3409593
      ],
      [
        103.8242893,
        1.3410544
      ],
      [
        103.8244593,
        1.3411
      ],
      [
        103.8246317,
        1.3411385
      ],
      [
        103.824909,
        1.3411859
      ],
      [
        103.8252159,
        1.3412236
      ],
      [
        103.8255113,
        1.3412343
      ],
      [
        103.8258381,
        1.3412312
      ],
      [
        103.8274906,
        1.3411449
      ],
      [
        103.8278628,
        1.3411103
      ],
      [
        103.8280535,
        1.3410706
      ],
      [
        103.8282583,
        1.3410062
      ],
      [
        103.8284432,
        1.3409216
      ],
      [
        103.8285545,
        1.3408614
      ],
      [
        103.828736,
        1.3407563
      ],
      [
        103.8288447,
        1.3407106
      ],
      [
        103.8289567,
        1.3406825
      ],
      [
        103.8291183,
        1.3406818
      ],
      [
        103.8294465,
        1.3407094
      ],
      [
        103.8297191,
        1.3407166
      ],
      [
        103.8299739,
        1.3407005
      ],
      [
        103.8305687,
        1.3407104
      ],
      [
        103.8307836,
        1.340694
      ],
      [
        103.8310494,
        1.3406735
      ],
      [
        103.8313578,
        1.340646
      ],
      [
        103.8313979,
        1.3406616
      ],
      [
        103.8320101,
        1.3405937
      ],
      [
        103.8322035,
        1.3405743
      ],
      [
        103.8324085,
        1.3405658
      ],
      [
        103.8326609,
        1.3405591
      ],
      [
        103.8328422,
        1.3405644
      ],
      [
        103.8330642,
        1.3405756
      ],
      [
        103.8333191,
        1.3406094
      ],
      [
        103.8335169,
        1.340667
      ],
      [
        103.8337054,
        1.3407153
      ],
      [
        103.8338996,
        1.3407806
      ],
      [
        103.8340369,
        1.3408279
      ],
      [
        103.8343036,
        1.3409586
      ],
      [
        103.8345056,
        1.3410725
      ],
      [
        103.8347909,
        1.3412432
      ],
      [
        103.8349306,
        1.3413303
      ],
      [
        103.8350362,
        1.3413999
      ],
      [
        103.835259,
        1.3415444
      ],
      [
        103.8354363,
        1.3416544
      ],
      [
        103.8356548,
        1.3417964
      ],
      [
        103.8357113,
        1.3418314
      ],
      [
        103.8358972,
        1.3419228
      ],
      [
        103.8360457,
        1.3420062
      ],
      [
        103.8362822,
        1.34214
      ],
      [
        103.8365835,
        1.3423086
      ],
      [
        103.8367568,
        1.3424051
      ],
      [
        103.8373721,
        1.3426994
      ],
      [
        103.8375531,
        1.3428019
      ],
      [
        103.8376924,
        1.3428836
      ],
      [
        103.8378163,
        1.3429632
      ],
      [
        103.8378877,
        1.3430275
      ],
      [
        103.8379854,
        1.3431404
      ],
      [
        103.8380291,
        1.3432815
      ],
      [
        103.8380972,
        1.3435595
      ],
      [
        103.8381257,
        1.3437307
      ],
      [
        103.8381573,
        1.3439798
      ],
      [
        103.8381803,
        1.344152
      ],
      [
        103.8382225,
        1.344461
      ],
      [
        103.8382523,
        1.3447102
      ],
      [
        103.838279,
        1.3449443
      ],
      [
        103.8384051,
        1.3460673
      ],
      [
        103.838415,
        1.3461538
      ],
      [
        103.8384229,
        1.3463922
      ],
      [
        103.8384497,
        1.3466888
      ],
      [
        103.8384162,
        1.3469081
      ],
      [
        103.8383426,
        1.3471566
      ],
      [
        103.8382339,
        1.3474315
      ],
      [
        103.8378784,
        1.3479876
      ],
      [
        103.8377297,
        1.3482176
      ],
      [
        103.8376695,
        1.3483331
      ],
      [
        103.8376488,
        1.3483655
      ],
      [
        103.8375321,
        1.3485486
      ],
      [
        103.8374601,
        1.3486615
      ],
      [
        103.8368682,
        1.3495103
      ],
      [
        103.8360698,
        1.3504304
      ],
      [
        103.8360315,
        1.3505021
      ],
      [
        103.8359871,
        1.3506016
      ],
      [
        103.8359602,
        1.3506575
      ],
      [
        103.8359341,
        1.3507031
      ],
      [
        103.8358962,
        1.3507915
      ],
      [
        103.8358653,
        1.3508526
      ],
      [
        103.8358364,
        1.3509103
      ],
      [
        103.835795,
        1.3510039
      ],
      [
        103.8357733,
        1.3510606
      ],
      [
        103.8357426,
        1.3511406
      ],
      [
        103.8357353,
        1.3511596
      ],
      [
        103.8357181,
        1.3512088
      ],
      [
        103.835684,
        1.3513087
      ],
      [
        103.8356382,
        1.3514438
      ],
      [
        103.8356001,
        1.3515758
      ],
      [
        103.8355963,
        1.3515891
      ],
      [
        103.8355876,
        1.351618
      ],
      [
        103.8355676,
        1.3516903
      ],
      [
        103.8355129,
        1.3518468
      ],
      [
        103.8354619,
        1.3519842
      ],
      [
        103.8353233,
        1.3522074
      ],
      [
        103.8351392,
        1.3524291
      ],
      [
        103.8350573,
        1.3525212
      ],
      [
        103.8347846,
        1.3527877
      ],
      [
        103.8346051,
        1.3529575
      ],
      [
        103.8344826,
        1.3530771
      ],
      [
        103.8342366,
        1.3533085
      ],
      [
        103.8342103,
        1.3533314
      ],
      [
        103.8340875,
        1.3534469
      ],
      [
        103.8339269,
        1.3535808
      ],
      [
        103.8337465,
        1.353761
      ],
      [
        103.8335292,
        1.3539544
      ],
      [
        103.833437,
        1.3540397
      ],
      [
        103.8332796,
        1.3541883
      ],
      [
        103.8330862,
        1.354339
      ],
      [
        103.8328908,
        1.3544926
      ],
      [
        103.8326817,
        1.3546042
      ],
      [
        103.8325379,
        1.3546746
      ],
      [
        103.8324051,
        1.3547397
      ],
      [
        103.8321367,
        1.3548108
      ],
      [
        103.8320719,
        1.3548393
      ],
      [
        103.8318656,
        1.3549257
      ],
      [
        103.8316519,
        1.3550158
      ],
      [
        103.8313102,
        1.355155
      ],
      [
        103.8311677,
        1.3552182
      ],
      [
        103.8310151,
        1.3552891
      ],
      [
        103.8308682,
        1.3553713
      ],
      [
        103.8307977,
        1.3554102
      ],
      [
        103.8306567,
        1.3555005
      ],
      [
        103.8305455,
        1.3555922
      ],
      [
        103.8302225,
        1.3558796
      ],
      [
        103.8300857,
        1.3560176
      ],
      [
        103.8293738,
        1.3567299
      ],
      [
        103.8291781,
        1.3569247
      ],
      [
        103.8290948,
        1.3570275
      ],
      [
        103.8290521,
        1.3570737
      ],
      [
        103.829006,
        1.3571236
      ],
      [
        103.8288873,
        1.3573004
      ],
      [
        103.8288252,
        1.3574284
      ],
      [
        103.8288159,
        1.3574534
      ],
      [
        103.828781,
        1.3575465
      ],
      [
        103.8287142,
        1.3577731
      ],
      [
        103.8286579,
        1.3580033
      ],
      [
        103.8286341,
        1.3581989
      ],
      [
        103.8286483,
        1.3584658
      ],
      [
        103.8286637,
        1.3586044
      ],
      [
        103.8286773,
        1.3587273
      ],
      [
        103.8287187,
        1.3591525
      ],
      [
        103.8287339,
        1.3593257
      ],
      [
        103.8287362,
        1.3593896
      ],
      [
        103.8287397,
        1.3594412
      ],
      [
        103.8287433,
        1.3594807
      ],
      [
        103.8287521,
        1.3596588
      ],
      [
        103.828747,
        1.3598195
      ],
      [
        103.8287136,
        1.3600195
      ],
      [
        103.8286657,
        1.3601707
      ],
      [
        103.8286298,
        1.3602854
      ],
      [
        103.8286026,
        1.3603887
      ],
      [
        103.82848,
        1.3607312
      ],
      [
        103.8283612,
        1.3610253
      ],
      [
        103.8282319,
        1.3613444
      ],
      [
        103.82818,
        1.3615209
      ],
      [
        103.8281254,
        1.3617882
      ],
      [
        103.8280467,
        1.3622434
      ],
      [
        103.8279998,
        1.3627126
      ],
      [
        103.8279886,
        1.3629235
      ],
      [
        103.8279782,
        1.3631993
      ],
      [
        103.8279799,
        1.3633457
      ],
      [
        103.8279999,
        1.3636672
      ],
      [
        103.8280131,
        1.3638375
      ],
      [
        103.8280247,
        1.3639877
      ],
      [
        103.8280642,
        1.3645546
      ],
      [
        103.8280815,
        1.3648963
      ],
      [
        103.828087,
        1.3650629
      ],
      [
        103.8280973,
        1.3653511
      ],
      [
        103.8281289,
        1.3656705
      ],
      [
        103.8281949,
        1.3663716
      ],
      [
        103.8282041,
        1.3668528
      ],
      [
        103.8282251,
        1.3671341
      ],
      [
        103.8282351,
        1.3673076
      ],
      [
        103.8282508,
        1.3676122
      ],
      [
        103.8282665,
        1.3678784
      ],
      [
        103.8282705,
        1.3679306
      ],
      [
        103.8282794,
        1.3680462
      ],
      [
        103.8284368,
        1.3680413
      ],
      [
        103.8284827,
        1.3680389
      ],
      [
        103.8289749,
        1.3680194
      ],
      [
        103.829315,
        1.367999
      ],
      [
        103.8295771,
        1.3679728
      ],
      [
        103.8302496,
        1.3679238
      ],
      [
        103.8306312,
        1.3679008
      ],
      [
        103.8309186,
        1.3678756
      ],
      [
        103.8309891,
        1.3678688
      ],
      [
        103.8310609,
        1.3678608
      ],
      [
        103.83112,
        1.3678528
      ],
      [
        103.8312675,
        1.367832
      ],
      [
        103.8315867,
        1.3677915
      ],
      [
        103.8317068,
        1.3677753
      ],
      [
        103.8318253,
        1.3677575
      ],
      [
        103.8323217,
        1.3676605
      ],
      [
        103.8324971,
        1.3676185
      ],
      [
        103.8326532,
        1.3675773
      ],
      [
        103.8329622,
        1.3675082
      ],
      [
        103.8332329,
        1.3674127
      ],
      [
        103.8336935,
        1.3672657
      ],
      [
        103.8341694,
        1.3671127
      ],
      [
        103.8345235,
        1.3669992
      ],
      [
        103.834773,
        1.3669142
      ],
      [
        103.8355535,
        1.3666665
      ],
      [
        103.8356065,
        1.3666515
      ],
      [
        103.8356596,
        1.366631
      ],
      [
        103.8356893,
        1.3667221
      ],
      [
        103.8358035,
        1.3670447
      ],
      [
        103.8358867,
        1.3673041
      ],
      [
        103.8359689,
        1.3675497
      ],
      [
        103.8361318,
        1.3679819
      ],
      [
        103.8362101,
        1.3681905
      ],
      [
        103.8363499,
        1.3684621
      ],
      [
        103.836422,
        1.3685839
      ],
      [
        103.836476,
        1.3686686
      ],
      [
        103.8365114,
        1.36872
      ],
      [
        103.8365962,
        1.3688193
      ],
      [
        103.8368318,
        1.3690833
      ],
      [
        103.8369941,
        1.3692159
      ],
      [
        103.8371237,
        1.3693073
      ],
      [
        103.8372169,
        1.3693711
      ],
      [
        103.8372625,
        1.3694087
      ],
      [
        103.8373743,
        1.3694937
      ],
      [
        103.8376002,
        1.3696425
      ],
      [
        103.8380837,
        1.3698201
      ],
      [
        103.8383702,
        1.3698706
      ],
      [
        103.8386103,
        1.369902
      ],
      [
        103.8388413,
        1.3699068
      ],
      [
        103.8388693,
        1.3699088
      ],
      [
        103.8392777,
        1.3698631
      ],
      [
        103.8400939,
        1.3697774
      ],
      [
        103.8402862,
        1.3697533
      ],
      [
        103.8403665,
        1.3697356
      ],
      [
        103.8408317,
        1.3696763
      ],
      [
        103.8409074,
        1.36967
      ],
      [
        103.8413887,
        1.3696197
      ],
      [
        103.8416911,
        1.3695818
      ],
      [
        103.8423562,
        1.3695033
      ],
      [
        103.8426048,
        1.3694818
      ],
      [
        103.8427437,
        1.3694659
      ],
      [
        103.8428186,
        1.3694508
      ],
      [
        103.8431051,
        1.3694164
      ],
      [
        103.8432412,
        1.3693978
      ],
      [
        103.8434198,
        1.3693734
      ],
      [
        103.8435984,
        1.3693489
      ],
      [
        103.8439426,
        1.3693471
      ],
      [
        103.8440539,
        1.3693404
      ],
      [
        103.8441489,
        1.3693326
      ],
      [
        103.8444837,
        1.3692943
      ],
      [
        103.8446547,
        1.3692836
      ],
      [
        103.8447645,
        1.3692614
      ],
      [
        103.8454095,
        1.3691548
      ],
      [
        103.8455521,
        1.3691478
      ],
      [
        103.8456547,
        1.3691409
      ],
      [
        103.8457075,
        1.3691439
      ],
      [
        103.8459755,
        1.3690926
      ],
      [
        103.8464119,
        1.3690409
      ],
      [
        103.8468064,
        1.3689874
      ],
      [
        103.8469249,
        1.368967
      ],
      [
        103.8474384,
        1.3688976
      ],
      [
        103.8477057,
        1.3688648
      ],
      [
        103.847981,
        1.3688394
      ],
      [
        103.8482505,
        1.3688259
      ],
      [
        103.8485784,
        1.3688258
      ],
      [
        103.8487989,
        1.3688462
      ],
      [
        103.8490582,
        1.3688914
      ],
      [
        103.8494921,
        1.3689926
      ],
      [
        103.8495785,
        1.3690175
      ],
      [
        103.849639,
        1.369037
      ],
      [
        103.8497652,
        1.3690664
      ],
      [
        103.8498972,
        1.3690954
      ],
      [
        103.8502167,
        1.3691765
      ],
      [
        103.8509725,
        1.3694101
      ],
      [
        103.8511927,
        1.3694845
      ],
      [
        103.8516254,
        1.3696007
      ],
      [
        103.8519869,
        1.3696949
      ],
      [
        103.8520505,
        1.3697106
      ],
      [
        103.8522987,
        1.369771
      ],
      [
        103.8532344,
        1.3699285
      ],
      [
        103.8536571,
        1.3699186
      ],
      [
        103.8539149,
        1.3699003
      ],
      [
        103.8539355,
        1.3698979
      ],
      [
        103.8541601,
        1.3698658
      ],
      [
        103.8543452,
        1.3698132
      ],
      [
        103.8549212,
        1.3696455
      ],
      [
        103.855432,
        1.3694937
      ],
      [
        103.8558599,
        1.3693854
      ],
      [
        103.8560131,
        1.369342
      ],
      [
        103.8563484,
        1.3692545
      ],
      [
        103.8565221,
        1.3692193
      ],
      [
        103.8566989,
        1.3691679
      ],
      [
        103.8567822,
        1.3691436
      ],
      [
        103.8568528,
        1.3691273
      ],
      [
        103.8569409,
        1.3691211
      ],
      [
        103.8578081,
        1.3690601
      ],
      [
        103.8580526,
        1.3690636
      ],
      [
        103.858227,
        1.369069
      ],
      [
        103.8583676,
        1.3691189
      ],
      [
        103.8584755,
        1.3692284
      ],
      [
        103.858586,
        1.3693438
      ],
      [
        103.8586678,
        1.3694095
      ],
      [
        103.8588064,
        1.3694941
      ],
      [
        103.8589056,
        1.3695319
      ],
      [
        103.8590055,
        1.3695425
      ],
      [
        103.8591444,
        1.3695398
      ],
      [
        103.8593025,
        1.3694768
      ],
      [
        103.8594518,
        1.3694084
      ],
      [
        103.8596605,
        1.3693212
      ],
      [
        103.8598605,
        1.3693251
      ],
      [
        103.8604291,
        1.3694176
      ],
      [
        103.8612927,
        1.3696428
      ],
      [
        103.8617616,
        1.3697635
      ],
      [
        103.8627817,
        1.3700724
      ],
      [
        103.8631032,
        1.370155
      ],
      [
        103.8634295,
        1.3702734
      ],
      [
        103.8636532,
        1.370353
      ],
      [
        103.8638447,
        1.3704162
      ],
      [
        103.8638975,
        1.370431
      ],
      [
        103.8639929,
        1.3704671
      ],
      [
        103.8640183,
        1.3704755
      ],
      [
        103.8641543,
        1.3705207
      ],
      [
        103.8643093,
        1.3705722
      ],
      [
        103.864668,
        1.3706914
      ],
      [
        103.8647601,
        1.3707368
      ],
      [
        103.8648051,
        1.370759
      ],
      [
        103.8649402,
        1.3708321
      ],
      [
        103.8650277,
        1.3708817
      ],
      [
        103.8652624,
        1.3710286
      ],
      [
        103.8657747,
        1.371379
      ],
      [
        103.8660716,
        1.3715536
      ],
      [
        103.8663857,
        1.3716922
      ],
      [
        103.8665391,
        1.3717598
      ],
      [
        103.8667453,
        1.3718211
      ],
      [
        103.8668203,
        1.3718376
      ],
      [
        103.8670174,
        1.3718809
      ],
      [
        103.8677056,
        1.3719519
      ],
      [
        103.8680682,
        1.3719633
      ],
      [
        103.8681592,
        1.3719661
      ],
      [
        103.8684375,
        1.3719522
      ],
      [
        103.8687882,
        1.3719211
      ],
      [
        103.869283,
        1.3718537
      ],
      [
        103.8694916,
        1.3718193
      ],
      [
        103.8696853,
        1.3717739
      ],
      [
        103.869723,
        1.371765
      ],
      [
        103.8698029,
        1.3717459
      ],
      [
        103.8701638,
        1.3716615
      ],
      [
        103.8702071,
        1.3716506
      ],
      [
        103.8704464,
        1.3715841
      ],
      [
        103.8706148,
        1.3715373
      ],
      [
        103.870954,
        1.3714609
      ],
      [
        103.8712328,
        1.3713932
      ],
      [
        103.8715652,
        1.3713116
      ],
      [
        103.8716549,
        1.3712896
      ],
      [
        103.8717278,
        1.3712696
      ],
      [
        103.8717595,
        1.3712609
      ],
      [
        103.8721561,
        1.3711524
      ],
      [
        103.8728182,
        1.3709902
      ],
      [
        103.8732697,
        1.3708747
      ],
      [
        103.8740967,
        1.3706611
      ],
      [
        103.8742016,
        1.3706456
      ],
      [
        103.8744398,
        1.3706103
      ],
      [
        103.8748333,
        1.3705113
      ],
      [
        103.8751378,
        1.37044
      ],
      [
        103.8753301,
        1.3703869
      ],
      [
        103.8756773,
        1.3702889
      ],
      [
        103.8760825,
        1.3701594
      ],
      [
        103.8762631,
        1.3701047
      ],
      [
        103.8762756,
        1.3701009
      ],
      [
        103.8763606,
        1.3700752
      ],
      [
        103.8765086,
        1.3700358
      ],
      [
        103.8765891,
        1.3700176
      ],
      [
        103.8768687,
        1.3699639
      ],
      [
        103.8772202,
        1.3699083
      ],
      [
        103.8776696,
        1.3698547
      ],
      [
        103.8780166,
        1.3698141
      ],
      [
        103.8783714,
        1.3697327
      ],
      [
        103.8787442,
        1.3696442
      ],
      [
        103.8790574,
        1.3695336
      ],
      [
        103.8795589,
        1.3694456
      ],
      [
        103.8797213,
        1.3695118
      ],
      [
        103.8797665,
        1.3695415
      ],
      [
        103.8797937,
        1.3695594
      ],
      [
        103.8798634,
        1.3696271
      ],
      [
        103.8799764,
        1.3697795
      ],
      [
        103.8800829,
        1.3702125
      ],
      [
        103.8801352,
        1.3704263
      ],
      [
        103.8802304,
        1.3707373
      ],
      [
        103.880343,
        1.3708915
      ],
      [
        103.8804691,
        1.3710068
      ],
      [
        103.8806381,
        1.371106
      ],
      [
        103.8808325,
        1.371165
      ],
      [
        103.8809465,
        1.3711758
      ],
      [
        103.8811448,
        1.3711396
      ],
      [
        103.8817592,
        1.3710263
      ],
      [
        103.8821703,
        1.3709282
      ],
      [
        103.8824044,
        1.3708723
      ],
      [
        103.8830012,
        1.3707275
      ],
      [
        103.8831167,
        1.3707029
      ],
      [
        103.8835363,
        1.3706135
      ],
      [
        103.8843182,
        1.3704473
      ],
      [
        103.8844845,
        1.3704513
      ],
      [
        103.8846199,
        1.3704862
      ],
      [
        103.8847098,
        1.3705344
      ],
      [
        103.8847956,
        1.3705988
      ],
      [
        103.8850926,
        1.3710073
      ],
      [
        103.8852583,
        1.3712282
      ],
      [
        103.8853629,
        1.3713757
      ],
      [
        103.8856646,
        1.3717941
      ],
      [
        103.8858356,
        1.3720246
      ],
      [
        103.8858667,
        1.3720704
      ],
      [
        103.8859167,
        1.3721425
      ],
      [
        103.8860235,
        1.3720695
      ],
      [
        103.8861313,
        1.3719938
      ],
      [
        103.8863098,
        1.3718631
      ],
      [
        103.8864201,
        1.3717863
      ],
      [
        103.8865806,
        1.3716982
      ],
      [
        103.8867565,
        1.3716149
      ],
      [
        103.8870656,
        1.3715457
      ],
      [
        103.8874327,
        1.3714742
      ],
      [
        103.887654,
        1.3714264
      ],
      [
        103.8878294,
        1.3713931
      ],
      [
        103.8880003,
        1.3713545
      ],
      [
        103.8881185,
        1.3713106
      ],
      [
        103.8883096,
        1.3712129
      ],
      [
        103.8884321,
        1.3711324
      ],
      [
        103.8885449,
        1.3710359
      ],
      [
        103.8887107,
        1.3708766
      ],
      [
        103.8889114,
        1.3706837
      ],
      [
        103.8889477,
        1.3706502
      ],
      [
        103.8890165,
        1.3705866
      ],
      [
        103.8890579,
        1.3705484
      ],
      [
        103.8891888,
        1.3704231
      ],
      [
        103.8892404,
        1.3703604
      ],
      [
        103.8892985,
        1.3702743
      ],
      [
        103.8893469,
        1.3701724
      ],
      [
        103.8894061,
        1.3700535
      ],
      [
        103.8895369,
        1.3697587
      ],
      [
        103.8897686,
        1.3693855
      ],
      [
        103.8897992,
        1.3693467
      ],
      [
        103.8898582,
        1.3693869
      ],
      [
        103.8900326,
        1.369486
      ],
      [
        103.8903035,
        1.3696556
      ],
      [
        103.8904002,
        1.3698032
      ],
      [
        103.8904964,
        1.3700174
      ],
      [
        103.8906587,
        1.3702479
      ],
      [
        103.8907003,
        1.370301
      ],
      [
        103.8907638,
        1.3703545
      ],
      [
        103.8908494,
        1.3704446
      ],
      [
        103.8909675,
        1.3705722
      ],
      [
        103.8911301,
        1.3707385
      ],
      [
        103.8911967,
        1.3708144
      ],
      [
        103.8912413,
        1.3708583
      ],
      [
        103.8912745,
        1.3709193
      ],
      [
        103.891357,
        1.3710399
      ],
      [
        103.8915072,
        1.3712192
      ],
      [
        103.8915606,
        1.3712446
      ],
      [
        103.8915933,
        1.3711551
      ],
      [
        103.8916019,
        1.3711249
      ],
      [
        103.8916352,
        1.3709915
      ],
      [
        103.8916793,
        1.3709204
      ],
      [
        103.8917208,
        1.3708917
      ],
      [
        103.8917995,
        1.3708373
      ],
      [
        103.8920408,
        1.3708381
      ],
      [
        103.8925391,
        1.3710094
      ],
      [
        103.8928442,
        1.3710118
      ],
      [
        103.8928812,
        1.3710002
      ],
      [
        103.8928981,
        1.3709805
      ],
      [
        103.8929055,
        1.3709381
      ],
      [
        103.892904,
        1.3707869
      ],
      [
        103.8929028,
        1.3706501
      ],
      [
        103.8928884,
        1.3706247
      ],
      [
        103.8928621,
        1.3706079
      ],
      [
        103.8928155,
        1.3705961
      ],
      [
        103.8917973,
        1.3705948
      ],
      [
        103.8916485,
        1.3706126
      ],
      [
        103.8915955,
        1.3706672
      ],
      [
        103.8915925,
        1.3709755
      ],
      [
        103.891561,
        1.3711067
      ]
    ]
  }
}