{
  "type": "Feature",
  "properties": {
    "relation": 1154841,
    "direction": "1",
    "fee": "yes",
    "from": "Ang Mo Kio Interchange",
    "name": "Svc 166 (Ang Mo Kio Interchange → Clementi Interchange)",
    "name:en": "Svc 166 (Ang Mo Kio Interchange → Clementi Interchange)",
    "network": "Land Transport Authority",
    "network:short": "LTA",
    "network:wikidata": "Q3299279",
    "network:wikipedia": "en:Land Transport Authority",
    "operator": "SBS Transit",
    "operator:wikidata": "Q2661305",
    "operator:wikipedia": "en:SBS Transit",
    "public_transport:version": "2",
    "ref": "166",
    "route": "bus",
    "to": "Clementi Interchange",
    "type": "route",
    "website": "https://www.sbstransit.com.sg/"
  },
  "geometry": {
    "type": "LineString",
    "coordinates": [
      [
        103.8490922,
        1.3700192
      ],
      [
        103.8490257,
        1.3699776
      ],
      [
        103.8488976,
        1.3698976
      ],
      [
        103.8488842,
        1.3698734
      ],
      [
        103.8488932,
        1.3698442
      ],
      [
        103.8489514,
        1.3697347
      ],
      [
        103.8490249,
        1.3696195
      ],
      [
        103.8490203,
        1.3695524
      ],
      [
        103.848986,
        1.3695328
      ],
      [
        103.8488873,
        1.3695059
      ],
      [
        103.8484732,
        1.3694438
      ],
      [
        103.8482927,
        1.3694331
      ],
      [
        103.8482028,
        1.3694596
      ],
      [
        103.8481351,
        1.3696116
      ],
      [
        103.8480878,
        1.3697298
      ],
      [
        103.84805,
        1.3698969
      ],
      [
        103.8480507,
        1.3699117
      ],
      [
        103.8480634,
        1.3699244
      ],
      [
        103.8482049,
        1.3699398
      ],
      [
        103.8482244,
        1.3699324
      ],
      [
        103.8482807,
        1.3698714
      ],
      [
        103.8483068,
        1.3698574
      ],
      [
        103.8483323,
        1.3698533
      ],
      [
        103.8485429,
        1.3698627
      ],
      [
        103.8487223,
        1.3698835
      ],
      [
        103.8489979,
        1.3700299
      ],
      [
        103.849065,
        1.3700672
      ],
      [
        103.8491698,
        1.3701314
      ],
      [
        103.849201,
        1.370086
      ],
      [
        103.8497207,
        1.369151
      ],
      [
        103.8497652,
        1.3690664
      ],
      [
        103.8498257,
        1.3689692
      ],
      [
        103.8497029,
        1.3689342
      ],
      [
        103.8495992,
        1.3689101
      ],
      [
        103.849163,
        1.3687975
      ],
      [
        103.8490109,
        1.3687656
      ],
      [
        103.848851,
        1.3687389
      ],
      [
        103.8486871,
        1.3687224
      ],
      [
        103.8484798,
        1.3687163
      ],
      [
        103.8484349,
        1.3687162
      ],
      [
        103.8482372,
        1.3687157
      ],
      [
        103.8479767,
        1.3687273
      ],
      [
        103.8474676,
        1.3687766
      ],
      [
        103.8472415,
        1.3688044
      ],
      [
        103.846925,
        1.3688408
      ],
      [
        103.8467876,
        1.368864
      ],
      [
        103.8464105,
        1.3689095
      ],
      [
        103.8462801,
        1.3689253
      ],
      [
        103.8457779,
        1.3689859
      ],
      [
        103.8456651,
        1.3690017
      ],
      [
        103.8455965,
        1.3690077
      ],
      [
        103.845492,
        1.3690278
      ],
      [
        103.845412,
        1.3690355
      ],
      [
        103.84504,
        1.3690699
      ],
      [
        103.8448665,
        1.3690926
      ],
      [
        103.8447676,
        1.3691055
      ],
      [
        103.8446671,
        1.3691186
      ],
      [
        103.8444921,
        1.3691391
      ],
      [
        103.8442661,
        1.3691655
      ],
      [
        103.8441655,
        1.3691769
      ],
      [
        103.8439938,
        1.3692055
      ],
      [
        103.8439146,
        1.3692109
      ],
      [
        103.8438516,
        1.3692191
      ],
      [
        103.8432283,
        1.3693
      ],
      [
        103.8428072,
        1.3693541
      ],
      [
        103.8427326,
        1.3693644
      ],
      [
        103.8425908,
        1.3693815
      ],
      [
        103.8422897,
        1.3694299
      ],
      [
        103.8418063,
        1.3694922
      ],
      [
        103.8414839,
        1.3695309
      ],
      [
        103.8409026,
        1.3696059
      ],
      [
        103.8408246,
        1.3696136
      ],
      [
        103.8398945,
        1.3697281
      ],
      [
        103.8395357,
        1.3697707
      ],
      [
        103.8392704,
        1.369802
      ],
      [
        103.8388973,
        1.3698346
      ],
      [
        103.8388764,
        1.3698353
      ],
      [
        103.838829,
        1.3698295
      ],
      [
        103.8386215,
        1.369817
      ],
      [
        103.8384089,
        1.3697981
      ],
      [
        103.8381156,
        1.3697348
      ],
      [
        103.8378265,
        1.3696358
      ],
      [
        103.8376363,
        1.36956
      ],
      [
        103.8374102,
        1.369423
      ],
      [
        103.8373013,
        1.3693533
      ],
      [
        103.837257,
        1.3693199
      ],
      [
        103.8371585,
        1.3692522
      ],
      [
        103.8370488,
        1.3691764
      ],
      [
        103.8369102,
        1.3690716
      ],
      [
        103.8367961,
        1.3689585
      ],
      [
        103.836607,
        1.3687493
      ],
      [
        103.8365183,
        1.3686327
      ],
      [
        103.83645,
        1.3685221
      ],
      [
        103.8363621,
        1.3683593
      ],
      [
        103.8362589,
        1.3681746
      ],
      [
        103.8361884,
        1.3679718
      ],
      [
        103.8360165,
        1.3674991
      ],
      [
        103.8358051,
        1.3668619
      ],
      [
        103.8357532,
        1.3667008
      ],
      [
        103.8357244,
        1.366607
      ],
      [
        103.8356766,
        1.3664769
      ],
      [
        103.8356187,
        1.3664934
      ],
      [
        103.8355446,
        1.3665196
      ],
      [
        103.8355077,
        1.3665329
      ],
      [
        103.8352876,
        1.3666072
      ],
      [
        103.8349995,
        1.3667044
      ],
      [
        103.8344418,
        1.3668987
      ],
      [
        103.8341626,
        1.3669891
      ],
      [
        103.8338788,
        1.3670795
      ],
      [
        103.833322,
        1.3672635
      ],
      [
        103.8330668,
        1.3673465
      ],
      [
        103.8328163,
        1.3674079
      ],
      [
        103.8323168,
        1.3675309
      ],
      [
        103.8320132,
        1.3676006
      ],
      [
        103.8316534,
        1.3676509
      ],
      [
        103.8310348,
        1.3677292
      ],
      [
        103.8309714,
        1.3677351
      ],
      [
        103.8309006,
        1.3677414
      ],
      [
        103.8293141,
        1.3678811
      ],
      [
        103.8288911,
        1.3679106
      ],
      [
        103.8286648,
        1.3678086
      ],
      [
        103.8285904,
        1.3677532
      ],
      [
        103.8285256,
        1.3677009
      ],
      [
        103.8284884,
        1.3676555
      ],
      [
        103.8284597,
        1.3676102
      ],
      [
        103.8284105,
        1.3675353
      ],
      [
        103.8283959,
        1.3673208
      ],
      [
        103.8283923,
        1.367282
      ],
      [
        103.8283784,
        1.3671275
      ],
      [
        103.8283735,
        1.3670904
      ],
      [
        103.8283311,
        1.3665173
      ],
      [
        103.8283028,
        1.3661345
      ],
      [
        103.828282,
        1.3658172
      ],
      [
        103.8282412,
        1.3651945
      ],
      [
        103.8282359,
        1.3651285
      ],
      [
        103.8282037,
        1.3647295
      ],
      [
        103.828195,
        1.3646437
      ],
      [
        103.8281748,
        1.3643534
      ],
      [
        103.8281727,
        1.3638387
      ],
      [
        103.8281725,
        1.3637864
      ],
      [
        103.8281714,
        1.36367
      ],
      [
        103.8281806,
        1.3634282
      ],
      [
        103.8281846,
        1.3633808
      ],
      [
        103.8281918,
        1.3630229
      ],
      [
        103.828192,
        1.3627318
      ],
      [
        103.828196,
        1.3624666
      ],
      [
        103.8282071,
        1.3622013
      ],
      [
        103.8282148,
        1.3620642
      ],
      [
        103.8282305,
        1.3619218
      ],
      [
        103.828273,
        1.361683
      ],
      [
        103.8283571,
        1.3614076
      ],
      [
        103.8286028,
        1.3607688
      ],
      [
        103.8287506,
        1.3603222
      ],
      [
        103.8288483,
        1.3599192
      ],
      [
        103.8288571,
        1.3598523
      ],
      [
        103.8288731,
        1.3597115
      ],
      [
        103.8288764,
        1.3594778
      ],
      [
        103.828876,
        1.359441
      ],
      [
        103.8288705,
        1.3593802
      ],
      [
        103.8288682,
        1.3593255
      ],
      [
        103.8288399,
        1.3590517
      ],
      [
        103.8288339,
        1.3589776
      ],
      [
        103.8288142,
        1.3586246
      ],
      [
        103.828792,
        1.3582183
      ],
      [
        103.8288019,
        1.3580107
      ],
      [
        103.8288035,
        1.3580037
      ],
      [
        103.828852,
        1.3577937
      ],
      [
        103.8289298,
        1.3575954
      ],
      [
        103.8289483,
        1.3575453
      ],
      [
        103.8289589,
        1.3575166
      ],
      [
        103.829022,
        1.3573764
      ],
      [
        103.8293169,
        1.3570139
      ],
      [
        103.8300401,
        1.356282
      ],
      [
        103.830365,
        1.3559689
      ],
      [
        103.8305493,
        1.3558139
      ],
      [
        103.8307225,
        1.3556851
      ],
      [
        103.8308288,
        1.3556187
      ],
      [
        103.8308898,
        1.355587
      ],
      [
        103.8310242,
        1.355515
      ],
      [
        103.8311194,
        1.355464
      ],
      [
        103.8312581,
        1.3553887
      ],
      [
        103.8314799,
        1.3552872
      ],
      [
        103.8316217,
        1.355217
      ],
      [
        103.8318459,
        1.3551074
      ],
      [
        103.8319034,
        1.355081
      ],
      [
        103.8321313,
        1.354993
      ],
      [
        103.8324849,
        1.3548204
      ],
      [
        103.832593,
        1.3547673
      ],
      [
        103.832789,
        1.3546712
      ],
      [
        103.832952,
        1.3545752
      ],
      [
        103.833047,
        1.3545192
      ],
      [
        103.8331944,
        1.3544302
      ],
      [
        103.8333967,
        1.3542969
      ],
      [
        103.8336243,
        1.3541031
      ],
      [
        103.8336769,
        1.3540543
      ],
      [
        103.8337987,
        1.3539469
      ],
      [
        103.8338475,
        1.3539046
      ],
      [
        103.8339057,
        1.3538461
      ],
      [
        103.8339808,
        1.3537708
      ],
      [
        103.8340543,
        1.3536958
      ],
      [
        103.8341211,
        1.3536277
      ],
      [
        103.8342574,
        1.3534816
      ],
      [
        103.8345247,
        1.3532308
      ],
      [
        103.834577,
        1.3531838
      ],
      [
        103.8346645,
        1.3531056
      ],
      [
        103.8347729,
        1.3530114
      ],
      [
        103.8352179,
        1.3525679
      ],
      [
        103.8352542,
        1.3525306
      ],
      [
        103.8354024,
        1.3523546
      ],
      [
        103.8354523,
        1.352283
      ],
      [
        103.8355511,
        1.3521145
      ],
      [
        103.8355661,
        1.3520895
      ],
      [
        103.8356372,
        1.3519339
      ],
      [
        103.8357578,
        1.3516273
      ],
      [
        103.8357789,
        1.3515679
      ],
      [
        103.8358031,
        1.3514902
      ],
      [
        103.8359414,
        1.3510421
      ],
      [
        103.8360921,
        1.3506592
      ],
      [
        103.8361433,
        1.3505871
      ],
      [
        103.8369537,
        1.3495992
      ],
      [
        103.8374979,
        1.348867
      ],
      [
        103.8375981,
        1.348706
      ],
      [
        103.8376391,
        1.3486404
      ],
      [
        103.8376497,
        1.3486234
      ],
      [
        103.8376532,
        1.3486178
      ],
      [
        103.8377626,
        1.3484427
      ],
      [
        103.8377939,
        1.3483925
      ],
      [
        103.8378607,
        1.3482786
      ],
      [
        103.8379983,
        1.3480795
      ],
      [
        103.8381566,
        1.34785
      ],
      [
        103.83825,
        1.3477009
      ],
      [
        103.8384429,
        1.3472847
      ],
      [
        103.8384825,
        1.3472071
      ],
      [
        103.8385658,
        1.3469207
      ],
      [
        103.8386305,
        1.3466268
      ],
      [
        103.8387022,
        1.3463641
      ],
      [
        103.8387249,
        1.3461494
      ],
      [
        103.8387285,
        1.3460463
      ],
      [
        103.83873,
        1.3458637
      ],
      [
        103.8387286,
        1.3458157
      ],
      [
        103.8386874,
        1.3451087
      ],
      [
        103.8386637,
        1.3446268
      ],
      [
        103.8386299,
        1.3441827
      ],
      [
        103.8386052,
        1.3439461
      ],
      [
        103.8385681,
        1.3435923
      ],
      [
        103.8385585,
        1.3435095
      ],
      [
        103.8385004,
        1.3433396
      ],
      [
        103.8384332,
        1.3432031
      ],
      [
        103.8383076,
        1.3430479
      ],
      [
        103.8381948,
        1.3429447
      ],
      [
        103.8380691,
        1.3428427
      ],
      [
        103.8375993,
        1.342555
      ],
      [
        103.8372983,
        1.3423867
      ],
      [
        103.8369256,
        1.3421653
      ],
      [
        103.8367352,
        1.3420554
      ],
      [
        103.8365316,
        1.3417958
      ],
      [
        103.8365057,
        1.3417558
      ],
      [
        103.8364773,
        1.3416701
      ],
      [
        103.8364611,
        1.3415198
      ],
      [
        103.8364591,
        1.3413162
      ],
      [
        103.8364798,
        1.3411485
      ],
      [
        103.8365635,
        1.3408806
      ],
      [
        103.8366504,
        1.3407084
      ],
      [
        103.8367113,
        1.3405924
      ],
      [
        103.8368526,
        1.3403682
      ],
      [
        103.8369434,
        1.3402274
      ],
      [
        103.8370845,
        1.3399846
      ],
      [
        103.8371408,
        1.3398793
      ],
      [
        103.8372102,
        1.3397441
      ],
      [
        103.8373357,
        1.3395186
      ],
      [
        103.8374621,
        1.3392914
      ],
      [
        103.8375087,
        1.3392077
      ],
      [
        103.8375815,
        1.3390622
      ],
      [
        103.8374632,
        1.3387891
      ],
      [
        103.8374154,
        1.3386234
      ],
      [
        103.837361,
        1.3382389
      ],
      [
        103.8373616,
        1.3380704
      ],
      [
        103.8373627,
        1.3379941
      ],
      [
        103.8373665,
        1.3379129
      ],
      [
        103.8373699,
        1.337808
      ],
      [
        103.8373601,
        1.3375916
      ],
      [
        103.8373306,
        1.3369428
      ],
      [
        103.8373083,
        1.336795
      ],
      [
        103.8373054,
        1.3367761
      ],
      [
        103.8372734,
        1.3365644
      ],
      [
        103.8372512,
        1.3364173
      ],
      [
        103.8372453,
        1.3363895
      ],
      [
        103.8372152,
        1.3362017
      ],
      [
        103.8371535,
        1.3358899
      ],
      [
        103.8371384,
        1.3357985
      ],
      [
        103.837087,
        1.3354461
      ],
      [
        103.83707,
        1.3353581
      ],
      [
        103.8370664,
        1.3352363
      ],
      [
        103.837075,
        1.3351164
      ],
      [
        103.8370915,
        1.3350054
      ],
      [
        103.8371265,
        1.334844
      ],
      [
        103.8371889,
        1.3346553
      ],
      [
        103.837246,
        1.3345451
      ],
      [
        103.8372926,
        1.3344656
      ],
      [
        103.8373959,
        1.3343302
      ],
      [
        103.8380634,
        1.3334063
      ],
      [
        103.8381416,
        1.333292
      ],
      [
        103.8381918,
        1.3332021
      ],
      [
        103.8382532,
        1.3330737
      ],
      [
        103.8383216,
        1.3328869
      ],
      [
        103.838383,
        1.3327358
      ],
      [
        103.8384306,
        1.3326248
      ],
      [
        103.8385334,
        1.3324078
      ],
      [
        103.8385771,
        1.3323444
      ],
      [
        103.8387032,
        1.3321989
      ],
      [
        103.838903,
        1.3320031
      ],
      [
        103.838962,
        1.331912
      ],
      [
        103.8390894,
        1.3316035
      ],
      [
        103.8391407,
        1.3314571
      ],
      [
        103.8392137,
        1.331262
      ],
      [
        103.8392832,
        1.3310955
      ],
      [
        103.8393719,
        1.3309065
      ],
      [
        103.8394471,
        1.3307789
      ],
      [
        103.8395905,
        1.33057
      ],
      [
        103.8396896,
        1.3304459
      ],
      [
        103.8398323,
        1.3302523
      ],
      [
        103.839902,
        1.3301639
      ],
      [
        103.8399412,
        1.3301142
      ],
      [
        103.8399749,
        1.3300688
      ],
      [
        103.8400845,
        1.3299257
      ],
      [
        103.8402396,
        1.3297675
      ],
      [
        103.8403454,
        1.3296632
      ],
      [
        103.8403952,
        1.3296134
      ],
      [
        103.8405103,
        1.3294959
      ],
      [
        103.8406404,
        1.329311
      ],
      [
        103.8407015,
        1.329203
      ],
      [
        103.8407581,
        1.3290967
      ],
      [
        103.8408092,
        1.3289829
      ],
      [
        103.8408587,
        1.3288715
      ],
      [
        103.8408921,
        1.3287881
      ],
      [
        103.8409147,
        1.3287239
      ],
      [
        103.8409523,
        1.3285976
      ],
      [
        103.8409784,
        1.3285191
      ],
      [
        103.8410501,
        1.3283154
      ],
      [
        103.8410988,
        1.3281977
      ],
      [
        103.8411574,
        1.328063
      ],
      [
        103.8411812,
        1.3280123
      ],
      [
        103.841286,
        1.3277893
      ],
      [
        103.8413546,
        1.3276068
      ],
      [
        103.841433,
        1.3274238
      ],
      [
        103.841449,
        1.3273898
      ],
      [
        103.8415785,
        1.3271336
      ],
      [
        103.8416346,
        1.3270367
      ],
      [
        103.8418386,
        1.3266844
      ],
      [
        103.841974,
        1.3264859
      ],
      [
        103.8420494,
        1.3263288
      ],
      [
        103.8420914,
        1.3261809
      ],
      [
        103.8421056,
        1.3261062
      ],
      [
        103.8421072,
        1.326076
      ],
      [
        103.8421434,
        1.3258092
      ],
      [
        103.8421579,
        1.3256532
      ],
      [
        103.8421604,
        1.3255211
      ],
      [
        103.8421287,
        1.3252244
      ],
      [
        103.8420943,
        1.3249651
      ],
      [
        103.8420422,
        1.3246308
      ],
      [
        103.8420176,
        1.3244976
      ],
      [
        103.8419834,
        1.3243625
      ],
      [
        103.8419064,
        1.323921
      ],
      [
        103.8418965,
        1.3238606
      ],
      [
        103.8418582,
        1.3236543
      ],
      [
        103.8418356,
        1.3235239
      ],
      [
        103.8418111,
        1.3233812
      ],
      [
        103.8418063,
        1.3233536
      ],
      [
        103.8417818,
        1.3231329
      ],
      [
        103.8417774,
        1.3230932
      ],
      [
        103.8417757,
        1.3230679
      ],
      [
        103.8417403,
        1.3226823
      ],
      [
        103.8417202,
        1.322354
      ],
      [
        103.8417148,
        1.3222327
      ],
      [
        103.8417118,
        1.3221955
      ],
      [
        103.8417163,
        1.3221722
      ],
      [
        103.841719,
        1.3221586
      ],
      [
        103.8417223,
        1.3221347
      ],
      [
        103.8417331,
        1.3220903
      ],
      [
        103.8417613,
        1.3219743
      ],
      [
        103.8418594,
        1.3216246
      ],
      [
        103.8418868,
        1.3215267
      ],
      [
        103.8419281,
        1.3214495
      ],
      [
        103.8420289,
        1.321261
      ],
      [
        103.8422848,
        1.3208991
      ],
      [
        103.8423534,
        1.3208057
      ],
      [
        103.842455,
        1.3206678
      ],
      [
        103.8425586,
        1.3205427
      ],
      [
        103.8427158,
        1.3203373
      ],
      [
        103.8430787,
        1.3199365
      ],
      [
        103.8432488,
        1.3197586
      ],
      [
        103.8435242,
        1.3193958
      ],
      [
        103.8435357,
        1.3193806
      ],
      [
        103.8435766,
        1.3193244
      ],
      [
        103.8436469,
        1.3192215
      ],
      [
        103.8437974,
        1.3190057
      ],
      [
        103.8439724,
        1.3186755
      ],
      [
        103.8439929,
        1.3186323
      ],
      [
        103.8440378,
        1.3185201
      ],
      [
        103.8440603,
        1.3184639
      ],
      [
        103.8441586,
        1.3182336
      ],
      [
        103.8443152,
        1.3177598
      ],
      [
        103.8443275,
        1.317723
      ],
      [
        103.8444162,
        1.3174587
      ],
      [
        103.8445095,
        1.3171727
      ],
      [
        103.8445526,
        1.3170119
      ],
      [
        103.8447047,
        1.316514
      ],
      [
        103.844821,
        1.3161146
      ],
      [
        103.8448604,
        1.3159631
      ],
      [
        103.8448831,
        1.3159006
      ],
      [
        103.8450513,
        1.3154379
      ],
      [
        103.8451033,
        1.3153145
      ],
      [
        103.8452124,
        1.3149818
      ],
      [
        103.8452688,
        1.3148441
      ],
      [
        103.8452984,
        1.3147717
      ],
      [
        103.8453744,
        1.3145861
      ],
      [
        103.8456627,
        1.3140632
      ],
      [
        103.845716,
        1.3139802
      ],
      [
        103.8457499,
        1.3139274
      ],
      [
        103.845834,
        1.3137964
      ],
      [
        103.846062,
        1.3134866
      ],
      [
        103.8462998,
        1.3132248
      ],
      [
        103.846385,
        1.3131294
      ],
      [
        103.8464492,
        1.3130576
      ],
      [
        103.8468371,
        1.3126549
      ],
      [
        103.8470128,
        1.3124753
      ],
      [
        103.8473146,
        1.3121739
      ],
      [
        103.8473725,
        1.3121128
      ],
      [
        103.8473911,
        1.3120947
      ],
      [
        103.8476961,
        1.3117979
      ],
      [
        103.8478253,
        1.3116403
      ],
      [
        103.8478521,
        1.3116076
      ],
      [
        103.847882,
        1.3115672
      ],
      [
        103.8479372,
        1.3114906
      ],
      [
        103.8480023,
        1.3113429
      ],
      [
        103.8480844,
        1.3110832
      ],
      [
        103.8480852,
        1.3110589
      ],
      [
        103.8480878,
        1.3109853
      ],
      [
        103.8480918,
        1.3107702
      ],
      [
        103.8480762,
        1.310637
      ],
      [
        103.8479962,
        1.3104039
      ],
      [
        103.8479701,
        1.3103215
      ],
      [
        103.8479412,
        1.3102305
      ],
      [
        103.8479398,
        1.3102257
      ],
      [
        103.8476484,
        1.3095262
      ],
      [
        103.8474771,
        1.3091237
      ],
      [
        103.8473179,
        1.3087414
      ],
      [
        103.8473016,
        1.3087045
      ],
      [
        103.8472444,
        1.3085117
      ],
      [
        103.8472537,
        1.3084588
      ],
      [
        103.8472849,
        1.3083939
      ],
      [
        103.847352,
        1.3083108
      ],
      [
        103.8474633,
        1.3081686
      ],
      [
        103.8475478,
        1.3080828
      ],
      [
        103.8477945,
        1.3078764
      ],
      [
        103.8479394,
        1.3077463
      ],
      [
        103.8479812,
        1.3076068
      ],
      [
        103.8480373,
        1.3075546
      ],
      [
        103.8482481,
        1.3073425
      ],
      [
        103.8485775,
        1.3069946
      ],
      [
        103.8488511,
        1.3067377
      ],
      [
        103.8493133,
        1.3063781
      ],
      [
        103.8493578,
        1.306343
      ],
      [
        103.8494485,
        1.3062695
      ],
      [
        103.8502045,
        1.3056467
      ],
      [
        103.8508098,
        1.3051492
      ],
      [
        103.8509109,
        1.305073
      ],
      [
        103.8510074,
        1.3049989
      ],
      [
        103.8510634,
        1.3049615
      ],
      [
        103.8514106,
        1.3047282
      ],
      [
        103.85153,
        1.3046537
      ],
      [
        103.8518249,
        1.3044972
      ],
      [
        103.8521428,
        1.3043332
      ],
      [
        103.8525427,
        1.3041779
      ],
      [
        103.8529184,
        1.3040365
      ],
      [
        103.8531426,
        1.3039417
      ],
      [
        103.8532939,
        1.3038551
      ],
      [
        103.8539621,
        1.3035148
      ],
      [
        103.8540728,
        1.303456
      ],
      [
        103.8539882,
        1.3033235
      ],
      [
        103.8539788,
        1.3033081
      ],
      [
        103.8537299,
        1.3029936
      ],
      [
        103.8536275,
        1.3028645
      ],
      [
        103.8534955,
        1.3027101
      ],
      [
        103.8533584,
        1.3025524
      ],
      [
        103.8533474,
        1.3025388
      ],
      [
        103.8532555,
        1.3024247
      ],
      [
        103.8531709,
        1.302327
      ],
      [
        103.8531273,
        1.3022723
      ],
      [
        103.8530616,
        1.3021909
      ],
      [
        103.8526881,
        1.3017213
      ],
      [
        103.8525876,
        1.3015881
      ],
      [
        103.852365,
        1.3013094
      ],
      [
        103.8520426,
        1.3009086
      ],
      [
        103.8519986,
        1.3008548
      ],
      [
        103.851739,
        1.3005217
      ],
      [
        103.8517202,
        1.3004928
      ],
      [
        103.8516212,
        1.3003614
      ],
      [
        103.8515765,
        1.3003084
      ],
      [
        103.8514147,
        1.3001046
      ],
      [
        103.8510932,
        1.2997268
      ],
      [
        103.8509438,
        1.2995518
      ],
      [
        103.8507974,
        1.2993745
      ],
      [
        103.8505069,
        1.2990397
      ],
      [
        103.8504346,
        1.298955
      ],
      [
        103.8502048,
        1.2986857
      ],
      [
        103.8501484,
        1.2986196
      ],
      [
        103.8500779,
        1.298537
      ],
      [
        103.8500678,
        1.2985252
      ],
      [
        103.8498774,
        1.298302
      ],
      [
        103.8498602,
        1.2982819
      ],
      [
        103.8498458,
        1.298265
      ],
      [
        103.8498195,
        1.2981714
      ],
      [
        103.8497895,
        1.2981021
      ],
      [
        103.8497283,
        1.2979751
      ],
      [
        103.8497162,
        1.2979314
      ],
      [
        103.8497117,
        1.2978971
      ],
      [
        103.8497106,
        1.2978687
      ],
      [
        103.8497135,
        1.2978359
      ],
      [
        103.8497208,
        1.2977928
      ],
      [
        103.8499544,
        1.2976056
      ],
      [
        103.850139,
        1.2974549
      ],
      [
        103.8502759,
        1.2973461
      ],
      [
        103.8503328,
        1.2973008
      ],
      [
        103.8506353,
        1.2970604
      ],
      [
        103.8506786,
        1.297026
      ],
      [
        103.8508325,
        1.2969036
      ],
      [
        103.8508556,
        1.2968853
      ],
      [
        103.8510876,
        1.2967008
      ],
      [
        103.8511117,
        1.2966816
      ],
      [
        103.8518683,
        1.2960619
      ],
      [
        103.8519011,
        1.2960284
      ],
      [
        103.8520195,
        1.2959364
      ],
      [
        103.8520509,
        1.2959104
      ],
      [
        103.8523784,
        1.2956728
      ],
      [
        103.8525329,
        1.2955563
      ],
      [
        103.8528475,
        1.2953191
      ],
      [
        103.8530449,
        1.2951699
      ],
      [
        103.8531036,
        1.2951261
      ],
      [
        103.8530213,
        1.2950085
      ],
      [
        103.8529472,
        1.2949025
      ],
      [
        103.8526534,
        1.294486
      ],
      [
        103.8526368,
        1.2944621
      ],
      [
        103.8524064,
        1.2940995
      ],
      [
        103.8523864,
        1.2940681
      ],
      [
        103.8522579,
        1.2938721
      ],
      [
        103.8522229,
        1.2938187
      ],
      [
        103.8520677,
        1.293652
      ],
      [
        103.8520622,
        1.2936443
      ],
      [
        103.8520179,
        1.293583
      ],
      [
        103.8519676,
        1.2934896
      ],
      [
        103.8516676,
        1.2930154
      ],
      [
        103.8514262,
        1.2926199
      ],
      [
        103.8513431,
        1.292466
      ],
      [
        103.8512937,
        1.2923809
      ],
      [
        103.8511193,
        1.292075
      ],
      [
        103.8510244,
        1.2918587
      ],
      [
        103.8509674,
        1.2917649
      ],
      [
        103.8509339,
        1.2917097
      ],
      [
        103.850823,
        1.2915271
      ],
      [
        103.8506567,
        1.2912531
      ],
      [
        103.8506264,
        1.2912034
      ],
      [
        103.8506153,
        1.291185
      ],
      [
        103.8505016,
        1.2909977
      ],
      [
        103.8504661,
        1.2909393
      ],
      [
        103.8503579,
        1.2907611
      ],
      [
        103.8503303,
        1.2907156
      ],
      [
        103.8500726,
        1.2902912
      ],
      [
        103.850015,
        1.2901963
      ],
      [
        103.8499859,
        1.2901484
      ],
      [
        103.8498437,
        1.2899142
      ],
      [
        103.849722,
        1.2897137
      ],
      [
        103.8496694,
        1.2896272
      ],
      [
        103.8496256,
        1.2895631
      ],
      [
        103.849596,
        1.2895198
      ],
      [
        103.849535,
        1.2894305
      ],
      [
        103.8494791,
        1.2894129
      ],
      [
        103.8494264,
        1.289341
      ],
      [
        103.8491042,
        1.2888394
      ],
      [
        103.8491024,
        1.2887479
      ],
      [
        103.8490061,
        1.2885773
      ],
      [
        103.848904,
        1.2883671
      ],
      [
        103.8488436,
        1.2882692
      ],
      [
        103.8487746,
        1.2881667
      ],
      [
        103.8486536,
        1.2879894
      ],
      [
        103.8484256,
        1.2876297
      ],
      [
        103.8481665,
        1.2871674
      ],
      [
        103.8480076,
        1.286875
      ],
      [
        103.8478076,
        1.2865089
      ],
      [
        103.8477564,
        1.2864192
      ],
      [
        103.8473776,
        1.2857971
      ],
      [
        103.8472182,
        1.2855339
      ],
      [
        103.8471684,
        1.2854539
      ],
      [
        103.8469116,
        1.28503
      ],
      [
        103.846642,
        1.2845729
      ],
      [
        103.8466036,
        1.2845093
      ],
      [
        103.8463759,
        1.2841313
      ],
      [
        103.8461584,
        1.2837333
      ],
      [
        103.8461028,
        1.2836322
      ],
      [
        103.8460404,
        1.2835289
      ],
      [
        103.8458432,
        1.283202
      ],
      [
        103.8456761,
        1.2828912
      ],
      [
        103.8455868,
        1.2827394
      ],
      [
        103.8455644,
        1.2827013
      ],
      [
        103.8454382,
        1.282474
      ],
      [
        103.8452956,
        1.2822174
      ],
      [
        103.8451331,
        1.281927
      ],
      [
        103.8450622,
        1.2817996
      ],
      [
        103.8450121,
        1.2817124
      ],
      [
        103.8448819,
        1.2814909
      ],
      [
        103.8448068,
        1.281414
      ],
      [
        103.8447764,
        1.2813763
      ],
      [
        103.8447462,
        1.2813319
      ],
      [
        103.8446546,
        1.2811929
      ],
      [
        103.8445729,
        1.2810772
      ],
      [
        103.8445101,
        1.2809951
      ],
      [
        103.8444302,
        1.280912
      ],
      [
        103.8442597,
        1.2807532
      ],
      [
        103.8440199,
        1.2805536
      ],
      [
        103.8439467,
        1.2804921
      ],
      [
        103.8439116,
        1.2804659
      ],
      [
        103.8438574,
        1.2804217
      ],
      [
        103.8437277,
        1.2803276
      ],
      [
        103.8435629,
        1.2802352
      ],
      [
        103.8434191,
        1.280147
      ],
      [
        103.8431213,
        1.2799664
      ],
      [
        103.842898,
        1.2798641
      ],
      [
        103.8427203,
        1.2797839
      ],
      [
        103.8426492,
        1.2797498
      ],
      [
        103.8425539,
        1.2797071
      ],
      [
        103.8424924,
        1.2796689
      ],
      [
        103.8423793,
        1.2795899
      ],
      [
        103.8422451,
        1.2794397
      ],
      [
        103.8419456,
        1.2791203
      ],
      [
        103.8416824,
        1.2788343
      ],
      [
        103.841667,
        1.2788176
      ],
      [
        103.8415088,
        1.2786333
      ],
      [
        103.8414203,
        1.2785354
      ],
      [
        103.8412639,
        1.278408
      ],
      [
        103.8411551,
        1.2783273
      ],
      [
        103.8410384,
        1.2782708
      ],
      [
        103.8407766,
        1.2781366
      ],
      [
        103.8406263,
        1.2780669
      ],
      [
        103.8404935,
        1.2780308
      ],
      [
        103.8403805,
        1.2779917
      ],
      [
        103.8402619,
        1.2779617
      ],
      [
        103.8401549,
        1.2779391
      ],
      [
        103.8400969,
        1.2779255
      ],
      [
        103.839802,
        1.2778711
      ],
      [
        103.8396345,
        1.2778402
      ],
      [
        103.8395653,
        1.2778275
      ],
      [
        103.8394719,
        1.2778102
      ],
      [
        103.8390657,
        1.2777353
      ],
      [
        103.8390058,
        1.2777243
      ],
      [
        103.8387721,
        1.2776694
      ],
      [
        103.8384849,
        1.277602
      ],
      [
        103.8383599,
        1.2775727
      ],
      [
        103.8383209,
        1.2775617
      ],
      [
        103.8380959,
        1.2775029
      ],
      [
        103.8380365,
        1.2774917
      ],
      [
        103.8377133,
        1.27743
      ],
      [
        103.8372564,
        1.2773472
      ],
      [
        103.8371375,
        1.2773064
      ],
      [
        103.8370534,
        1.2773
      ],
      [
        103.837017,
        1.2772981
      ],
      [
        103.8369444,
        1.277293
      ],
      [
        103.8366826,
        1.2772615
      ],
      [
        103.8365,
        1.2772363
      ],
      [
        103.8362871,
        1.2770355
      ],
      [
        103.8356615,
        1.2764642
      ],
      [
        103.8356005,
        1.27641
      ],
      [
        103.8353151,
        1.2761994
      ],
      [
        103.835292,
        1.2761888
      ],
      [
        103.835161,
        1.2761283
      ],
      [
        103.8349942,
        1.2760804
      ],
      [
        103.8348351,
        1.2760552
      ],
      [
        103.8347298,
        1.2760475
      ],
      [
        103.8346639,
        1.2760475
      ],
      [
        103.8345893,
        1.276053
      ],
      [
        103.8345059,
        1.2760651
      ],
      [
        103.8341821,
        1.2761707
      ],
      [
        103.8339766,
        1.2762028
      ],
      [
        103.8338913,
        1.2762246
      ],
      [
        103.8336713,
        1.276282
      ],
      [
        103.8335246,
        1.2763137
      ],
      [
        103.8333256,
        1.2763479
      ],
      [
        103.8332276,
        1.2763423
      ],
      [
        103.8331342,
        1.2763142
      ],
      [
        103.8330129,
        1.2762954
      ],
      [
        103.8328245,
        1.2762832
      ],
      [
        103.8324642,
        1.2762693
      ],
      [
        103.8322657,
        1.2762688
      ],
      [
        103.8319932,
        1.2762537
      ],
      [
        103.8319253,
        1.2762436
      ],
      [
        103.8318539,
        1.2762292
      ],
      [
        103.8317678,
        1.276216
      ],
      [
        103.8316663,
        1.2762019
      ],
      [
        103.8315388,
        1.2761827
      ],
      [
        103.8313096,
        1.2761471
      ],
      [
        103.8307397,
        1.2760751
      ],
      [
        103.8306179,
        1.2760515
      ],
      [
        103.8304949,
        1.2760243
      ],
      [
        103.8301259,
        1.2759606
      ],
      [
        103.8299903,
        1.2759175
      ],
      [
        103.8298666,
        1.2758557
      ],
      [
        103.829772,
        1.2757953
      ],
      [
        103.829665,
        1.2757171
      ],
      [
        103.8295806,
        1.2756212
      ],
      [
        103.829482,
        1.2755049
      ],
      [
        103.8289763,
        1.2749065
      ],
      [
        103.8289011,
        1.2748383
      ],
      [
        103.8287733,
        1.2746689
      ],
      [
        103.8287275,
        1.2745996
      ],
      [
        103.828706,
        1.2745437
      ],
      [
        103.8286866,
        1.2744971
      ],
      [
        103.8286697,
        1.2744195
      ],
      [
        103.8286563,
        1.2743619
      ],
      [
        103.8286555,
        1.2743328
      ],
      [
        103.8286562,
        1.274309
      ],
      [
        103.8286588,
        1.2742846
      ],
      [
        103.8286986,
        1.274107
      ],
      [
        103.8287124,
        1.2740451
      ],
      [
        103.8287964,
        1.2738113
      ],
      [
        103.8288139,
        1.2737556
      ],
      [
        103.8288547,
        1.2736466
      ],
      [
        103.8288824,
        1.2735658
      ],
      [
        103.828909,
        1.273451
      ],
      [
        103.8289153,
        1.2733638
      ],
      [
        103.8289209,
        1.2732991
      ],
      [
        103.8289213,
        1.2732447
      ],
      [
        103.8289164,
        1.2731891
      ],
      [
        103.8288957,
        1.2731184
      ],
      [
        103.8288143,
        1.2729416
      ],
      [
        103.8287409,
        1.2728491
      ],
      [
        103.8286165,
        1.2727343
      ],
      [
        103.8283759,
        1.2725185
      ],
      [
        103.8283021,
        1.2724523
      ],
      [
        103.8279185,
        1.2721411
      ],
      [
        103.8278414,
        1.272076
      ],
      [
        103.8278001,
        1.2720364
      ],
      [
        103.8275543,
        1.2718009
      ],
      [
        103.8269549,
        1.2712778
      ],
      [
        103.8266162,
        1.2710065
      ],
      [
        103.8265438,
        1.2709501
      ],
      [
        103.8264386,
        1.2708864
      ],
      [
        103.8263427,
        1.2708377
      ],
      [
        103.8262327,
        1.270776
      ],
      [
        103.8259763,
        1.2706608
      ],
      [
        103.8257876,
        1.270589
      ],
      [
        103.8256186,
        1.2704908
      ],
      [
        103.8255453,
        1.2704328
      ],
      [
        103.8255243,
        1.2704072
      ],
      [
        103.8254776,
        1.2703637
      ],
      [
        103.8254181,
        1.2702794
      ],
      [
        103.8253725,
        1.2701882
      ],
      [
        103.8253435,
        1.2701149
      ],
      [
        103.8253041,
        1.2700008
      ],
      [
        103.8252709,
        1.2695931
      ],
      [
        103.8252722,
        1.2694292
      ],
      [
        103.8252778,
        1.269354
      ],
      [
        103.8252889,
        1.2692476
      ],
      [
        103.8253046,
        1.2691091
      ],
      [
        103.8253124,
        1.269061
      ],
      [
        103.8253281,
        1.26899
      ],
      [
        103.8253658,
        1.2688528
      ],
      [
        103.825438,
        1.2686517
      ],
      [
        103.8255836,
        1.2683577
      ],
      [
        103.8258028,
        1.2679818
      ],
      [
        103.8259091,
        1.2677962
      ],
      [
        103.8259895,
        1.2676634
      ],
      [
        103.8260485,
        1.2675652
      ],
      [
        103.8261123,
        1.2674689
      ],
      [
        103.8261406,
        1.2674262
      ],
      [
        103.8261714,
        1.2673797
      ],
      [
        103.8262441,
        1.26727
      ],
      [
        103.8263096,
        1.2671878
      ],
      [
        103.8263333,
        1.2671581
      ],
      [
        103.8266239,
        1.2668569
      ],
      [
        103.8265039,
        1.2667581
      ],
      [
        103.826454,
        1.2667177
      ],
      [
        103.8261142,
        1.2664532
      ],
      [
        103.8258826,
        1.2662734
      ],
      [
        103.8256933,
        1.2661315
      ],
      [
        103.8255903,
        1.2660622
      ],
      [
        103.8254601,
        1.2659828
      ],
      [
        103.8253476,
        1.2659251
      ],
      [
        103.8252205,
        1.2658775
      ],
      [
        103.8250294,
        1.2658196
      ],
      [
        103.8250017,
        1.2658117
      ],
      [
        103.8249449,
        1.265797
      ],
      [
        103.8248963,
        1.265782
      ],
      [
        103.824821,
        1.2657664
      ],
      [
        103.8247363,
        1.2657514
      ],
      [
        103.8240842,
        1.2656854
      ],
      [
        103.8238721,
        1.2656726
      ],
      [
        103.8237364,
        1.2656629
      ],
      [
        103.8236512,
        1.26566
      ],
      [
        103.8234631,
        1.2656537
      ],
      [
        103.8231396,
        1.2656364
      ],
      [
        103.8228403,
        1.2656187
      ],
      [
        103.8223877,
        1.2655941
      ],
      [
        103.8218237,
        1.2655636
      ],
      [
        103.8214414,
        1.265544
      ],
      [
        103.8213729,
        1.2655402
      ],
      [
        103.8213564,
        1.2655393
      ],
      [
        103.8209473,
        1.2655297
      ],
      [
        103.8208436,
        1.2655305
      ],
      [
        103.8207371,
        1.2655315
      ],
      [
        103.8206881,
        1.2655321
      ],
      [
        103.8204346,
        1.2655479
      ],
      [
        103.820259,
        1.2655697
      ],
      [
        103.8201036,
        1.2656049
      ],
      [
        103.8200556,
        1.2656177
      ],
      [
        103.8199563,
        1.2656443
      ],
      [
        103.8196811,
        1.2657397
      ],
      [
        103.8195664,
        1.2657846
      ],
      [
        103.8193218,
        1.2659046
      ],
      [
        103.8191927,
        1.26598
      ],
      [
        103.8189554,
        1.266137
      ],
      [
        103.8186964,
        1.2663111
      ],
      [
        103.8184396,
        1.2664852
      ],
      [
        103.818364,
        1.2665423
      ],
      [
        103.8182929,
        1.2665894
      ],
      [
        103.8181949,
        1.2666545
      ],
      [
        103.8177632,
        1.2669119
      ],
      [
        103.8177115,
        1.2669388
      ],
      [
        103.8172631,
        1.2671984
      ],
      [
        103.8162983,
        1.2677798
      ],
      [
        103.8162293,
        1.2678185
      ],
      [
        103.8161848,
        1.2678435
      ],
      [
        103.8158809,
        1.2680062
      ],
      [
        103.8153673,
        1.2682742
      ],
      [
        103.8148257,
        1.2685518
      ],
      [
        103.8145566,
        1.2686992
      ],
      [
        103.8140104,
        1.2690395
      ],
      [
        103.8134324,
        1.2694258
      ],
      [
        103.8132904,
        1.2695081
      ],
      [
        103.8131718,
        1.2695883
      ],
      [
        103.8127423,
        1.2698888
      ],
      [
        103.8124088,
        1.2701097
      ],
      [
        103.8121882,
        1.2702514
      ],
      [
        103.8121413,
        1.270279
      ],
      [
        103.8116494,
        1.2705755
      ],
      [
        103.8113238,
        1.2707011
      ],
      [
        103.8112381,
        1.2707389
      ],
      [
        103.8111409,
        1.2707631
      ],
      [
        103.8108932,
        1.2707904
      ],
      [
        103.8106155,
        1.270821
      ],
      [
        103.8101539,
        1.2708491
      ],
      [
        103.8100945,
        1.2708527
      ],
      [
        103.8098401,
        1.2708646
      ],
      [
        103.8093407,
        1.2708927
      ],
      [
        103.8091832,
        1.2709016
      ],
      [
        103.8091771,
        1.2709019
      ],
      [
        103.8087413,
        1.2709531
      ],
      [
        103.8084602,
        1.2709877
      ],
      [
        103.8082305,
        1.2710159
      ],
      [
        103.8081185,
        1.2710325
      ],
      [
        103.807918,
        1.2710727
      ],
      [
        103.8073883,
        1.2711812
      ],
      [
        103.8068778,
        1.2713696
      ],
      [
        103.8065343,
        1.2715143
      ],
      [
        103.8060986,
        1.2716899
      ],
      [
        103.8055097,
        1.2719273
      ],
      [
        103.8046083,
        1.2722703
      ],
      [
        103.8041513,
        1.2723969
      ],
      [
        103.8038838,
        1.2724424
      ],
      [
        103.8033891,
        1.2724951
      ],
      [
        103.8028526,
        1.2725318
      ],
      [
        103.8027603,
        1.2725338
      ],
      [
        103.8024188,
        1.2725519
      ],
      [
        103.8023064,
        1.2725626
      ],
      [
        103.8022235,
        1.272566
      ],
      [
        103.8021823,
        1.2727718
      ],
      [
        103.8021599,
        1.2728562
      ],
      [
        103.802083,
        1.273283
      ],
      [
        103.8020495,
        1.2735287
      ],
      [
        103.8020173,
        1.273778
      ],
      [
        103.802006,
        1.2738472
      ],
      [
        103.8019965,
        1.2739608
      ],
      [
        103.8019901,
        1.2740381
      ],
      [
        103.8019945,
        1.2741045
      ],
      [
        103.8019868,
        1.2742012
      ],
      [
        103.8019586,
        1.2745033
      ],
      [
        103.801929,
        1.2747922
      ],
      [
        103.8019259,
        1.2749133
      ],
      [
        103.8019389,
        1.2752908
      ],
      [
        103.8019465,
        1.2753896
      ],
      [
        103.801974,
        1.275568
      ],
      [
        103.802024,
        1.2757792
      ],
      [
        103.8020655,
        1.2759116
      ],
      [
        103.8020924,
        1.2760016
      ],
      [
        103.8021119,
        1.2760585
      ],
      [
        103.8022527,
        1.2764701
      ],
      [
        103.8022847,
        1.27656
      ],
      [
        103.8024409,
        1.2769925
      ],
      [
        103.8025228,
        1.2772139
      ],
      [
        103.8025484,
        1.2772883
      ],
      [
        103.8025677,
        1.2773413
      ],
      [
        103.802601,
        1.2774329
      ],
      [
        103.8026796,
        1.2776459
      ],
      [
        103.8028448,
        1.2781154
      ],
      [
        103.8029343,
        1.2783626
      ],
      [
        103.8030164,
        1.2785892
      ],
      [
        103.8030452,
        1.2788472
      ],
      [
        103.8030245,
        1.2791046
      ],
      [
        103.8028559,
        1.2795489
      ],
      [
        103.8027524,
        1.2797668
      ],
      [
        103.8027069,
        1.2798626
      ],
      [
        103.802567,
        1.2801101
      ],
      [
        103.8024588,
        1.2803103
      ],
      [
        103.8023541,
        1.2805329
      ],
      [
        103.8022345,
        1.2807889
      ],
      [
        103.8020146,
        1.2812448
      ],
      [
        103.8019801,
        1.2813145
      ],
      [
        103.8019519,
        1.2813635
      ],
      [
        103.8018442,
        1.281564
      ],
      [
        103.8016252,
        1.2819719
      ],
      [
        103.8013591,
        1.2824832
      ],
      [
        103.8012565,
        1.2826806
      ],
      [
        103.8011697,
        1.2829155
      ],
      [
        103.8011399,
        1.2830817
      ],
      [
        103.8010561,
        1.2832805
      ],
      [
        103.8010038,
        1.2833797
      ],
      [
        103.8009826,
        1.2834235
      ],
      [
        103.8009129,
        1.2835166
      ],
      [
        103.8008344,
        1.2836158
      ],
      [
        103.8007102,
        1.2837382
      ],
      [
        103.8001525,
        1.2841032
      ],
      [
        103.799729,
        1.2843692
      ],
      [
        103.7993857,
        1.2846095
      ],
      [
        103.7988982,
        1.2850005
      ],
      [
        103.7987631,
        1.2851236
      ],
      [
        103.7987088,
        1.2851733
      ],
      [
        103.7986927,
        1.2851927
      ],
      [
        103.7986833,
        1.2852101
      ],
      [
        103.7986739,
        1.2852255
      ],
      [
        103.7986695,
        1.2852416
      ],
      [
        103.7986652,
        1.2852567
      ],
      [
        103.7986637,
        1.2852693
      ],
      [
        103.7980644,
        1.2856717
      ],
      [
        103.7966797,
        1.2866012
      ],
      [
        103.7963672,
        1.2867782
      ],
      [
        103.7961352,
        1.2869216
      ],
      [
        103.7950771,
        1.2875029
      ],
      [
        103.7950127,
        1.2875028
      ],
      [
        103.7949671,
        1.2875088
      ],
      [
        103.7946358,
        1.2876604
      ],
      [
        103.7941214,
        1.2879176
      ],
      [
        103.7939823,
        1.2879897
      ],
      [
        103.7938445,
        1.2880611
      ],
      [
        103.7937458,
        1.2881123
      ],
      [
        103.7933642,
        1.2883225
      ],
      [
        103.7931703,
        1.2884518
      ],
      [
        103.7930028,
        1.2885716
      ],
      [
        103.7927737,
        1.288755
      ],
      [
        103.7927131,
        1.2888084
      ],
      [
        103.7926628,
        1.2888461
      ],
      [
        103.7926151,
        1.2888848
      ],
      [
        103.7925883,
        1.2889065
      ],
      [
        103.7925006,
        1.2889774
      ],
      [
        103.7922922,
        1.2891513
      ],
      [
        103.7920092,
        1.2893938
      ],
      [
        103.7917709,
        1.289598
      ],
      [
        103.791636,
        1.2897136
      ],
      [
        103.7914518,
        1.2898714
      ],
      [
        103.791095,
        1.2901772
      ],
      [
        103.7904426,
        1.2906334
      ],
      [
        103.789756,
        1.2911522
      ],
      [
        103.7887097,
        1.2918265
      ],
      [
        103.788507,
        1.2919468
      ],
      [
        103.7877731,
        1.2924602
      ],
      [
        103.7876983,
        1.2924526
      ],
      [
        103.7875956,
        1.2924873
      ],
      [
        103.7874784,
        1.2925722
      ],
      [
        103.7871675,
        1.292796
      ],
      [
        103.7870176,
        1.2928773
      ],
      [
        103.7866906,
        1.2929557
      ],
      [
        103.7865388,
        1.2929654
      ],
      [
        103.78641,
        1.2929481
      ],
      [
        103.7861685,
        1.2929098
      ],
      [
        103.7859344,
        1.2928837
      ],
      [
        103.7856402,
        1.2929393
      ],
      [
        103.7854158,
        1.2930891
      ],
      [
        103.7853581,
        1.2931407
      ],
      [
        103.7853095,
        1.293181
      ],
      [
        103.7852133,
        1.293272
      ],
      [
        103.7852735,
        1.2933356
      ],
      [
        103.7853407,
        1.2934054
      ],
      [
        103.7854522,
        1.2935367
      ],
      [
        103.7855337,
        1.2936571
      ],
      [
        103.785675,
        1.2939099
      ],
      [
        103.7857443,
        1.2940921
      ],
      [
        103.7857922,
        1.2942817
      ],
      [
        103.7858127,
        1.2943897
      ],
      [
        103.7858126,
        1.2944388
      ],
      [
        103.7858159,
        1.2945734
      ],
      [
        103.7858028,
        1.294831
      ],
      [
        103.7857723,
        1.29517
      ],
      [
        103.7857428,
        1.2954668
      ],
      [
        103.7857381,
        1.2955427
      ],
      [
        103.7857366,
        1.2955675
      ],
      [
        103.7856915,
        1.2961
      ],
      [
        103.7856602,
        1.2964808
      ],
      [
        103.785621,
        1.2969304
      ],
      [
        103.7856089,
        1.296997
      ],
      [
        103.7856054,
        1.2970196
      ],
      [
        103.7855387,
        1.2974201
      ],
      [
        103.7854278,
        1.2979153
      ],
      [
        103.7854184,
        1.2979572
      ],
      [
        103.785375,
        1.2981911
      ],
      [
        103.7853227,
        1.2985314
      ],
      [
        103.7853193,
        1.2987699
      ],
      [
        103.7853016,
        1.2992566
      ],
      [
        103.7852967,
        1.2993197
      ],
      [
        103.7852898,
        1.2993503
      ],
      [
        103.7852799,
        1.2993839
      ],
      [
        103.78521,
        1.2995639
      ],
      [
        103.7849936,
        1.2997893
      ],
      [
        103.7848467,
        1.2999467
      ],
      [
        103.7847483,
        1.3000507
      ],
      [
        103.7845659,
        1.3002434
      ],
      [
        103.7845239,
        1.3002904
      ],
      [
        103.7844579,
        1.3003642
      ],
      [
        103.7844019,
        1.300429
      ],
      [
        103.7843496,
        1.3004969
      ],
      [
        103.784165,
        1.300724
      ],
      [
        103.7840582,
        1.3008457
      ],
      [
        103.7838399,
        1.3011038
      ],
      [
        103.7837236,
        1.3012425
      ],
      [
        103.7832936,
        1.3017679
      ],
      [
        103.7832578,
        1.3018157
      ],
      [
        103.7831933,
        1.3019037
      ],
      [
        103.782729,
        1.3025193
      ],
      [
        103.782331,
        1.3031101
      ],
      [
        103.7822838,
        1.3031765
      ],
      [
        103.7822158,
        1.3032654
      ],
      [
        103.7819497,
        1.3036242
      ],
      [
        103.7818155,
        1.3038045
      ],
      [
        103.7817411,
        1.3039077
      ],
      [
        103.7816879,
        1.3039741
      ],
      [
        103.7813791,
        1.3044198
      ],
      [
        103.7809809,
        1.3050237
      ],
      [
        103.7808279,
        1.3052682
      ],
      [
        103.7806511,
        1.3055109
      ],
      [
        103.7806157,
        1.3055607
      ],
      [
        103.7805653,
        1.305634
      ],
      [
        103.7806256,
        1.3056975
      ],
      [
        103.7806696,
        1.3057556
      ],
      [
        103.7809194,
        1.3060794
      ],
      [
        103.7810598,
        1.3062615
      ],
      [
        103.7812453,
        1.3064615
      ],
      [
        103.7813449,
        1.3065735
      ],
      [
        103.7816781,
        1.306921
      ],
      [
        103.7817505,
        1.3069939
      ],
      [
        103.781932,
        1.3071985
      ],
      [
        103.7820443,
        1.3073342
      ],
      [
        103.7821649,
        1.3075003
      ],
      [
        103.7822742,
        1.3076403
      ],
      [
        103.7824328,
        1.307845
      ],
      [
        103.7825578,
        1.3080064
      ],
      [
        103.7828729,
        1.3084613
      ],
      [
        103.7829386,
        1.3085566
      ],
      [
        103.7829951,
        1.3086384
      ],
      [
        103.7829329,
        1.3086777
      ],
      [
        103.7823668,
        1.3090351
      ],
      [
        103.7822207,
        1.3091256
      ],
      [
        103.7821441,
        1.3091745
      ],
      [
        103.7819478,
        1.3093
      ],
      [
        103.781655,
        1.309468
      ],
      [
        103.7815205,
        1.3095467
      ],
      [
        103.7810683,
        1.3098115
      ],
      [
        103.7808005,
        1.3099869
      ],
      [
        103.7806813,
        1.3100541
      ],
      [
        103.7803669,
        1.3102512
      ],
      [
        103.7801414,
        1.310399
      ],
      [
        103.7800755,
        1.3104431
      ],
      [
        103.7798454,
        1.3105703
      ],
      [
        103.7794325,
        1.3107799
      ],
      [
        103.7792421,
        1.3108538
      ],
      [
        103.7789492,
        1.3109965
      ],
      [
        103.7786318,
        1.3111752
      ],
      [
        103.7785912,
        1.3112026
      ],
      [
        103.7784779,
        1.3112721
      ],
      [
        103.7781067,
        1.3115095
      ],
      [
        103.7778774,
        1.3116705
      ],
      [
        103.7774485,
        1.3119542
      ],
      [
        103.7770988,
        1.3121414
      ],
      [
        103.7770134,
        1.3121822
      ],
      [
        103.77678,
        1.3122808
      ],
      [
        103.7763578,
        1.3123759
      ],
      [
        103.7760991,
        1.312396
      ],
      [
        103.7757196,
        1.3124121
      ],
      [
        103.7753476,
        1.3123917
      ],
      [
        103.7750715,
        1.3123499
      ],
      [
        103.7749122,
        1.3123296
      ],
      [
        103.7747191,
        1.3123129
      ],
      [
        103.7741974,
        1.3122553
      ],
      [
        103.773667,
        1.3121902
      ],
      [
        103.7735745,
        1.3121788
      ],
      [
        103.7734433,
        1.3121655
      ],
      [
        103.7730972,
        1.3121227
      ],
      [
        103.7727639,
        1.3120702
      ],
      [
        103.7725151,
        1.3120429
      ],
      [
        103.7724537,
        1.3120362
      ],
      [
        103.7723851,
        1.3120287
      ],
      [
        103.7722121,
        1.3120098
      ],
      [
        103.7720542,
        1.3119925
      ],
      [
        103.7717336,
        1.3119574
      ],
      [
        103.7710808,
        1.3118964
      ],
      [
        103.7707602,
        1.3118665
      ],
      [
        103.7702448,
        1.3118184
      ],
      [
        103.7698385,
        1.3117804
      ],
      [
        103.7693929,
        1.3117388
      ],
      [
        103.7691973,
        1.3117278
      ],
      [
        103.7688831,
        1.3117322
      ],
      [
        103.7686666,
        1.31175
      ],
      [
        103.7684675,
        1.3117806
      ],
      [
        103.768263,
        1.3118263
      ],
      [
        103.7681096,
        1.3118723
      ],
      [
        103.7679729,
        1.311919
      ],
      [
        103.7679265,
        1.3119365
      ],
      [
        103.7678743,
        1.3119563
      ],
      [
        103.76775,
        1.3120032
      ],
      [
        103.7676648,
        1.3120352
      ],
      [
        103.7674365,
        1.3121332
      ],
      [
        103.7673028,
        1.312199
      ],
      [
        103.7669441,
        1.3124242
      ],
      [
        103.7667664,
        1.3125485
      ],
      [
        103.7667204,
        1.3125779
      ],
      [
        103.766562,
        1.3127013
      ],
      [
        103.7665296,
        1.3127326
      ],
      [
        103.7664882,
        1.3127731
      ],
      [
        103.7664641,
        1.3127989
      ],
      [
        103.7664173,
        1.3128473
      ],
      [
        103.7663613,
        1.3129051
      ],
      [
        103.7662235,
        1.3130531
      ],
      [
        103.7661051,
        1.3131898
      ],
      [
        103.7659635,
        1.3133603
      ],
      [
        103.7658411,
        1.3135288
      ],
      [
        103.7657361,
        1.3136821
      ],
      [
        103.7656546,
        1.3138253
      ],
      [
        103.7655577,
        1.3140042
      ],
      [
        103.765459,
        1.3142048
      ],
      [
        103.765316,
        1.3145368
      ],
      [
        103.7650798,
        1.3150862
      ],
      [
        103.7649907,
        1.3152954
      ],
      [
        103.764947,
        1.3153977
      ],
      [
        103.7647873,
        1.3157725
      ],
      [
        103.7647704,
        1.3158182
      ],
      [
        103.7647301,
        1.3159212
      ],
      [
        103.7646314,
        1.3158573
      ],
      [
        103.764383,
        1.315667
      ],
      [
        103.7643638,
        1.3156326
      ],
      [
        103.7643514,
        1.3155965
      ],
      [
        103.7643439,
        1.3155664
      ],
      [
        103.7643526,
        1.3155357
      ],
      [
        103.7644758,
        1.315297
      ],
      [
        103.76452,
        1.3152116
      ],
      [
        103.76452,
        1.3151815
      ],
      [
        103.7645106,
        1.315156
      ],
      [
        103.7644894,
        1.3151387
      ],
      [
        103.7641303,
        1.3149397
      ],
      [
        103.764107,
        1.3149216
      ],
      [
        103.7640907,
        1.3149021
      ],
      [
        103.7639237,
        1.3146836
      ]
    ]
  }
}