{
  "type": "Feature",
  "properties": {
    "relation": 1154928,
    "direction": "1",
    "fee": "yes",
    "from": "Bedok Interchange",
    "name": "Svc 168 (Bedok Interchange → Woodlands Interchange)",
    "name:en": "Svc 168 (Bedok Interchange → Woodlands Interchange)",
    "network": "Land Transport Authority",
    "network:short": "LTA",
    "network:wikidata": "Q3299279",
    "network:wikipedia": "en:Land Transport Authority",
    "operator": "SBS Transit",
    "operator:wikidata": "Q2661305",
    "operator:wikipedia": "en:SBS Transit",
    "public_transport:version": "2",
    "ref": "168",
    "route": "bus",
    "to": "Woodlands Interchange",
    "type": "route",
    "website": "https://www.sbstransit.com.sg/"
  },
  "geometry": {
    "type": "LineString",
    "coordinates": [
      [
        103.9287434,
        1.3243349
      ],
      [
        103.9286633,
        1.3246525
      ],
      [
        103.9285775,
        1.3249788
      ],
      [
        103.9285491,
        1.3251158
      ],
      [
        103.9285131,
        1.3252416
      ],
      [
        103.9284986,
        1.3253227
      ],
      [
        103.9286722,
        1.3253554
      ],
      [
        103.928857,
        1.3253939
      ],
      [
        103.9289667,
        1.3254191
      ],
      [
        103.9290742,
        1.3254496
      ],
      [
        103.9292107,
        1.3254998
      ],
      [
        103.9293081,
        1.3255439
      ],
      [
        103.929396,
        1.3255854
      ],
      [
        103.9295489,
        1.3256598
      ],
      [
        103.9295776,
        1.3256736
      ],
      [
        103.9297195,
        1.3257419
      ],
      [
        103.9297302,
        1.3257476
      ],
      [
        103.9297759,
        1.3257759
      ],
      [
        103.9297912,
        1.3257857
      ],
      [
        103.9298057,
        1.3257968
      ],
      [
        103.9298192,
        1.325809
      ],
      [
        103.9298316,
        1.3258223
      ],
      [
        103.9298428,
        1.3258366
      ],
      [
        103.9298529,
        1.3258518
      ],
      [
        103.9298617,
        1.3258677
      ],
      [
        103.9298691,
        1.3258843
      ],
      [
        103.9298751,
        1.3259015
      ],
      [
        103.9298797,
        1.3259191
      ],
      [
        103.9298829,
        1.325937
      ],
      [
        103.9298845,
        1.3259551
      ],
      [
        103.9298846,
        1.3259733
      ],
      [
        103.9298832,
        1.3259914
      ],
      [
        103.9298804,
        1.3260094
      ],
      [
        103.929876,
        1.326027
      ],
      [
        103.9298702,
        1.3260443
      ],
      [
        103.9297984,
        1.3262085
      ],
      [
        103.9296435,
        1.3265591
      ],
      [
        103.9296291,
        1.3265917
      ],
      [
        103.9296022,
        1.3266528
      ],
      [
        103.9296684,
        1.3266811
      ],
      [
        103.929711,
        1.3267009
      ],
      [
        103.9301952,
        1.3269306
      ],
      [
        103.9304529,
        1.3270503
      ],
      [
        103.9310258,
        1.3273166
      ],
      [
        103.9310624,
        1.3273336
      ],
      [
        103.931166,
        1.327375
      ],
      [
        103.931244,
        1.3274022
      ],
      [
        103.9313096,
        1.3274211
      ],
      [
        103.9318127,
        1.3275701
      ],
      [
        103.931935,
        1.3276026
      ],
      [
        103.9321588,
        1.3276475
      ],
      [
        103.9323601,
        1.3276822
      ],
      [
        103.9325302,
        1.3277109
      ],
      [
        103.9326276,
        1.3277215
      ],
      [
        103.9328214,
        1.3277445
      ],
      [
        103.9329612,
        1.3277546
      ],
      [
        103.9330687,
        1.3277597
      ],
      [
        103.9335646,
        1.3277722
      ],
      [
        103.9335934,
        1.3277729
      ],
      [
        103.9338299,
        1.327778
      ],
      [
        103.9340931,
        1.3277852
      ],
      [
        103.9342842,
        1.3277919
      ],
      [
        103.9345602,
        1.3278217
      ],
      [
        103.9348919,
        1.327869
      ],
      [
        103.9349995,
        1.3278833
      ],
      [
        103.9349724,
        1.3280191
      ],
      [
        103.9347919,
        1.3288919
      ],
      [
        103.9347124,
        1.3292783
      ],
      [
        103.9346217,
        1.3297168
      ],
      [
        103.9345768,
        1.3299365
      ],
      [
        103.9345633,
        1.3299975
      ],
      [
        103.9344584,
        1.3304729
      ],
      [
        103.9344299,
        1.330602
      ],
      [
        103.9342871,
        1.3312364
      ],
      [
        103.9342688,
        1.3313253
      ],
      [
        103.9342433,
        1.3314484
      ],
      [
        103.9342179,
        1.3315626
      ],
      [
        103.9342077,
        1.3316171
      ],
      [
        103.9341834,
        1.3317506
      ],
      [
        103.9340485,
        1.3324796
      ],
      [
        103.9340129,
        1.3326745
      ],
      [
        103.9339071,
        1.3332448
      ],
      [
        103.9338414,
        1.3336151
      ],
      [
        103.9338161,
        1.3337378
      ],
      [
        103.9337513,
        1.3340884
      ],
      [
        103.9337252,
        1.3342296
      ],
      [
        103.9336476,
        1.3346497
      ],
      [
        103.9336065,
        1.3348725
      ],
      [
        103.9335596,
        1.335126
      ],
      [
        103.933534,
        1.3352648
      ],
      [
        103.9334939,
        1.3354819
      ],
      [
        103.9334512,
        1.3356763
      ],
      [
        103.933372,
        1.3359824
      ],
      [
        103.9333179,
        1.3361849
      ],
      [
        103.9332358,
        1.3365163
      ],
      [
        103.9332107,
        1.3366225
      ],
      [
        103.9331887,
        1.3367146
      ],
      [
        103.9331562,
        1.336884
      ],
      [
        103.9331122,
        1.3370963
      ],
      [
        103.9330133,
        1.3376271
      ],
      [
        103.9329777,
        1.3377925
      ],
      [
        103.9329643,
        1.3378546
      ],
      [
        103.9329526,
        1.3379069
      ],
      [
        103.9329337,
        1.3380044
      ],
      [
        103.9330272,
        1.3380233
      ],
      [
        103.9330867,
        1.3380363
      ],
      [
        103.933365,
        1.3380975
      ],
      [
        103.9335434,
        1.3381484
      ],
      [
        103.9338016,
        1.3382322
      ],
      [
        103.9340182,
        1.3383167
      ],
      [
        103.9342508,
        1.3384172
      ],
      [
        103.934392,
        1.3384933
      ],
      [
        103.9344598,
        1.3385299
      ],
      [
        103.9345266,
        1.338568
      ],
      [
        103.9346142,
        1.338627
      ],
      [
        103.9347366,
        1.3387079
      ],
      [
        103.9348677,
        1.3388239
      ],
      [
        103.9350135,
        1.3389697
      ],
      [
        103.9351238,
        1.3390827
      ],
      [
        103.9352734,
        1.3392358
      ],
      [
        103.9353265,
        1.33929
      ],
      [
        103.935667,
        1.3396335
      ],
      [
        103.9357457,
        1.3397072
      ],
      [
        103.93599,
        1.3400186
      ],
      [
        103.9361412,
        1.3401883
      ],
      [
        103.9362676,
        1.3403381
      ],
      [
        103.9364513,
        1.3406194
      ],
      [
        103.9366379,
        1.3409034
      ],
      [
        103.9366982,
        1.3409979
      ],
      [
        103.9367493,
        1.3410779
      ],
      [
        103.9367723,
        1.3411141
      ],
      [
        103.9368524,
        1.3412456
      ],
      [
        103.937376,
        1.3422762
      ],
      [
        103.9377918,
        1.3430671
      ],
      [
        103.9378144,
        1.34311
      ],
      [
        103.9378675,
        1.343196
      ],
      [
        103.9378863,
        1.3432324
      ],
      [
        103.9380147,
        1.3434812
      ],
      [
        103.9381084,
        1.343681
      ],
      [
        103.9381885,
        1.3438573
      ],
      [
        103.9382347,
        1.3439994
      ],
      [
        103.9382612,
        1.344097
      ],
      [
        103.9383058,
        1.3443468
      ],
      [
        103.9383214,
        1.3446294
      ],
      [
        103.9383227,
        1.3446522
      ],
      [
        103.9383241,
        1.3446783
      ],
      [
        103.9383309,
        1.3448481
      ],
      [
        103.9384379,
        1.3448475
      ],
      [
        103.9384806,
        1.3448479
      ],
      [
        103.9386503,
        1.3448499
      ],
      [
        103.9394127,
        1.3448587
      ],
      [
        103.9395261,
        1.3448662
      ],
      [
        103.9396354,
        1.3448783
      ],
      [
        103.939837,
        1.3449101
      ],
      [
        103.9401382,
        1.3449669
      ],
      [
        103.9406584,
        1.345099
      ],
      [
        103.9407102,
        1.3451122
      ],
      [
        103.9408918,
        1.3451814
      ],
      [
        103.9412333,
        1.3453368
      ],
      [
        103.9415584,
        1.3454965
      ],
      [
        103.9419944,
        1.3457477
      ],
      [
        103.9421432,
        1.3458436
      ],
      [
        103.9421903,
        1.3458772
      ],
      [
        103.9422983,
        1.3459592
      ],
      [
        103.9423931,
        1.3460978
      ],
      [
        103.9424687,
        1.346235
      ],
      [
        103.942498,
        1.3463728
      ],
      [
        103.942503,
        1.3463966
      ],
      [
        103.9424897,
        1.3465565
      ],
      [
        103.9424438,
        1.346731
      ],
      [
        103.9423433,
        1.347028
      ],
      [
        103.9422523,
        1.3472253
      ],
      [
        103.9421734,
        1.3474417
      ],
      [
        103.9420938,
        1.3476753
      ],
      [
        103.9420742,
        1.3477327
      ],
      [
        103.9419788,
        1.3481368
      ],
      [
        103.9419441,
        1.3482837
      ],
      [
        103.941644,
        1.3495631
      ],
      [
        103.9416236,
        1.3496499
      ],
      [
        103.9415742,
        1.3498226
      ],
      [
        103.941527,
        1.3500722
      ],
      [
        103.9414863,
        1.3503241
      ],
      [
        103.9414707,
        1.3504302
      ],
      [
        103.9414164,
        1.3510617
      ],
      [
        103.9414165,
        1.3511217
      ],
      [
        103.9414097,
        1.3514397
      ],
      [
        103.9414012,
        1.351626
      ],
      [
        103.9413999,
        1.351688
      ],
      [
        103.9413955,
        1.3517953
      ],
      [
        103.9415453,
        1.3517928
      ],
      [
        103.9415925,
        1.3517936
      ],
      [
        103.9418173,
        1.3517757
      ],
      [
        103.9424323,
        1.3517736
      ],
      [
        103.942793,
        1.3517702
      ],
      [
        103.943013,
        1.3517689
      ],
      [
        103.9432076,
        1.3517683
      ],
      [
        103.9432755,
        1.3517687
      ],
      [
        103.9433491,
        1.3517691
      ],
      [
        103.9437039,
        1.351771
      ],
      [
        103.9438188,
        1.3517721
      ],
      [
        103.9440052,
        1.3517732
      ],
      [
        103.9441706,
        1.3517771
      ],
      [
        103.9443121,
        1.3517907
      ],
      [
        103.9443998,
        1.3518108
      ],
      [
        103.9445002,
        1.3518336
      ],
      [
        103.9445767,
        1.3518523
      ],
      [
        103.9446749,
        1.3518775
      ],
      [
        103.9449293,
        1.3519755
      ],
      [
        103.9451583,
        1.3521098
      ],
      [
        103.9452802,
        1.3521997
      ],
      [
        103.9454375,
        1.3523222
      ],
      [
        103.9455544,
        1.3524235
      ],
      [
        103.9455952,
        1.3524604
      ],
      [
        103.9456905,
        1.3525591
      ],
      [
        103.945815,
        1.3527085
      ],
      [
        103.945885,
        1.3528064
      ],
      [
        103.9459766,
        1.3529421
      ],
      [
        103.9460589,
        1.3531318
      ],
      [
        103.9461235,
        1.3533216
      ],
      [
        103.9461653,
        1.3534952
      ],
      [
        103.9461975,
        1.3536847
      ],
      [
        103.9462218,
        1.3538787
      ],
      [
        103.9462362,
        1.3540483
      ],
      [
        103.9462402,
        1.3543371
      ],
      [
        103.9462427,
        1.3544166
      ],
      [
        103.9462428,
        1.3544773
      ],
      [
        103.9462432,
        1.3548009
      ],
      [
        103.9462417,
        1.3552843
      ],
      [
        103.9462418,
        1.3553748
      ],
      [
        103.9462419,
        1.3555129
      ],
      [
        103.946242,
        1.3557171
      ],
      [
        103.9462407,
        1.3558696
      ],
      [
        103.9462396,
        1.3559916
      ],
      [
        103.9462387,
        1.3561753
      ],
      [
        103.9462365,
        1.3566002
      ],
      [
        103.9462362,
        1.3566594
      ],
      [
        103.9461147,
        1.3566608
      ],
      [
        103.9460532,
        1.3566597
      ],
      [
        103.9451057,
        1.3566572
      ],
      [
        103.9441307,
        1.3566516
      ],
      [
        103.9440589,
        1.3566557
      ],
      [
        103.9439544,
        1.3566642
      ],
      [
        103.9439096,
        1.3566642
      ],
      [
        103.9436117,
        1.3566811
      ],
      [
        103.9432688,
        1.3567465
      ],
      [
        103.9432214,
        1.3567555
      ],
      [
        103.9429827,
        1.3568802
      ],
      [
        103.9427457,
        1.3570571
      ],
      [
        103.9424835,
        1.3572886
      ],
      [
        103.9422902,
        1.3575619
      ],
      [
        103.9422158,
        1.3577182
      ],
      [
        103.942182,
        1.3578102
      ],
      [
        103.9421663,
        1.357868
      ],
      [
        103.9421197,
        1.3580835
      ],
      [
        103.942101,
        1.3582733
      ],
      [
        103.9420958,
        1.3583564
      ],
      [
        103.9420936,
        1.3584077
      ],
      [
        103.9420919,
        1.3584763
      ],
      [
        103.9420914,
        1.3585213
      ],
      [
        103.9420918,
        1.3585956
      ],
      [
        103.9420892,
        1.3588393
      ],
      [
        103.9420883,
        1.3589198
      ],
      [
        103.9420883,
        1.3590154
      ],
      [
        103.9420877,
        1.3590424
      ],
      [
        103.9420893,
        1.3593438
      ],
      [
        103.9420913,
        1.3596648
      ],
      [
        103.942069,
        1.3600104
      ],
      [
        103.941991,
        1.3601646
      ],
      [
        103.9419483,
        1.360199
      ],
      [
        103.9419086,
        1.360231
      ],
      [
        103.9417969,
        1.3603098
      ],
      [
        103.9411084,
        1.3603339
      ],
      [
        103.9401778,
        1.3603328
      ],
      [
        103.9397075,
        1.3603283
      ],
      [
        103.9394651,
        1.3603244
      ],
      [
        103.9393784,
        1.360323
      ],
      [
        103.9393006,
        1.3603217
      ],
      [
        103.9392302,
        1.3603206
      ],
      [
        103.9389862,
        1.3603167
      ],
      [
        103.9388228,
        1.3603216
      ],
      [
        103.9384372,
        1.3603215
      ],
      [
        103.9382098,
        1.3603109
      ],
      [
        103.9381309,
        1.36031
      ],
      [
        103.9380482,
        1.3603118
      ],
      [
        103.937927,
        1.360314
      ],
      [
        103.934769,
        1.3603422
      ],
      [
        103.9347346,
        1.3603424
      ],
      [
        103.9346194,
        1.3603466
      ],
      [
        103.9345472,
        1.3603447
      ],
      [
        103.9335165,
        1.360347
      ],
      [
        103.9326537,
        1.3603401
      ],
      [
        103.9323794,
        1.3603399
      ],
      [
        103.9318429,
        1.3603422
      ],
      [
        103.9314748,
        1.3603573
      ],
      [
        103.9311258,
        1.3603824
      ],
      [
        103.9310095,
        1.3603859
      ],
      [
        103.9308691,
        1.36039
      ],
      [
        103.9308688,
        1.3604692
      ],
      [
        103.9308658,
        1.3605558
      ],
      [
        103.9308675,
        1.360932
      ],
      [
        103.93086,
        1.3627895
      ],
      [
        103.9308596,
        1.3628858
      ],
      [
        103.930857,
        1.3635535
      ],
      [
        103.9308524,
        1.3651266
      ],
      [
        103.9308458,
        1.3654014
      ],
      [
        103.9308404,
        1.3655759
      ],
      [
        103.9308505,
        1.3659724
      ],
      [
        103.9308526,
        1.3660536
      ],
      [
        103.930856,
        1.3661885
      ],
      [
        103.9308578,
        1.3662579
      ],
      [
        103.9308573,
        1.3665367
      ],
      [
        103.9308557,
        1.3670551
      ],
      [
        103.9308526,
        1.3673671
      ],
      [
        103.9308438,
        1.3675639
      ],
      [
        103.9308198,
        1.3679227
      ],
      [
        103.9307687,
        1.3683303
      ],
      [
        103.9307355,
        1.3685458
      ],
      [
        103.9306931,
        1.3687708
      ],
      [
        103.9306694,
        1.3688578
      ],
      [
        103.9306414,
        1.3689678
      ],
      [
        103.9306245,
        1.3690371
      ],
      [
        103.9304646,
        1.3700917
      ],
      [
        103.9303179,
        1.3709538
      ],
      [
        103.9302931,
        1.3711674
      ],
      [
        103.9302778,
        1.3713834
      ],
      [
        103.93028,
        1.3716056
      ],
      [
        103.9302866,
        1.3717907
      ],
      [
        103.9303028,
        1.3719559
      ],
      [
        103.9303346,
        1.3721144
      ],
      [
        103.9303927,
        1.3724085
      ],
      [
        103.9304431,
        1.3726176
      ],
      [
        103.9305153,
        1.3728791
      ],
      [
        103.9306963,
        1.3733698
      ],
      [
        103.930831,
        1.3737085
      ],
      [
        103.9310918,
        1.3742735
      ],
      [
        103.9312636,
        1.3746215
      ],
      [
        103.9313074,
        1.3748479
      ],
      [
        103.9313767,
        1.3750182
      ],
      [
        103.9313785,
        1.3751485
      ],
      [
        103.9313593,
        1.3752731
      ],
      [
        103.931314,
        1.3753827
      ],
      [
        103.9312857,
        1.3754202
      ],
      [
        103.9312511,
        1.3754558
      ],
      [
        103.9311623,
        1.375542
      ],
      [
        103.9309142,
        1.3756959
      ],
      [
        103.9305761,
        1.3759073
      ],
      [
        103.9300619,
        1.3763265
      ],
      [
        103.929402,
        1.3766347
      ],
      [
        103.9288074,
        1.3768904
      ],
      [
        103.9287261,
        1.3769238
      ],
      [
        103.9283746,
        1.3770771
      ],
      [
        103.9279799,
        1.3772289
      ],
      [
        103.9270692,
        1.3775292
      ],
      [
        103.9263805,
        1.3776969
      ],
      [
        103.9254981,
        1.3779036
      ],
      [
        103.9253205,
        1.377948
      ],
      [
        103.9239857,
        1.3782818
      ],
      [
        103.9234629,
        1.3784317
      ],
      [
        103.9229582,
        1.3785939
      ],
      [
        103.9221235,
        1.3789247
      ],
      [
        103.9211569,
        1.3793547
      ],
      [
        103.9207979,
        1.3795144
      ],
      [
        103.9201725,
        1.3799206
      ],
      [
        103.9196522,
        1.3802798
      ],
      [
        103.9191613,
        1.380646
      ],
      [
        103.9186983,
        1.3810513
      ],
      [
        103.9182442,
        1.3814794
      ],
      [
        103.9176142,
        1.3821329
      ],
      [
        103.9172936,
        1.3824654
      ],
      [
        103.9170228,
        1.3827463
      ],
      [
        103.9162684,
        1.3835502
      ],
      [
        103.9157682,
        1.3840883
      ],
      [
        103.915611,
        1.3842652
      ],
      [
        103.9154081,
        1.3845112
      ],
      [
        103.9153042,
        1.3845903
      ],
      [
        103.9147823,
        1.3852145
      ],
      [
        103.9136991,
        1.3864621
      ],
      [
        103.9135644,
        1.3866089
      ],
      [
        103.9131012,
        1.3871591
      ],
      [
        103.9120339,
        1.3884268
      ],
      [
        103.9110405,
        1.3895717
      ],
      [
        103.9104724,
        1.3902349
      ],
      [
        103.909899,
        1.3908993
      ],
      [
        103.9096577,
        1.3911781
      ],
      [
        103.909613,
        1.3912297
      ],
      [
        103.9092962,
        1.3915956
      ],
      [
        103.9087831,
        1.3921882
      ],
      [
        103.908216,
        1.392829
      ],
      [
        103.9080994,
        1.3929608
      ],
      [
        103.9075785,
        1.3935099
      ],
      [
        103.9070647,
        1.3940278
      ],
      [
        103.9069809,
        1.3941117
      ],
      [
        103.9065351,
        1.3945025
      ],
      [
        103.9059969,
        1.3948781
      ],
      [
        103.9053947,
        1.3952863
      ],
      [
        103.9046957,
        1.3956738
      ],
      [
        103.9044304,
        1.3959232
      ],
      [
        103.904243,
        1.3960123
      ],
      [
        103.9038377,
        1.3962275
      ],
      [
        103.903496,
        1.3964491
      ],
      [
        103.9034385,
        1.3964837
      ],
      [
        103.9033475,
        1.3965386
      ],
      [
        103.9032687,
        1.3965885
      ],
      [
        103.9029184,
        1.39681
      ],
      [
        103.9025961,
        1.3970569
      ],
      [
        103.9018796,
        1.3975026
      ],
      [
        103.9010835,
        1.397913
      ],
      [
        103.9007885,
        1.3980693
      ],
      [
        103.9002612,
        1.3982749
      ],
      [
        103.8993273,
        1.398601
      ],
      [
        103.8990237,
        1.3987529
      ],
      [
        103.8981044,
        1.3991481
      ],
      [
        103.8975929,
        1.3993455
      ],
      [
        103.8969913,
        1.3995558
      ],
      [
        103.8967884,
        1.3996777
      ],
      [
        103.8948464,
        1.400061
      ],
      [
        103.8945651,
        1.4001026
      ],
      [
        103.8935775,
        1.4002338
      ],
      [
        103.8921205,
        1.4003965
      ],
      [
        103.8907603,
        1.4006064
      ],
      [
        103.8887295,
        1.4008946
      ],
      [
        103.8876394,
        1.4010415
      ],
      [
        103.8864407,
        1.401145
      ],
      [
        103.8858461,
        1.4011964
      ],
      [
        103.8847794,
        1.4012562
      ],
      [
        103.8830305,
        1.4012793
      ],
      [
        103.8822846,
        1.4012599
      ],
      [
        103.8820929,
        1.4011928
      ],
      [
        103.8815729,
        1.401135
      ],
      [
        103.8804017,
        1.4009789
      ],
      [
        103.8770682,
        1.4009272
      ],
      [
        103.8759107,
        1.4008778
      ],
      [
        103.8747763,
        1.400882
      ],
      [
        103.8743239,
        1.4008474
      ],
      [
        103.8738173,
        1.4008023
      ],
      [
        103.8736045,
        1.4007606
      ],
      [
        103.8731649,
        1.4006844
      ],
      [
        103.8729397,
        1.400665
      ],
      [
        103.8727739,
        1.400646
      ],
      [
        103.8726031,
        1.4006386
      ],
      [
        103.872425,
        1.4006297
      ],
      [
        103.8723863,
        1.4006318
      ],
      [
        103.872238,
        1.4006451
      ],
      [
        103.872234,
        1.4008123
      ],
      [
        103.8722355,
        1.4014774
      ],
      [
        103.8722349,
        1.401583
      ],
      [
        103.8722315,
        1.4016554
      ],
      [
        103.8722195,
        1.4017337
      ],
      [
        103.8721876,
        1.4018411
      ],
      [
        103.8721413,
        1.4019254
      ],
      [
        103.8720643,
        1.4019756
      ],
      [
        103.8719753,
        1.4019908
      ],
      [
        103.8717207,
        1.4019594
      ],
      [
        103.8716598,
        1.4019519
      ],
      [
        103.8715843,
        1.4019631
      ],
      [
        103.8715195,
        1.4020085
      ],
      [
        103.8714957,
        1.4020561
      ],
      [
        103.8714771,
        1.4020934
      ],
      [
        103.8714487,
        1.4021784
      ],
      [
        103.8714449,
        1.4022597
      ],
      [
        103.8714602,
        1.4023383
      ],
      [
        103.8714888,
        1.4023686
      ],
      [
        103.8715558,
        1.402426
      ],
      [
        103.8716325,
        1.4024513
      ],
      [
        103.8716679,
        1.4024472
      ],
      [
        103.8717146,
        1.4024418
      ],
      [
        103.8717782,
        1.402417
      ],
      [
        103.8719773,
        1.402246
      ],
      [
        103.872094,
        1.4020921
      ],
      [
        103.8721967,
        1.4020435
      ],
      [
        103.8722796,
        1.4019897
      ],
      [
        103.8723395,
        1.4019117
      ],
      [
        103.8723583,
        1.4018551
      ],
      [
        103.8723587,
        1.4016548
      ],
      [
        103.8723587,
        1.4015877
      ],
      [
        103.8723622,
        1.401476
      ],
      [
        103.872385,
        1.4008164
      ],
      [
        103.8723863,
        1.4006318
      ],
      [
        103.872238,
        1.4006451
      ],
      [
        103.872178,
        1.4006509
      ],
      [
        103.8720501,
        1.4006632
      ],
      [
        103.8709924,
        1.4007461
      ],
      [
        103.870441,
        1.4007437
      ],
      [
        103.8697839,
        1.4006902
      ],
      [
        103.8694426,
        1.4006526
      ],
      [
        103.8692409,
        1.4006268
      ],
      [
        103.8690938,
        1.400608
      ],
      [
        103.8690136,
        1.4005977
      ],
      [
        103.8688766,
        1.4005802
      ],
      [
        103.8688005,
        1.4005704
      ],
      [
        103.8685585,
        1.4005525
      ],
      [
        103.8678818,
        1.4005292
      ],
      [
        103.8675745,
        1.4005247
      ],
      [
        103.8664703,
        1.4006273
      ],
      [
        103.865128,
        1.400689
      ],
      [
        103.8647532,
        1.4007062
      ],
      [
        103.8634936,
        1.4007703
      ],
      [
        103.8623712,
        1.4007432
      ],
      [
        103.8610434,
        1.4007382
      ],
      [
        103.8604561,
        1.4007364
      ],
      [
        103.8598665,
        1.4006967
      ],
      [
        103.8593467,
        1.4006344
      ],
      [
        103.8590116,
        1.4005748
      ],
      [
        103.8586307,
        1.4004877
      ],
      [
        103.857988,
        1.4003027
      ],
      [
        103.8572001,
        1.3999897
      ],
      [
        103.8569422,
        1.3998672
      ],
      [
        103.8566679,
        1.3997329
      ],
      [
        103.8564875,
        1.399648
      ],
      [
        103.8562652,
        1.3995274
      ],
      [
        103.8558686,
        1.3992939
      ],
      [
        103.8557543,
        1.3992133
      ],
      [
        103.8554442,
        1.3989904
      ],
      [
        103.8550867,
        1.3986809
      ],
      [
        103.8547958,
        1.3983957
      ],
      [
        103.8544805,
        1.3980813
      ],
      [
        103.854095,
        1.3977147
      ],
      [
        103.8539757,
        1.3975779
      ],
      [
        103.8538335,
        1.3974184
      ],
      [
        103.8535857,
        1.3971605
      ],
      [
        103.8532577,
        1.3968725
      ],
      [
        103.8528535,
        1.3966644
      ],
      [
        103.8524617,
        1.396504
      ],
      [
        103.8520798,
        1.3964283
      ],
      [
        103.8516949,
        1.39637
      ],
      [
        103.8502126,
        1.3962903
      ],
      [
        103.8495177,
        1.3962851
      ],
      [
        103.8489116,
        1.396328
      ],
      [
        103.8485411,
        1.3963569
      ],
      [
        103.8481724,
        1.3964187
      ],
      [
        103.8469872,
        1.3964856
      ],
      [
        103.8466464,
        1.3964966
      ],
      [
        103.8454794,
        1.3965124
      ],
      [
        103.8443778,
        1.3964631
      ],
      [
        103.8432771,
        1.3963676
      ],
      [
        103.8425274,
        1.3962836
      ],
      [
        103.8417778,
        1.3961479
      ],
      [
        103.8410006,
        1.3959943
      ],
      [
        103.8402249,
        1.3958174
      ],
      [
        103.8398896,
        1.3957317
      ],
      [
        103.8387061,
        1.3954127
      ],
      [
        103.8382083,
        1.3952974
      ],
      [
        103.837097,
        1.3950181
      ],
      [
        103.8369945,
        1.3949912
      ],
      [
        103.8358501,
        1.3947137
      ],
      [
        103.8317813,
        1.3936906
      ],
      [
        103.8309532,
        1.3934466
      ],
      [
        103.8306432,
        1.3933697
      ],
      [
        103.8304391,
        1.3933149
      ],
      [
        103.8286453,
        1.3929805
      ],
      [
        103.827894,
        1.3928989
      ],
      [
        103.8265327,
        1.3928225
      ],
      [
        103.8249998,
        1.3928536
      ],
      [
        103.8246161,
        1.3929001
      ],
      [
        103.824278,
        1.3929352
      ],
      [
        103.823767,
        1.3930007
      ],
      [
        103.8226229,
        1.3931909
      ],
      [
        103.8219531,
        1.3933537
      ],
      [
        103.821447,
        1.3934918
      ],
      [
        103.8206789,
        1.3937069
      ],
      [
        103.8199334,
        1.3939352
      ],
      [
        103.8189774,
        1.3942152
      ],
      [
        103.8188101,
        1.3942647
      ],
      [
        103.8180905,
        1.3944778
      ],
      [
        103.8176819,
        1.3945906
      ],
      [
        103.817295,
        1.394695
      ],
      [
        103.8169475,
        1.3948015
      ],
      [
        103.8166235,
        1.3949217
      ],
      [
        103.8162876,
        1.3950564
      ],
      [
        103.8158901,
        1.3952808
      ],
      [
        103.8156962,
        1.3954085
      ],
      [
        103.8153509,
        1.3956742
      ],
      [
        103.8150334,
        1.3959566
      ],
      [
        103.8148777,
        1.3961071
      ],
      [
        103.8145858,
        1.3964561
      ],
      [
        103.8141871,
        1.3970468
      ],
      [
        103.8138523,
        1.3977072
      ],
      [
        103.813524,
        1.3986663
      ],
      [
        103.8131508,
        1.3997252
      ],
      [
        103.8128228,
        1.4005361
      ],
      [
        103.8123893,
        1.4014454
      ],
      [
        103.8122453,
        1.4017056
      ],
      [
        103.812042,
        1.402084
      ],
      [
        103.8118808,
        1.4023572
      ],
      [
        103.8113314,
        1.4032525
      ],
      [
        103.8108357,
        1.4040191
      ],
      [
        103.8103833,
        1.4045942
      ],
      [
        103.8097953,
        1.4052857
      ],
      [
        103.8095999,
        1.4054921
      ],
      [
        103.8093826,
        1.4057763
      ],
      [
        103.8086643,
        1.4069529
      ],
      [
        103.8085684,
        1.4071265
      ],
      [
        103.807876,
        1.4087209
      ],
      [
        103.807729,
        1.4090718
      ],
      [
        103.8075708,
        1.4095075
      ],
      [
        103.806486,
        1.4123359
      ],
      [
        103.8059455,
        1.4136553
      ],
      [
        103.805566,
        1.414379
      ],
      [
        103.8052294,
        1.4148491
      ],
      [
        103.8046295,
        1.4155532
      ],
      [
        103.8041291,
        1.4160363
      ],
      [
        103.8035287,
        1.4165462
      ],
      [
        103.8033118,
        1.4167105
      ],
      [
        103.8031695,
        1.4168354
      ],
      [
        103.8023789,
        1.417532
      ],
      [
        103.8005608,
        1.4190248
      ],
      [
        103.7988181,
        1.4202802
      ],
      [
        103.7984517,
        1.4205029
      ],
      [
        103.7977431,
        1.4209382
      ],
      [
        103.7972737,
        1.421178
      ],
      [
        103.7968232,
        1.4214544
      ],
      [
        103.7963782,
        1.4217169
      ],
      [
        103.795523,
        1.4221757
      ],
      [
        103.7944662,
        1.4227435
      ],
      [
        103.792533,
        1.4237993
      ],
      [
        103.7918106,
        1.4241938
      ],
      [
        103.7915738,
        1.4243212
      ],
      [
        103.7908477,
        1.4247182
      ],
      [
        103.7900752,
        1.4250829
      ],
      [
        103.7888937,
        1.425524
      ],
      [
        103.7886469,
        1.4256138
      ],
      [
        103.787432,
        1.4259429
      ],
      [
        103.7868242,
        1.4260915
      ],
      [
        103.7867321,
        1.4260675
      ],
      [
        103.7866922,
        1.4260661
      ],
      [
        103.7866586,
        1.4260704
      ],
      [
        103.7866371,
        1.4260714
      ],
      [
        103.7865541,
        1.4260798
      ],
      [
        103.7862128,
        1.4261125
      ],
      [
        103.7858816,
        1.4261268
      ],
      [
        103.7857193,
        1.4261233
      ],
      [
        103.7855476,
        1.4261125
      ],
      [
        103.7854095,
        1.4260834
      ],
      [
        103.7852902,
        1.4260321
      ],
      [
        103.785192,
        1.4259598
      ],
      [
        103.785115,
        1.4258851
      ],
      [
        103.7850583,
        1.4258034
      ],
      [
        103.7850241,
        1.4257232
      ],
      [
        103.7849972,
        1.4256327
      ],
      [
        103.7849973,
        1.4255386
      ],
      [
        103.7849991,
        1.425469
      ],
      [
        103.7850165,
        1.42538
      ],
      [
        103.7850583,
        1.4252979
      ],
      [
        103.7851176,
        1.4252114
      ],
      [
        103.7851947,
        1.425136
      ],
      [
        103.7852759,
        1.4250833
      ],
      [
        103.7853527,
        1.4250512
      ],
      [
        103.7854454,
        1.4250243
      ],
      [
        103.7855588,
        1.425022
      ],
      [
        103.785672,
        1.425047
      ],
      [
        103.785768,
        1.4250868
      ],
      [
        103.7858505,
        1.4251407
      ],
      [
        103.785905,
        1.4251832
      ],
      [
        103.7859618,
        1.4252409
      ],
      [
        103.7860374,
        1.4253506
      ],
      [
        103.7861461,
        1.425626
      ],
      [
        103.7862212,
        1.4259336
      ],
      [
        103.7867707,
        1.4284829
      ],
      [
        103.7868115,
        1.4286405
      ],
      [
        103.7871455,
        1.4299296
      ],
      [
        103.7872462,
        1.4303181
      ],
      [
        103.7872674,
        1.4303997
      ],
      [
        103.7873215,
        1.4306085
      ],
      [
        103.7873773,
        1.4308238
      ],
      [
        103.7874475,
        1.4311101
      ],
      [
        103.7875071,
        1.4314019
      ],
      [
        103.7875461,
        1.4316045
      ],
      [
        103.7876661,
        1.432049
      ],
      [
        103.7876864,
        1.4321092
      ],
      [
        103.7877111,
        1.4322331
      ],
      [
        103.7877395,
        1.4323587
      ],
      [
        103.7878073,
        1.4325929
      ],
      [
        103.7880371,
        1.4333996
      ],
      [
        103.7880916,
        1.4336712
      ],
      [
        103.7881332,
        1.433773
      ],
      [
        103.7881996,
        1.434083
      ],
      [
        103.7882481,
        1.4342725
      ],
      [
        103.7883706,
        1.4347169
      ],
      [
        103.7883934,
        1.434808
      ],
      [
        103.7884269,
        1.4349419
      ],
      [
        103.7884529,
        1.4350458
      ],
      [
        103.7884859,
        1.4352027
      ],
      [
        103.7886379,
        1.4357794
      ],
      [
        103.7887514,
        1.4361926
      ],
      [
        103.7888367,
        1.4365078
      ],
      [
        103.7888843,
        1.4366905
      ],
      [
        103.7889224,
        1.4368413
      ],
      [
        103.7889508,
        1.4370495
      ],
      [
        103.7889703,
        1.4373151
      ],
      [
        103.7889758,
        1.4375518
      ],
      [
        103.78896,
        1.437678
      ],
      [
        103.7889434,
        1.4377827
      ],
      [
        103.7888605,
        1.4378794
      ],
      [
        103.7887934,
        1.4379338
      ],
      [
        103.7886951,
        1.4379463
      ],
      [
        103.7885017,
        1.4378995
      ],
      [
        103.7874578,
        1.4375079
      ],
      [
        103.7873585,
        1.4374731
      ],
      [
        103.7871182,
        1.437421
      ],
      [
        103.7849046,
        1.4365575
      ],
      [
        103.7850116,
        1.4362529
      ]
    ]
  }
}