{
  "type": "Feature",
  "properties": {
    "relation": 6622981,
    "direction": "2",
    "fee": "yes",
    "from": "Ang Mo Kio Interchange",
    "name": "Svc 169 (Ang Mo Kio Interchange → Woodlands Interchange)",
    "name:en": "Svc 169 (Ang Mo Kio Interchange → Woodlands Interchange)",
    "network": "Land Transport Authority",
    "network:short": "LTA",
    "network:wikidata": "Q3299279",
    "network:wikipedia": "en:Land Transport Authority",
    "operator": "Tower Transit Singapore",
    "operator:wikidata": "Q19898668",
    "operator:wikipedia": "en:Tower Transit Singapore",
    "public_transport:version": "2",
    "ref": "169",
    "route": "bus",
    "to": "Woodlands Interchange",
    "type": "route",
    "website": "https://towertransit.sg/"
  },
  "geometry": {
    "type": "LineString",
    "coordinates": [
      [
        103.84805,
        1.3698969
      ],
      [
        103.8480507,
        1.3699117
      ],
      [
        103.8480634,
        1.3699244
      ],
      [
        103.8482049,
        1.3699398
      ],
      [
        103.8482244,
        1.3699324
      ],
      [
        103.8482807,
        1.3698714
      ],
      [
        103.8483068,
        1.3698574
      ],
      [
        103.8483323,
        1.3698533
      ],
      [
        103.8485429,
        1.3698627
      ],
      [
        103.8487223,
        1.3698835
      ],
      [
        103.8489979,
        1.3700299
      ],
      [
        103.849065,
        1.3700672
      ],
      [
        103.8491698,
        1.3701314
      ],
      [
        103.849201,
        1.370086
      ],
      [
        103.8497207,
        1.369151
      ],
      [
        103.8497652,
        1.3690664
      ],
      [
        103.8498257,
        1.3689692
      ],
      [
        103.8497029,
        1.3689342
      ],
      [
        103.8495992,
        1.3689101
      ],
      [
        103.849163,
        1.3687975
      ],
      [
        103.8490109,
        1.3687656
      ],
      [
        103.848851,
        1.3687389
      ],
      [
        103.8486871,
        1.3687224
      ],
      [
        103.8484798,
        1.3687163
      ],
      [
        103.8484349,
        1.3687162
      ],
      [
        103.8482372,
        1.3687157
      ],
      [
        103.8479767,
        1.3687273
      ],
      [
        103.8474676,
        1.3687766
      ],
      [
        103.8472415,
        1.3688044
      ],
      [
        103.846925,
        1.3688408
      ],
      [
        103.8467876,
        1.368864
      ],
      [
        103.8464105,
        1.3689095
      ],
      [
        103.8462801,
        1.3689253
      ],
      [
        103.8457779,
        1.3689859
      ],
      [
        103.8456651,
        1.3690017
      ],
      [
        103.8455965,
        1.3690077
      ],
      [
        103.845492,
        1.3690278
      ],
      [
        103.845412,
        1.3690355
      ],
      [
        103.84504,
        1.3690699
      ],
      [
        103.8448665,
        1.3690926
      ],
      [
        103.8447676,
        1.3691055
      ],
      [
        103.8446671,
        1.3691186
      ],
      [
        103.8444921,
        1.3691391
      ],
      [
        103.8442661,
        1.3691655
      ],
      [
        103.8441655,
        1.3691769
      ],
      [
        103.8439938,
        1.3692055
      ],
      [
        103.8439146,
        1.3692109
      ],
      [
        103.8438516,
        1.3692191
      ],
      [
        103.8432283,
        1.3693
      ],
      [
        103.8428072,
        1.3693541
      ],
      [
        103.8427326,
        1.3693644
      ],
      [
        103.8425908,
        1.3693815
      ],
      [
        103.8422897,
        1.3694299
      ],
      [
        103.8418063,
        1.3694922
      ],
      [
        103.8414839,
        1.3695309
      ],
      [
        103.8409026,
        1.3696059
      ],
      [
        103.8408246,
        1.3696136
      ],
      [
        103.8398945,
        1.3697281
      ],
      [
        103.8395357,
        1.3697707
      ],
      [
        103.8392704,
        1.369802
      ],
      [
        103.8388973,
        1.3698346
      ],
      [
        103.8388764,
        1.3698353
      ],
      [
        103.838829,
        1.3698295
      ],
      [
        103.8386215,
        1.369817
      ],
      [
        103.8384089,
        1.3697981
      ],
      [
        103.8381156,
        1.3697348
      ],
      [
        103.8378265,
        1.3696358
      ],
      [
        103.8376363,
        1.36956
      ],
      [
        103.8374102,
        1.369423
      ],
      [
        103.8373013,
        1.3693533
      ],
      [
        103.837257,
        1.3693199
      ],
      [
        103.8371585,
        1.3692522
      ],
      [
        103.8370488,
        1.3691764
      ],
      [
        103.8369102,
        1.3690716
      ],
      [
        103.8367961,
        1.3689585
      ],
      [
        103.836607,
        1.3687493
      ],
      [
        103.8365183,
        1.3686327
      ],
      [
        103.83645,
        1.3685221
      ],
      [
        103.8363621,
        1.3683593
      ],
      [
        103.8362589,
        1.3681746
      ],
      [
        103.8361884,
        1.3679718
      ],
      [
        103.8360165,
        1.3674991
      ],
      [
        103.8358051,
        1.3668619
      ],
      [
        103.8357532,
        1.3667008
      ],
      [
        103.8357244,
        1.366607
      ],
      [
        103.8356766,
        1.3664769
      ],
      [
        103.8356187,
        1.3664934
      ],
      [
        103.8355446,
        1.3665196
      ],
      [
        103.8355077,
        1.3665329
      ],
      [
        103.8352876,
        1.3666072
      ],
      [
        103.8349995,
        1.3667044
      ],
      [
        103.8344418,
        1.3668987
      ],
      [
        103.8341626,
        1.3669891
      ],
      [
        103.8338788,
        1.3670795
      ],
      [
        103.833322,
        1.3672635
      ],
      [
        103.8330668,
        1.3673465
      ],
      [
        103.8328163,
        1.3674079
      ],
      [
        103.8323168,
        1.3675309
      ],
      [
        103.8320132,
        1.3676006
      ],
      [
        103.8316534,
        1.3676509
      ],
      [
        103.8310348,
        1.3677292
      ],
      [
        103.8309714,
        1.3677351
      ],
      [
        103.8309006,
        1.3677414
      ],
      [
        103.8293141,
        1.3678811
      ],
      [
        103.8288911,
        1.3679106
      ],
      [
        103.8284741,
        1.3679222
      ],
      [
        103.8284297,
        1.3679241
      ],
      [
        103.8282705,
        1.3679306
      ],
      [
        103.8282794,
        1.3680462
      ],
      [
        103.8283132,
        1.3685295
      ],
      [
        103.8283828,
        1.3692946
      ],
      [
        103.8284253,
        1.3697905
      ],
      [
        103.8284697,
        1.3702469
      ],
      [
        103.8284743,
        1.3703197
      ],
      [
        103.8284943,
        1.370524
      ],
      [
        103.8285038,
        1.3706711
      ],
      [
        103.8285113,
        1.3707773
      ],
      [
        103.8285295,
        1.3710578
      ],
      [
        103.8285366,
        1.3711449
      ],
      [
        103.8285466,
        1.3714361
      ],
      [
        103.8285538,
        1.3715571
      ],
      [
        103.8285565,
        1.3716296
      ],
      [
        103.828557,
        1.3718088
      ],
      [
        103.8285398,
        1.3726537
      ],
      [
        103.828526,
        1.372946
      ],
      [
        103.8285225,
        1.3730473
      ],
      [
        103.8284657,
        1.3742641
      ],
      [
        103.8283769,
        1.3758957
      ],
      [
        103.8283486,
        1.3765025
      ],
      [
        103.8282922,
        1.3773411
      ],
      [
        103.8282154,
        1.377698
      ],
      [
        103.8281938,
        1.3777883
      ],
      [
        103.8281688,
        1.3778827
      ],
      [
        103.8281519,
        1.3779374
      ],
      [
        103.8280892,
        1.3781605
      ],
      [
        103.8279939,
        1.3784125
      ],
      [
        103.8279234,
        1.3785559
      ],
      [
        103.8277038,
        1.3789886
      ],
      [
        103.8275684,
        1.3792673
      ],
      [
        103.8273499,
        1.3797041
      ],
      [
        103.827156,
        1.3800805
      ],
      [
        103.8268916,
        1.3805727
      ],
      [
        103.8265568,
        1.3812159
      ],
      [
        103.8264309,
        1.3814439
      ],
      [
        103.8261661,
        1.3819387
      ],
      [
        103.8261086,
        1.3820482
      ],
      [
        103.826073,
        1.3821159
      ],
      [
        103.8260348,
        1.3821887
      ],
      [
        103.8259725,
        1.3823109
      ],
      [
        103.8255941,
        1.3830476
      ],
      [
        103.8254068,
        1.3833479
      ],
      [
        103.8252576,
        1.383546
      ],
      [
        103.8251939,
        1.3836306
      ],
      [
        103.825015,
        1.38382
      ],
      [
        103.8249213,
        1.3839094
      ],
      [
        103.8248328,
        1.3839838
      ],
      [
        103.8246164,
        1.3841449
      ],
      [
        103.8245678,
        1.384175
      ],
      [
        103.8242329,
        1.3843915
      ],
      [
        103.8238319,
        1.3846689
      ],
      [
        103.8227385,
        1.3853283
      ],
      [
        103.8214496,
        1.386068
      ],
      [
        103.8212409,
        1.3862055
      ],
      [
        103.8210952,
        1.3863007
      ],
      [
        103.8204432,
        1.3867694
      ],
      [
        103.8194469,
        1.3874217
      ],
      [
        103.8189037,
        1.387782
      ],
      [
        103.8185582,
        1.3881356
      ],
      [
        103.8182886,
        1.3885338
      ],
      [
        103.8180668,
        1.3890315
      ],
      [
        103.8179649,
        1.3895383
      ],
      [
        103.8179542,
        1.3900773
      ],
      [
        103.8180146,
        1.3904259
      ],
      [
        103.8180542,
        1.3906547
      ],
      [
        103.8180736,
        1.3907315
      ],
      [
        103.8183406,
        1.3919387
      ],
      [
        103.8184914,
        1.3926173
      ],
      [
        103.8185598,
        1.3929267
      ],
      [
        103.818651,
        1.3933333
      ],
      [
        103.8186791,
        1.3934886
      ],
      [
        103.8187339,
        1.3937839
      ],
      [
        103.8187672,
        1.3939587
      ],
      [
        103.8187728,
        1.3942358
      ],
      [
        103.818771,
        1.3943093
      ],
      [
        103.8187718,
        1.3943767
      ],
      [
        103.8187752,
        1.3946897
      ],
      [
        103.8186963,
        1.3953608
      ],
      [
        103.8186557,
        1.3957594
      ],
      [
        103.8186426,
        1.395862
      ],
      [
        103.8185975,
        1.3962148
      ],
      [
        103.8184726,
        1.3966532
      ],
      [
        103.8184507,
        1.3967303
      ],
      [
        103.8184313,
        1.3967974
      ],
      [
        103.8184073,
        1.3968826
      ],
      [
        103.8183536,
        1.3969772
      ],
      [
        103.8182284,
        1.3973097
      ],
      [
        103.8180595,
        1.3977861
      ],
      [
        103.8178506,
        1.3983261
      ],
      [
        103.817766,
        1.3985553
      ],
      [
        103.8175553,
        1.3991265
      ],
      [
        103.8175003,
        1.3992954
      ],
      [
        103.8174293,
        1.3995555
      ],
      [
        103.8173574,
        1.3997899
      ],
      [
        103.8171942,
        1.4004284
      ],
      [
        103.8171299,
        1.4006496
      ],
      [
        103.8171231,
        1.4006754
      ],
      [
        103.8170964,
        1.4009418
      ],
      [
        103.8171054,
        1.4013144
      ],
      [
        103.8171585,
        1.4015569
      ],
      [
        103.817244,
        1.4017437
      ],
      [
        103.8173751,
        1.4020655
      ],
      [
        103.8174055,
        1.4021402
      ],
      [
        103.817446,
        1.4022218
      ],
      [
        103.8175775,
        1.4025127
      ],
      [
        103.8176722,
        1.4027456
      ],
      [
        103.817794,
        1.4030403
      ],
      [
        103.81789,
        1.4032646
      ],
      [
        103.8180782,
        1.4036124
      ],
      [
        103.8182073,
        1.4037873
      ],
      [
        103.8183332,
        1.403958
      ],
      [
        103.8184738,
        1.4041486
      ],
      [
        103.8185821,
        1.4042929
      ],
      [
        103.8187959,
        1.4045489
      ],
      [
        103.8188513,
        1.4046187
      ],
      [
        103.81889,
        1.4046675
      ],
      [
        103.819109,
        1.4049661
      ],
      [
        103.8194825,
        1.4055885
      ],
      [
        103.8196714,
        1.4059586
      ],
      [
        103.8197546,
        1.4061356
      ],
      [
        103.8201301,
        1.4068484
      ],
      [
        103.8204058,
        1.4073584
      ],
      [
        103.8205755,
        1.4077399
      ],
      [
        103.8206707,
        1.4079485
      ],
      [
        103.8208697,
        1.4083936
      ],
      [
        103.8212031,
        1.4090033
      ],
      [
        103.821621,
        1.4098527
      ],
      [
        103.8219714,
        1.4105751
      ],
      [
        103.8221997,
        1.4110645
      ],
      [
        103.8222398,
        1.4111507
      ],
      [
        103.8224123,
        1.4115205
      ],
      [
        103.8225949,
        1.4118979
      ],
      [
        103.8226313,
        1.4119886
      ],
      [
        103.8227064,
        1.4122151
      ],
      [
        103.8228177,
        1.4125743
      ],
      [
        103.8229469,
        1.4130726
      ],
      [
        103.8230027,
        1.4133292
      ],
      [
        103.8230175,
        1.4133984
      ],
      [
        103.8230469,
        1.4135352
      ],
      [
        103.8230568,
        1.4135759
      ],
      [
        103.8231505,
        1.4139531
      ],
      [
        103.8232254,
        1.4142896
      ],
      [
        103.823281,
        1.4145245
      ],
      [
        103.8236113,
        1.4158593
      ],
      [
        103.8237712,
        1.4164863
      ],
      [
        103.8237948,
        1.416583
      ],
      [
        103.8240617,
        1.4176781
      ],
      [
        103.8245305,
        1.4195773
      ],
      [
        103.8246251,
        1.4199702
      ],
      [
        103.8248579,
        1.4211807
      ],
      [
        103.8249461,
        1.4216904
      ],
      [
        103.8249872,
        1.421981
      ],
      [
        103.8249924,
        1.4220115
      ],
      [
        103.8250078,
        1.4221161
      ],
      [
        103.8250266,
        1.4222234
      ],
      [
        103.8251557,
        1.4227584
      ],
      [
        103.8252981,
        1.4234806
      ],
      [
        103.8254062,
        1.4240456
      ],
      [
        103.8255424,
        1.4247085
      ],
      [
        103.8256851,
        1.425134
      ],
      [
        103.8258168,
        1.4254501
      ],
      [
        103.8258407,
        1.4255075
      ],
      [
        103.8258678,
        1.4255627
      ],
      [
        103.8258782,
        1.4255841
      ],
      [
        103.8259984,
        1.425832
      ],
      [
        103.8261235,
        1.4260913
      ],
      [
        103.8261968,
        1.4262359
      ],
      [
        103.8262038,
        1.4262485
      ],
      [
        103.8262605,
        1.4263676
      ],
      [
        103.8263757,
        1.426322
      ],
      [
        103.8264608,
        1.4262915
      ],
      [
        103.8266492,
        1.4262238
      ],
      [
        103.8272992,
        1.4259049
      ],
      [
        103.8275917,
        1.4257628
      ],
      [
        103.8276432,
        1.4257327
      ],
      [
        103.8277109,
        1.4256932
      ],
      [
        103.8277457,
        1.4256729
      ],
      [
        103.828055,
        1.4254604
      ],
      [
        103.8282394,
        1.425321
      ],
      [
        103.8284186,
        1.4251855
      ],
      [
        103.8295533,
        1.4240886
      ],
      [
        103.8302326,
        1.4235253
      ],
      [
        103.8306996,
        1.4232331
      ],
      [
        103.8308992,
        1.4231327
      ],
      [
        103.8312786,
        1.4230241
      ],
      [
        103.8312892,
        1.4230216
      ],
      [
        103.8314358,
        1.4229791
      ],
      [
        103.8315387,
        1.4229491
      ],
      [
        103.8315897,
        1.4229453
      ],
      [
        103.8318193,
        1.4229011
      ],
      [
        103.8321237,
        1.422889
      ],
      [
        103.8325931,
        1.4228867
      ],
      [
        103.8328184,
        1.4228911
      ],
      [
        103.8333229,
        1.4229011
      ],
      [
        103.8339785,
        1.4229185
      ],
      [
        103.834236,
        1.4229319
      ],
      [
        103.8346401,
        1.4229596
      ],
      [
        103.8348638,
        1.4229614
      ],
      [
        103.8349407,
        1.4229603
      ],
      [
        103.8349452,
        1.4230272
      ],
      [
        103.8349595,
        1.42324
      ],
      [
        103.8350058,
        1.4237671
      ],
      [
        103.8350339,
        1.4240916
      ],
      [
        103.8350655,
        1.4247049
      ],
      [
        103.8350669,
        1.4247316
      ],
      [
        103.8350704,
        1.4248212
      ],
      [
        103.8350717,
        1.4248739
      ],
      [
        103.8351006,
        1.4260113
      ],
      [
        103.8351146,
        1.4262553
      ],
      [
        103.8351412,
        1.4267538
      ],
      [
        103.8351667,
        1.4272167
      ],
      [
        103.8351734,
        1.4274205
      ],
      [
        103.8351925,
        1.4281488
      ],
      [
        103.835203,
        1.428407
      ],
      [
        103.8352222,
        1.4287763
      ],
      [
        103.8352488,
        1.4292078
      ],
      [
        103.8352785,
        1.4296701
      ],
      [
        103.835291,
        1.4302011
      ],
      [
        103.8352969,
        1.4303601
      ],
      [
        103.8352987,
        1.4304762
      ],
      [
        103.835307,
        1.430599
      ],
      [
        103.8352931,
        1.4312331
      ],
      [
        103.835291,
        1.4312705
      ],
      [
        103.8352733,
        1.4314237
      ],
      [
        103.8352054,
        1.4317269
      ],
      [
        103.8350945,
        1.4322844
      ],
      [
        103.8350513,
        1.4324614
      ],
      [
        103.834812,
        1.4334999
      ],
      [
        103.8346988,
        1.4340029
      ],
      [
        103.8345602,
        1.434546
      ],
      [
        103.8345434,
        1.434612
      ],
      [
        103.8345135,
        1.4347305
      ],
      [
        103.834484,
        1.4348457
      ],
      [
        103.8342842,
        1.4356255
      ],
      [
        103.8341269,
        1.4360102
      ],
      [
        103.8339962,
        1.4363243
      ],
      [
        103.8338528,
        1.4365861
      ],
      [
        103.8337555,
        1.4367551
      ],
      [
        103.8335994,
        1.4370263
      ],
      [
        103.8333576,
        1.4374707
      ],
      [
        103.833257,
        1.4376191
      ],
      [
        103.8330374,
        1.437963
      ],
      [
        103.8330107,
        1.4380041
      ],
      [
        103.8329132,
        1.4381752
      ],
      [
        103.8328996,
        1.438199
      ],
      [
        103.8328063,
        1.4383425
      ],
      [
        103.8327744,
        1.4383931
      ],
      [
        103.8326718,
        1.4385532
      ],
      [
        103.832416,
        1.4389882
      ],
      [
        103.8313649,
        1.4407301
      ],
      [
        103.8312251,
        1.4409527
      ],
      [
        103.8308728,
        1.4415108
      ],
      [
        103.8308594,
        1.441532
      ],
      [
        103.8307982,
        1.4416282
      ],
      [
        103.8307805,
        1.441656
      ],
      [
        103.8305367,
        1.4420597
      ],
      [
        103.8305111,
        1.4420976
      ],
      [
        103.8304893,
        1.4421373
      ],
      [
        103.8303402,
        1.4424045
      ],
      [
        103.8299256,
        1.4431161
      ],
      [
        103.8298177,
        1.4432934
      ],
      [
        103.8295757,
        1.4436997
      ],
      [
        103.8295592,
        1.4437274
      ],
      [
        103.8294538,
        1.443899
      ],
      [
        103.8294119,
        1.443965
      ],
      [
        103.8291997,
        1.4442842
      ],
      [
        103.8290434,
        1.4445493
      ],
      [
        103.8289617,
        1.4446749
      ],
      [
        103.8287527,
        1.4449972
      ],
      [
        103.828651,
        1.4451644
      ],
      [
        103.8286234,
        1.4452081
      ],
      [
        103.8285886,
        1.4452701
      ],
      [
        103.8285061,
        1.4454156
      ],
      [
        103.8279989,
        1.4461982
      ],
      [
        103.8279503,
        1.4462652
      ],
      [
        103.827605,
        1.4467229
      ],
      [
        103.8274087,
        1.446983
      ],
      [
        103.8271333,
        1.4472862
      ],
      [
        103.826892,
        1.447532
      ],
      [
        103.8266859,
        1.4477019
      ],
      [
        103.8265072,
        1.4478649
      ],
      [
        103.8264737,
        1.4478978
      ],
      [
        103.8263256,
        1.4480387
      ],
      [
        103.8263676,
        1.4481346
      ],
      [
        103.8263925,
        1.4482012
      ],
      [
        103.8265205,
        1.4485441
      ],
      [
        103.8267057,
        1.4490097
      ],
      [
        103.8268081,
        1.4492179
      ],
      [
        103.827041,
        1.4495609
      ],
      [
        103.8272681,
        1.4498094
      ],
      [
        103.8274646,
        1.4500346
      ],
      [
        103.8275502,
        1.4500956
      ],
      [
        103.8276047,
        1.4501344
      ],
      [
        103.8277141,
        1.4502125
      ],
      [
        103.8278462,
        1.4503226
      ],
      [
        103.8279803,
        1.4504316
      ],
      [
        103.8283469,
        1.4506885
      ],
      [
        103.8286358,
        1.4509192
      ],
      [
        103.8287291,
        1.4509929
      ],
      [
        103.8288677,
        1.4511051
      ],
      [
        103.8292272,
        1.4513904
      ],
      [
        103.8294775,
        1.4516
      ],
      [
        103.829514,
        1.4516327
      ],
      [
        103.8295504,
        1.4516635
      ],
      [
        103.8296055,
        1.4517102
      ],
      [
        103.8296408,
        1.4517421
      ],
      [
        103.8299224,
        1.4519778
      ],
      [
        103.8304019,
        1.452383
      ],
      [
        103.8306067,
        1.4525318
      ],
      [
        103.8306941,
        1.452599
      ],
      [
        103.8312963,
        1.4530298
      ],
      [
        103.8316181,
        1.4532475
      ],
      [
        103.8316518,
        1.4533157
      ],
      [
        103.8316664,
        1.4533918
      ],
      [
        103.8316926,
        1.4535482
      ],
      [
        103.8316816,
        1.4536542
      ],
      [
        103.8313285,
        1.4543169
      ],
      [
        103.8307389,
        1.4552672
      ],
      [
        103.8304132,
        1.455807
      ],
      [
        103.8298384,
        1.4567272
      ],
      [
        103.8294588,
        1.4573309
      ],
      [
        103.8294333,
        1.4573694
      ],
      [
        103.828735,
        1.4583769
      ],
      [
        103.8286024,
        1.4585402
      ],
      [
        103.8285161,
        1.458657
      ],
      [
        103.8282581,
        1.4589021
      ],
      [
        103.8281151,
        1.4589993
      ],
      [
        103.8279344,
        1.4591151
      ],
      [
        103.8278014,
        1.4591918
      ],
      [
        103.8276899,
        1.459249
      ],
      [
        103.8276551,
        1.4592604
      ],
      [
        103.8273693,
        1.4593535
      ],
      [
        103.8273353,
        1.4593646
      ],
      [
        103.8269367,
        1.4594106
      ],
      [
        103.8267496,
        1.4594066
      ],
      [
        103.8264797,
        1.4593725
      ],
      [
        103.8262785,
        1.4593211
      ],
      [
        103.8259265,
        1.4592371
      ],
      [
        103.8258597,
        1.4592171
      ],
      [
        103.8257024,
        1.45917
      ],
      [
        103.8254839,
        1.4591014
      ],
      [
        103.8253526,
        1.4590651
      ],
      [
        103.8251038,
        1.4589908
      ],
      [
        103.8249508,
        1.458945
      ],
      [
        103.8245599,
        1.4588383
      ],
      [
        103.8239123,
        1.4586741
      ],
      [
        103.8237324,
        1.4586503
      ],
      [
        103.8236234,
        1.458649
      ],
      [
        103.8233561,
        1.4586686
      ],
      [
        103.8229202,
        1.4588011
      ],
      [
        103.8227604,
        1.4588496
      ],
      [
        103.8227168,
        1.4588738
      ],
      [
        103.8225227,
        1.4589818
      ],
      [
        103.8216853,
        1.4594637
      ],
      [
        103.8212292,
        1.4597274
      ],
      [
        103.820975,
        1.4598724
      ],
      [
        103.8205573,
        1.4601128
      ],
      [
        103.8202268,
        1.4603261
      ],
      [
        103.8198877,
        1.4605421
      ],
      [
        103.8198153,
        1.4605936
      ],
      [
        103.8194264,
        1.4608772
      ],
      [
        103.8192273,
        1.4610268
      ],
      [
        103.8189702,
        1.4612177
      ],
      [
        103.8187778,
        1.4613639
      ],
      [
        103.8184442,
        1.4616039
      ],
      [
        103.8181952,
        1.4618023
      ],
      [
        103.8179542,
        1.4619877
      ],
      [
        103.8176377,
        1.4622166
      ],
      [
        103.8173531,
        1.4624458
      ],
      [
        103.816989,
        1.4627297
      ],
      [
        103.8167779,
        1.4628836
      ],
      [
        103.8167055,
        1.4629254
      ],
      [
        103.8164933,
        1.4630784
      ],
      [
        103.8163005,
        1.4631998
      ],
      [
        103.8161489,
        1.4632923
      ],
      [
        103.8160046,
        1.4633674
      ],
      [
        103.8158153,
        1.4634608
      ],
      [
        103.8155828,
        1.4635581
      ],
      [
        103.8152613,
        1.4636747
      ],
      [
        103.81496,
        1.4637624
      ],
      [
        103.8146481,
        1.4638335
      ],
      [
        103.8141608,
        1.4638892
      ],
      [
        103.8139676,
        1.4639003
      ],
      [
        103.813727,
        1.4639014
      ],
      [
        103.8134405,
        1.4638909
      ],
      [
        103.8131405,
        1.4638653
      ],
      [
        103.8128986,
        1.463829
      ],
      [
        103.8125205,
        1.4637534
      ],
      [
        103.8122732,
        1.4636841
      ],
      [
        103.8121834,
        1.4636442
      ],
      [
        103.8120835,
        1.4635964
      ],
      [
        103.8117056,
        1.4634473
      ],
      [
        103.8107089,
        1.4629384
      ],
      [
        103.8104573,
        1.4628187
      ],
      [
        103.8103647,
        1.462778
      ],
      [
        103.8099987,
        1.4626028
      ],
      [
        103.8097307,
        1.4624584
      ],
      [
        103.8096245,
        1.462406
      ],
      [
        103.8095069,
        1.4623276
      ],
      [
        103.8094564,
        1.4623021
      ],
      [
        103.8091991,
        1.4621714
      ],
      [
        103.8089518,
        1.4620468
      ],
      [
        103.8072829,
        1.4612061
      ],
      [
        103.806858,
        1.4609742
      ],
      [
        103.8061935,
        1.4606439
      ],
      [
        103.8059963,
        1.4605406
      ],
      [
        103.8057829,
        1.4604302
      ],
      [
        103.8053271,
        1.4601806
      ],
      [
        103.8052872,
        1.4601617
      ],
      [
        103.8051642,
        1.4600914
      ],
      [
        103.8050764,
        1.4600382
      ],
      [
        103.8049087,
        1.4599151
      ],
      [
        103.8048287,
        1.4598483
      ],
      [
        103.8047062,
        1.4597462
      ],
      [
        103.8044072,
        1.4594781
      ],
      [
        103.8042704,
        1.459336
      ],
      [
        103.8038869,
        1.4589369
      ],
      [
        103.8036127,
        1.458669
      ],
      [
        103.8033927,
        1.4584424
      ],
      [
        103.8032977,
        1.4582974
      ],
      [
        103.8031359,
        1.4581325
      ],
      [
        103.8029045,
        1.4578847
      ],
      [
        103.8026361,
        1.4576555
      ],
      [
        103.8023853,
        1.4574564
      ],
      [
        103.8020077,
        1.4571958
      ],
      [
        103.8017072,
        1.4570231
      ],
      [
        103.8015002,
        1.4569027
      ],
      [
        103.80108,
        1.4566966
      ],
      [
        103.800905,
        1.4566439
      ],
      [
        103.8007701,
        1.4565246
      ],
      [
        103.8007303,
        1.4564689
      ],
      [
        103.8007164,
        1.4564495
      ],
      [
        103.8006869,
        1.4563583
      ],
      [
        103.8006543,
        1.4562413
      ],
      [
        103.8007279,
        1.456008
      ],
      [
        103.8007895,
        1.4557495
      ],
      [
        103.8008152,
        1.4556524
      ],
      [
        103.8008442,
        1.4555204
      ],
      [
        103.8008606,
        1.455446
      ],
      [
        103.8009022,
        1.455273
      ],
      [
        103.8009548,
        1.455054
      ],
      [
        103.8010902,
        1.4546442
      ],
      [
        103.8012338,
        1.4542213
      ],
      [
        103.8013533,
        1.4539399
      ],
      [
        103.8015504,
        1.4534818
      ],
      [
        103.8015697,
        1.4534369
      ],
      [
        103.8016012,
        1.4533637
      ],
      [
        103.801605,
        1.4533554
      ],
      [
        103.8016229,
        1.4533164
      ],
      [
        103.8025074,
        1.4513907
      ],
      [
        103.8026804,
        1.4510201
      ],
      [
        103.8027656,
        1.4508323
      ],
      [
        103.8028188,
        1.4507151
      ],
      [
        103.8029334,
        1.4504628
      ],
      [
        103.8029474,
        1.4504319
      ],
      [
        103.8030158,
        1.4503056
      ],
      [
        103.8028673,
        1.4502234
      ],
      [
        103.8028143,
        1.4501987
      ],
      [
        103.8025527,
        1.4500765
      ],
      [
        103.8021138,
        1.4498643
      ],
      [
        103.8010946,
        1.4493715
      ],
      [
        103.800508,
        1.4490951
      ],
      [
        103.8001222,
        1.4488999
      ],
      [
        103.7990259,
        1.4483478
      ],
      [
        103.7980968,
        1.4479304
      ],
      [
        103.7978604,
        1.4478296
      ],
      [
        103.7972438,
        1.4475836
      ],
      [
        103.7971253,
        1.4475311
      ],
      [
        103.7970404,
        1.4474942
      ],
      [
        103.7970186,
        1.447485
      ],
      [
        103.7969176,
        1.4474408
      ],
      [
        103.7968487,
        1.4474172
      ],
      [
        103.7965471,
        1.4473139
      ],
      [
        103.7958032,
        1.4470736
      ],
      [
        103.7932326,
        1.4462506
      ],
      [
        103.7928121,
        1.4461099
      ],
      [
        103.7925458,
        1.4460195
      ],
      [
        103.7925017,
        1.4460043
      ],
      [
        103.7924146,
        1.4459739
      ],
      [
        103.7923689,
        1.4459603
      ],
      [
        103.7920685,
        1.4458627
      ],
      [
        103.791831,
        1.4457851
      ],
      [
        103.7914254,
        1.4456241
      ],
      [
        103.7910425,
        1.4454159
      ],
      [
        103.7907738,
        1.4452321
      ],
      [
        103.7899993,
        1.4447006
      ],
      [
        103.7899875,
        1.4446926
      ],
      [
        103.7897705,
        1.4445461
      ],
      [
        103.789496,
        1.4443606
      ],
      [
        103.7892357,
        1.4441847
      ],
      [
        103.7889989,
        1.4440321
      ],
      [
        103.7883602,
        1.4436208
      ],
      [
        103.7883152,
        1.4435919
      ],
      [
        103.7882224,
        1.4435359
      ],
      [
        103.7881415,
        1.4434815
      ],
      [
        103.7861857,
        1.4421678
      ],
      [
        103.7859523,
        1.4420027
      ],
      [
        103.7858725,
        1.4419457
      ],
      [
        103.785843,
        1.4419227
      ],
      [
        103.7857323,
        1.4418387
      ],
      [
        103.7855921,
        1.4417122
      ],
      [
        103.7855498,
        1.4416624
      ],
      [
        103.7854681,
        1.4415652
      ],
      [
        103.7853772,
        1.4414575
      ],
      [
        103.7853385,
        1.4412859
      ],
      [
        103.7853319,
        1.441186
      ],
      [
        103.7853651,
        1.4410893
      ],
      [
        103.7854662,
        1.440931
      ],
      [
        103.7857866,
        1.4407298
      ],
      [
        103.7865212,
        1.4403171
      ],
      [
        103.7872005,
        1.4399328
      ],
      [
        103.7873854,
        1.4398295
      ],
      [
        103.7876426,
        1.4396865
      ],
      [
        103.7879091,
        1.439537
      ],
      [
        103.7882565,
        1.4392752
      ],
      [
        103.7883894,
        1.4391414
      ],
      [
        103.7884931,
        1.4390298
      ],
      [
        103.7885719,
        1.4389343
      ],
      [
        103.7886402,
        1.4388344
      ],
      [
        103.7888097,
        1.4385614
      ],
      [
        103.7889189,
        1.4383314
      ],
      [
        103.7889644,
        1.4382441
      ],
      [
        103.789008,
        1.4381265
      ],
      [
        103.7888707,
        1.4380925
      ],
      [
        103.7887791,
        1.4380749
      ],
      [
        103.7886979,
        1.437988
      ],
      [
        103.7885017,
        1.4378995
      ],
      [
        103.7874578,
        1.4375079
      ],
      [
        103.7873585,
        1.4374731
      ],
      [
        103.7871182,
        1.437421
      ],
      [
        103.7849046,
        1.4365575
      ],
      [
        103.7850116,
        1.4362529
      ]
    ]
  }
}