{
  "type": "Feature",
  "properties": {
    "relation": 12980682,
    "direction": "1",
    "fee": "yes",
    "from": "Woodlands Interchange",
    "name": "Svc 169B (Woodlands Interchange → Before Admiralty Road West)",
    "name:en": "Svc 169B (Woodlands Interchange → Before Admiralty Road West)",
    "network": "Land Transport Authority",
    "network:short": "LTA",
    "network:wikidata": "Q3299279",
    "network:wikipedia": "en:Land Transport Authority",
    "operator": "Tower Transit Singapore",
    "operator:wikidata": "Q19898668",
    "operator:wikipedia": "en:Tower Transit Singapore",
    "public_transport:version": "2",
    "ref": "169B",
    "route": "bus",
    "to": "Before Admiralty Road West",
    "type": "route",
    "website": "https://towertransit.sg/"
  },
  "geometry": {
    "type": "LineString",
    "coordinates": [
      [
        103.7850116,
        1.4362529
      ],
      [
        103.7852459,
        1.4363383
      ],
      [
        103.7865729,
        1.4368226
      ],
      [
        103.7869319,
        1.4368181
      ],
      [
        103.7874208,
        1.4370074
      ],
      [
        103.7874717,
        1.4370752
      ],
      [
        103.7874725,
        1.4371669
      ],
      [
        103.7873585,
        1.4374731
      ],
      [
        103.7872803,
        1.4376806
      ],
      [
        103.7872975,
        1.4377797
      ],
      [
        103.787348,
        1.4378302
      ],
      [
        103.7882185,
        1.438165
      ],
      [
        103.7883575,
        1.4381997
      ],
      [
        103.7884859,
        1.438266
      ],
      [
        103.7885456,
        1.4383192
      ],
      [
        103.7885802,
        1.4383649
      ],
      [
        103.7886095,
        1.4384154
      ],
      [
        103.7886211,
        1.4384887
      ],
      [
        103.7886195,
        1.4385947
      ],
      [
        103.7884963,
        1.4388105
      ],
      [
        103.7883875,
        1.4389366
      ],
      [
        103.7882699,
        1.4390755
      ],
      [
        103.7881553,
        1.4391801
      ],
      [
        103.7880342,
        1.4392836
      ],
      [
        103.7878179,
        1.439438
      ],
      [
        103.7876659,
        1.4395245
      ],
      [
        103.7875236,
        1.4396025
      ],
      [
        103.78739,
        1.4396786
      ],
      [
        103.7871031,
        1.439843
      ],
      [
        103.786656,
        1.4400922
      ],
      [
        103.7861783,
        1.440358
      ],
      [
        103.785892,
        1.4405165
      ],
      [
        103.78564,
        1.4406746
      ],
      [
        103.7853762,
        1.440841
      ],
      [
        103.7851342,
        1.4409925
      ],
      [
        103.7850724,
        1.4410291
      ],
      [
        103.7849668,
        1.4410991
      ],
      [
        103.78504,
        1.4412081
      ],
      [
        103.7851046,
        1.4413026
      ],
      [
        103.7852267,
        1.4414861
      ],
      [
        103.7853591,
        1.4416703
      ],
      [
        103.7854892,
        1.4418195
      ],
      [
        103.7856423,
        1.4419556
      ],
      [
        103.7857545,
        1.4420459
      ],
      [
        103.7858144,
        1.4420942
      ],
      [
        103.7858499,
        1.4421184
      ],
      [
        103.7860526,
        1.4422773
      ],
      [
        103.786325,
        1.4424576
      ],
      [
        103.7865706,
        1.4426176
      ],
      [
        103.7866476,
        1.442667
      ],
      [
        103.7874167,
        1.4431615
      ],
      [
        103.7875753,
        1.4432597
      ],
      [
        103.7877949,
        1.4434142
      ],
      [
        103.7880718,
        1.443603
      ],
      [
        103.7881567,
        1.4436609
      ],
      [
        103.7882351,
        1.4437165
      ],
      [
        103.7882738,
        1.4437437
      ],
      [
        103.7884251,
        1.4438498
      ],
      [
        103.789055,
        1.4442973
      ],
      [
        103.7891131,
        1.4443346
      ],
      [
        103.7893588,
        1.4444924
      ],
      [
        103.7894408,
        1.4445458
      ],
      [
        103.7898548,
        1.4448155
      ],
      [
        103.7900768,
        1.4449525
      ],
      [
        103.7902656,
        1.445082
      ],
      [
        103.7909196,
        1.4454943
      ],
      [
        103.791153,
        1.4456324
      ],
      [
        103.791279,
        1.445698
      ],
      [
        103.7914158,
        1.4457678
      ],
      [
        103.7915395,
        1.445819
      ],
      [
        103.7917329,
        1.4458818
      ],
      [
        103.7919058,
        1.4459454
      ],
      [
        103.7920439,
        1.4460057
      ],
      [
        103.792325,
        1.4460885
      ],
      [
        103.792371,
        1.4461015
      ],
      [
        103.792458,
        1.4461266
      ],
      [
        103.7925062,
        1.4461432
      ],
      [
        103.7928191,
        1.446243
      ],
      [
        103.7957605,
        1.4471917
      ],
      [
        103.7960027,
        1.4472699
      ],
      [
        103.7963103,
        1.4473693
      ],
      [
        103.7964863,
        1.4474261
      ],
      [
        103.7968034,
        1.4475472
      ],
      [
        103.7968597,
        1.4475687
      ],
      [
        103.7969637,
        1.4476063
      ],
      [
        103.7969861,
        1.4476169
      ],
      [
        103.7972477,
        1.447736
      ],
      [
        103.7989019,
        1.4484736
      ],
      [
        103.7994962,
        1.4487831
      ],
      [
        103.7997777,
        1.4489086
      ],
      [
        103.8002496,
        1.4491312
      ],
      [
        103.8022238,
        1.450078
      ],
      [
        103.8025201,
        1.4502201
      ],
      [
        103.8026282,
        1.4503823
      ],
      [
        103.8026604,
        1.4504681
      ],
      [
        103.8026604,
        1.4505673
      ],
      [
        103.8026619,
        1.4506764
      ],
      [
        103.8022502,
        1.4515951
      ],
      [
        103.802083,
        1.4519425
      ],
      [
        103.8020124,
        1.4521139
      ],
      [
        103.8017705,
        1.4526495
      ],
      [
        103.8015658,
        1.4530935
      ],
      [
        103.8014939,
        1.453262
      ],
      [
        103.8014718,
        1.4533139
      ],
      [
        103.8014389,
        1.4533894
      ],
      [
        103.801423,
        1.4534278
      ],
      [
        103.8013537,
        1.4535954
      ],
      [
        103.8012234,
        1.4538836
      ],
      [
        103.8010276,
        1.4544031
      ],
      [
        103.8009855,
        1.454528
      ],
      [
        103.8008184,
        1.4550233
      ],
      [
        103.8007581,
        1.4552407
      ],
      [
        103.8007131,
        1.4554031
      ]
    ]
  }
}