{
  "type": "Feature",
  "properties": {
    "relation": 19749972,
    "direction": "2",
    "fee": "yes",
    "from": "Clementi Interchange",
    "name": "Svc 173 (Clementi Interchange → Bukit Batok Interchange)",
    "name:en": "Svc 173 (Clementi Interchange → Bukit Batok Interchange)",
    "network": "Land Transport Authority",
    "network:short": "LTA",
    "network:wikidata": "Q3299279",
    "network:wikipedia": "en:Land Transport Authority",
    "opening_hours": "Mo-Su,PH 05:30-24:00; Mo-Su,PH 00:01-01:10",
    "operator": "Tower Transit Singapore",
    "operator:wikidata": "Q19898668",
    "operator:wikipedia": "en:Tower Transit Singapore",
    "public_transport:version": "2",
    "ref": "173",
    "roundtrip": "yes",
    "route": "bus",
    "to": "Bukit Batok Interchange",
    "type": "route",
    "website": "https://www.towertransit.sg/route/173"
  },
  "geometry": {
    "type": "LineString",
    "coordinates": [
      [
        103.7643526,
        1.3155357
      ],
      [
        103.7644758,
        1.315297
      ],
      [
        103.76452,
        1.3152116
      ],
      [
        103.76452,
        1.3151815
      ],
      [
        103.7645106,
        1.315156
      ],
      [
        103.7644894,
        1.3151387
      ],
      [
        103.7641303,
        1.3149397
      ],
      [
        103.764107,
        1.3149216
      ],
      [
        103.7640907,
        1.3149021
      ],
      [
        103.7639237,
        1.3146836
      ],
      [
        103.7639127,
        1.3146551
      ],
      [
        103.7639084,
        1.3146311
      ],
      [
        103.7638915,
        1.3144047
      ],
      [
        103.7638781,
        1.3143689
      ],
      [
        103.7638561,
        1.3143364
      ],
      [
        103.763828,
        1.3143093
      ],
      [
        103.7638059,
        1.3142996
      ],
      [
        103.7637751,
        1.3142875
      ],
      [
        103.7637301,
        1.3142821
      ],
      [
        103.7636736,
        1.3142856
      ],
      [
        103.7636139,
        1.3142992
      ],
      [
        103.7635563,
        1.3143126
      ],
      [
        103.7635141,
        1.3143218
      ],
      [
        103.763446,
        1.3143386
      ],
      [
        103.763446,
        1.3144683
      ],
      [
        103.7634581,
        1.3145881
      ],
      [
        103.7634652,
        1.3146586
      ],
      [
        103.7634952,
        1.314783
      ],
      [
        103.7635299,
        1.3148803
      ],
      [
        103.7635948,
        1.3150144
      ],
      [
        103.7636403,
        1.3150996
      ],
      [
        103.7637426,
        1.3152376
      ],
      [
        103.7638483,
        1.3153423
      ],
      [
        103.7639304,
        1.315411
      ],
      [
        103.7639544,
        1.3154311
      ],
      [
        103.7641646,
        1.3155944
      ],
      [
        103.7643887,
        1.3157629
      ],
      [
        103.7645648,
        1.3159078
      ],
      [
        103.764604,
        1.3159365
      ],
      [
        103.7647041,
        1.3160064
      ],
      [
        103.7646635,
        1.3161069
      ],
      [
        103.7646219,
        1.3162185
      ],
      [
        103.7645453,
        1.3164346
      ],
      [
        103.7644882,
        1.3165855
      ],
      [
        103.7644308,
        1.3167165
      ],
      [
        103.7643393,
        1.3169047
      ],
      [
        103.7642492,
        1.317066
      ],
      [
        103.7641134,
        1.3172766
      ],
      [
        103.763953,
        1.3175149
      ],
      [
        103.7639301,
        1.3175488
      ],
      [
        103.7638748,
        1.3176309
      ],
      [
        103.7638474,
        1.3176717
      ],
      [
        103.7634794,
        1.3182184
      ],
      [
        103.7633631,
        1.3183779
      ],
      [
        103.7631763,
        1.318657
      ],
      [
        103.7631479,
        1.3187032
      ],
      [
        103.7631133,
        1.3187541
      ],
      [
        103.7629418,
        1.3189905
      ],
      [
        103.7628539,
        1.3191232
      ],
      [
        103.7626413,
        1.3194432
      ],
      [
        103.7625164,
        1.3196227
      ],
      [
        103.7622727,
        1.3200046
      ],
      [
        103.7621494,
        1.3201978
      ],
      [
        103.7620103,
        1.3204157
      ],
      [
        103.7619562,
        1.3205004
      ],
      [
        103.7618701,
        1.3206354
      ],
      [
        103.7618428,
        1.3206727
      ],
      [
        103.7614999,
        1.3211885
      ],
      [
        103.7612504,
        1.3215775
      ],
      [
        103.7611401,
        1.3217407
      ],
      [
        103.7610961,
        1.3218033
      ],
      [
        103.7605085,
        1.3226861
      ],
      [
        103.7596979,
        1.3238013
      ],
      [
        103.7595431,
        1.3239935
      ],
      [
        103.7593621,
        1.3241906
      ],
      [
        103.7590724,
        1.3244641
      ],
      [
        103.7587802,
        1.3247181
      ],
      [
        103.7582896,
        1.3250691
      ],
      [
        103.7580111,
        1.3252882
      ],
      [
        103.7577874,
        1.3254306
      ],
      [
        103.7576177,
        1.3255312
      ],
      [
        103.7572114,
        1.3257426
      ],
      [
        103.7571229,
        1.3257866
      ],
      [
        103.7570605,
        1.3258349
      ],
      [
        103.757022,
        1.325884
      ],
      [
        103.7569951,
        1.3259422
      ],
      [
        103.7569806,
        1.3259723
      ],
      [
        103.7569689,
        1.3260128
      ],
      [
        103.7569638,
        1.3260744
      ],
      [
        103.7569743,
        1.3262269
      ],
      [
        103.7570004,
        1.3264987
      ],
      [
        103.757017,
        1.326708
      ],
      [
        103.7570451,
        1.3269871
      ],
      [
        103.7570635,
        1.327184
      ],
      [
        103.757076,
        1.327338
      ],
      [
        103.7571009,
        1.3275282
      ],
      [
        103.757131,
        1.3276838
      ],
      [
        103.7571768,
        1.3278835
      ],
      [
        103.7572345,
        1.3280749
      ],
      [
        103.7573076,
        1.3283077
      ],
      [
        103.7574055,
        1.328529
      ],
      [
        103.7574332,
        1.3285891
      ],
      [
        103.7575163,
        1.3287693
      ],
      [
        103.7575878,
        1.3289087
      ],
      [
        103.7582383,
        1.3299129
      ],
      [
        103.7582498,
        1.3299357
      ],
      [
        103.7584394,
        1.3302374
      ],
      [
        103.7584745,
        1.3302902
      ],
      [
        103.7586105,
        1.3304952
      ],
      [
        103.7586551,
        1.3305758
      ],
      [
        103.7587553,
        1.3307235
      ],
      [
        103.7588152,
        1.3308115
      ],
      [
        103.7591132,
        1.3313801
      ],
      [
        103.759236,
        1.3317144
      ],
      [
        103.7592655,
        1.3319562
      ],
      [
        103.7592515,
        1.3322213
      ],
      [
        103.7592305,
        1.332522
      ],
      [
        103.759216,
        1.3326246
      ],
      [
        103.7591763,
        1.3328703
      ],
      [
        103.7591365,
        1.3331234
      ],
      [
        103.7591153,
        1.3333088
      ],
      [
        103.7591158,
        1.3334667
      ],
      [
        103.7591263,
        1.3336542
      ],
      [
        103.7591384,
        1.3338316
      ],
      [
        103.7591542,
        1.3339259
      ],
      [
        103.7591814,
        1.3340728
      ],
      [
        103.7592902,
        1.3344053
      ],
      [
        103.7593617,
        1.3345806
      ],
      [
        103.7594479,
        1.3347932
      ],
      [
        103.7595654,
        1.3351118
      ],
      [
        103.7596429,
        1.3353142
      ],
      [
        103.7596847,
        1.3354482
      ],
      [
        103.7597488,
        1.3356658
      ],
      [
        103.7597815,
        1.3357589
      ],
      [
        103.760034,
        1.3364501
      ],
      [
        103.7602343,
        1.3370249
      ],
      [
        103.7603089,
        1.3372454
      ],
      [
        103.7603398,
        1.3373715
      ],
      [
        103.7603617,
        1.3375277
      ],
      [
        103.7603698,
        1.3376462
      ],
      [
        103.7604761,
        1.3376485
      ],
      [
        103.7605317,
        1.3376526
      ],
      [
        103.7606134,
        1.3376585
      ],
      [
        103.760711,
        1.3376723
      ],
      [
        103.7608236,
        1.3376953
      ],
      [
        103.76173,
        1.3379595
      ],
      [
        103.7618265,
        1.3379985
      ],
      [
        103.7619104,
        1.3380456
      ],
      [
        103.7619885,
        1.3380984
      ],
      [
        103.7620494,
        1.338157
      ],
      [
        103.7621023,
        1.3382225
      ],
      [
        103.7621425,
        1.3382902
      ],
      [
        103.7623932,
        1.3388116
      ],
      [
        103.7624507,
        1.3389028
      ],
      [
        103.7625118,
        1.3389839
      ],
      [
        103.7625701,
        1.3390404
      ],
      [
        103.7626376,
        1.3390933
      ],
      [
        103.7627097,
        1.3391361
      ],
      [
        103.7627899,
        1.339168
      ],
      [
        103.7628628,
        1.3391936
      ],
      [
        103.7629367,
        1.3392063
      ],
      [
        103.763508,
        1.33927
      ],
      [
        103.7638932,
        1.3393381
      ],
      [
        103.7641605,
        1.3394286
      ],
      [
        103.7641605,
        1.3394286
      ],
      [
        103.7641968,
        1.339253
      ],
      [
        103.7641818,
        1.3393574
      ],
      [
        103.7642156,
        1.3385872
      ],
      [
        103.7642089,
        1.33881
      ],
      [
        103.7642556,
        1.3383204
      ],
      [
        103.7643622,
        1.337791
      ],
      [
        103.7644108,
        1.3375095
      ],
      [
        103.764477,
        1.3371718
      ],
      [
        103.7645733,
        1.3366283
      ],
      [
        103.7646493,
        1.3365619
      ],
      [
        103.7646018,
        1.3365794
      ],
      [
        103.7649127,
        1.3366089
      ],
      [
        103.7653175,
        1.3366761
      ],
      [
        103.7660118,
        1.3368148
      ],
      [
        103.7663465,
        1.3368793
      ],
      [
        103.7666107,
        1.3369462
      ],
      [
        103.7674744,
        1.3371504
      ],
      [
        103.7672855,
        1.3371033
      ],
      [
        103.7675381,
        1.3371663
      ],
      [
        103.767876,
        1.3372432
      ],
      [
        103.7688582,
        1.337473
      ],
      [
        103.768754,
        1.3374505
      ],
      [
        103.7687208,
        1.3374433
      ],
      [
        103.7689189,
        1.3376959
      ],
      [
        103.7688241,
        1.3382096
      ],
      [
        103.7687169,
        1.3388325
      ],
      [
        103.7686358,
        1.3395893
      ],
      [
        103.7686147,
        1.3396559
      ],
      [
        103.7689779,
        1.3399305
      ],
      [
        103.7690272,
        1.3399609
      ],
      [
        103.7693017,
        1.3401099
      ],
      [
        103.7694317,
        1.3401642
      ],
      [
        103.7695894,
        1.3402299
      ],
      [
        103.7697947,
        1.340303
      ],
      [
        103.7699615,
        1.3403465
      ],
      [
        103.7703142,
        1.3404117
      ],
      [
        103.770472,
        1.3404627
      ],
      [
        103.7707594,
        1.3405808
      ],
      [
        103.7715658,
        1.3408939
      ],
      [
        103.7716776,
        1.3409748
      ],
      [
        103.7717609,
        1.3410362
      ],
      [
        103.7718407,
        1.341102
      ],
      [
        103.7718931,
        1.3410533
      ],
      [
        103.7719028,
        1.3410445
      ],
      [
        103.7720083,
        1.3409278
      ],
      [
        103.772163,
        1.3407779
      ],
      [
        103.7723018,
        1.3406706
      ],
      [
        103.7723466,
        1.3406281
      ],
      [
        103.7724215,
        1.3405779
      ],
      [
        103.7724732,
        1.3405434
      ],
      [
        103.7725701,
        1.3404863
      ],
      [
        103.7727123,
        1.340425
      ],
      [
        103.7728476,
        1.3403819
      ],
      [
        103.7730685,
        1.3403434
      ],
      [
        103.7734956,
        1.3403198
      ],
      [
        103.773891,
        1.3403144
      ],
      [
        103.7741971,
        1.3403026
      ],
      [
        103.7742765,
        1.3403007
      ],
      [
        103.7743302,
        1.3402989
      ],
      [
        103.7746084,
        1.3402894
      ],
      [
        103.7750825,
        1.3402814
      ],
      [
        103.7753225,
        1.3402815
      ],
      [
        103.7756108,
        1.3402725
      ],
      [
        103.7757651,
        1.3403691
      ],
      [
        103.7758159,
        1.3404193
      ],
      [
        103.7758432,
        1.3404618
      ],
      [
        103.7759112,
        1.3405835
      ],
      [
        103.7758236,
        1.3409967
      ],
      [
        103.7757704,
        1.3412477
      ],
      [
        103.7757584,
        1.3413043
      ],
      [
        103.7757459,
        1.3413747
      ],
      [
        103.7757302,
        1.3414624
      ],
      [
        103.7756486,
        1.3419197
      ],
      [
        103.7756047,
        1.3421577
      ],
      [
        103.7755435,
        1.3425058
      ],
      [
        103.775392,
        1.3432845
      ],
      [
        103.775343,
        1.3434951
      ],
      [
        103.7752959,
        1.3437689
      ],
      [
        103.7752606,
        1.3439808
      ],
      [
        103.7752341,
        1.3441542
      ],
      [
        103.7751992,
        1.3442327
      ],
      [
        103.7751509,
        1.3443098
      ],
      [
        103.7750933,
        1.3443889
      ],
      [
        103.7750034,
        1.3444599
      ],
      [
        103.7748961,
        1.3445417
      ],
      [
        103.7747955,
        1.3446523
      ],
      [
        103.7738301,
        1.3452199
      ],
      [
        103.77377,
        1.3452552
      ],
      [
        103.7733921,
        1.3454774
      ],
      [
        103.7732277,
        1.345574
      ],
      [
        103.7730194,
        1.3456965
      ],
      [
        103.772864,
        1.3457878
      ],
      [
        103.7725999,
        1.3459431
      ],
      [
        103.7725553,
        1.3459704
      ],
      [
        103.7724797,
        1.3460167
      ],
      [
        103.7724503,
        1.3460383
      ],
      [
        103.7722424,
        1.3461916
      ],
      [
        103.7720785,
        1.3463262
      ],
      [
        103.7720237,
        1.3463712
      ],
      [
        103.7719736,
        1.3464231
      ],
      [
        103.7718376,
        1.3465637
      ],
      [
        103.77167,
        1.3468039
      ],
      [
        103.7713771,
        1.3472929
      ],
      [
        103.7709976,
        1.3478267
      ],
      [
        103.7705721,
        1.3484405
      ],
      [
        103.77052,
        1.3485127
      ],
      [
        103.7704363,
        1.3486172
      ],
      [
        103.7702658,
        1.3488581
      ],
      [
        103.7702042,
        1.3489683
      ],
      [
        103.77018,
        1.3490245
      ],
      [
        103.7701325,
        1.3491928
      ],
      [
        103.7700962,
        1.3493717
      ],
      [
        103.7700775,
        1.3497726
      ],
      [
        103.7700438,
        1.3501711
      ],
      [
        103.7699501,
        1.3508968
      ],
      [
        103.7698208,
        1.3518818
      ],
      [
        103.7697794,
        1.3521385
      ],
      [
        103.7697412,
        1.3523722
      ],
      [
        103.7696644,
        1.3527243
      ],
      [
        103.7696415,
        1.3527952
      ],
      [
        103.769486,
        1.3533626
      ],
      [
        103.7693896,
        1.3536655
      ],
      [
        103.7693499,
        1.3537912
      ],
      [
        103.7692838,
        1.3539528
      ],
      [
        103.7692131,
        1.3541355
      ],
      [
        103.7691066,
        1.3542767
      ],
      [
        103.7690256,
        1.3543518
      ],
      [
        103.7689186,
        1.3544104
      ],
      [
        103.7686823,
        1.3545491
      ],
      [
        103.7686399,
        1.3545982
      ],
      [
        103.7686399,
        1.3545982
      ],
      [
        103.7683914,
        1.3553531
      ],
      [
        103.7684365,
        1.3551551
      ],
      [
        103.7684879,
        1.3547964
      ],
      [
        103.7685075,
        1.3547248
      ],
      [
        103.7685382,
        1.3546675
      ],
      [
        103.7685826,
        1.3546318
      ],
      [
        103.7682512,
        1.355668
      ],
      [
        103.768355,
        1.3554421
      ],
      [
        103.7681018,
        1.355888
      ],
      [
        103.7680566,
        1.3559522
      ],
      [
        103.767801,
        1.3563224
      ],
      [
        103.767917,
        1.3561578
      ],
      [
        103.7669005,
        1.3576668
      ],
      [
        103.7670179,
        1.3575744
      ],
      [
        103.7671482,
        1.3574206
      ],
      [
        103.7672856,
        1.3571095
      ],
      [
        103.7673673,
        1.3569552
      ],
      [
        103.7675655,
        1.3566709
      ],
      [
        103.7677342,
        1.3564171
      ],
      [
        103.7664836,
        1.3578085
      ],
      [
        103.7658297,
        1.3580215
      ],
      [
        103.7657546,
        1.3580459
      ],
      [
        103.7656272,
        1.3580874
      ],
      [
        103.7650997,
        1.3582592
      ],
      [
        103.7650314,
        1.3582815
      ],
      [
        103.7650314,
        1.3582815
      ],
      [
        103.7644743,
        1.3584881
      ],
      [
        103.7645991,
        1.3584223
      ],
      [
        103.7641278,
        1.3586801
      ],
      [
        103.7638839,
        1.3588329
      ],
      [
        103.7637273,
        1.3589301
      ],
      [
        103.7636726,
        1.3589624
      ],
      [
        103.7637086,
        1.3592268
      ],
      [
        103.7638065,
        1.3594292
      ],
      [
        103.7639897,
        1.3600238
      ],
      [
        103.764029,
        1.3601389
      ],
      [
        103.7642048,
        1.3606546
      ],
      [
        103.7642836,
        1.3608784
      ],
      [
        103.7643537,
        1.3611393
      ],
      [
        103.7643715,
        1.3612041
      ],
      [
        103.764413,
        1.361354
      ],
      [
        103.7644401,
        1.3614534
      ],
      [
        103.764541,
        1.361804
      ],
      [
        103.764551,
        1.3618396
      ],
      [
        103.7646054,
        1.3620407
      ],
      [
        103.7646286,
        1.3621435
      ],
      [
        103.764642,
        1.3622463
      ],
      [
        103.7646232,
        1.3622868
      ],
      [
        103.7646197,
        1.3623194
      ],
      [
        103.7646252,
        1.3623517
      ],
      [
        103.7646394,
        1.3623812
      ],
      [
        103.7646477,
        1.3623924
      ],
      [
        103.7646883,
        1.3624233
      ],
      [
        103.7647206,
        1.362433
      ],
      [
        103.7647543,
        1.3624333
      ],
      [
        103.7647868,
        1.3624241
      ],
      [
        103.7648153,
        1.3624061
      ],
      [
        103.764824,
        1.3623979
      ],
      [
        103.764846,
        1.3623658
      ],
      [
        103.7648565,
        1.3623282
      ],
      [
        103.7648541,
        1.3622893
      ],
      [
        103.7648393,
        1.3622532
      ],
      [
        103.7648136,
        1.3622239
      ],
      [
        103.7647889,
        1.3622082
      ],
      [
        103.7647254,
        1.3621304
      ],
      [
        103.7646962,
        1.3620561
      ],
      [
        103.764632,
        1.3618254
      ],
      [
        103.7646203,
        1.3617831
      ],
      [
        103.7645636,
        1.3615838
      ],
      [
        103.7644946,
        1.3613385
      ],
      [
        103.7643941,
        1.3609814
      ],
      [
        103.7641638,
        1.3601778
      ],
      [
        103.764122,
        1.3600524
      ],
      [
        103.7640927,
        1.3600344
      ],
      [
        103.7640556,
        1.3600217
      ],
      [
        103.7640254,
        1.3600204
      ],
      [
        103.7639897,
        1.3600238
      ],
      [
        103.7637919,
        1.3601142
      ],
      [
        103.7639554,
        1.3600397
      ],
      [
        103.7639897,
        1.3600238
      ],
      [
        103.7636042,
        1.360231
      ],
      [
        103.7634247,
        1.3603733
      ],
      [
        103.7627756,
        1.3599143
      ],
      [
        103.7628342,
        1.3599961
      ],
      [
        103.7628665,
        1.3600412
      ],
      [
        103.7630642,
        1.3603176
      ],
      [
        103.7631716,
        1.3604677
      ],
      [
        103.76322,
        1.3605355
      ],
      [
        103.7625796,
        1.3596348
      ],
      [
        103.7626572,
        1.359747
      ],
      [
        103.7622846,
        1.3592085
      ],
      [
        103.7616031,
        1.3582561
      ],
      [
        103.7617426,
        1.3584666
      ],
      [
        103.761878,
        1.3586569
      ],
      [
        103.7613442,
        1.3577689
      ],
      [
        103.7615033,
        1.358109
      ],
      [
        103.7612449,
        1.3575001
      ],
      [
        103.7612921,
        1.3576278
      ],
      [
        103.7615246,
        1.3572912
      ],
      [
        103.7618427,
        1.3571916
      ],
      [
        103.7622477,
        1.3570647
      ],
      [
        103.7622858,
        1.3570515
      ],
      [
        103.7624096,
        1.3570152
      ],
      [
        103.7623554,
        1.3568436
      ],
      [
        103.7623182,
        1.3567094
      ],
      [
        103.7622869,
        1.3565884
      ],
      [
        103.7621514,
        1.3561031
      ],
      [
        103.7621495,
        1.3560961
      ],
      [
        103.762114,
        1.3559692
      ],
      [
        103.7620701,
        1.3558342
      ],
      [
        103.7620018,
        1.3556625
      ],
      [
        103.761716,
        1.3552349
      ],
      [
        103.7616564,
        1.3551561
      ],
      [
        103.7612781,
        1.3547646
      ],
      [
        103.761178,
        1.3546906
      ],
      [
        103.7610427,
        1.35459
      ],
      [
        103.7607834,
        1.3544255
      ],
      [
        103.760706,
        1.3543672
      ],
      [
        103.7606026,
        1.3542723
      ],
      [
        103.7605698,
        1.3542365
      ],
      [
        103.7604877,
        1.3541468
      ],
      [
        103.7604551,
        1.3541093
      ],
      [
        103.7603585,
        1.3539982
      ],
      [
        103.7602804,
        1.353895
      ],
      [
        103.7602441,
        1.3538385
      ],
      [
        103.7602243,
        1.3538086
      ],
      [
        103.7601914,
        1.3537463
      ],
      [
        103.7601604,
        1.3536776
      ],
      [
        103.7601326,
        1.3536211
      ],
      [
        103.7601048,
        1.3535581
      ],
      [
        103.7600544,
        1.3534495
      ],
      [
        103.7600067,
        1.3532888
      ],
      [
        103.7599729,
        1.353136
      ],
      [
        103.7599628,
        1.3529991
      ],
      [
        103.7599598,
        1.3528207
      ],
      [
        103.7599616,
        1.352779
      ],
      [
        103.7599872,
        1.3524812
      ],
      [
        103.7600301,
        1.3520679
      ],
      [
        103.7600501,
        1.3518328
      ],
      [
        103.7600732,
        1.3517508
      ],
      [
        103.7600789,
        1.3517241
      ],
      [
        103.7600966,
        1.3516677
      ],
      [
        103.7601605,
        1.3514958
      ],
      [
        103.7602837,
        1.3511879
      ],
      [
        103.7606066,
        1.350504
      ],
      [
        103.7607083,
        1.3502629
      ],
      [
        103.7607943,
        1.3500038
      ],
      [
        103.760844,
        1.3498033
      ],
      [
        103.7608585,
        1.349737
      ],
      [
        103.7608698,
        1.3496658
      ],
      [
        103.760785,
        1.349658
      ],
      [
        103.7606908,
        1.3496472
      ],
      [
        103.7600642,
        1.3495751
      ],
      [
        103.7597735,
        1.3495368
      ],
      [
        103.7596014,
        1.3495142
      ],
      [
        103.7595511,
        1.3495083
      ],
      [
        103.7595268,
        1.3495057
      ],
      [
        103.7593807,
        1.3494905
      ],
      [
        103.7590365,
        1.3494542
      ],
      [
        103.7587004,
        1.3494217
      ],
      [
        103.7582822,
        1.3493728
      ],
      [
        103.7580068,
        1.349268
      ],
      [
        103.7578744,
        1.3491834
      ],
      [
        103.7573575,
        1.3485928
      ],
      [
        103.757292,
        1.3485224
      ],
      [
        103.7572275,
        1.3484533
      ],
      [
        103.757163,
        1.3483841
      ],
      [
        103.7568539,
        1.3480507
      ],
      [
        103.7564903,
        1.3476458
      ],
      [
        103.7563957,
        1.3475565
      ],
      [
        103.7563404,
        1.3475043
      ],
      [
        103.7562752,
        1.3474382
      ],
      [
        103.756192,
        1.3473434
      ],
      [
        103.756075,
        1.347213
      ],
      [
        103.7559373,
        1.3470574
      ],
      [
        103.7557545,
        1.3468585
      ],
      [
        103.7555469,
        1.3466737
      ],
      [
        103.7554397,
        1.3466072
      ],
      [
        103.7553183,
        1.346532
      ],
      [
        103.755198,
        1.3464737
      ],
      [
        103.7550437,
        1.3464147
      ],
      [
        103.7549177,
        1.3463758
      ],
      [
        103.7547809,
        1.3463383
      ],
      [
        103.7546267,
        1.3463222
      ],
      [
        103.7544429,
        1.3463182
      ],
      [
        103.7542257,
        1.346341
      ],
      [
        103.7539706,
        1.3463803
      ],
      [
        103.7537459,
        1.3464201
      ],
      [
        103.7535694,
        1.3464552
      ],
      [
        103.753515,
        1.3464645
      ],
      [
        103.7532277,
        1.3465139
      ],
      [
        103.7529945,
        1.3465166
      ],
      [
        103.7527156,
        1.3465166
      ],
      [
        103.7523575,
        1.3465113
      ],
      [
        103.7521729,
        1.346511
      ],
      [
        103.752033,
        1.3465087
      ],
      [
        103.751759,
        1.3465065
      ],
      [
        103.7515414,
        1.3464891
      ],
      [
        103.7513118,
        1.346454
      ],
      [
        103.7513112,
        1.3463959
      ],
      [
        103.751309,
        1.3461841
      ],
      [
        103.7513075,
        1.3460407
      ],
      [
        103.7513092,
        1.345857
      ],
      [
        103.7513101,
        1.3456921
      ],
      [
        103.7513222,
        1.3452417
      ],
      [
        103.7513244,
        1.345158
      ],
      [
        103.7513208,
        1.3450547
      ],
      [
        103.7512481,
        1.3450625
      ],
      [
        103.7511612,
        1.3450632
      ],
      [
        103.7503928,
        1.3450633
      ],
      [
        103.7500812,
        1.3450582
      ],
      [
        103.7494728,
        1.3450578
      ],
      [
        103.74938,
        1.3450577
      ],
      [
        103.7492642,
        1.3450567
      ],
      [
        103.7487434,
        1.3450581
      ],
      [
        103.7483914,
        1.3450552
      ],
      [
        103.7481991,
        1.3450929
      ],
      [
        103.7480865,
        1.3451141
      ],
      [
        103.7480222,
        1.3451302
      ],
      [
        103.7478938,
        1.3451877
      ],
      [
        103.7476694,
        1.3453344
      ],
      [
        103.7474549,
        1.3454898
      ],
      [
        103.7472491,
        1.3456353
      ],
      [
        103.7470269,
        1.3458059
      ],
      [
        103.747011,
        1.3458198
      ],
      [
        103.746913,
        1.3458898
      ],
      [
        103.7469884,
        1.3459913
      ],
      [
        103.7470154,
        1.3460267
      ],
      [
        103.7471603,
        1.3462207
      ],
      [
        103.7473086,
        1.3464234
      ],
      [
        103.7474286,
        1.3465848
      ],
      [
        103.7482162,
        1.3476442
      ],
      [
        103.74841,
        1.3479051
      ],
      [
        103.7484592,
        1.3479754
      ],
      [
        103.7487084,
        1.3483326
      ],
      [
        103.7487725,
        1.3484201
      ],
      [
        103.7486888,
        1.348487
      ],
      [
        103.7485787,
        1.3485766
      ],
      [
        103.74849,
        1.3486486
      ],
      [
        103.7484389,
        1.3486901
      ],
      [
        103.7483011,
        1.3488242
      ],
      [
        103.7481995,
        1.3489503
      ],
      [
        103.7481249,
        1.349062
      ],
      [
        103.7480399,
        1.3491923
      ],
      [
        103.7479698,
        1.3493247
      ],
      [
        103.7479278,
        1.349418
      ],
      [
        103.7478769,
        1.3495949
      ],
      [
        103.7478501,
        1.3497639
      ],
      [
        103.7478299,
        1.3499261
      ],
      [
        103.7478213,
        1.3500208
      ],
      [
        103.7478192,
        1.3500441
      ],
      [
        103.7478192,
        1.3501541
      ],
      [
        103.7478675,
        1.3503954
      ],
      [
        103.7479137,
        1.3505134
      ],
      [
        103.7479278,
        1.3505495
      ],
      [
        103.7479407,
        1.3505852
      ],
      [
        103.7481391,
        1.3511332
      ],
      [
        103.7481652,
        1.3512052
      ],
      [
        103.7481953,
        1.3512849
      ],
      [
        103.7483127,
        1.3515913
      ],
      [
        103.7483342,
        1.3516811
      ],
      [
        103.7483436,
        1.351726
      ],
      [
        103.7483521,
        1.3522187
      ],
      [
        103.748353,
        1.3523019
      ],
      [
        103.7483516,
        1.3524132
      ],
      [
        103.7484469,
        1.3524078
      ],
      [
        103.7485087,
        1.3524064
      ],
      [
        103.7487493,
        1.3523892
      ],
      [
        103.7490349,
        1.3523688
      ],
      [
        103.7492802,
        1.3523004
      ],
      [
        103.7496404,
        1.3521008
      ],
      [
        103.749792,
        1.3520083
      ],
      [
        103.7499382,
        1.3518675
      ],
      [
        103.7502104,
        1.3516058
      ],
      [
        103.7502898,
        1.3515227
      ],
      [
        103.7507726,
        1.351046
      ],
      [
        103.7508773,
        1.3509429
      ],
      [
        103.7511148,
        1.3507323
      ],
      [
        103.7514874,
        1.350452
      ],
      [
        103.7516159,
        1.3503508
      ],
      [
        103.7517144,
        1.3502803
      ],
      [
        103.7517144,
        1.3502803
      ],
      [
        103.7516047,
        1.350127
      ],
      [
        103.7516571,
        1.3501999
      ],
      [
        103.7513824,
        1.3498238
      ],
      [
        103.7509303,
        1.349425
      ],
      [
        103.7510084,
        1.3494005
      ],
      [
        103.751048,
        1.3494009
      ],
      [
        103.7510928,
        1.3494179
      ],
      [
        103.7511482,
        1.3494958
      ]
    ]
  }
}