{
  "type": "Feature",
  "properties": {
    "relation": 1155238,
    "direction": "1",
    "fee": "yes",
    "from": "Bukit Batok Interchange",
    "name": "Svc 173 (Bukit Batok Interchange → Clementi Interchange)",
    "name:en": "Svc 173 (Bukit Batok Interchange → Clementi Interchange)",
    "network": "Land Transport Authority",
    "network:short": "LTA",
    "network:wikidata": "Q3299279",
    "network:wikipedia": "en:Land Transport Authority",
    "opening_hours": "Mo-Su,PH 05:30-24:00; Mo-Su,PH 00:01-01:10",
    "operator": "Tower Transit Singapore",
    "operator:wikidata": "Q19898668",
    "operator:wikipedia": "en:Tower Transit Singapore",
    "public_transport:version": "2",
    "ref": "173",
    "roundtrip": "yes",
    "route": "bus",
    "to": "Clementi Interchange",
    "type": "route",
    "website": "https://www.towertransit.sg/route/173"
  },
  "geometry": {
    "type": "LineString",
    "coordinates": [
      [
        103.7503381,
        1.3498614
      ],
      [
        103.7509303,
        1.349425
      ],
      [
        103.7510084,
        1.3494005
      ],
      [
        103.751048,
        1.3494009
      ],
      [
        103.7510928,
        1.3494179
      ],
      [
        103.7511482,
        1.3494958
      ],
      [
        103.7513824,
        1.3498238
      ],
      [
        103.7516047,
        1.350127
      ],
      [
        103.7516571,
        1.3501999
      ],
      [
        103.7515581,
        1.3502722
      ],
      [
        103.7514302,
        1.35037
      ],
      [
        103.7510135,
        1.3507022
      ],
      [
        103.7507741,
        1.3509021
      ],
      [
        103.7506969,
        1.3509709
      ],
      [
        103.7504979,
        1.3511717
      ],
      [
        103.7504284,
        1.3512491
      ],
      [
        103.7503547,
        1.3513328
      ],
      [
        103.7501777,
        1.3515224
      ],
      [
        103.750002,
        1.3516885
      ],
      [
        103.7498912,
        1.3518031
      ],
      [
        103.7497484,
        1.3519298
      ],
      [
        103.7496096,
        1.3520203
      ],
      [
        103.7493836,
        1.3521447
      ],
      [
        103.7491447,
        1.3522358
      ],
      [
        103.749057,
        1.3522539
      ],
      [
        103.7485053,
        1.3523026
      ],
      [
        103.7484469,
        1.3523046
      ],
      [
        103.7484476,
        1.3522173
      ],
      [
        103.748424,
        1.3517562
      ],
      [
        103.7484079,
        1.3516483
      ],
      [
        103.7483905,
        1.3515765
      ],
      [
        103.7482909,
        1.3512902
      ],
      [
        103.7482765,
        1.3512481
      ],
      [
        103.7482457,
        1.351173
      ],
      [
        103.748221,
        1.3511026
      ],
      [
        103.7480915,
        1.3507346
      ],
      [
        103.7480209,
        1.3505231
      ],
      [
        103.7479615,
        1.3503262
      ],
      [
        103.747936,
        1.35016
      ],
      [
        103.7479325,
        1.350113
      ],
      [
        103.7479331,
        1.350028
      ],
      [
        103.7479344,
        1.3498323
      ],
      [
        103.7479714,
        1.3495615
      ],
      [
        103.7480114,
        1.3494113
      ],
      [
        103.7480379,
        1.349348
      ],
      [
        103.7480978,
        1.3492263
      ],
      [
        103.7481569,
        1.349134
      ],
      [
        103.7482399,
        1.3490211
      ],
      [
        103.7483239,
        1.3489243
      ],
      [
        103.7484214,
        1.3488174
      ],
      [
        103.7485671,
        1.3486774
      ],
      [
        103.7487392,
        1.3485523
      ],
      [
        103.748828,
        1.3484872
      ],
      [
        103.7489208,
        1.348421
      ],
      [
        103.7489067,
        1.3484027
      ],
      [
        103.7488672,
        1.3483515
      ],
      [
        103.7488023,
        1.3482676
      ],
      [
        103.7486162,
        1.3480131
      ],
      [
        103.7473983,
        1.3463464
      ],
      [
        103.7472412,
        1.3461312
      ],
      [
        103.7472385,
        1.3460582
      ],
      [
        103.7472333,
        1.34597
      ],
      [
        103.7472465,
        1.3459161
      ],
      [
        103.7472921,
        1.3458061
      ],
      [
        103.7473617,
        1.3457226
      ],
      [
        103.7473807,
        1.3456918
      ],
      [
        103.7477206,
        1.3454404
      ],
      [
        103.7477565,
        1.3454205
      ],
      [
        103.7479738,
        1.3453004
      ],
      [
        103.7482101,
        1.3452298
      ],
      [
        103.7484962,
        1.3451866
      ],
      [
        103.7486937,
        1.3451885
      ],
      [
        103.7489395,
        1.3451915
      ],
      [
        103.7490423,
        1.3451905
      ],
      [
        103.7492697,
        1.3451972
      ],
      [
        103.749384,
        1.3452005
      ],
      [
        103.7494754,
        1.3451984
      ],
      [
        103.7496048,
        1.3451954
      ],
      [
        103.7496131,
        1.3451953
      ],
      [
        103.7498381,
        1.3451901
      ],
      [
        103.7498738,
        1.3451893
      ],
      [
        103.7501587,
        1.3451831
      ],
      [
        103.7503687,
        1.3451786
      ],
      [
        103.7511632,
        1.3451669
      ],
      [
        103.7512526,
        1.3451656
      ],
      [
        103.7512512,
        1.345243
      ],
      [
        103.7512431,
        1.3456935
      ],
      [
        103.7512446,
        1.3458579
      ],
      [
        103.7512486,
        1.346172
      ],
      [
        103.7512515,
        1.3463953
      ],
      [
        103.7512523,
        1.3464557
      ],
      [
        103.7512506,
        1.3465054
      ],
      [
        103.7513143,
        1.3465088
      ],
      [
        103.7515364,
        1.3465331
      ],
      [
        103.7516095,
        1.3465398
      ],
      [
        103.7517571,
        1.3465508
      ],
      [
        103.7521727,
        1.3465548
      ],
      [
        103.752357,
        1.3465555
      ],
      [
        103.7524843,
        1.3465577
      ],
      [
        103.7526767,
        1.3465604
      ],
      [
        103.7526982,
        1.3465607
      ],
      [
        103.7527153,
        1.3465609
      ],
      [
        103.7529927,
        1.3465609
      ],
      [
        103.7530555,
        1.3465614
      ],
      [
        103.7531883,
        1.346559
      ],
      [
        103.7532456,
        1.3465581
      ],
      [
        103.7535236,
        1.3465064
      ],
      [
        103.7535424,
        1.3465029
      ],
      [
        103.7537538,
        1.3464636
      ],
      [
        103.7538353,
        1.3464495
      ],
      [
        103.7538534,
        1.3464463
      ],
      [
        103.7539778,
        1.346424
      ],
      [
        103.7540571,
        1.3464118
      ],
      [
        103.7542314,
        1.3463849
      ],
      [
        103.7544,
        1.3463672
      ],
      [
        103.7544448,
        1.3463625
      ],
      [
        103.7546239,
        1.3463664
      ],
      [
        103.7547727,
        1.3463819
      ],
      [
        103.7548894,
        1.3464139
      ],
      [
        103.7549053,
        1.3464183
      ],
      [
        103.7550293,
        1.3464566
      ],
      [
        103.7551123,
        1.3464883
      ],
      [
        103.7551804,
        1.3465144
      ],
      [
        103.7553016,
        1.3465737
      ],
      [
        103.7554037,
        1.3466367
      ],
      [
        103.7555188,
        1.346708
      ],
      [
        103.7557242,
        1.3468908
      ],
      [
        103.7559039,
        1.3470857
      ],
      [
        103.756044,
        1.3472616
      ],
      [
        103.7561556,
        1.3473948
      ],
      [
        103.756236,
        1.3474936
      ],
      [
        103.7562966,
        1.3475598
      ],
      [
        103.7563507,
        1.3476157
      ],
      [
        103.7565426,
        1.3478142
      ],
      [
        103.7571273,
        1.3484186
      ],
      [
        103.7571899,
        1.34849
      ],
      [
        103.7572512,
        1.34856
      ],
      [
        103.7573157,
        1.3486336
      ],
      [
        103.7578417,
        1.3492208
      ],
      [
        103.7579996,
        1.3493228
      ],
      [
        103.75827,
        1.3494198
      ],
      [
        103.758695,
        1.3494717
      ],
      [
        103.7592979,
        1.3495379
      ],
      [
        103.7595436,
        1.3495664
      ],
      [
        103.7598306,
        1.3496072
      ],
      [
        103.7602278,
        1.3496636
      ],
      [
        103.7604308,
        1.3496876
      ],
      [
        103.760572,
        1.3497627
      ],
      [
        103.76063,
        1.3498185
      ],
      [
        103.7606482,
        1.349839
      ],
      [
        103.7606831,
        1.3498966
      ],
      [
        103.7607191,
        1.3499919
      ],
      [
        103.7606308,
        1.350241
      ],
      [
        103.7602639,
        1.3510019
      ],
      [
        103.7600486,
        1.3514754
      ],
      [
        103.7599713,
        1.3516906
      ],
      [
        103.7599611,
        1.3517297
      ],
      [
        103.7599424,
        1.3518144
      ],
      [
        103.7598922,
        1.3523237
      ],
      [
        103.7598352,
        1.3528192
      ],
      [
        103.7598395,
        1.3530599
      ],
      [
        103.7598504,
        1.3531832
      ],
      [
        103.7598727,
        1.3532905
      ],
      [
        103.7599321,
        1.3534844
      ],
      [
        103.7599883,
        1.3536285
      ],
      [
        103.7600058,
        1.3536761
      ],
      [
        103.760011,
        1.353686
      ],
      [
        103.7600769,
        1.3538102
      ],
      [
        103.760112,
        1.3538689
      ],
      [
        103.760147,
        1.3539307
      ],
      [
        103.7602543,
        1.3540912
      ],
      [
        103.7603385,
        1.3541939
      ],
      [
        103.7604641,
        1.3543214
      ],
      [
        103.7605081,
        1.3543664
      ],
      [
        103.7605752,
        1.3544332
      ],
      [
        103.7608573,
        1.3546089
      ],
      [
        103.760993,
        1.3547001
      ],
      [
        103.761136,
        1.3547964
      ],
      [
        103.761235,
        1.3548768
      ],
      [
        103.7613201,
        1.3549579
      ],
      [
        103.7615741,
        1.3552612
      ],
      [
        103.7616214,
        1.3553173
      ],
      [
        103.7618805,
        1.3557514
      ],
      [
        103.7619473,
        1.3558929
      ],
      [
        103.7620296,
        1.3561148
      ],
      [
        103.7621613,
        1.3566154
      ],
      [
        103.7622858,
        1.3570515
      ],
      [
        103.7618427,
        1.3571916
      ],
      [
        103.7622477,
        1.3570647
      ],
      [
        103.7622858,
        1.3570515
      ],
      [
        103.7615246,
        1.3572912
      ],
      [
        103.7612449,
        1.3575001
      ],
      [
        103.7612921,
        1.3576278
      ],
      [
        103.7613442,
        1.3577689
      ],
      [
        103.7615033,
        1.358109
      ],
      [
        103.7616031,
        1.3582561
      ],
      [
        103.7617426,
        1.3584666
      ],
      [
        103.761878,
        1.3586569
      ],
      [
        103.7622846,
        1.3592085
      ],
      [
        103.7625796,
        1.3596348
      ],
      [
        103.7626572,
        1.359747
      ],
      [
        103.7627756,
        1.3599143
      ],
      [
        103.7628342,
        1.3599961
      ],
      [
        103.7628665,
        1.3600412
      ],
      [
        103.7630642,
        1.3603176
      ],
      [
        103.7631716,
        1.3604677
      ],
      [
        103.76322,
        1.3605355
      ],
      [
        103.7634247,
        1.3603733
      ],
      [
        103.7636042,
        1.360231
      ],
      [
        103.7637919,
        1.3601142
      ],
      [
        103.7639554,
        1.3600397
      ],
      [
        103.7639897,
        1.3600238
      ],
      [
        103.764029,
        1.3601389
      ],
      [
        103.7642048,
        1.3606546
      ],
      [
        103.7642836,
        1.3608784
      ],
      [
        103.7643537,
        1.3611393
      ],
      [
        103.7643715,
        1.3612041
      ],
      [
        103.764413,
        1.361354
      ],
      [
        103.7644401,
        1.3614534
      ],
      [
        103.764541,
        1.361804
      ],
      [
        103.764551,
        1.3618396
      ],
      [
        103.7646054,
        1.3620407
      ],
      [
        103.7646286,
        1.3621435
      ],
      [
        103.764642,
        1.3622463
      ],
      [
        103.7646232,
        1.3622868
      ],
      [
        103.7646197,
        1.3623194
      ],
      [
        103.7646252,
        1.3623517
      ],
      [
        103.7646394,
        1.3623812
      ],
      [
        103.7646477,
        1.3623924
      ],
      [
        103.7646883,
        1.3624233
      ],
      [
        103.7647206,
        1.362433
      ],
      [
        103.7647543,
        1.3624333
      ],
      [
        103.7647868,
        1.3624241
      ],
      [
        103.7648153,
        1.3624061
      ],
      [
        103.764824,
        1.3623979
      ],
      [
        103.764846,
        1.3623658
      ],
      [
        103.7648565,
        1.3623282
      ],
      [
        103.7648541,
        1.3622893
      ],
      [
        103.7648393,
        1.3622532
      ],
      [
        103.7648136,
        1.3622239
      ],
      [
        103.7647889,
        1.3622082
      ],
      [
        103.7647254,
        1.3621304
      ],
      [
        103.7646962,
        1.3620561
      ],
      [
        103.764632,
        1.3618254
      ],
      [
        103.7646203,
        1.3617831
      ],
      [
        103.7645636,
        1.3615838
      ],
      [
        103.7644946,
        1.3613385
      ],
      [
        103.7643941,
        1.3609814
      ],
      [
        103.7641638,
        1.3601778
      ],
      [
        103.764122,
        1.3600524
      ],
      [
        103.7639308,
        1.3594454
      ],
      [
        103.7638025,
        1.3591852
      ],
      [
        103.7638051,
        1.3590665
      ],
      [
        103.7638061,
        1.3589814
      ],
      [
        103.7638839,
        1.3588329
      ],
      [
        103.7641278,
        1.3586801
      ],
      [
        103.7644743,
        1.3584881
      ],
      [
        103.7645991,
        1.3584223
      ],
      [
        103.7650314,
        1.3582815
      ],
      [
        103.765115,
        1.3582953
      ],
      [
        103.7656368,
        1.3581186
      ],
      [
        103.7656983,
        1.3580643
      ],
      [
        103.7657546,
        1.3580459
      ],
      [
        103.7658297,
        1.3580215
      ],
      [
        103.7664836,
        1.3578085
      ],
      [
        103.7669005,
        1.3576668
      ],
      [
        103.7670179,
        1.3575744
      ],
      [
        103.7671482,
        1.3574206
      ],
      [
        103.7672856,
        1.3571095
      ],
      [
        103.7673673,
        1.3569552
      ],
      [
        103.7675655,
        1.3566709
      ],
      [
        103.7677342,
        1.3564171
      ],
      [
        103.767801,
        1.3563224
      ],
      [
        103.767917,
        1.3561578
      ],
      [
        103.7680566,
        1.3559522
      ],
      [
        103.7681018,
        1.355888
      ],
      [
        103.7682512,
        1.355668
      ],
      [
        103.768355,
        1.3554421
      ],
      [
        103.7683914,
        1.3553531
      ],
      [
        103.7684365,
        1.3551551
      ],
      [
        103.7684879,
        1.3547964
      ],
      [
        103.7685075,
        1.3547248
      ],
      [
        103.7685382,
        1.3546675
      ],
      [
        103.7685826,
        1.3546318
      ],
      [
        103.7686399,
        1.3545982
      ],
      [
        103.7687094,
        1.3546214
      ],
      [
        103.7689559,
        1.3546216
      ],
      [
        103.7690351,
        1.3546146
      ],
      [
        103.7690907,
        1.3546047
      ],
      [
        103.7691278,
        1.3545948
      ],
      [
        103.769188,
        1.3545604
      ],
      [
        103.7693724,
        1.3540813
      ],
      [
        103.769448,
        1.3538931
      ],
      [
        103.769597,
        1.3534485
      ],
      [
        103.7696439,
        1.3532889
      ],
      [
        103.7696884,
        1.3531226
      ],
      [
        103.7697443,
        1.3529245
      ],
      [
        103.7698358,
        1.35253
      ],
      [
        103.7698911,
        1.352265
      ],
      [
        103.7699181,
        1.3521097
      ],
      [
        103.7699655,
        1.3518449
      ],
      [
        103.7699822,
        1.3517269
      ],
      [
        103.7699889,
        1.3516801
      ],
      [
        103.7700721,
        1.3510094
      ],
      [
        103.7701812,
        1.3501799
      ],
      [
        103.7702663,
        1.3495034
      ],
      [
        103.7703275,
        1.3492616
      ],
      [
        103.7703567,
        1.3491799
      ],
      [
        103.7703658,
        1.3491606
      ],
      [
        103.7703924,
        1.3491037
      ],
      [
        103.770408,
        1.3490747
      ],
      [
        103.7704644,
        1.3489662
      ],
      [
        103.7706175,
        1.3487237
      ],
      [
        103.7706383,
        1.3486907
      ],
      [
        103.7707708,
        1.3484944
      ],
      [
        103.771066,
        1.3480654
      ],
      [
        103.7714922,
        1.3473867
      ],
      [
        103.7718024,
        1.3468926
      ],
      [
        103.7719655,
        1.346682
      ],
      [
        103.7720242,
        1.3466208
      ],
      [
        103.7721492,
        1.3464904
      ],
      [
        103.7723377,
        1.3463028
      ],
      [
        103.7725806,
        1.3461412
      ],
      [
        103.7727104,
        1.3460483
      ],
      [
        103.7739372,
        1.3453368
      ],
      [
        103.7743731,
        1.3450874
      ],
      [
        103.7746957,
        1.344893
      ],
      [
        103.7747693,
        1.3448487
      ],
      [
        103.7749582,
        1.3447399
      ],
      [
        103.7751124,
        1.344649
      ],
      [
        103.7751832,
        1.3445673
      ],
      [
        103.7752289,
        1.3445014
      ],
      [
        103.7752588,
        1.3444495
      ],
      [
        103.7752648,
        1.3443912
      ],
      [
        103.7752819,
        1.3442516
      ],
      [
        103.7753351,
        1.3439295
      ],
      [
        103.7753635,
        1.3438727
      ],
      [
        103.7754135,
        1.3436022
      ],
      [
        103.7755893,
        1.3426801
      ],
      [
        103.7756908,
        1.3421286
      ],
      [
        103.7757341,
        1.3419084
      ],
      [
        103.775817,
        1.3414799
      ],
      [
        103.7758344,
        1.3413898
      ],
      [
        103.7758475,
        1.3413222
      ],
      [
        103.7758599,
        1.341266
      ],
      [
        103.7759184,
        1.3410009
      ],
      [
        103.775968,
        1.3407974
      ],
      [
        103.7760018,
        1.3406432
      ],
      [
        103.7760722,
        1.3403935
      ],
      [
        103.7760968,
        1.3403192
      ],
      [
        103.7761563,
        1.3401934
      ],
      [
        103.7760381,
        1.3401746
      ],
      [
        103.7759632,
        1.3401704
      ],
      [
        103.775562,
        1.3401477
      ],
      [
        103.7751415,
        1.3401535
      ],
      [
        103.7749926,
        1.3401573
      ],
      [
        103.7746436,
        1.3401715
      ],
      [
        103.7744157,
        1.3401745
      ],
      [
        103.774272,
        1.3401775
      ],
      [
        103.7741949,
        1.3401825
      ],
      [
        103.7733558,
        1.3402098
      ],
      [
        103.7730374,
        1.340251
      ],
      [
        103.7729341,
        1.3402688
      ],
      [
        103.7727405,
        1.340313
      ],
      [
        103.772554,
        1.3403827
      ],
      [
        103.772364,
        1.3404989
      ],
      [
        103.7722883,
        1.3405389
      ],
      [
        103.7722243,
        1.3405862
      ],
      [
        103.772087,
        1.3407118
      ],
      [
        103.7718277,
        1.3409715
      ],
      [
        103.7718116,
        1.3409859
      ],
      [
        103.7717364,
        1.3409235
      ],
      [
        103.7717049,
        1.3408985
      ],
      [
        103.7715553,
        1.3408101
      ],
      [
        103.7712862,
        1.3407081
      ],
      [
        103.7710115,
        1.340604
      ],
      [
        103.7707858,
        1.3405185
      ],
      [
        103.7707031,
        1.3404844
      ],
      [
        103.7705651,
        1.3404274
      ],
      [
        103.7704922,
        1.3403973
      ],
      [
        103.7704032,
        1.3403714
      ],
      [
        103.7703343,
        1.3403514
      ],
      [
        103.7702985,
        1.3403435
      ],
      [
        103.7699808,
        1.3402893
      ],
      [
        103.769841,
        1.3402504
      ],
      [
        103.7696246,
        1.3401677
      ],
      [
        103.7694736,
        1.3401023
      ],
      [
        103.7693399,
        1.3400443
      ],
      [
        103.7690489,
        1.3398983
      ],
      [
        103.7690031,
        1.3398699
      ],
      [
        103.7686603,
        1.339608
      ],
      [
        103.7686358,
        1.3395893
      ],
      [
        103.7686358,
        1.3395893
      ],
      [
        103.7687169,
        1.3388325
      ],
      [
        103.7688241,
        1.3382096
      ],
      [
        103.7689189,
        1.3376959
      ],
      [
        103.7688582,
        1.337473
      ],
      [
        103.768754,
        1.3374505
      ],
      [
        103.7687208,
        1.3374433
      ],
      [
        103.767876,
        1.3372432
      ],
      [
        103.7675381,
        1.3371663
      ],
      [
        103.7674744,
        1.3371504
      ],
      [
        103.7672855,
        1.3371033
      ],
      [
        103.7666107,
        1.3369462
      ],
      [
        103.7663465,
        1.3368793
      ],
      [
        103.7660118,
        1.3368148
      ],
      [
        103.7653175,
        1.3366761
      ],
      [
        103.7649127,
        1.3366089
      ],
      [
        103.7646493,
        1.3365619
      ],
      [
        103.7646018,
        1.3365794
      ],
      [
        103.7645733,
        1.3366283
      ],
      [
        103.764477,
        1.3371718
      ],
      [
        103.7644108,
        1.3375095
      ],
      [
        103.7643622,
        1.337791
      ],
      [
        103.7642556,
        1.3383204
      ],
      [
        103.7642156,
        1.3385872
      ],
      [
        103.7642089,
        1.33881
      ],
      [
        103.7641968,
        1.339253
      ],
      [
        103.7641818,
        1.3393574
      ],
      [
        103.7639978,
        1.3392894
      ],
      [
        103.763821,
        1.3392477
      ],
      [
        103.7634136,
        1.3391908
      ],
      [
        103.7632762,
        1.3391766
      ],
      [
        103.7629513,
        1.3391436
      ],
      [
        103.7628651,
        1.3391241
      ],
      [
        103.7627847,
        1.3390977
      ],
      [
        103.7626951,
        1.3390563
      ],
      [
        103.7626296,
        1.3390092
      ],
      [
        103.7625756,
        1.3389587
      ],
      [
        103.7625216,
        1.3388898
      ],
      [
        103.7624538,
        1.338783
      ],
      [
        103.762262,
        1.3383557
      ],
      [
        103.7622137,
        1.3382604
      ],
      [
        103.7621632,
        1.3381777
      ],
      [
        103.7621034,
        1.3381019
      ],
      [
        103.7620379,
        1.3380387
      ],
      [
        103.7619679,
        1.3379859
      ],
      [
        103.7618817,
        1.3379365
      ],
      [
        103.7617725,
        1.3378871
      ],
      [
        103.7611122,
        1.3376651
      ],
      [
        103.7608339,
        1.3375908
      ],
      [
        103.7607202,
        1.3375644
      ],
      [
        103.7605996,
        1.3375448
      ],
      [
        103.7605261,
        1.3375376
      ],
      [
        103.7604656,
        1.3375316
      ],
      [
        103.7604302,
        1.3372877
      ],
      [
        103.7604008,
        1.337169
      ],
      [
        103.7603706,
        1.3370577
      ],
      [
        103.7603235,
        1.3369135
      ],
      [
        103.7602109,
        1.3366055
      ],
      [
        103.7600906,
        1.3362941
      ],
      [
        103.7599576,
        1.3359467
      ],
      [
        103.7598785,
        1.3357197
      ],
      [
        103.7598233,
        1.3355533
      ],
      [
        103.759774,
        1.3353972
      ],
      [
        103.7597129,
        1.3352098
      ],
      [
        103.7596628,
        1.3350763
      ],
      [
        103.7594702,
        1.3345143
      ],
      [
        103.7594178,
        1.3343819
      ],
      [
        103.7592899,
        1.3339383
      ],
      [
        103.7592591,
        1.333715
      ],
      [
        103.7592514,
        1.3335163
      ],
      [
        103.7592545,
        1.333333
      ],
      [
        103.7592668,
        1.3331575
      ],
      [
        103.7593423,
        1.3327001
      ],
      [
        103.7593781,
        1.3325473
      ],
      [
        103.7594008,
        1.3320424
      ],
      [
        103.7593701,
        1.3317283
      ],
      [
        103.7592776,
        1.3314253
      ],
      [
        103.7592046,
        1.3312434
      ],
      [
        103.7591115,
        1.3310202
      ],
      [
        103.7590015,
        1.3308457
      ],
      [
        103.7589374,
        1.3307427
      ],
      [
        103.758875,
        1.3306449
      ],
      [
        103.7587802,
        1.3304931
      ],
      [
        103.7587334,
        1.3304199
      ],
      [
        103.7583561,
        1.3298411
      ],
      [
        103.7580012,
        1.3292968
      ],
      [
        103.7578019,
        1.3289733
      ],
      [
        103.7575551,
        1.32852
      ],
      [
        103.7575297,
        1.3284733
      ],
      [
        103.7573606,
        1.3280262
      ],
      [
        103.7573007,
        1.3277974
      ],
      [
        103.7572606,
        1.3276219
      ],
      [
        103.7572358,
        1.3274659
      ],
      [
        103.7572241,
        1.3273025
      ],
      [
        103.7572061,
        1.3269855
      ],
      [
        103.7572271,
        1.326689
      ],
      [
        103.7572226,
        1.3264899
      ],
      [
        103.7572298,
        1.3263788
      ],
      [
        103.7572899,
        1.3261472
      ],
      [
        103.7573265,
        1.3260542
      ],
      [
        103.7573662,
        1.3259737
      ],
      [
        103.7574164,
        1.3259055
      ],
      [
        103.7574696,
        1.3258493
      ],
      [
        103.7575457,
        1.3257887
      ],
      [
        103.7578287,
        1.3255653
      ],
      [
        103.7579635,
        1.3254869
      ],
      [
        103.7581591,
        1.3253633
      ],
      [
        103.7584382,
        1.3251753
      ],
      [
        103.7587146,
        1.3249723
      ],
      [
        103.7590202,
        1.3247154
      ],
      [
        103.7591715,
        1.3245789
      ],
      [
        103.7594962,
        1.3242871
      ],
      [
        103.7597,
        1.3240763
      ],
      [
        103.7598565,
        1.3239019
      ],
      [
        103.7606438,
        1.3227886
      ],
      [
        103.7608015,
        1.3225661
      ],
      [
        103.7609231,
        1.3224159
      ],
      [
        103.7612211,
        1.3220517
      ],
      [
        103.7614144,
        1.3217731
      ],
      [
        103.7615777,
        1.3215159
      ],
      [
        103.7616293,
        1.3214344
      ],
      [
        103.7617738,
        1.321205
      ],
      [
        103.761953,
        1.3208931
      ],
      [
        103.7621086,
        1.3206378
      ],
      [
        103.7621242,
        1.3206152
      ],
      [
        103.7623698,
        1.3202399
      ],
      [
        103.7624276,
        1.3201515
      ],
      [
        103.7624715,
        1.3200845
      ],
      [
        103.7626016,
        1.3198856
      ],
      [
        103.7626946,
        1.3197407
      ],
      [
        103.7629528,
        1.3193488
      ],
      [
        103.7629831,
        1.3193026
      ],
      [
        103.7630504,
        1.3192001
      ],
      [
        103.7632178,
        1.3189726
      ],
      [
        103.763248,
        1.3189254
      ],
      [
        103.763451,
        1.3186114
      ],
      [
        103.7635864,
        1.3183994
      ],
      [
        103.7636992,
        1.3182229
      ],
      [
        103.7641426,
        1.3175812
      ],
      [
        103.7644922,
        1.3170289
      ],
      [
        103.764531,
        1.3169567
      ],
      [
        103.7645978,
        1.3168362
      ],
      [
        103.764659,
        1.3167226
      ],
      [
        103.7647087,
        1.3166211
      ],
      [
        103.7648656,
        1.3163004
      ],
      [
        103.7648953,
        1.3162398
      ],
      [
        103.7649313,
        1.3161672
      ],
      [
        103.7649704,
        1.3160769
      ],
      [
        103.7648672,
        1.31601
      ],
      [
        103.7647301,
        1.3159212
      ],
      [
        103.7646314,
        1.3158573
      ],
      [
        103.764383,
        1.315667
      ],
      [
        103.7643638,
        1.3156326
      ],
      [
        103.7643514,
        1.3155965
      ],
      [
        103.7643439,
        1.3155664
      ],
      [
        103.7643526,
        1.3155357
      ]
    ]
  }
}