{
  "type": "Feature",
  "properties": {
    "relation": 4536772,
    "direction": "2",
    "fee": "yes",
    "from": "Bedok Interchange",
    "name": "Svc 17A (Bedok Interchange → SBST Bedok North Depot)",
    "network": "Land Transport Authority",
    "network:short": "LTA",
    "network:wikidata": "Q3299279",
    "network:wikipedia": "en:Land Transport Authority",
    "operator": "Go-Ahead Singapore",
    "operator:wikidata": "Q24698874",
    "operator:wikipedia": "en:Go-Ahead Singapore",
    "public_transport:version": "2",
    "ref": "17A",
    "route": "bus",
    "to": "Sbst Bedok North Depot",
    "type": "route",
    "website": "https://go-aheadsingapore.com/bus-services/"
  },
  "geometry": {
    "type": "LineString",
    "coordinates": [
      [
        103.9297341,
        1.3252769
      ],
      [
        103.9298191,
        1.3249358
      ],
      [
        103.9298956,
        1.3246112
      ],
      [
        103.929609,
        1.3245425
      ],
      [
        103.9287434,
        1.3243349
      ],
      [
        103.9286633,
        1.3246525
      ],
      [
        103.9285775,
        1.3249788
      ],
      [
        103.9285491,
        1.3251158
      ],
      [
        103.9285131,
        1.3252416
      ],
      [
        103.9284172,
        1.3252366
      ],
      [
        103.9283348,
        1.3252398
      ],
      [
        103.9282486,
        1.3252485
      ],
      [
        103.9276671,
        1.3252993
      ],
      [
        103.927546,
        1.3253044
      ],
      [
        103.9274511,
        1.325303
      ],
      [
        103.9274078,
        1.3252998
      ],
      [
        103.9272747,
        1.3252895
      ],
      [
        103.9272007,
        1.3252846
      ],
      [
        103.9271467,
        1.3252806
      ],
      [
        103.927008,
        1.3252704
      ],
      [
        103.9269974,
        1.3253553
      ],
      [
        103.9269372,
        1.3258097
      ],
      [
        103.9268723,
        1.3263034
      ],
      [
        103.9268486,
        1.326484
      ],
      [
        103.9268382,
        1.3265637
      ],
      [
        103.9268249,
        1.326665
      ],
      [
        103.9268131,
        1.3267546
      ],
      [
        103.9267588,
        1.3271685
      ],
      [
        103.9267322,
        1.3275157
      ],
      [
        103.9266279,
        1.3283069
      ],
      [
        103.9265958,
        1.3285507
      ],
      [
        103.9265201,
        1.3291244
      ],
      [
        103.9264962,
        1.3293059
      ],
      [
        103.9264781,
        1.3294721
      ],
      [
        103.92647,
        1.3295367
      ],
      [
        103.9264504,
        1.3296535
      ],
      [
        103.9265471,
        1.3296819
      ],
      [
        103.9266128,
        1.3296985
      ],
      [
        103.9276144,
        1.3299531
      ],
      [
        103.9282347,
        1.3301057
      ],
      [
        103.9283275,
        1.3301285
      ],
      [
        103.9288363,
        1.33026
      ],
      [
        103.9293136,
        1.3303802
      ],
      [
        103.9299077,
        1.3305297
      ],
      [
        103.9303828,
        1.3306505
      ],
      [
        103.9304932,
        1.3306781
      ],
      [
        103.9305822,
        1.3307009
      ],
      [
        103.9306807,
        1.3307238
      ],
      [
        103.9306968,
        1.3307289
      ],
      [
        103.9320327,
        1.3310447
      ],
      [
        103.9326236,
        1.3311847
      ],
      [
        103.933395,
        1.3313676
      ],
      [
        103.9340093,
        1.3315143
      ],
      [
        103.9341523,
        1.3315474
      ],
      [
        103.9342179,
        1.3315626
      ],
      [
        103.9343148,
        1.3315838
      ],
      [
        103.9343844,
        1.3315988
      ],
      [
        103.9345494,
        1.3316336
      ],
      [
        103.9351607,
        1.3317793
      ],
      [
        103.9356134,
        1.3318809
      ],
      [
        103.9356761,
        1.331895
      ],
      [
        103.9357381,
        1.3319091
      ],
      [
        103.9359377,
        1.3319547
      ],
      [
        103.9360163,
        1.3319727
      ],
      [
        103.936356,
        1.3320556
      ],
      [
        103.9365981,
        1.3320868
      ],
      [
        103.9367724,
        1.3321026
      ],
      [
        103.9369675,
        1.3320979
      ],
      [
        103.937042,
        1.3320938
      ],
      [
        103.9372315,
        1.3320789
      ],
      [
        103.9374119,
        1.3320511
      ],
      [
        103.9376066,
        1.3320223
      ],
      [
        103.9376067,
        1.3320666
      ],
      [
        103.9376029,
        1.3325153
      ],
      [
        103.9376012,
        1.3327291
      ],
      [
        103.9376064,
        1.3328587
      ],
      [
        103.9376077,
        1.3328862
      ],
      [
        103.9376114,
        1.3329135
      ],
      [
        103.9376174,
        1.3329404
      ],
      [
        103.9376256,
        1.3329667
      ],
      [
        103.9376361,
        1.3329922
      ],
      [
        103.9376487,
        1.3330167
      ],
      [
        103.9376634,
        1.3330401
      ],
      [
        103.93768,
        1.3330621
      ],
      [
        103.9376984,
        1.3330826
      ],
      [
        103.9377185,
        1.3331014
      ],
      [
        103.9377401,
        1.3331185
      ],
      [
        103.9377632,
        1.3331337
      ],
      [
        103.9377874,
        1.3331468
      ],
      [
        103.9378127,
        1.3331578
      ],
      [
        103.9378388,
        1.3331667
      ],
      [
        103.9378655,
        1.3331733
      ],
      [
        103.9381591,
        1.3332377
      ],
      [
        103.9383432,
        1.3332746
      ],
      [
        103.938549,
        1.3333159
      ],
      [
        103.9393754,
        1.3334877
      ],
      [
        103.9394684,
        1.333507
      ],
      [
        103.9395149,
        1.3335181
      ],
      [
        103.9397962,
        1.3335978
      ],
      [
        103.9402408,
        1.3337284
      ],
      [
        103.9403576,
        1.3337623
      ],
      [
        103.9405896,
        1.3338302
      ],
      [
        103.9407556,
        1.3338791
      ],
      [
        103.9409188,
        1.3339271
      ],
      [
        103.9409494,
        1.3339346
      ],
      [
        103.9413322,
        1.3340192
      ],
      [
        103.9414261,
        1.3340399
      ],
      [
        103.9421783,
        1.3342054
      ],
      [
        103.9425092,
        1.3342739
      ],
      [
        103.9427472,
        1.3343285
      ],
      [
        103.9427501,
        1.3343291
      ],
      [
        103.9429102,
        1.3343664
      ],
      [
        103.9430768,
        1.3344136
      ],
      [
        103.9432118,
        1.3344971
      ],
      [
        103.9433406,
        1.3346046
      ],
      [
        103.9434374,
        1.3347312
      ],
      [
        103.9435045,
        1.3348823
      ],
      [
        103.9435884,
        1.3352342
      ],
      [
        103.9436355,
        1.3356001
      ],
      [
        103.9436598,
        1.3357583
      ],
      [
        103.9437007,
        1.336024
      ],
      [
        103.943759,
        1.3361456
      ],
      [
        103.9438064,
        1.3362214
      ],
      [
        103.943831,
        1.3362584
      ],
      [
        103.9441278,
        1.3365256
      ],
      [
        103.9442018,
        1.3365831
      ],
      [
        103.9444138,
        1.3367743
      ],
      [
        103.9446501,
        1.3369836
      ],
      [
        103.9447356,
        1.33706
      ],
      [
        103.9447938,
        1.3371068
      ],
      [
        103.945188,
        1.337424
      ],
      [
        103.9453624,
        1.3375644
      ],
      [
        103.945403,
        1.3375972
      ],
      [
        103.9454746,
        1.3376547
      ],
      [
        103.9455865,
        1.3377482
      ],
      [
        103.9456947,
        1.3378074
      ],
      [
        103.9457703,
        1.337838
      ],
      [
        103.9458756,
        1.3378593
      ],
      [
        103.9460274,
        1.3378699
      ],
      [
        103.9461203,
        1.3378709
      ],
      [
        103.9461976,
        1.3378641
      ],
      [
        103.9466885,
        1.3377782
      ],
      [
        103.9468617,
        1.3377507
      ],
      [
        103.9470447,
        1.3377172
      ],
      [
        103.9474516,
        1.3376512
      ],
      [
        103.9474579,
        1.3377157
      ],
      [
        103.9474705,
        1.3378452
      ]
    ]
  }
}