{
  "type": "Feature",
  "properties": {
    "relation": 20965630,
    "direction": "1",
    "fee": "yes",
    "from": "Boon Lay Interchange",
    "name": "Svc 181A (Boon Lay Interchange → Blk 276B)",
    "name:en": "Svc 181A (Boon Lay Interchange → Blk 276B)",
    "network": "Land Transport Authority",
    "network:short": "LTA",
    "network:wikidata": "Q3299279",
    "network:wikipedia": "en:Land Transport Authority",
    "operator": "SMRT Buses",
    "operator:wikidata": "Q10852420",
    "operator:wikipedia": "en:SMRT Buses",
    "public_transport:version": "2",
    "ref": "181",
    "roundtrip": "yes",
    "route": "bus",
    "to": "Blk 276B",
    "type": "route",
    "via": "Jurong West Avenue 3",
    "website": "https://journey.smrt.com.sg/journey/bus_search/bus/181A/"
  },
  "geometry": {
    "type": "LineString",
    "coordinates": [
      [
        103.7055558,
        1.340292
      ],
      [
        103.7055796,
        1.3402265
      ],
      [
        103.7056101,
        1.3401424
      ],
      [
        103.705696,
        1.3398822
      ],
      [
        103.7057212,
        1.3398057
      ],
      [
        103.7057629,
        1.3396795
      ],
      [
        103.7058153,
        1.3395208
      ],
      [
        103.705821,
        1.3394659
      ],
      [
        103.7058152,
        1.3394449
      ],
      [
        103.7057965,
        1.339427
      ],
      [
        103.7053904,
        1.3392791
      ],
      [
        103.7047704,
        1.3390533
      ],
      [
        103.7047322,
        1.3390454
      ],
      [
        103.7046939,
        1.3390461
      ],
      [
        103.7046745,
        1.3390568
      ],
      [
        103.7046621,
        1.3390677
      ],
      [
        103.7045954,
        1.3392562
      ],
      [
        103.7045394,
        1.3394125
      ],
      [
        103.7045451,
        1.3394436
      ],
      [
        103.7045625,
        1.3394703
      ],
      [
        103.7055021,
        1.3398079
      ],
      [
        103.7055872,
        1.3398497
      ],
      [
        103.7055977,
        1.3398652
      ],
      [
        103.7056021,
        1.3398758
      ],
      [
        103.7056031,
        1.3398872
      ],
      [
        103.705497,
        1.340199
      ],
      [
        103.7054751,
        1.3402633
      ],
      [
        103.7052326,
        1.3401663
      ],
      [
        103.7050505,
        1.3400936
      ],
      [
        103.7049991,
        1.340073
      ],
      [
        103.7049334,
        1.3400449
      ],
      [
        103.7047485,
        1.3399708
      ],
      [
        103.7043991,
        1.3398415
      ],
      [
        103.7042008,
        1.3397762
      ],
      [
        103.7041339,
        1.3397529
      ],
      [
        103.7039597,
        1.3396967
      ],
      [
        103.703933,
        1.3397852
      ],
      [
        103.703926,
        1.3398233
      ],
      [
        103.703878,
        1.3401014
      ],
      [
        103.7038484,
        1.3403238
      ],
      [
        103.7038361,
        1.3406064
      ],
      [
        103.703807,
        1.3409341
      ],
      [
        103.7038042,
        1.3409937
      ],
      [
        103.7037961,
        1.3410938
      ],
      [
        103.7037962,
        1.3411414
      ],
      [
        103.7037868,
        1.3412945
      ],
      [
        103.7037519,
        1.3416506
      ],
      [
        103.7037213,
        1.3419377
      ],
      [
        103.7036808,
        1.3424429
      ],
      [
        103.70368,
        1.3424497
      ],
      [
        103.7036452,
        1.3427747
      ],
      [
        103.7036308,
        1.3429089
      ],
      [
        103.7036111,
        1.343107
      ],
      [
        103.7035869,
        1.3433109
      ],
      [
        103.7035489,
        1.3435265
      ],
      [
        103.7034655,
        1.3438683
      ],
      [
        103.703435,
        1.3439449
      ],
      [
        103.7033798,
        1.3440825
      ],
      [
        103.7033003,
        1.3442709
      ],
      [
        103.70319,
        1.3444676
      ],
      [
        103.703054,
        1.3446602
      ],
      [
        103.7029544,
        1.3448204
      ],
      [
        103.7028645,
        1.3451252
      ],
      [
        103.7028233,
        1.345236
      ],
      [
        103.7027643,
        1.3453381
      ],
      [
        103.702711,
        1.3454178
      ],
      [
        103.7026353,
        1.34554
      ],
      [
        103.702606,
        1.3455752
      ],
      [
        103.7025388,
        1.3456561
      ],
      [
        103.7024676,
        1.3457501
      ],
      [
        103.7023916,
        1.3458101
      ],
      [
        103.7022924,
        1.3459418
      ],
      [
        103.7018992,
        1.3465208
      ],
      [
        103.7018198,
        1.3466234
      ],
      [
        103.7017254,
        1.3467751
      ],
      [
        103.701654,
        1.3468787
      ],
      [
        103.7015579,
        1.3470127
      ],
      [
        103.7014593,
        1.3470939
      ],
      [
        103.7013961,
        1.3471787
      ],
      [
        103.7013306,
        1.3472714
      ],
      [
        103.7011804,
        1.3475624
      ],
      [
        103.7011299,
        1.3477024
      ],
      [
        103.7010425,
        1.3478368
      ],
      [
        103.7009611,
        1.3479225
      ],
      [
        103.7009227,
        1.3479593
      ],
      [
        103.7008713,
        1.347995
      ],
      [
        103.700759,
        1.3480541
      ],
      [
        103.700658,
        1.3480716
      ],
      [
        103.7005806,
        1.348085
      ],
      [
        103.7004966,
        1.3480807
      ],
      [
        103.7003746,
        1.348055
      ],
      [
        103.7001702,
        1.3480263
      ],
      [
        103.7000128,
        1.3480272
      ],
      [
        103.6999281,
        1.3480392
      ],
      [
        103.6996559,
        1.3480754
      ],
      [
        103.6994083,
        1.3481407
      ],
      [
        103.6991734,
        1.3481636
      ],
      [
        103.6991148,
        1.3481725
      ],
      [
        103.6990349,
        1.3481787
      ],
      [
        103.6985232,
        1.3482421
      ],
      [
        103.6982986,
        1.3482606
      ],
      [
        103.6979804,
        1.3482972
      ],
      [
        103.6978225,
        1.34832
      ],
      [
        103.6975317,
        1.3482841
      ],
      [
        103.6974093,
        1.3482948
      ],
      [
        103.6972449,
        1.3483337
      ],
      [
        103.6971423,
        1.3483457
      ],
      [
        103.6970568,
        1.3483548
      ],
      [
        103.6970659,
        1.3485579
      ],
      [
        103.6970687,
        1.3486379
      ],
      [
        103.6971179,
        1.349047
      ],
      [
        103.6971536,
        1.3493121
      ],
      [
        103.6972025,
        1.3495548
      ],
      [
        103.6972166,
        1.3496141
      ],
      [
        103.6972218,
        1.3496358
      ],
      [
        103.6972311,
        1.3496746
      ],
      [
        103.6972678,
        1.3497789
      ],
      [
        103.6973754,
        1.3499782
      ],
      [
        103.6975301,
        1.3501571
      ],
      [
        103.6975601,
        1.3501918
      ],
      [
        103.697778,
        1.350362
      ],
      [
        103.6979483,
        1.350463
      ],
      [
        103.698149,
        1.3505308
      ],
      [
        103.69836,
        1.3505686
      ],
      [
        103.6983679,
        1.35057
      ],
      [
        103.6983828,
        1.3505727
      ],
      [
        103.6986929,
        1.3505653
      ],
      [
        103.6989633,
        1.3505515
      ],
      [
        103.699239,
        1.3505375
      ],
      [
        103.6993553,
        1.3505308
      ],
      [
        103.6993706,
        1.35053
      ],
      [
        103.6994488,
        1.3505306
      ],
      [
        103.7006288,
        1.3505003
      ],
      [
        103.7007022,
        1.3504983
      ],
      [
        103.7013824,
        1.3504803
      ],
      [
        103.7014844,
        1.3504837
      ],
      [
        103.7015514,
        1.3504859
      ],
      [
        103.7015837,
        1.350487
      ],
      [
        103.7016422,
        1.350489
      ],
      [
        103.7016525,
        1.350491
      ],
      [
        103.7016691,
        1.3504941
      ],
      [
        103.7017845,
        1.350516
      ],
      [
        103.7021439,
        1.3505763
      ],
      [
        103.7024013,
        1.3506277
      ],
      [
        103.702682,
        1.3506796
      ],
      [
        103.703055,
        1.3507591
      ],
      [
        103.7031216,
        1.35077
      ],
      [
        103.7032009,
        1.3508017
      ],
      [
        103.7032437,
        1.3508262
      ],
      [
        103.7033611,
        1.3509132
      ],
      [
        103.7034907,
        1.3510047
      ],
      [
        103.7038791,
        1.351288
      ],
      [
        103.7041293,
        1.3514721
      ],
      [
        103.7044829,
        1.3517218
      ],
      [
        103.7045547,
        1.3517821
      ],
      [
        103.7046132,
        1.3518348
      ],
      [
        103.7047412,
        1.3519708
      ],
      [
        103.7048556,
        1.3521557
      ],
      [
        103.7049222,
        1.352322
      ],
      [
        103.7049692,
        1.3525191
      ],
      [
        103.7049794,
        1.3527265
      ],
      [
        103.7049607,
        1.3529053
      ],
      [
        103.7049094,
        1.3531919
      ]
    ]
  }
}