{
  "type": "Feature",
  "properties": {
    "relation": 6623000,
    "direction": "2",
    "fee": "yes",
    "from": "HarbourFront Interchange",
    "name": "Svc 188 (HarbourFront Interchange → Choa Chu Kang Interchange)",
    "name:en": "Svc 188 (HarbourFront Interchange → Choa Chu Kang Interchange)",
    "network": "Land Transport Authority",
    "network:short": "LTA",
    "network:wikidata": "Q3299279",
    "network:wikipedia": "en:Land Transport Authority",
    "operator": "SMRT Buses",
    "operator:wikidata": "Q10852420",
    "operator:wikipedia": "en:SMRT Buses",
    "public_transport:version": "2",
    "ref": "188",
    "route": "bus",
    "to": "Choa Chu Kang Interchange",
    "type": "route",
    "website": "https://www.smrt.com.sg/"
  },
  "geometry": {
    "type": "LineString",
    "coordinates": [
      [
        103.8187619,
        1.2675574
      ],
      [
        103.819913,
        1.2667537
      ],
      [
        103.8199157,
        1.2667469
      ],
      [
        103.8199152,
        1.2667387
      ],
      [
        103.8198713,
        1.2666899
      ],
      [
        103.819858,
        1.2666833
      ],
      [
        103.8198446,
        1.2666853
      ],
      [
        103.8188049,
        1.2674562
      ],
      [
        103.8187243,
        1.2675058
      ],
      [
        103.8186166,
        1.2673692
      ],
      [
        103.8187243,
        1.2675058
      ],
      [
        103.8185448,
        1.2672582
      ],
      [
        103.8185264,
        1.2672265
      ],
      [
        103.8185069,
        1.2671844
      ],
      [
        103.8185271,
        1.267031
      ],
      [
        103.8185038,
        1.2668537
      ],
      [
        103.8184917,
        1.2667881
      ],
      [
        103.8184396,
        1.2664852
      ],
      [
        103.818364,
        1.2665423
      ],
      [
        103.8182929,
        1.2665894
      ],
      [
        103.8181949,
        1.2666545
      ],
      [
        103.8177632,
        1.2669119
      ],
      [
        103.8177115,
        1.2669388
      ],
      [
        103.8172631,
        1.2671984
      ],
      [
        103.8162983,
        1.2677798
      ],
      [
        103.8162293,
        1.2678185
      ],
      [
        103.8161848,
        1.2678435
      ],
      [
        103.8158809,
        1.2680062
      ],
      [
        103.8153673,
        1.2682742
      ],
      [
        103.8148257,
        1.2685518
      ],
      [
        103.8145566,
        1.2686992
      ],
      [
        103.8140104,
        1.2690395
      ],
      [
        103.8134324,
        1.2694258
      ],
      [
        103.8132904,
        1.2695081
      ],
      [
        103.8131718,
        1.2695883
      ],
      [
        103.8127423,
        1.2698888
      ],
      [
        103.8124088,
        1.2701097
      ],
      [
        103.8121882,
        1.2702514
      ],
      [
        103.8121413,
        1.270279
      ],
      [
        103.8116494,
        1.2705755
      ],
      [
        103.8113238,
        1.2707011
      ],
      [
        103.8112381,
        1.2707389
      ],
      [
        103.8111409,
        1.2707631
      ],
      [
        103.8108932,
        1.2707904
      ],
      [
        103.8106155,
        1.270821
      ],
      [
        103.8101539,
        1.2708491
      ],
      [
        103.8100945,
        1.2708527
      ],
      [
        103.8098401,
        1.2708646
      ],
      [
        103.8093407,
        1.2708927
      ],
      [
        103.8091832,
        1.2709016
      ],
      [
        103.8091771,
        1.2709019
      ],
      [
        103.8087413,
        1.2709531
      ],
      [
        103.8084602,
        1.2709877
      ],
      [
        103.8082305,
        1.2710159
      ],
      [
        103.8081185,
        1.2710325
      ],
      [
        103.807918,
        1.2710727
      ],
      [
        103.8073883,
        1.2711812
      ],
      [
        103.8068778,
        1.2713696
      ],
      [
        103.8065343,
        1.2715143
      ],
      [
        103.8060986,
        1.2716899
      ],
      [
        103.8055097,
        1.2719273
      ],
      [
        103.8046083,
        1.2722703
      ],
      [
        103.8041513,
        1.2723969
      ],
      [
        103.8038838,
        1.2724424
      ],
      [
        103.8033891,
        1.2724951
      ],
      [
        103.8028526,
        1.2725318
      ],
      [
        103.8027603,
        1.2725338
      ],
      [
        103.8024188,
        1.2725519
      ],
      [
        103.8023064,
        1.2725626
      ],
      [
        103.8022235,
        1.272566
      ],
      [
        103.802123,
        1.272573
      ],
      [
        103.8020032,
        1.2725848
      ],
      [
        103.8018643,
        1.2725988
      ],
      [
        103.801761,
        1.272621
      ],
      [
        103.8014953,
        1.2726749
      ],
      [
        103.8014508,
        1.2726822
      ],
      [
        103.8009516,
        1.2728728
      ],
      [
        103.8006309,
        1.2730113
      ],
      [
        103.8000483,
        1.2733016
      ],
      [
        103.8000228,
        1.2733143
      ],
      [
        103.7999638,
        1.2733378
      ],
      [
        103.7999043,
        1.2733642
      ],
      [
        103.7997361,
        1.2734388
      ],
      [
        103.7992425,
        1.2736386
      ],
      [
        103.7990932,
        1.2737074
      ],
      [
        103.7988775,
        1.2737956
      ],
      [
        103.7986072,
        1.2738902
      ],
      [
        103.7984399,
        1.2739488
      ],
      [
        103.7978918,
        1.2741357
      ],
      [
        103.7975986,
        1.2742254
      ],
      [
        103.7975286,
        1.2742468
      ],
      [
        103.7972859,
        1.2743211
      ],
      [
        103.7967833,
        1.2744852
      ],
      [
        103.796369,
        1.2746164
      ],
      [
        103.7963324,
        1.2746289
      ],
      [
        103.7956552,
        1.27486
      ],
      [
        103.7956162,
        1.2748736
      ],
      [
        103.7950468,
        1.2750722
      ],
      [
        103.7950172,
        1.2750825
      ],
      [
        103.7949709,
        1.2750985
      ],
      [
        103.7947827,
        1.2751649
      ],
      [
        103.7947524,
        1.2751761
      ],
      [
        103.7946037,
        1.2752251
      ],
      [
        103.794329,
        1.2753212
      ],
      [
        103.7940805,
        1.2754082
      ],
      [
        103.7939466,
        1.2754591
      ],
      [
        103.7934259,
        1.2756373
      ],
      [
        103.7931271,
        1.2757383
      ],
      [
        103.7927251,
        1.2758758
      ],
      [
        103.7926888,
        1.2758882
      ],
      [
        103.7918105,
        1.2761886
      ],
      [
        103.7917836,
        1.2761979
      ],
      [
        103.7915155,
        1.2762901
      ],
      [
        103.7914163,
        1.2763243
      ],
      [
        103.7909852,
        1.2764735
      ],
      [
        103.7908619,
        1.2765175
      ],
      [
        103.7907925,
        1.2765417
      ],
      [
        103.790615,
        1.2766014
      ],
      [
        103.790349,
        1.2766903
      ],
      [
        103.7898865,
        1.2768446
      ],
      [
        103.7895345,
        1.2769643
      ],
      [
        103.7876361,
        1.2776192
      ],
      [
        103.7870751,
        1.2777994
      ],
      [
        103.7865985,
        1.2779583
      ],
      [
        103.7865428,
        1.2779793
      ],
      [
        103.7859703,
        1.2781727
      ],
      [
        103.7858582,
        1.27821
      ],
      [
        103.7858033,
        1.2783168
      ],
      [
        103.7858011,
        1.2784805
      ],
      [
        103.7858073,
        1.2785463
      ],
      [
        103.785818,
        1.2786607
      ],
      [
        103.7858013,
        1.2787449
      ],
      [
        103.7857709,
        1.278831
      ],
      [
        103.7857609,
        1.2788603
      ],
      [
        103.7857493,
        1.2788936
      ],
      [
        103.7857429,
        1.2789118
      ],
      [
        103.7857256,
        1.2789631
      ],
      [
        103.7856876,
        1.2790864
      ],
      [
        103.7855596,
        1.2794912
      ],
      [
        103.7855047,
        1.2796636
      ],
      [
        103.7854744,
        1.2797647
      ],
      [
        103.7854606,
        1.2798648
      ],
      [
        103.7853265,
        1.2801975
      ],
      [
        103.7853138,
        1.2802316
      ],
      [
        103.7852893,
        1.2803
      ],
      [
        103.7852609,
        1.2803808
      ],
      [
        103.7851925,
        1.2805394
      ],
      [
        103.7850779,
        1.2807262
      ],
      [
        103.7850339,
        1.2807717
      ],
      [
        103.7849701,
        1.2808284
      ],
      [
        103.7849062,
        1.2808844
      ],
      [
        103.7847851,
        1.280964
      ],
      [
        103.7845989,
        1.2810855
      ],
      [
        103.784414,
        1.2812033
      ],
      [
        103.784368,
        1.2812348
      ],
      [
        103.7843183,
        1.2812673
      ],
      [
        103.7841977,
        1.2813395
      ],
      [
        103.7839927,
        1.2814887
      ],
      [
        103.7837539,
        1.2816469
      ],
      [
        103.7836204,
        1.2817381
      ],
      [
        103.7834858,
        1.2818265
      ],
      [
        103.7833307,
        1.2819362
      ],
      [
        103.7832667,
        1.2819799
      ],
      [
        103.7830877,
        1.2821023
      ],
      [
        103.7828038,
        1.2822867
      ],
      [
        103.7827318,
        1.2822876
      ],
      [
        103.7826316,
        1.2823435
      ],
      [
        103.7823577,
        1.2824947
      ],
      [
        103.7822469,
        1.2825736
      ],
      [
        103.7819594,
        1.2827806
      ],
      [
        103.7818465,
        1.2828734
      ],
      [
        103.7817771,
        1.2829363
      ],
      [
        103.7817236,
        1.2829889
      ],
      [
        103.7816431,
        1.2830805
      ],
      [
        103.7815535,
        1.2831769
      ],
      [
        103.7814538,
        1.2833129
      ],
      [
        103.7812449,
        1.2835767
      ],
      [
        103.7811342,
        1.2837096
      ],
      [
        103.7811116,
        1.2837368
      ],
      [
        103.7808012,
        1.2841473
      ],
      [
        103.7807493,
        1.2842581
      ],
      [
        103.7807392,
        1.2843304
      ],
      [
        103.7807437,
        1.2844073
      ],
      [
        103.7807569,
        1.2844542
      ],
      [
        103.780871,
        1.2846093
      ],
      [
        103.7809009,
        1.2846504
      ],
      [
        103.7809392,
        1.2847019
      ],
      [
        103.7809587,
        1.2847532
      ],
      [
        103.780964,
        1.2848001
      ],
      [
        103.780956,
        1.2848629
      ],
      [
        103.7809465,
        1.2848987
      ],
      [
        103.780933,
        1.2849496
      ],
      [
        103.7808684,
        1.2850991
      ],
      [
        103.7806658,
        1.2854617
      ],
      [
        103.7805428,
        1.2856369
      ],
      [
        103.7804074,
        1.2858032
      ],
      [
        103.7797542,
        1.2864617
      ],
      [
        103.7796898,
        1.2865266
      ],
      [
        103.7795323,
        1.2866823
      ],
      [
        103.7793647,
        1.2868412
      ],
      [
        103.7791863,
        1.2870503
      ],
      [
        103.7790294,
        1.2872836
      ],
      [
        103.7786363,
        1.2878846
      ],
      [
        103.7785687,
        1.2879879
      ],
      [
        103.7782921,
        1.2884425
      ],
      [
        103.7782114,
        1.2885524
      ],
      [
        103.7781892,
        1.2885826
      ],
      [
        103.7780899,
        1.2886554
      ],
      [
        103.7780579,
        1.2886834
      ],
      [
        103.7779992,
        1.2887304
      ],
      [
        103.7779571,
        1.2887626
      ],
      [
        103.7779315,
        1.2887825
      ],
      [
        103.777796,
        1.2888882
      ],
      [
        103.7777155,
        1.2889354
      ],
      [
        103.7776865,
        1.2889524
      ],
      [
        103.7776674,
        1.2889636
      ],
      [
        103.7775162,
        1.2890286
      ],
      [
        103.7774213,
        1.289059
      ],
      [
        103.7771725,
        1.2891386
      ],
      [
        103.7770644,
        1.2891732
      ],
      [
        103.7768234,
        1.2892557
      ],
      [
        103.7767592,
        1.2892777
      ],
      [
        103.7764221,
        1.2893989
      ],
      [
        103.7762889,
        1.2894467
      ],
      [
        103.7762016,
        1.2894781
      ],
      [
        103.7760474,
        1.2895335
      ],
      [
        103.7759242,
        1.2895778
      ],
      [
        103.7759003,
        1.2895864
      ],
      [
        103.7758709,
        1.2895968
      ],
      [
        103.775699,
        1.2896577
      ],
      [
        103.7755839,
        1.2896954
      ],
      [
        103.775537,
        1.2897107
      ],
      [
        103.7755219,
        1.2897157
      ],
      [
        103.7753237,
        1.2897903
      ],
      [
        103.7753055,
        1.2897972
      ],
      [
        103.7751334,
        1.2898608
      ],
      [
        103.7748936,
        1.2899493
      ],
      [
        103.7747891,
        1.289988
      ],
      [
        103.7747313,
        1.2900093
      ],
      [
        103.7746956,
        1.2900229
      ],
      [
        103.7745945,
        1.2900614
      ],
      [
        103.7744742,
        1.2901071
      ],
      [
        103.7744172,
        1.2901288
      ],
      [
        103.7741528,
        1.2902552
      ],
      [
        103.7741023,
        1.2902793
      ],
      [
        103.7740648,
        1.2902986
      ],
      [
        103.7738328,
        1.2904181
      ],
      [
        103.773704,
        1.2904844
      ],
      [
        103.7736275,
        1.2905238
      ],
      [
        103.7734288,
        1.2906248
      ],
      [
        103.7733856,
        1.2906429
      ],
      [
        103.7733551,
        1.2906552
      ],
      [
        103.7730722,
        1.2907555
      ],
      [
        103.772867,
        1.2908165
      ],
      [
        103.7727789,
        1.2908433
      ],
      [
        103.7726194,
        1.2908918
      ],
      [
        103.772505,
        1.2909266
      ],
      [
        103.772308,
        1.2909866
      ],
      [
        103.7720342,
        1.2910699
      ],
      [
        103.7715185,
        1.2912066
      ],
      [
        103.7713851,
        1.2912362
      ],
      [
        103.7709336,
        1.2913589
      ],
      [
        103.7708705,
        1.2913761
      ],
      [
        103.7708406,
        1.2913848
      ],
      [
        103.7708035,
        1.2913956
      ],
      [
        103.7706635,
        1.2914327
      ],
      [
        103.7697407,
        1.291684
      ],
      [
        103.7696652,
        1.2917033
      ],
      [
        103.7694998,
        1.2917428
      ],
      [
        103.7694346,
        1.2917623
      ],
      [
        103.7690488,
        1.2918872
      ],
      [
        103.7690402,
        1.2918901
      ],
      [
        103.7687974,
        1.2919728
      ],
      [
        103.7685915,
        1.2920468
      ],
      [
        103.7684308,
        1.292122
      ],
      [
        103.7682093,
        1.2922321
      ],
      [
        103.7681586,
        1.2922625
      ],
      [
        103.768085,
        1.2923066
      ],
      [
        103.7680415,
        1.2923327
      ],
      [
        103.7679141,
        1.2924408
      ],
      [
        103.7679981,
        1.2925514
      ],
      [
        103.7680331,
        1.292597
      ],
      [
        103.7681964,
        1.2928055
      ],
      [
        103.768531,
        1.2932386
      ],
      [
        103.7686356,
        1.2933734
      ],
      [
        103.768774,
        1.2935517
      ],
      [
        103.7688855,
        1.293697
      ],
      [
        103.7689251,
        1.2937486
      ],
      [
        103.7690344,
        1.2938947
      ],
      [
        103.7690621,
        1.2939318
      ],
      [
        103.7691206,
        1.2940233
      ],
      [
        103.7691704,
        1.2941082
      ],
      [
        103.7693188,
        1.2943817
      ],
      [
        103.7694185,
        1.2946358
      ],
      [
        103.7694851,
        1.2948767
      ],
      [
        103.7695014,
        1.2949467
      ],
      [
        103.7695305,
        1.2951321
      ],
      [
        103.7695389,
        1.2952499
      ],
      [
        103.7695482,
        1.2954479
      ],
      [
        103.7695538,
        1.2957602
      ],
      [
        103.7695664,
        1.2959825
      ],
      [
        103.7695704,
        1.2960534
      ],
      [
        103.7695702,
        1.2961463
      ],
      [
        103.7695737,
        1.2962078
      ],
      [
        103.7696687,
        1.2978696
      ],
      [
        103.7696736,
        1.2979531
      ],
      [
        103.7696857,
        1.2981593
      ],
      [
        103.7697527,
        1.2993014
      ],
      [
        103.7697715,
        1.2996223
      ],
      [
        103.7697853,
        1.2998014
      ],
      [
        103.7698378,
        1.3001968
      ],
      [
        103.7699419,
        1.3005904
      ],
      [
        103.7699522,
        1.3006292
      ],
      [
        103.7699994,
        1.3007414
      ],
      [
        103.770039,
        1.3008355
      ],
      [
        103.770109,
        1.3009829
      ],
      [
        103.7702219,
        1.3012301
      ],
      [
        103.7703335,
        1.3014503
      ],
      [
        103.7703826,
        1.3015602
      ],
      [
        103.770434,
        1.3016685
      ],
      [
        103.7704678,
        1.3017283
      ],
      [
        103.7705335,
        1.3018777
      ],
      [
        103.7708012,
        1.302473
      ],
      [
        103.7708038,
        1.3026522
      ],
      [
        103.7708137,
        1.3028136
      ],
      [
        103.7708232,
        1.3029698
      ],
      [
        103.7708244,
        1.3032241
      ],
      [
        103.770795,
        1.3036801
      ],
      [
        103.7707783,
        1.3038447
      ],
      [
        103.7707319,
        1.3040014
      ],
      [
        103.7704428,
        1.3042528
      ],
      [
        103.7703336,
        1.3043478
      ],
      [
        103.7700281,
        1.3045084
      ],
      [
        103.7698233,
        1.3046207
      ],
      [
        103.7696716,
        1.3046422
      ],
      [
        103.7695656,
        1.3047151
      ],
      [
        103.7694105,
        1.304808
      ],
      [
        103.7693398,
        1.3048536
      ],
      [
        103.7692959,
        1.3049425
      ],
      [
        103.769041,
        1.3051404
      ],
      [
        103.7685491,
        1.3055521
      ],
      [
        103.7682995,
        1.3058059
      ],
      [
        103.7679103,
        1.3061213
      ],
      [
        103.7676954,
        1.3063032
      ],
      [
        103.767162,
        1.3067702
      ],
      [
        103.7667284,
        1.3072301
      ],
      [
        103.7666491,
        1.3073506
      ],
      [
        103.7665059,
        1.3075501
      ],
      [
        103.766011,
        1.3082296
      ],
      [
        103.7657841,
        1.3085412
      ],
      [
        103.7655406,
        1.3088755
      ],
      [
        103.764981,
        1.3095755
      ],
      [
        103.7648618,
        1.3097155
      ],
      [
        103.7644472,
        1.310181
      ],
      [
        103.7643323,
        1.3103161
      ],
      [
        103.7641542,
        1.3105251
      ],
      [
        103.7640961,
        1.3105834
      ],
      [
        103.7639829,
        1.310697
      ],
      [
        103.7637614,
        1.3109192
      ],
      [
        103.7635748,
        1.3111065
      ],
      [
        103.7635324,
        1.311149
      ],
      [
        103.7633537,
        1.3113226
      ],
      [
        103.7633038,
        1.311371
      ],
      [
        103.7627538,
        1.3119049
      ],
      [
        103.7627102,
        1.311906
      ],
      [
        103.7626686,
        1.3119221
      ],
      [
        103.7626297,
        1.311959
      ],
      [
        103.7624835,
        1.3121078
      ],
      [
        103.762345,
        1.3122278
      ],
      [
        103.761918,
        1.3126135
      ],
      [
        103.7618081,
        1.3127212
      ],
      [
        103.7615938,
        1.3127943
      ],
      [
        103.7614998,
        1.3128298
      ],
      [
        103.7613853,
        1.3128479
      ],
      [
        103.7608843,
        1.3128592
      ],
      [
        103.7606623,
        1.3128642
      ],
      [
        103.7605424,
        1.3128756
      ],
      [
        103.7604444,
        1.3129069
      ],
      [
        103.7603654,
        1.3129506
      ],
      [
        103.7602915,
        1.3130074
      ],
      [
        103.7602373,
        1.3130835
      ],
      [
        103.7601949,
        1.3131911
      ],
      [
        103.7601707,
        1.3132987
      ],
      [
        103.7601721,
        1.3134137
      ],
      [
        103.7601858,
        1.313517
      ],
      [
        103.7602979,
        1.313945
      ],
      [
        103.7606253,
        1.315192
      ],
      [
        103.7606651,
        1.3152933
      ],
      [
        103.7607482,
        1.3155066
      ],
      [
        103.7608947,
        1.3158108
      ],
      [
        103.7609588,
        1.3159219
      ],
      [
        103.761026,
        1.3160385
      ],
      [
        103.7611407,
        1.3161733
      ],
      [
        103.7613965,
        1.3164585
      ],
      [
        103.7618422,
        1.316979
      ],
      [
        103.7618652,
        1.317092
      ],
      [
        103.7618861,
        1.3171317
      ],
      [
        103.7620261,
        1.3173652
      ],
      [
        103.7621378,
        1.3175372
      ],
      [
        103.7622321,
        1.3176902
      ],
      [
        103.7623347,
        1.3178512
      ],
      [
        103.7624521,
        1.3180737
      ],
      [
        103.7627519,
        1.3186161
      ],
      [
        103.76276,
        1.318776
      ],
      [
        103.7627592,
        1.3188471
      ],
      [
        103.7627544,
        1.3190027
      ],
      [
        103.7627298,
        1.3191995
      ],
      [
        103.7627003,
        1.3192826
      ],
      [
        103.7626413,
        1.3194432
      ],
      [
        103.7625164,
        1.3196227
      ],
      [
        103.7622727,
        1.3200046
      ],
      [
        103.7621494,
        1.3201978
      ],
      [
        103.7620103,
        1.3204157
      ],
      [
        103.7619562,
        1.3205004
      ],
      [
        103.7618701,
        1.3206354
      ],
      [
        103.7618428,
        1.3206727
      ],
      [
        103.7614999,
        1.3211885
      ],
      [
        103.7612504,
        1.3215775
      ],
      [
        103.7611401,
        1.3217407
      ],
      [
        103.7610961,
        1.3218033
      ],
      [
        103.7605085,
        1.3226861
      ],
      [
        103.7596979,
        1.3238013
      ],
      [
        103.7595431,
        1.3239935
      ],
      [
        103.7593621,
        1.3241906
      ],
      [
        103.7590724,
        1.3244641
      ],
      [
        103.7587802,
        1.3247181
      ],
      [
        103.7582896,
        1.3250691
      ],
      [
        103.7579608,
        1.3252381
      ],
      [
        103.757703,
        1.3253795
      ],
      [
        103.7573398,
        1.3255639
      ],
      [
        103.7569542,
        1.3257403
      ],
      [
        103.7563084,
        1.3259739
      ],
      [
        103.7556342,
        1.3262158
      ],
      [
        103.7552928,
        1.3263496
      ],
      [
        103.7551029,
        1.326416
      ],
      [
        103.7549575,
        1.3264608
      ],
      [
        103.7546454,
        1.326557
      ],
      [
        103.7537046,
        1.326861
      ],
      [
        103.7527625,
        1.3272019
      ],
      [
        103.75256,
        1.327277
      ],
      [
        103.7523882,
        1.3273411
      ],
      [
        103.7522862,
        1.3273775
      ],
      [
        103.752044,
        1.3274818
      ],
      [
        103.7520129,
        1.327495
      ],
      [
        103.7519343,
        1.3275365
      ],
      [
        103.7518731,
        1.3275655
      ],
      [
        103.7517114,
        1.3276421
      ],
      [
        103.7509136,
        1.3280706
      ],
      [
        103.7507075,
        1.3281797
      ],
      [
        103.7504345,
        1.3283738
      ],
      [
        103.7501362,
        1.3285859
      ],
      [
        103.7500325,
        1.3286596
      ],
      [
        103.7499834,
        1.3287011
      ],
      [
        103.7496133,
        1.329014
      ],
      [
        103.7492562,
        1.3293252
      ],
      [
        103.7490095,
        1.3295517
      ],
      [
        103.7487963,
        1.3297433
      ],
      [
        103.7482066,
        1.3302652
      ],
      [
        103.7480176,
        1.3304325
      ],
      [
        103.7476949,
        1.3307379
      ],
      [
        103.7474572,
        1.3309603
      ],
      [
        103.7472408,
        1.3311596
      ],
      [
        103.7470975,
        1.33127
      ],
      [
        103.7468907,
        1.3314413
      ],
      [
        103.746849,
        1.3314756
      ],
      [
        103.7467055,
        1.3316012
      ],
      [
        103.7468195,
        1.3317614
      ],
      [
        103.7468772,
        1.3318335
      ],
      [
        103.7470443,
        1.3320422
      ],
      [
        103.7471022,
        1.3321124
      ],
      [
        103.7472975,
        1.3323879
      ],
      [
        103.7474458,
        1.3326237
      ],
      [
        103.7477577,
        1.3331544
      ],
      [
        103.7477891,
        1.3333184
      ],
      [
        103.7478206,
        1.3334793
      ],
      [
        103.747836,
        1.3336952
      ],
      [
        103.7478316,
        1.3339982
      ],
      [
        103.7477799,
        1.3344698
      ],
      [
        103.7477387,
        1.3350419
      ],
      [
        103.7477174,
        1.3352725
      ],
      [
        103.7477104,
        1.3353344
      ],
      [
        103.7476904,
        1.3354931
      ],
      [
        103.7476807,
        1.3355706
      ],
      [
        103.7475772,
        1.3362959
      ],
      [
        103.7475742,
        1.3363228
      ],
      [
        103.7475635,
        1.3364228
      ],
      [
        103.7475575,
        1.3365019
      ],
      [
        103.747545,
        1.3366654
      ],
      [
        103.7475404,
        1.3367059
      ],
      [
        103.7475257,
        1.3369886
      ],
      [
        103.7475169,
        1.3372735
      ],
      [
        103.7475067,
        1.3375551
      ],
      [
        103.7474947,
        1.337826
      ],
      [
        103.7474845,
        1.3383419
      ],
      [
        103.7474536,
        1.338425
      ],
      [
        103.747432,
        1.338473
      ],
      [
        103.7474056,
        1.3385239
      ],
      [
        103.747383,
        1.338554
      ],
      [
        103.7473646,
        1.3385835
      ],
      [
        103.7473265,
        1.3386096
      ],
      [
        103.7472741,
        1.3386431
      ],
      [
        103.7471662,
        1.3386867
      ],
      [
        103.7468509,
        1.3387692
      ],
      [
        103.7466672,
        1.3388168
      ],
      [
        103.7466616,
        1.3388184
      ],
      [
        103.7463775,
        1.3388999
      ],
      [
        103.7462313,
        1.3389602
      ],
      [
        103.7460865,
        1.3390407
      ],
      [
        103.7458143,
        1.3392378
      ],
      [
        103.7456907,
        1.3393285
      ],
      [
        103.7456113,
        1.3393861
      ],
      [
        103.7451628,
        1.3397114
      ],
      [
        103.7446378,
        1.3400923
      ],
      [
        103.7446178,
        1.3401067
      ],
      [
        103.7445203,
        1.3401775
      ],
      [
        103.7441238,
        1.3403995
      ],
      [
        103.7440239,
        1.3404565
      ],
      [
        103.7439026,
        1.3405263
      ],
      [
        103.7435147,
        1.3407493
      ],
      [
        103.7434082,
        1.340809
      ],
      [
        103.7433218,
        1.3408601
      ],
      [
        103.7431897,
        1.3409264
      ],
      [
        103.7432259,
        1.340978
      ],
      [
        103.7432624,
        1.3410238
      ],
      [
        103.7439069,
        1.3418417
      ],
      [
        103.7447411,
        1.3429003
      ],
      [
        103.7459378,
        1.3445672
      ],
      [
        103.745947,
        1.3445793
      ],
      [
        103.7465053,
        1.345319
      ],
      [
        103.746759,
        1.3456631
      ],
      [
        103.7467612,
        1.345783
      ],
      [
        103.7467513,
        1.3458765
      ],
      [
        103.7467182,
        1.3459786
      ],
      [
        103.746656,
        1.3460702
      ],
      [
        103.7463661,
        1.3463006
      ],
      [
        103.7462283,
        1.3464101
      ],
      [
        103.7460838,
        1.3465203
      ],
      [
        103.74575,
        1.3467789
      ],
      [
        103.7457232,
        1.3467988
      ],
      [
        103.7456901,
        1.3468233
      ],
      [
        103.7455311,
        1.3469414
      ],
      [
        103.7454473,
        1.3470114
      ],
      [
        103.7452982,
        1.3471357
      ],
      [
        103.7452015,
        1.3472129
      ],
      [
        103.7449063,
        1.3474589
      ],
      [
        103.7448594,
        1.3474983
      ],
      [
        103.7448033,
        1.3475645
      ],
      [
        103.7447343,
        1.3476774
      ],
      [
        103.7446794,
        1.3477673
      ],
      [
        103.7446338,
        1.347875
      ],
      [
        103.7445957,
        1.3479648
      ],
      [
        103.744562,
        1.348049
      ],
      [
        103.7445464,
        1.348088
      ],
      [
        103.7445179,
        1.3481904
      ],
      [
        103.7444886,
        1.3483888
      ],
      [
        103.744491,
        1.3485193
      ],
      [
        103.7444984,
        1.3486938
      ],
      [
        103.7445184,
        1.3488862
      ],
      [
        103.7445562,
        1.3490395
      ],
      [
        103.7445964,
        1.3491609
      ],
      [
        103.7446233,
        1.3492236
      ],
      [
        103.744727,
        1.3494652
      ],
      [
        103.7448063,
        1.3496174
      ],
      [
        103.7448136,
        1.3496314
      ],
      [
        103.744841,
        1.349684
      ],
      [
        103.745101,
        1.3502638
      ],
      [
        103.7451253,
        1.350324
      ],
      [
        103.7451701,
        1.3504347
      ],
      [
        103.7452188,
        1.3505505
      ],
      [
        103.7453191,
        1.3508468
      ],
      [
        103.745339,
        1.3510316
      ],
      [
        103.7453411,
        1.3510986
      ],
      [
        103.7453397,
        1.3511832
      ],
      [
        103.7453371,
        1.3512729
      ],
      [
        103.7453221,
        1.3514666
      ],
      [
        103.745295,
        1.3516941
      ],
      [
        103.7452695,
        1.3519665
      ],
      [
        103.7452607,
        1.3520525
      ],
      [
        103.7452435,
        1.3521527
      ],
      [
        103.7453775,
        1.3521689
      ],
      [
        103.7454237,
        1.3521753
      ],
      [
        103.745632,
        1.3522051
      ],
      [
        103.7458719,
        1.3522402
      ],
      [
        103.7461304,
        1.3522772
      ],
      [
        103.7466448,
        1.3523591
      ],
      [
        103.7469045,
        1.3523906
      ],
      [
        103.7471775,
        1.3524114
      ],
      [
        103.7474397,
        1.3524091
      ],
      [
        103.7482699,
        1.3524126
      ],
      [
        103.7483516,
        1.3524132
      ],
      [
        103.748353,
        1.3524789
      ],
      [
        103.7483543,
        1.3526129
      ],
      [
        103.7483449,
        1.352751
      ],
      [
        103.7483174,
        1.3529259
      ],
      [
        103.748296,
        1.35306
      ],
      [
        103.7482589,
        1.3532055
      ],
      [
        103.7482035,
        1.353351
      ],
      [
        103.7481759,
        1.3534442
      ],
      [
        103.7481088,
        1.3535489
      ],
      [
        103.7480308,
        1.3536485
      ],
      [
        103.747757,
        1.3540242
      ],
      [
        103.7476527,
        1.3542047
      ],
      [
        103.7474601,
        1.3547576
      ],
      [
        103.7474058,
        1.3548889
      ],
      [
        103.7473565,
        1.3551268
      ],
      [
        103.7473393,
        1.3552827
      ],
      [
        103.7473376,
        1.3554455
      ],
      [
        103.7472729,
        1.3562955
      ],
      [
        103.7472662,
        1.356391
      ],
      [
        103.747265,
        1.3564881
      ],
      [
        103.7472619,
        1.3565967
      ],
      [
        103.7472454,
        1.357257
      ],
      [
        103.7472332,
        1.3578203
      ],
      [
        103.7471922,
        1.3585249
      ],
      [
        103.7471663,
        1.3586706
      ],
      [
        103.7471364,
        1.358783
      ],
      [
        103.7470995,
        1.3588925
      ],
      [
        103.7470516,
        1.359004
      ],
      [
        103.7469654,
        1.3591508
      ],
      [
        103.7468671,
        1.359283
      ],
      [
        103.7467329,
        1.3594257
      ],
      [
        103.7465519,
        1.3595968
      ],
      [
        103.7462555,
        1.3598765
      ],
      [
        103.7460176,
        1.3600938
      ],
      [
        103.745867,
        1.3602324
      ],
      [
        103.7458035,
        1.3603052
      ],
      [
        103.7454626,
        1.360754
      ],
      [
        103.7454102,
        1.3608163
      ],
      [
        103.7454648,
        1.3608643
      ],
      [
        103.7455515,
        1.3609189
      ],
      [
        103.7456283,
        1.3609702
      ],
      [
        103.7457447,
        1.3610546
      ],
      [
        103.7458955,
        1.361178
      ],
      [
        103.7460022,
        1.3612718
      ],
      [
        103.746238,
        1.3615192
      ],
      [
        103.7463631,
        1.3617081
      ],
      [
        103.7465623,
        1.362011
      ],
      [
        103.7465992,
        1.362067
      ],
      [
        103.7468608,
        1.3624956
      ],
      [
        103.7469085,
        1.3625737
      ],
      [
        103.7470386,
        1.3629451
      ],
      [
        103.7471083,
        1.3632534
      ],
      [
        103.7471085,
        1.3634847
      ],
      [
        103.7470942,
        1.3640033
      ],
      [
        103.7470817,
        1.3641192
      ],
      [
        103.7470753,
        1.3643419
      ],
      [
        103.7470713,
        1.3644506
      ],
      [
        103.7470483,
        1.3650599
      ],
      [
        103.7470378,
        1.3651351
      ],
      [
        103.7470311,
        1.3651831
      ],
      [
        103.7470968,
        1.3651894
      ],
      [
        103.7471609,
        1.3651953
      ],
      [
        103.7480669,
        1.3652271
      ],
      [
        103.7481002,
        1.3652276
      ],
      [
        103.7487637,
        1.3652383
      ],
      [
        103.7488014,
        1.3652413
      ],
      [
        103.7491784,
        1.3652717
      ],
      [
        103.7498304,
        1.3653495
      ],
      [
        103.7500553,
        1.3653645
      ],
      [
        103.7502748,
        1.36538
      ],
      [
        103.7507548,
        1.3654155
      ],
      [
        103.7512046,
        1.3654561
      ],
      [
        103.7512786,
        1.3654648
      ],
      [
        103.7512666,
        1.3655259
      ],
      [
        103.7512405,
        1.3656914
      ],
      [
        103.7511805,
        1.3659213
      ],
      [
        103.7510793,
        1.36622
      ],
      [
        103.7509897,
        1.3664293
      ],
      [
        103.7509348,
        1.3665533
      ],
      [
        103.7508385,
        1.3667417
      ],
      [
        103.7506905,
        1.366983
      ],
      [
        103.7506083,
        1.3670984
      ],
      [
        103.750287,
        1.3674782
      ],
      [
        103.7499283,
        1.3678216
      ],
      [
        103.7497302,
        1.3679977
      ],
      [
        103.7495683,
        1.3681385
      ],
      [
        103.7493095,
        1.3683699
      ],
      [
        103.749076,
        1.3685353
      ],
      [
        103.7488403,
        1.368731
      ],
      [
        103.7487409,
        1.3688261
      ],
      [
        103.7486133,
        1.3689519
      ],
      [
        103.748557,
        1.3689974
      ],
      [
        103.7484465,
        1.3690824
      ],
      [
        103.7485329,
        1.3691678
      ],
      [
        103.748583,
        1.3692173
      ],
      [
        103.7487665,
        1.3693988
      ],
      [
        103.7500347,
        1.3706155
      ],
      [
        103.7501574,
        1.3707362
      ],
      [
        103.7503808,
        1.3709521
      ],
      [
        103.7505924,
        1.3711621
      ],
      [
        103.7506976,
        1.3712665
      ],
      [
        103.751231,
        1.3717906
      ],
      [
        103.7515065,
        1.3721106
      ],
      [
        103.751701,
        1.3724061
      ],
      [
        103.751998,
        1.3728337
      ],
      [
        103.7521738,
        1.3732561
      ],
      [
        103.7521836,
        1.3732994
      ],
      [
        103.7522198,
        1.3734162
      ],
      [
        103.7522537,
        1.3735267
      ],
      [
        103.7522985,
        1.373677
      ],
      [
        103.7523629,
        1.3738781
      ],
      [
        103.7524745,
        1.3742484
      ],
      [
        103.752648,
        1.3747368
      ],
      [
        103.7527763,
        1.374982
      ],
      [
        103.75292,
        1.375218
      ],
      [
        103.7530014,
        1.3753254
      ],
      [
        103.7530234,
        1.3753544
      ],
      [
        103.7531826,
        1.3755644
      ],
      [
        103.7534976,
        1.3759483
      ],
      [
        103.7535108,
        1.3761011
      ],
      [
        103.7535066,
        1.3761351
      ],
      [
        103.753495,
        1.3762285
      ],
      [
        103.7534331,
        1.3763433
      ],
      [
        103.7533337,
        1.3764408
      ],
      [
        103.7528209,
        1.3766601
      ],
      [
        103.7526298,
        1.3767419
      ],
      [
        103.7523092,
        1.3768895
      ],
      [
        103.7521952,
        1.3769404
      ],
      [
        103.7520528,
        1.3770036
      ],
      [
        103.7518446,
        1.3770931
      ],
      [
        103.7517898,
        1.3771174
      ],
      [
        103.751731,
        1.3771437
      ],
      [
        103.7516845,
        1.3771645
      ],
      [
        103.7515326,
        1.3772351
      ],
      [
        103.7509923,
        1.3774784
      ],
      [
        103.7504726,
        1.3777136
      ],
      [
        103.750085,
        1.3778899
      ],
      [
        103.7498994,
        1.3779719
      ],
      [
        103.7494316,
        1.3781828
      ],
      [
        103.7491469,
        1.3783092
      ],
      [
        103.7488723,
        1.3784358
      ],
      [
        103.7486644,
        1.378528
      ],
      [
        103.7486271,
        1.3785419
      ],
      [
        103.7485409,
        1.3785798
      ],
      [
        103.7484647,
        1.3786141
      ],
      [
        103.7483167,
        1.378681
      ],
      [
        103.7477569,
        1.3789336
      ],
      [
        103.7473094,
        1.3791355
      ],
      [
        103.7472875,
        1.3791454
      ],
      [
        103.7471592,
        1.3792033
      ],
      [
        103.7465563,
        1.3794753
      ],
      [
        103.7460682,
        1.3796955
      ],
      [
        103.7459145,
        1.3797649
      ],
      [
        103.7454568,
        1.3799714
      ],
      [
        103.7451242,
        1.3801214
      ],
      [
        103.7450769,
        1.380143
      ],
      [
        103.7442799,
        1.3805259
      ],
      [
        103.7439555,
        1.3807628
      ],
      [
        103.7438775,
        1.3808115
      ],
      [
        103.7437173,
        1.380949
      ],
      [
        103.7434618,
        1.3812169
      ],
      [
        103.743349,
        1.3813484
      ],
      [
        103.7433341,
        1.3813689
      ],
      [
        103.7432335,
        1.3815064
      ],
      [
        103.7432235,
        1.3815258
      ],
      [
        103.7431461,
        1.3816578
      ],
      [
        103.742975,
        1.3819464
      ],
      [
        103.7429148,
        1.3821061
      ],
      [
        103.7428724,
        1.3823017
      ],
      [
        103.7427567,
        1.3827339
      ],
      [
        103.7427385,
        1.3828117
      ],
      [
        103.7427114,
        1.3829253
      ],
      [
        103.7426841,
        1.3830686
      ],
      [
        103.7425902,
        1.3834904
      ],
      [
        103.7425731,
        1.3835475
      ],
      [
        103.7425358,
        1.383722
      ],
      [
        103.7425253,
        1.3837713
      ],
      [
        103.7425047,
        1.3838678
      ],
      [
        103.7425986,
        1.3838848
      ],
      [
        103.742669,
        1.3838988
      ],
      [
        103.7429755,
        1.3839531
      ],
      [
        103.7432006,
        1.3840088
      ],
      [
        103.7433272,
        1.3840504
      ],
      [
        103.7434211,
        1.3840807
      ],
      [
        103.7433831,
        1.3842046
      ],
      [
        103.7432591,
        1.38464
      ],
      [
        103.7432134,
        1.3848292
      ],
      [
        103.7431477,
        1.3850382
      ],
      [
        103.7431048,
        1.3851876
      ],
      [
        103.7430327,
        1.385441
      ],
      [
        103.7430042,
        1.385544
      ],
      [
        103.7429834,
        1.3856257
      ],
      [
        103.7430026,
        1.3857348
      ],
      [
        103.7430289,
        1.3857887
      ],
      [
        103.7430731,
        1.3858571
      ],
      [
        103.7433564,
        1.3861689
      ],
      [
        103.7434038,
        1.386219
      ],
      [
        103.7434563,
        1.3862707
      ],
      [
        103.743512,
        1.386309
      ],
      [
        103.7435778,
        1.3863293
      ],
      [
        103.7436683,
        1.3863564
      ],
      [
        103.7438854,
        1.386371
      ],
      [
        103.7440414,
        1.3863808
      ],
      [
        103.744649,
        1.3864015
      ],
      [
        103.7448227,
        1.3864074
      ],
      [
        103.744913,
        1.3864092
      ],
      [
        103.7449229,
        1.3864095
      ],
      [
        103.7449244,
        1.386337
      ],
      [
        103.7449334,
        1.3862586
      ],
      [
        103.7449894,
        1.3861545
      ],
      [
        103.7456297,
        1.3861348
      ],
      [
        103.7456898,
        1.3861098
      ],
      [
        103.7457185,
        1.386066
      ],
      [
        103.7457385,
        1.3860095
      ],
      [
        103.7457448,
        1.3858397
      ]
    ]
  }
}