{
  "type": "Feature",
  "properties": {
    "relation": 1156092,
    "direction": "1",
    "fee": "yes",
    "from": "Bukit Batok Interchange",
    "name": "Svc 189 (Bukit Batok Interchange ↺ Clementi Avenue 1)",
    "name:en": "Svc 189 (Bukit Batok Interchange ↺ Clementi Avenue 1)",
    "network": "Land Transport Authority",
    "network:short": "LTA",
    "network:wikidata": "Q3299279",
    "network:wikipedia": "en:Land Transport Authority",
    "operator": "Tower Transit Singapore",
    "operator:wikidata": "Q19898668",
    "operator:wikipedia": "en:Tower Transit Singapore",
    "public_transport:version": "2",
    "ref": "189",
    "roundtrip": "yes",
    "route": "bus",
    "to": "Bukit Batok Interchange",
    "type": "route",
    "via": "Clementi Avenue 1",
    "website": "https://towertransit.sg/"
  },
  "geometry": {
    "type": "LineString",
    "coordinates": [
      [
        103.7596429,
        1.3353142
      ],
      [
        103.7596847,
        1.3354482
      ],
      [
        103.7597488,
        1.3356658
      ],
      [
        103.7597815,
        1.3357589
      ],
      [
        103.760034,
        1.3364501
      ],
      [
        103.7602343,
        1.3370249
      ],
      [
        103.7603089,
        1.3372454
      ],
      [
        103.7603398,
        1.3373715
      ],
      [
        103.7603617,
        1.3375277
      ],
      [
        103.7603698,
        1.3376462
      ],
      [
        103.7603726,
        1.337694
      ],
      [
        103.7603969,
        1.3381116
      ],
      [
        103.7603793,
        1.3384473
      ],
      [
        103.760357,
        1.3386984
      ],
      [
        103.7603384,
        1.3388476
      ],
      [
        103.7603073,
        1.3390117
      ],
      [
        103.7602928,
        1.3390655
      ],
      [
        103.7602707,
        1.3391352
      ],
      [
        103.7601541,
        1.3394152
      ],
      [
        103.7600145,
        1.339711
      ],
      [
        103.7599244,
        1.3399054
      ],
      [
        103.7597172,
        1.340024
      ],
      [
        103.7596694,
        1.3400444
      ],
      [
        103.7596157,
        1.3400619
      ],
      [
        103.7594876,
        1.3400545
      ],
      [
        103.7594386,
        1.3400352
      ],
      [
        103.7585514,
        1.3396106
      ],
      [
        103.7584923,
        1.3395823
      ],
      [
        103.7583733,
        1.3395411
      ],
      [
        103.758186,
        1.3394909
      ],
      [
        103.7580644,
        1.3394721
      ],
      [
        103.757908,
        1.3394573
      ],
      [
        103.7578227,
        1.3394648
      ],
      [
        103.7577127,
        1.3394793
      ],
      [
        103.7576345,
        1.3394981
      ],
      [
        103.7575665,
        1.3395184
      ],
      [
        103.7574915,
        1.3395453
      ],
      [
        103.7567792,
        1.3399172
      ],
      [
        103.7566352,
        1.339998
      ],
      [
        103.756592,
        1.3400235
      ],
      [
        103.7565858,
        1.3400272
      ],
      [
        103.7565558,
        1.340046
      ],
      [
        103.7565223,
        1.3400659
      ],
      [
        103.7564903,
        1.3400844
      ],
      [
        103.7564233,
        1.3401231
      ],
      [
        103.7561107,
        1.3403076
      ],
      [
        103.7559008,
        1.3404314
      ],
      [
        103.7558632,
        1.3404536
      ],
      [
        103.755789,
        1.3404974
      ],
      [
        103.7553822,
        1.3407305
      ],
      [
        103.7552674,
        1.3407993
      ],
      [
        103.7549965,
        1.3409515
      ],
      [
        103.7548454,
        1.3410434
      ],
      [
        103.7548043,
        1.3410684
      ],
      [
        103.7547451,
        1.3411044
      ],
      [
        103.7547042,
        1.3411292
      ],
      [
        103.7542909,
        1.3413676
      ],
      [
        103.7538365,
        1.3416189
      ],
      [
        103.753803,
        1.3416428
      ],
      [
        103.7537456,
        1.3416876
      ],
      [
        103.7536916,
        1.3417427
      ],
      [
        103.7536376,
        1.3418162
      ],
      [
        103.7536073,
        1.34188
      ],
      [
        103.7535859,
        1.3419276
      ],
      [
        103.7535663,
        1.3419851
      ],
      [
        103.753556,
        1.3420459
      ],
      [
        103.7535502,
        1.3421137
      ],
      [
        103.7535525,
        1.3421734
      ],
      [
        103.7535571,
        1.3422332
      ],
      [
        103.7535657,
        1.3422839
      ],
      [
        103.7535812,
        1.3423294
      ],
      [
        103.7536054,
        1.3423805
      ],
      [
        103.7539745,
        1.3430788
      ],
      [
        103.7540766,
        1.3432883
      ],
      [
        103.7541663,
        1.3434723
      ],
      [
        103.7542471,
        1.3436381
      ],
      [
        103.7543619,
        1.343908
      ],
      [
        103.7544075,
        1.3440296
      ],
      [
        103.7544262,
        1.344079
      ],
      [
        103.7544362,
        1.3441055
      ],
      [
        103.7544627,
        1.3441757
      ],
      [
        103.7544176,
        1.344192
      ],
      [
        103.7522669,
        1.3448395
      ],
      [
        103.7521318,
        1.3448718
      ],
      [
        103.7520544,
        1.3448903
      ],
      [
        103.7518337,
        1.3449374
      ],
      [
        103.7513502,
        1.3450485
      ],
      [
        103.7513208,
        1.3450547
      ],
      [
        103.7512481,
        1.3450625
      ],
      [
        103.7511612,
        1.3450632
      ],
      [
        103.7503928,
        1.3450633
      ],
      [
        103.7500812,
        1.3450582
      ],
      [
        103.7494728,
        1.3450578
      ],
      [
        103.74938,
        1.3450577
      ],
      [
        103.7492642,
        1.3450567
      ],
      [
        103.7487434,
        1.3450581
      ],
      [
        103.7483914,
        1.3450552
      ],
      [
        103.7481991,
        1.3450929
      ],
      [
        103.7480865,
        1.3451141
      ],
      [
        103.7480222,
        1.3451302
      ],
      [
        103.7478938,
        1.3451877
      ],
      [
        103.7476694,
        1.3453344
      ],
      [
        103.7474549,
        1.3454898
      ],
      [
        103.7472491,
        1.3456353
      ],
      [
        103.7470269,
        1.3458059
      ],
      [
        103.747011,
        1.3458198
      ],
      [
        103.746913,
        1.3458898
      ],
      [
        103.7469884,
        1.3459913
      ],
      [
        103.7470154,
        1.3460267
      ],
      [
        103.7471603,
        1.3462207
      ],
      [
        103.7473086,
        1.3464234
      ],
      [
        103.7474286,
        1.3465848
      ],
      [
        103.7482162,
        1.3476442
      ],
      [
        103.74841,
        1.3479051
      ],
      [
        103.7484592,
        1.3479754
      ],
      [
        103.7487084,
        1.3483326
      ],
      [
        103.7487725,
        1.3484201
      ],
      [
        103.7488119,
        1.3484692
      ],
      [
        103.748828,
        1.3484872
      ],
      [
        103.7489208,
        1.348421
      ],
      [
        103.748994,
        1.3483722
      ],
      [
        103.7490285,
        1.3483501
      ],
      [
        103.7493295,
        1.3481623
      ],
      [
        103.7495419,
        1.3480641
      ],
      [
        103.7495718,
        1.3480503
      ],
      [
        103.7498157,
        1.3479682
      ],
      [
        103.749984,
        1.3479289
      ],
      [
        103.7504783,
        1.3478956
      ],
      [
        103.750531,
        1.3478968
      ],
      [
        103.7507243,
        1.3479144
      ],
      [
        103.7509332,
        1.3479556
      ],
      [
        103.7511594,
        1.3480138
      ],
      [
        103.7513671,
        1.3481068
      ],
      [
        103.751573,
        1.3482177
      ],
      [
        103.7516479,
        1.3482565
      ],
      [
        103.7517247,
        1.3483119
      ],
      [
        103.7518523,
        1.348404
      ],
      [
        103.7520658,
        1.3485989
      ],
      [
        103.7522918,
        1.3488736
      ],
      [
        103.7524274,
        1.349063
      ],
      [
        103.7525487,
        1.349255
      ],
      [
        103.7526536,
        1.3494263
      ],
      [
        103.752699,
        1.349499
      ],
      [
        103.7526423,
        1.3495294
      ],
      [
        103.7523656,
        1.3497004
      ],
      [
        103.751949,
        1.3499885
      ],
      [
        103.7519052,
        1.3500217
      ],
      [
        103.7516571,
        1.3501999
      ],
      [
        103.7515581,
        1.3502722
      ],
      [
        103.7515046,
        1.3502011
      ],
      [
        103.751325,
        1.3499576
      ],
      [
        103.751282,
        1.3498986
      ],
      [
        103.7512035,
        1.3498052
      ],
      [
        103.751163,
        1.3497899
      ],
      [
        103.7511002,
        1.3497942
      ],
      [
        103.7506305,
        1.3501518
      ],
      [
        103.7504057,
        1.3503218
      ],
      [
        103.7503814,
        1.3503559
      ],
      [
        103.7503812,
        1.3503773
      ],
      [
        103.7505044,
        1.3505494
      ],
      [
        103.7507106,
        1.3508299
      ],
      [
        103.7507741,
        1.3509021
      ],
      [
        103.7508195,
        1.3509291
      ],
      [
        103.7508773,
        1.3509429
      ],
      [
        103.7511148,
        1.3507323
      ],
      [
        103.7514874,
        1.350452
      ],
      [
        103.7516159,
        1.3503508
      ],
      [
        103.7517144,
        1.3502803
      ],
      [
        103.7521476,
        1.3499728
      ],
      [
        103.752695,
        1.3496148
      ],
      [
        103.7527427,
        1.3495836
      ],
      [
        103.7528231,
        1.3495347
      ],
      [
        103.7527785,
        1.3494565
      ],
      [
        103.7527333,
        1.3493785
      ],
      [
        103.7526009,
        1.3491525
      ],
      [
        103.7523803,
        1.3488529
      ],
      [
        103.7523287,
        1.3487912
      ],
      [
        103.7521516,
        1.3485531
      ],
      [
        103.751934,
        1.3483517
      ],
      [
        103.7518946,
        1.3483235
      ],
      [
        103.7517188,
        1.3481978
      ],
      [
        103.7514799,
        1.3480576
      ],
      [
        103.7513101,
        1.3479767
      ],
      [
        103.7511055,
        1.3479042
      ],
      [
        103.7510545,
        1.3478938
      ],
      [
        103.7507977,
        1.3478379
      ],
      [
        103.7505329,
        1.3478125
      ],
      [
        103.7504804,
        1.3478116
      ],
      [
        103.7501774,
        1.3478246
      ],
      [
        103.7500795,
        1.3478416
      ],
      [
        103.7498874,
        1.347875
      ],
      [
        103.7497461,
        1.3479174
      ],
      [
        103.749678,
        1.3479378
      ],
      [
        103.7494893,
        1.3480016
      ],
      [
        103.7492384,
        1.3481251
      ],
      [
        103.7489414,
        1.348301
      ],
      [
        103.7489258,
        1.348312
      ],
      [
        103.7488672,
        1.3483515
      ],
      [
        103.7488023,
        1.3482676
      ],
      [
        103.7486162,
        1.3480131
      ],
      [
        103.7473983,
        1.3463464
      ],
      [
        103.7472412,
        1.3461312
      ],
      [
        103.7472385,
        1.3460582
      ],
      [
        103.7472333,
        1.34597
      ],
      [
        103.7472465,
        1.3459161
      ],
      [
        103.7472921,
        1.3458061
      ],
      [
        103.7473617,
        1.3457226
      ],
      [
        103.7473807,
        1.3456918
      ],
      [
        103.7477206,
        1.3454404
      ],
      [
        103.7477565,
        1.3454205
      ],
      [
        103.7479738,
        1.3453004
      ],
      [
        103.7482101,
        1.3452298
      ],
      [
        103.7484962,
        1.3451866
      ],
      [
        103.7486937,
        1.3451885
      ],
      [
        103.7489395,
        1.3451915
      ],
      [
        103.7490423,
        1.3451905
      ],
      [
        103.7492697,
        1.3451972
      ],
      [
        103.749384,
        1.3452005
      ],
      [
        103.7494754,
        1.3451984
      ],
      [
        103.7496048,
        1.3451954
      ],
      [
        103.7496131,
        1.3451953
      ],
      [
        103.7498381,
        1.3451901
      ],
      [
        103.7498738,
        1.3451893
      ],
      [
        103.7501587,
        1.3451831
      ],
      [
        103.7503687,
        1.3451786
      ],
      [
        103.7511632,
        1.3451669
      ],
      [
        103.7512526,
        1.3451656
      ],
      [
        103.7513244,
        1.345158
      ],
      [
        103.751354,
        1.3451509
      ],
      [
        103.7518647,
        1.3450277
      ],
      [
        103.7537436,
        1.3444913
      ],
      [
        103.7543564,
        1.34433
      ],
      [
        103.7544669,
        1.3442966
      ],
      [
        103.7544984,
        1.3442901
      ],
      [
        103.7545999,
        1.3442585
      ],
      [
        103.7545642,
        1.3441441
      ],
      [
        103.7545273,
        1.3440449
      ],
      [
        103.7545116,
        1.3440003
      ],
      [
        103.7544667,
        1.3438758
      ],
      [
        103.7543471,
        1.3435962
      ],
      [
        103.7540482,
        1.3430374
      ],
      [
        103.7537889,
        1.3425491
      ],
      [
        103.7536816,
        1.3423458
      ],
      [
        103.7536721,
        1.342325
      ],
      [
        103.7536584,
        1.342283
      ],
      [
        103.753649,
        1.3422439
      ],
      [
        103.7536432,
        1.342179
      ],
      [
        103.7536414,
        1.3421225
      ],
      [
        103.7536446,
        1.3420659
      ],
      [
        103.7536526,
        1.3420044
      ],
      [
        103.7536709,
        1.3419449
      ],
      [
        103.7536984,
        1.3418863
      ],
      [
        103.7537364,
        1.3418277
      ],
      [
        103.753772,
        1.3417829
      ],
      [
        103.7538145,
        1.3417427
      ],
      [
        103.7538811,
        1.3416933
      ],
      [
        103.7543547,
        1.3414227
      ],
      [
        103.7543945,
        1.3414
      ],
      [
        103.7546148,
        1.3412741
      ],
      [
        103.7547469,
        1.3411986
      ],
      [
        103.7548505,
        1.3411457
      ],
      [
        103.7550195,
        1.341056
      ],
      [
        103.7553246,
        1.3409066
      ],
      [
        103.7554441,
        1.3408372
      ],
      [
        103.7558127,
        1.3406234
      ],
      [
        103.7559245,
        1.3405574
      ],
      [
        103.756447,
        1.3402491
      ],
      [
        103.7565844,
        1.3401681
      ],
      [
        103.7566522,
        1.3401279
      ],
      [
        103.7566589,
        1.340124
      ],
      [
        103.7568029,
        1.3400432
      ],
      [
        103.7569439,
        1.3399619
      ],
      [
        103.7574869,
        1.3396486
      ],
      [
        103.7575379,
        1.339626
      ],
      [
        103.7576091,
        1.339603
      ],
      [
        103.7577252,
        1.3395743
      ],
      [
        103.7578079,
        1.3395628
      ],
      [
        103.7578837,
        1.3395571
      ],
      [
        103.7579699,
        1.3395571
      ],
      [
        103.758056,
        1.3395617
      ],
      [
        103.7581479,
        1.3395789
      ],
      [
        103.7582318,
        1.3395996
      ],
      [
        103.758397,
        1.3396541
      ],
      [
        103.7584528,
        1.3396736
      ],
      [
        103.7585032,
        1.339695
      ],
      [
        103.7586484,
        1.3397581
      ],
      [
        103.7590215,
        1.3399497
      ],
      [
        103.7591404,
        1.3400096
      ],
      [
        103.7592461,
        1.340059
      ],
      [
        103.7594566,
        1.3401557
      ],
      [
        103.7596706,
        1.3402721
      ],
      [
        103.7597311,
        1.340305
      ],
      [
        103.7598873,
        1.3403657
      ],
      [
        103.7599306,
        1.3402567
      ],
      [
        103.7599529,
        1.3401924
      ],
      [
        103.7600367,
        1.3399561
      ],
      [
        103.7602683,
        1.3394147
      ],
      [
        103.7603411,
        1.3392244
      ],
      [
        103.7603922,
        1.3390658
      ],
      [
        103.7604225,
        1.3389716
      ],
      [
        103.7604571,
        1.3388295
      ],
      [
        103.7604725,
        1.3387058
      ],
      [
        103.7604931,
        1.3385403
      ],
      [
        103.760502,
        1.338354
      ],
      [
        103.7605079,
        1.3381268
      ],
      [
        103.7604937,
        1.3379129
      ],
      [
        103.7604795,
        1.3376949
      ],
      [
        103.7604761,
        1.3376485
      ],
      [
        103.7604656,
        1.3375316
      ],
      [
        103.7604302,
        1.3372877
      ],
      [
        103.7604008,
        1.337169
      ],
      [
        103.7603706,
        1.3370577
      ],
      [
        103.7603235,
        1.3369135
      ],
      [
        103.7602109,
        1.3366055
      ],
      [
        103.7602154,
        1.336503
      ],
      [
        103.7602098,
        1.3362866
      ],
      [
        103.7602289,
        1.3361275
      ],
      [
        103.7602503,
        1.3360717
      ],
      [
        103.7602924,
        1.3359842
      ],
      [
        103.7603918,
        1.3358372
      ],
      [
        103.7605014,
        1.3356887
      ],
      [
        103.7607092,
        1.3354189
      ],
      [
        103.7608201,
        1.3352648
      ],
      [
        103.760926,
        1.3351564
      ],
      [
        103.7610247,
        1.3350602
      ],
      [
        103.7611497,
        1.3349594
      ],
      [
        103.7613094,
        1.3348485
      ],
      [
        103.7617516,
        1.3345919
      ],
      [
        103.7619633,
        1.3344994
      ],
      [
        103.762254,
        1.3343418
      ],
      [
        103.7625204,
        1.3341782
      ],
      [
        103.7627453,
        1.3340454
      ],
      [
        103.7632449,
        1.3337448
      ],
      [
        103.7633839,
        1.3336629
      ],
      [
        103.7634896,
        1.333623
      ],
      [
        103.7642685,
        1.333209
      ],
      [
        103.7643881,
        1.3331456
      ],
      [
        103.7646233,
        1.3330294
      ],
      [
        103.7649135,
        1.3329114
      ],
      [
        103.7651057,
        1.3328649
      ],
      [
        103.7652511,
        1.3328389
      ],
      [
        103.7654454,
        1.3328249
      ],
      [
        103.7655581,
        1.332841
      ],
      [
        103.76566,
        1.3328785
      ],
      [
        103.7657244,
        1.3329053
      ],
      [
        103.7657978,
        1.332954
      ],
      [
        103.7658585,
        1.3330072
      ],
      [
        103.7659121,
        1.3330931
      ],
      [
        103.7659497,
        1.3331842
      ],
      [
        103.7659754,
        1.3332758
      ],
      [
        103.7659872,
        1.3333719
      ],
      [
        103.7659765,
        1.3334738
      ],
      [
        103.7659497,
        1.3335543
      ],
      [
        103.7659121,
        1.3336401
      ],
      [
        103.7658543,
        1.3337283
      ],
      [
        103.7657681,
        1.3338007
      ],
      [
        103.7656764,
        1.3338492
      ],
      [
        103.7655928,
        1.3338888
      ],
      [
        103.7655054,
        1.3339108
      ],
      [
        103.7654077,
        1.3339174
      ],
      [
        103.7653146,
        1.3339111
      ],
      [
        103.7651813,
        1.333882
      ],
      [
        103.765042,
        1.3338153
      ],
      [
        103.7649188,
        1.3337208
      ],
      [
        103.764808,
        1.3335914
      ],
      [
        103.7647119,
        1.3334525
      ],
      [
        103.7646122,
        1.3332351
      ],
      [
        103.7645508,
        1.3330225
      ],
      [
        103.7645004,
        1.3327643
      ],
      [
        103.7643826,
        1.3319803
      ],
      [
        103.7642276,
        1.3308193
      ],
      [
        103.7641579,
        1.330291
      ],
      [
        103.7641619,
        1.3301637
      ],
      [
        103.7641163,
        1.3296823
      ],
      [
        103.7641042,
        1.3293056
      ],
      [
        103.7641039,
        1.3287724
      ],
      [
        103.7641284,
        1.3280037
      ],
      [
        103.7641605,
        1.3274954
      ],
      [
        103.7641686,
        1.327368
      ],
      [
        103.7641767,
        1.3271054
      ],
      [
        103.7642045,
        1.326762
      ],
      [
        103.7642214,
        1.3265525
      ],
      [
        103.764245,
        1.3260818
      ],
      [
        103.7642551,
        1.3258658
      ],
      [
        103.764264,
        1.3256795
      ],
      [
        103.764269,
        1.3255702
      ],
      [
        103.7642792,
        1.3248002
      ],
      [
        103.764292,
        1.3235471
      ],
      [
        103.7642974,
        1.3231399
      ],
      [
        103.764292,
        1.3228834
      ],
      [
        103.7642785,
        1.3226645
      ],
      [
        103.7642625,
        1.3224342
      ],
      [
        103.7642314,
        1.3221988
      ],
      [
        103.7642223,
        1.322115
      ],
      [
        103.7642114,
        1.3220575
      ],
      [
        103.7642019,
        1.321931
      ],
      [
        103.7641953,
        1.3217866
      ],
      [
        103.7641878,
        1.3216925
      ],
      [
        103.7641803,
        1.3216407
      ],
      [
        103.7640999,
        1.3213437
      ],
      [
        103.7640945,
        1.3213281
      ],
      [
        103.7640823,
        1.3212902
      ],
      [
        103.7638601,
        1.3206001
      ],
      [
        103.7638226,
        1.3204941
      ],
      [
        103.7637086,
        1.320167
      ],
      [
        103.7636469,
        1.3199879
      ],
      [
        103.7635899,
        1.3198225
      ],
      [
        103.7634995,
        1.3195817
      ],
      [
        103.76346,
        1.3193691
      ],
      [
        103.7634317,
        1.3191909
      ],
      [
        103.7634182,
        1.3190126
      ],
      [
        103.7634202,
        1.3188558
      ],
      [
        103.7634277,
        1.3187505
      ],
      [
        103.763451,
        1.3186114
      ],
      [
        103.7635864,
        1.3183994
      ],
      [
        103.7636992,
        1.3182229
      ],
      [
        103.7641426,
        1.3175812
      ],
      [
        103.7644922,
        1.3170289
      ],
      [
        103.764531,
        1.3169567
      ],
      [
        103.7645978,
        1.3168362
      ],
      [
        103.764659,
        1.3167226
      ],
      [
        103.7647087,
        1.3166211
      ],
      [
        103.7648656,
        1.3163004
      ],
      [
        103.7648953,
        1.3162398
      ],
      [
        103.7649313,
        1.3161672
      ],
      [
        103.7649704,
        1.3160769
      ],
      [
        103.7649972,
        1.3160126
      ],
      [
        103.7650793,
        1.3158244
      ],
      [
        103.7652184,
        1.3155052
      ],
      [
        103.7652589,
        1.3154138
      ],
      [
        103.7653662,
        1.3151713
      ],
      [
        103.7655162,
        1.3148325
      ],
      [
        103.76558,
        1.3146857
      ],
      [
        103.7659325,
        1.3138921
      ],
      [
        103.765994,
        1.313776
      ],
      [
        103.7660629,
        1.3136764
      ],
      [
        103.766222,
        1.3134465
      ],
      [
        103.7663881,
        1.313238
      ],
      [
        103.7665203,
        1.3130904
      ],
      [
        103.7665366,
        1.3130769
      ],
      [
        103.766585,
        1.3130213
      ],
      [
        103.7666597,
        1.3129444
      ],
      [
        103.7667054,
        1.3129024
      ],
      [
        103.766852,
        1.3127689
      ],
      [
        103.7670004,
        1.3126488
      ],
      [
        103.7670855,
        1.3125782
      ],
      [
        103.7671796,
        1.3125115
      ],
      [
        103.7673185,
        1.3124261
      ],
      [
        103.7674946,
        1.3123315
      ],
      [
        103.7676877,
        1.312237
      ],
      [
        103.7677423,
        1.3122129
      ],
      [
        103.7678256,
        1.3121845
      ],
      [
        103.7679456,
        1.3121437
      ],
      [
        103.7678743,
        1.3119563
      ],
      [
        103.7678362,
        1.3118562
      ],
      [
        103.7677489,
        1.311627
      ],
      [
        103.767157,
        1.3104439
      ],
      [
        103.7670083,
        1.3101467
      ],
      [
        103.7668405,
        1.3098367
      ],
      [
        103.7667492,
        1.3096241
      ],
      [
        103.7666602,
        1.3094211
      ],
      [
        103.7665661,
        1.3092169
      ],
      [
        103.7664168,
        1.3088692
      ],
      [
        103.7663665,
        1.3087551
      ],
      [
        103.7663333,
        1.3086565
      ],
      [
        103.7663202,
        1.3085864
      ],
      [
        103.7663189,
        1.3084806
      ],
      [
        103.7663264,
        1.3083434
      ],
      [
        103.7663407,
        1.3082554
      ],
      [
        103.7663724,
        1.3081653
      ],
      [
        103.7664666,
        1.3080222
      ],
      [
        103.7666731,
        1.3076926
      ],
      [
        103.7668766,
        1.3074282
      ],
      [
        103.7670838,
        1.3071277
      ],
      [
        103.7672827,
        1.3069191
      ],
      [
        103.7676635,
        1.3065812
      ],
      [
        103.7680884,
        1.3062458
      ],
      [
        103.7686225,
        1.3058122
      ],
      [
        103.768715,
        1.3057908
      ],
      [
        103.7687405,
        1.3057821
      ],
      [
        103.7687947,
        1.3057633
      ],
      [
        103.7688263,
        1.3057459
      ],
      [
        103.7691416,
        1.3055346
      ],
      [
        103.7693139,
        1.305441
      ],
      [
        103.7694894,
        1.305427
      ],
      [
        103.7696275,
        1.3054496
      ],
      [
        103.7698873,
        1.3055225
      ],
      [
        103.770076,
        1.305593
      ],
      [
        103.7704119,
        1.3057434
      ],
      [
        103.7704622,
        1.3057801
      ],
      [
        103.7706703,
        1.3058834
      ],
      [
        103.7707394,
        1.3059286
      ],
      [
        103.7708613,
        1.3060752
      ],
      [
        103.7709984,
        1.3062775
      ],
      [
        103.771074,
        1.3064875
      ],
      [
        103.7711368,
        1.3067424
      ],
      [
        103.7711813,
        1.3069311
      ],
      [
        103.7712514,
        1.3071062
      ],
      [
        103.7713247,
        1.3075019
      ],
      [
        103.7714351,
        1.3080287
      ],
      [
        103.77142,
        1.3080616
      ],
      [
        103.7713505,
        1.3081291
      ],
      [
        103.7713391,
        1.3081393
      ],
      [
        103.7712688,
        1.3081762
      ],
      [
        103.7711726,
        1.3081996
      ],
      [
        103.7710273,
        1.3082103
      ],
      [
        103.7708762,
        1.3081927
      ],
      [
        103.7705686,
        1.3080956
      ],
      [
        103.7703992,
        1.3080338
      ],
      [
        103.770297,
        1.3079966
      ],
      [
        103.770079,
        1.3079219
      ],
      [
        103.7700449,
        1.3079106
      ],
      [
        103.7698687,
        1.3078441
      ],
      [
        103.7695833,
        1.3077185
      ],
      [
        103.7693819,
        1.3076408
      ],
      [
        103.7693116,
        1.3076137
      ],
      [
        103.7692212,
        1.3075891
      ],
      [
        103.7691597,
        1.3075733
      ],
      [
        103.7690865,
        1.3075575
      ],
      [
        103.7689518,
        1.3075526
      ],
      [
        103.7689307,
        1.3075542
      ],
      [
        103.7686794,
        1.3075816
      ],
      [
        103.7685374,
        1.3076374
      ],
      [
        103.7684663,
        1.3076649
      ],
      [
        103.7683956,
        1.3077039
      ],
      [
        103.7683156,
        1.3077556
      ],
      [
        103.7682149,
        1.3078187
      ],
      [
        103.7680474,
        1.3079578
      ],
      [
        103.7679492,
        1.3080908
      ],
      [
        103.7679159,
        1.3081325
      ],
      [
        103.7678379,
        1.3082826
      ],
      [
        103.7677951,
        1.3084077
      ],
      [
        103.7677677,
        1.3086056
      ],
      [
        103.767783,
        1.3088467
      ],
      [
        103.7678758,
        1.3091155
      ],
      [
        103.7679045,
        1.3091769
      ],
      [
        103.7680726,
        1.3095362
      ],
      [
        103.7682091,
        1.3098399
      ],
      [
        103.768243,
        1.3099146
      ],
      [
        103.7684011,
        1.3102656
      ],
      [
        103.7686161,
        1.3106496
      ],
      [
        103.7688802,
        1.3110471
      ],
      [
        103.7689518,
        1.3112487
      ],
      [
        103.7690085,
        1.3114681
      ],
      [
        103.7690203,
        1.3115362
      ],
      [
        103.7690097,
        1.311602
      ],
      [
        103.7688831,
        1.3117322
      ],
      [
        103.7686666,
        1.31175
      ],
      [
        103.7684675,
        1.3117806
      ],
      [
        103.768263,
        1.3118263
      ],
      [
        103.7681096,
        1.3118723
      ],
      [
        103.7679729,
        1.311919
      ],
      [
        103.7679265,
        1.3119365
      ],
      [
        103.7678743,
        1.3119563
      ],
      [
        103.76775,
        1.3120032
      ],
      [
        103.7676648,
        1.3120352
      ],
      [
        103.7674365,
        1.3121332
      ],
      [
        103.7673028,
        1.312199
      ],
      [
        103.7669441,
        1.3124242
      ],
      [
        103.7667664,
        1.3125485
      ],
      [
        103.7667204,
        1.3125779
      ],
      [
        103.766562,
        1.3127013
      ],
      [
        103.7665296,
        1.3127326
      ],
      [
        103.7664882,
        1.3127731
      ],
      [
        103.7664641,
        1.3127989
      ],
      [
        103.7664173,
        1.3128473
      ],
      [
        103.7663613,
        1.3129051
      ],
      [
        103.7662235,
        1.3130531
      ],
      [
        103.7661051,
        1.3131898
      ],
      [
        103.7659635,
        1.3133603
      ],
      [
        103.7658411,
        1.3135288
      ],
      [
        103.7657361,
        1.3136821
      ],
      [
        103.7656546,
        1.3138253
      ],
      [
        103.7655577,
        1.3140042
      ],
      [
        103.765459,
        1.3142048
      ],
      [
        103.765316,
        1.3145368
      ],
      [
        103.7650798,
        1.3150862
      ],
      [
        103.7649907,
        1.3152954
      ],
      [
        103.764947,
        1.3153977
      ],
      [
        103.7647873,
        1.3157725
      ],
      [
        103.7647704,
        1.3158182
      ],
      [
        103.7647301,
        1.3159212
      ],
      [
        103.7647041,
        1.3160064
      ],
      [
        103.7646635,
        1.3161069
      ],
      [
        103.7646219,
        1.3162185
      ],
      [
        103.7645453,
        1.3164346
      ],
      [
        103.7644882,
        1.3165855
      ],
      [
        103.7644308,
        1.3167165
      ],
      [
        103.7643393,
        1.3169047
      ],
      [
        103.7642492,
        1.317066
      ],
      [
        103.7641134,
        1.3172766
      ],
      [
        103.763953,
        1.3175149
      ],
      [
        103.7639301,
        1.3175488
      ],
      [
        103.7638748,
        1.3176309
      ],
      [
        103.7638474,
        1.3176717
      ],
      [
        103.7634794,
        1.3182184
      ],
      [
        103.7633631,
        1.3183779
      ],
      [
        103.7631763,
        1.318657
      ],
      [
        103.7631479,
        1.3187032
      ],
      [
        103.7631133,
        1.3187541
      ],
      [
        103.7629418,
        1.3189905
      ],
      [
        103.7630504,
        1.3192001
      ],
      [
        103.7630961,
        1.3193116
      ],
      [
        103.7632135,
        1.3195986
      ],
      [
        103.7633076,
        1.3198285
      ],
      [
        103.7635415,
        1.320456
      ],
      [
        103.7636356,
        1.3206931
      ],
      [
        103.7637275,
        1.3209737
      ],
      [
        103.7637499,
        1.3210426
      ],
      [
        103.7637713,
        1.321108
      ],
      [
        103.7638193,
        1.3212546
      ],
      [
        103.7639622,
        1.3216892
      ],
      [
        103.764005,
        1.3218161
      ],
      [
        103.7640346,
        1.3218905
      ],
      [
        103.7640848,
        1.3219967
      ],
      [
        103.7640976,
        1.3220611
      ],
      [
        103.7641265,
        1.322217
      ],
      [
        103.7641565,
        1.3224436
      ],
      [
        103.7641766,
        1.3226719
      ],
      [
        103.7641921,
        1.3228861
      ],
      [
        103.7641908,
        1.3231404
      ],
      [
        103.7641901,
        1.3233272
      ],
      [
        103.7641854,
        1.3235484
      ],
      [
        103.7641559,
        1.3248003
      ],
      [
        103.7641412,
        1.3252066
      ],
      [
        103.7641195,
        1.325569
      ],
      [
        103.7641168,
        1.3256277
      ],
      [
        103.7641146,
        1.3256766
      ],
      [
        103.7641059,
        1.3258661
      ],
      [
        103.7640868,
        1.3262795
      ],
      [
        103.7640836,
        1.3263287
      ],
      [
        103.7640407,
        1.3269853
      ],
      [
        103.7639889,
        1.3276712
      ],
      [
        103.7639303,
        1.3286084
      ],
      [
        103.7639264,
        1.3286754
      ],
      [
        103.7639348,
        1.3293412
      ],
      [
        103.7639755,
        1.3297775
      ],
      [
        103.7640138,
        1.3303122
      ],
      [
        103.7640077,
        1.3305028
      ],
      [
        103.7640206,
        1.3307209
      ],
      [
        103.7640631,
        1.3312252
      ],
      [
        103.7640888,
        1.3319219
      ],
      [
        103.7640602,
        1.3321182
      ],
      [
        103.7639505,
        1.3323284
      ],
      [
        103.7638502,
        1.3325286
      ],
      [
        103.7637926,
        1.3326077
      ],
      [
        103.7637315,
        1.332678
      ],
      [
        103.7636136,
        1.3327932
      ],
      [
        103.7633503,
        1.3329849
      ],
      [
        103.7632927,
        1.333037
      ],
      [
        103.7622025,
        1.3336517
      ],
      [
        103.7611337,
        1.334313
      ],
      [
        103.7609234,
        1.3344391
      ],
      [
        103.7608544,
        1.3344708
      ],
      [
        103.7607937,
        1.3344923
      ],
      [
        103.7607271,
        1.3345117
      ],
      [
        103.7605995,
        1.334533
      ],
      [
        103.7604251,
        1.3345585
      ],
      [
        103.760253,
        1.3345942
      ],
      [
        103.7601703,
        1.3346378
      ],
      [
        103.7600954,
        1.3346879
      ],
      [
        103.7599516,
        1.3348111
      ],
      [
        103.7598863,
        1.33488
      ],
      [
        103.7598426,
        1.3349683
      ],
      [
        103.7597547,
        1.3351164
      ],
      [
        103.7597414,
        1.3351462
      ],
      [
        103.7597129,
        1.3352098
      ],
      [
        103.7596429,
        1.3353142
      ]
    ]
  }
}