{
  "type": "Feature",
  "properties": {
    "relation": 1147859,
    "direction": "1",
    "fee": "yes",
    "from": "Tampines North Interchange",
    "name": "Svc 18 (Tampines North Interchange → Bedok North Depot)",
    "network": "Land Transport Authority",
    "network:short": "LTA",
    "network:wikidata": "Q3299279",
    "network:wikipedia": "en:Land Transport Authority",
    "operator": "Go-Ahead Singapore",
    "operator:wikidata": "Q24698874",
    "operator:wikipedia": "en:Go-Ahead Singapore",
    "public_transport:version": "2",
    "ref": "18",
    "roundtrip": "no",
    "route": "bus",
    "to": "Bedok North Depot",
    "type": "route",
    "website": "https://go-aheadsingapore.com/bus-services/"
  },
  "geometry": {
    "type": "LineString",
    "coordinates": [
      [
        103.9389943,
        1.368445
      ],
      [
        103.9393372,
        1.3689847
      ],
      [
        103.939395,
        1.369023
      ],
      [
        103.939465,
        1.3690091
      ],
      [
        103.9395824,
        1.3689335
      ],
      [
        103.9396968,
        1.3688461
      ],
      [
        103.9397265,
        1.3688118
      ],
      [
        103.9397,
        1.3687462
      ],
      [
        103.9393531,
        1.3681897
      ],
      [
        103.9393088,
        1.3681735
      ],
      [
        103.9392534,
        1.3681838
      ],
      [
        103.9391234,
        1.368262
      ],
      [
        103.9390511,
        1.3683155
      ],
      [
        103.9389912,
        1.3682682
      ],
      [
        103.9389368,
        1.3682226
      ],
      [
        103.9388845,
        1.3681322
      ],
      [
        103.938896,
        1.3679489
      ],
      [
        103.9392837,
        1.3677078
      ],
      [
        103.9393765,
        1.3676314
      ],
      [
        103.9394562,
        1.3675656
      ],
      [
        103.9395359,
        1.3675274
      ],
      [
        103.9394939,
        1.3674508
      ],
      [
        103.9394479,
        1.3673668
      ],
      [
        103.939344,
        1.3671771
      ],
      [
        103.9390917,
        1.3667638
      ],
      [
        103.9389481,
        1.3665682
      ],
      [
        103.9387699,
        1.366337
      ],
      [
        103.9385229,
        1.3660516
      ],
      [
        103.9380705,
        1.3656272
      ],
      [
        103.9378041,
        1.3654129
      ],
      [
        103.937678,
        1.3653341
      ],
      [
        103.9374716,
        1.3652052
      ],
      [
        103.937411,
        1.3651674
      ],
      [
        103.9373046,
        1.3651018
      ],
      [
        103.9372502,
        1.3651705
      ],
      [
        103.9372117,
        1.3652194
      ],
      [
        103.9367782,
        1.3657695
      ],
      [
        103.9365582,
        1.3660594
      ],
      [
        103.9363557,
        1.3663232
      ],
      [
        103.9362337,
        1.3664626
      ],
      [
        103.9361545,
        1.3665163
      ],
      [
        103.9360754,
        1.3665417
      ],
      [
        103.9359285,
        1.366538
      ],
      [
        103.9357951,
        1.3664801
      ],
      [
        103.9354557,
        1.3663264
      ],
      [
        103.9349006,
        1.366165
      ],
      [
        103.9347665,
        1.3661315
      ],
      [
        103.9346223,
        1.3659981
      ],
      [
        103.9345704,
        1.365922
      ],
      [
        103.9345577,
        1.3659033
      ],
      [
        103.9345352,
        1.36587
      ],
      [
        103.9344866,
        1.3657413
      ],
      [
        103.9345566,
        1.3654865
      ],
      [
        103.9346055,
        1.3652839
      ],
      [
        103.9346558,
        1.3650467
      ],
      [
        103.9347101,
        1.3644516
      ],
      [
        103.9347175,
        1.3636624
      ],
      [
        103.9347196,
        1.3634447
      ],
      [
        103.934718,
        1.3632889
      ],
      [
        103.9347168,
        1.3631752
      ],
      [
        103.9347182,
        1.3629057
      ],
      [
        103.9347185,
        1.3628393
      ],
      [
        103.934719,
        1.3627406
      ],
      [
        103.9347193,
        1.3626831
      ],
      [
        103.9347204,
        1.3624499
      ],
      [
        103.9347155,
        1.3612942
      ],
      [
        103.9347129,
        1.3610059
      ],
      [
        103.9347234,
        1.3607645
      ],
      [
        103.9347804,
        1.3606569
      ],
      [
        103.9348166,
        1.3605927
      ],
      [
        103.9348422,
        1.3605665
      ],
      [
        103.9348906,
        1.3605296
      ],
      [
        103.9350266,
        1.3604782
      ],
      [
        103.9357737,
        1.360479
      ],
      [
        103.9370497,
        1.3604662
      ],
      [
        103.9373132,
        1.3604634
      ],
      [
        103.9376525,
        1.360457
      ],
      [
        103.9379201,
        1.3604568
      ],
      [
        103.9380449,
        1.3604545
      ],
      [
        103.9381291,
        1.3604552
      ],
      [
        103.9382156,
        1.3604514
      ],
      [
        103.938378,
        1.3604454
      ],
      [
        103.9386388,
        1.3604409
      ],
      [
        103.9392265,
        1.3604401
      ],
      [
        103.9393021,
        1.36044
      ],
      [
        103.9393822,
        1.3604422
      ],
      [
        103.9394675,
        1.3604445
      ],
      [
        103.9398602,
        1.3604553
      ],
      [
        103.9401862,
        1.3604647
      ],
      [
        103.9405001,
        1.3604663
      ],
      [
        103.9410495,
        1.3604658
      ],
      [
        103.9413577,
        1.3604586
      ],
      [
        103.9417744,
        1.3604552
      ],
      [
        103.9419832,
        1.3604293
      ],
      [
        103.9420628,
        1.360432
      ],
      [
        103.9421618,
        1.3604378
      ],
      [
        103.9422633,
        1.3604388
      ],
      [
        103.9424798,
        1.3604407
      ],
      [
        103.943434,
        1.3603961
      ],
      [
        103.9442125,
        1.3603874
      ],
      [
        103.9443578,
        1.3603858
      ],
      [
        103.9445644,
        1.3603838
      ],
      [
        103.9446947,
        1.3603838
      ],
      [
        103.9455047,
        1.3603922
      ],
      [
        103.9462446,
        1.3603884
      ],
      [
        103.9469323,
        1.3603825
      ],
      [
        103.9473025,
        1.3603776
      ],
      [
        103.9474431,
        1.3603758
      ],
      [
        103.9475864,
        1.36037
      ],
      [
        103.9477697,
        1.3603388
      ],
      [
        103.9479057,
        1.3603005
      ],
      [
        103.9484629,
        1.3601024
      ],
      [
        103.9489306,
        1.3599312
      ],
      [
        103.9491555,
        1.3598851
      ],
      [
        103.9492501,
        1.3598782
      ],
      [
        103.9493225,
        1.359878
      ],
      [
        103.9493719,
        1.3598791
      ],
      [
        103.9494159,
        1.3598812
      ],
      [
        103.9494649,
        1.3598835
      ],
      [
        103.9496369,
        1.3599002
      ],
      [
        103.9498492,
        1.3599614
      ],
      [
        103.9499731,
        1.3600002
      ],
      [
        103.9500869,
        1.3600556
      ],
      [
        103.9502056,
        1.360128
      ],
      [
        103.9503109,
        1.3602071
      ],
      [
        103.9504327,
        1.3603045
      ],
      [
        103.9505446,
        1.3604051
      ],
      [
        103.9507378,
        1.3605935
      ],
      [
        103.9508325,
        1.3606858
      ],
      [
        103.9511013,
        1.36095
      ],
      [
        103.951228,
        1.3610719
      ],
      [
        103.9513706,
        1.3612158
      ],
      [
        103.9515282,
        1.3613721
      ],
      [
        103.9515782,
        1.361426
      ],
      [
        103.9516152,
        1.361461
      ],
      [
        103.9520233,
        1.3618587
      ],
      [
        103.9520873,
        1.3619182
      ],
      [
        103.9521713,
        1.3619843
      ],
      [
        103.9522818,
        1.36206
      ],
      [
        103.9523529,
        1.3621003
      ],
      [
        103.952424,
        1.362134
      ],
      [
        103.952473,
        1.3621558
      ],
      [
        103.9525991,
        1.3622117
      ],
      [
        103.9526907,
        1.3622462
      ],
      [
        103.9528382,
        1.3622778
      ],
      [
        103.9529906,
        1.362295
      ],
      [
        103.9531048,
        1.3622988
      ],
      [
        103.9531684,
        1.3622998
      ],
      [
        103.9532683,
        1.3622939
      ],
      [
        103.9533674,
        1.3622828
      ],
      [
        103.9534936,
        1.3622603
      ],
      [
        103.9535956,
        1.3622386
      ],
      [
        103.9537265,
        1.3622003
      ],
      [
        103.9538609,
        1.3621502
      ],
      [
        103.953973,
        1.3620953
      ],
      [
        103.9540576,
        1.3620446
      ],
      [
        103.9541287,
        1.361993
      ],
      [
        103.9541968,
        1.361939
      ],
      [
        103.9542695,
        1.3618727
      ],
      [
        103.9542859,
        1.3618577
      ],
      [
        103.9544778,
        1.361669
      ],
      [
        103.9546522,
        1.3614902
      ],
      [
        103.9546707,
        1.3614731
      ],
      [
        103.9546964,
        1.3614468
      ],
      [
        103.9547526,
        1.3613882
      ],
      [
        103.9548569,
        1.3612804
      ],
      [
        103.955044,
        1.361087
      ],
      [
        103.9552399,
        1.3608853
      ],
      [
        103.9553377,
        1.3607847
      ],
      [
        103.9553913,
        1.3607109
      ],
      [
        103.9554396,
        1.3606104
      ],
      [
        103.9554758,
        1.3605031
      ],
      [
        103.9554939,
        1.3604059
      ],
      [
        103.9554934,
        1.3600888
      ],
      [
        103.9554933,
        1.3600419
      ],
      [
        103.9554923,
        1.3596925
      ],
      [
        103.9554946,
        1.3593621
      ],
      [
        103.9554971,
        1.3591774
      ],
      [
        103.9555009,
        1.3588969
      ],
      [
        103.955502,
        1.358723
      ],
      [
        103.9555024,
        1.3587066
      ],
      [
        103.9555027,
        1.358654
      ],
      [
        103.9555044,
        1.3585996
      ],
      [
        103.9555054,
        1.3585338
      ],
      [
        103.9555059,
        1.3585087
      ],
      [
        103.955508,
        1.3583861
      ],
      [
        103.9555107,
        1.3582174
      ],
      [
        103.955508,
        1.357941
      ],
      [
        103.9554992,
        1.3571876
      ],
      [
        103.9554973,
        1.357024
      ],
      [
        103.955494,
        1.3567591
      ],
      [
        103.9555509,
        1.3566599
      ],
      [
        103.9556046,
        1.356556
      ],
      [
        103.9556541,
        1.356475
      ],
      [
        103.955675,
        1.3564407
      ],
      [
        103.9557005,
        1.3564139
      ],
      [
        103.9557528,
        1.3563643
      ],
      [
        103.955869,
        1.3563001
      ],
      [
        103.9563155,
        1.3563026
      ],
      [
        103.9564418,
        1.3563053
      ],
      [
        103.9566537,
        1.3563251
      ],
      [
        103.9568226,
        1.3563559
      ],
      [
        103.9569974,
        1.3564069
      ],
      [
        103.9571264,
        1.3564553
      ],
      [
        103.9572339,
        1.3565081
      ],
      [
        103.9573701,
        1.3565825
      ],
      [
        103.9574768,
        1.3566524
      ],
      [
        103.9575664,
        1.3567205
      ],
      [
        103.9576694,
        1.3568074
      ],
      [
        103.9578177,
        1.3569406
      ],
      [
        103.9579593,
        1.3570819
      ],
      [
        103.9581836,
        1.3573057
      ],
      [
        103.9584037,
        1.3575307
      ],
      [
        103.9584666,
        1.3575996
      ],
      [
        103.9584666,
        1.3575996
      ],
      [
        103.9586183,
        1.3574757
      ],
      [
        103.958549,
        1.3575335
      ],
      [
        103.9587705,
        1.3573237
      ],
      [
        103.9587998,
        1.3572947
      ],
      [
        103.9589589,
        1.3571296
      ],
      [
        103.9592151,
        1.3568564
      ],
      [
        103.9595788,
        1.3564856
      ],
      [
        103.9600077,
        1.3560421
      ],
      [
        103.9598345,
        1.356214
      ],
      [
        103.9601602,
        1.3558909
      ],
      [
        103.9600981,
        1.3559525
      ],
      [
        103.9602015,
        1.3558499
      ],
      [
        103.9603723,
        1.3556804
      ],
      [
        103.9607537,
        1.3551729
      ],
      [
        103.9607332,
        1.3552273
      ],
      [
        103.9607089,
        1.3552779
      ],
      [
        103.9606664,
        1.3553472
      ],
      [
        103.9606242,
        1.3554011
      ],
      [
        103.9604879,
        1.3555657
      ],
      [
        103.9607961,
        1.3550554
      ],
      [
        103.9607967,
        1.3549712
      ],
      [
        103.960798,
        1.3548867
      ],
      [
        103.9607989,
        1.3548265
      ],
      [
        103.9608025,
        1.3545892
      ],
      [
        103.9608081,
        1.3542245
      ],
      [
        103.9608092,
        1.3538589
      ],
      [
        103.9608095,
        1.3537914
      ],
      [
        103.9610549,
        1.3537898
      ],
      [
        103.9608629,
        1.3537909
      ],
      [
        103.9608095,
        1.3537914
      ],
      [
        103.9614826,
        1.3537874
      ],
      [
        103.9617281,
        1.3537857
      ],
      [
        103.961677,
        1.3537855
      ],
      [
        103.9621018,
        1.3537755
      ],
      [
        103.9621703,
        1.3537582
      ],
      [
        103.9622331,
        1.3537353
      ],
      [
        103.9623158,
        1.3536944
      ],
      [
        103.9623607,
        1.3536576
      ],
      [
        103.9624155,
        1.3536018
      ],
      [
        103.9624553,
        1.353541
      ],
      [
        103.9624783,
        1.3534832
      ],
      [
        103.9624972,
        1.3534194
      ],
      [
        103.9625052,
        1.3533616
      ],
      [
        103.962511,
        1.3532895
      ],
      [
        103.9625047,
        1.3526381
      ],
      [
        103.9624999,
        1.3525677
      ],
      [
        103.9624881,
        1.3524862
      ],
      [
        103.9624683,
        1.3524198
      ],
      [
        103.9624479,
        1.3523768
      ],
      [
        103.9624003,
        1.352315
      ],
      [
        103.9623568,
        1.3522806
      ],
      [
        103.9623022,
        1.3522371
      ],
      [
        103.9622492,
        1.3522063
      ],
      [
        103.9622001,
        1.3521841
      ],
      [
        103.9621361,
        1.3521691
      ],
      [
        103.9620609,
        1.3521573
      ],
      [
        103.96197,
        1.3521521
      ],
      [
        103.9615889,
        1.3521527
      ],
      [
        103.9614183,
        1.352153
      ],
      [
        103.9613984,
        1.352153
      ],
      [
        103.9613298,
        1.352153
      ],
      [
        103.9612091,
        1.3521531
      ],
      [
        103.9611045,
        1.3521531
      ],
      [
        103.9609677,
        1.352154
      ],
      [
        103.9608382,
        1.3521548
      ],
      [
        103.96045,
        1.3521504
      ],
      [
        103.9600898,
        1.3521549
      ],
      [
        103.9599565,
        1.3521552
      ],
      [
        103.9597258,
        1.3521557
      ],
      [
        103.9596212,
        1.3521558
      ],
      [
        103.9595716,
        1.3521558
      ],
      [
        103.9593664,
        1.352156
      ],
      [
        103.9592881,
        1.3521561
      ],
      [
        103.9591893,
        1.3521558
      ],
      [
        103.9590344,
        1.3521554
      ],
      [
        103.9588115,
        1.3521562
      ],
      [
        103.9583938,
        1.352158
      ],
      [
        103.9583313,
        1.3521644
      ],
      [
        103.9582673,
        1.3521739
      ],
      [
        103.9582158,
        1.3521897
      ],
      [
        103.9581565,
        1.3522174
      ],
      [
        103.9580995,
        1.3522525
      ],
      [
        103.9580474,
        1.3522913
      ],
      [
        103.9580282,
        1.3523144
      ],
      [
        103.9580126,
        1.3523332
      ],
      [
        103.9579806,
        1.3523782
      ],
      [
        103.9579542,
        1.3524208
      ],
      [
        103.9579279,
        1.3524798
      ],
      [
        103.9579166,
        1.3525238
      ],
      [
        103.9579157,
        1.3525826
      ],
      [
        103.9579158,
        1.3526925
      ],
      [
        103.9579137,
        1.3531406
      ],
      [
        103.9579155,
        1.3531797
      ],
      [
        103.9578981,
        1.3532107
      ],
      [
        103.9578892,
        1.3532343
      ],
      [
        103.9578837,
        1.3532605
      ],
      [
        103.9578774,
        1.353304
      ],
      [
        103.9578725,
        1.3536597
      ],
      [
        103.9578749,
        1.3537746
      ],
      [
        103.9570013,
        1.3537812
      ],
      [
        103.9577272,
        1.3537743
      ],
      [
        103.9578749,
        1.3537746
      ],
      [
        103.9569014,
        1.3537821
      ],
      [
        103.9560596,
        1.3537816
      ],
      [
        103.9559251,
        1.3537775
      ],
      [
        103.9555494,
        1.3537367
      ],
      [
        103.9554862,
        1.3537144
      ],
      [
        103.9554417,
        1.3536904
      ],
      [
        103.9553749,
        1.3536556
      ],
      [
        103.9553134,
        1.3536093
      ],
      [
        103.955283,
        1.3535826
      ],
      [
        103.9552314,
        1.3535292
      ],
      [
        103.9551434,
        1.3534127
      ],
      [
        103.9550534,
        1.3531559
      ],
      [
        103.9549971,
        1.3530218
      ],
      [
        103.9549045,
        1.3528046
      ],
      [
        103.9547838,
        1.3525741
      ],
      [
        103.9546479,
        1.3523442
      ],
      [
        103.9546065,
        1.352276
      ],
      [
        103.9545681,
        1.3522241
      ],
      [
        103.954455,
        1.3520669
      ],
      [
        103.954421,
        1.3520204
      ],
      [
        103.9541157,
        1.3516164
      ],
      [
        103.9540816,
        1.3515737
      ],
      [
        103.9537393,
        1.3511508
      ],
      [
        103.9536283,
        1.3510137
      ],
      [
        103.9533389,
        1.3507514
      ],
      [
        103.9532555,
        1.3506954
      ],
      [
        103.953009,
        1.3505825
      ],
      [
        103.9524512,
        1.3503597
      ],
      [
        103.9520378,
        1.350216
      ],
      [
        103.951604,
        1.350063
      ],
      [
        103.951415,
        1.3499985
      ],
      [
        103.9510797,
        1.3498792
      ],
      [
        103.9509377,
        1.3498298
      ],
      [
        103.950845,
        1.3497993
      ],
      [
        103.950238,
        1.3495864
      ],
      [
        103.9498531,
        1.3494506
      ],
      [
        103.9495577,
        1.349358
      ],
      [
        103.9489192,
        1.3491539
      ],
      [
        103.9486176,
        1.3490497
      ],
      [
        103.9485661,
        1.3490319
      ],
      [
        103.9484633,
        1.3489964
      ],
      [
        103.948378,
        1.3489669
      ],
      [
        103.9482882,
        1.3489359
      ],
      [
        103.947711,
        1.3487364
      ],
      [
        103.9457644,
        1.3480507
      ],
      [
        103.9456147,
        1.3479901
      ],
      [
        103.9450675,
        1.3477313
      ],
      [
        103.944622,
        1.3475148
      ],
      [
        103.9445676,
        1.3474883
      ],
      [
        103.9445319,
        1.3474693
      ],
      [
        103.9442401,
        1.3472822
      ],
      [
        103.9438572,
        1.347012
      ],
      [
        103.9434947,
        1.3467166
      ],
      [
        103.9431118,
        1.3463749
      ],
      [
        103.9430816,
        1.3463479
      ],
      [
        103.9429306,
        1.3462242
      ],
      [
        103.9428815,
        1.3461841
      ],
      [
        103.9425343,
        1.3459005
      ],
      [
        103.9424996,
        1.3458722
      ],
      [
        103.942224,
        1.3456781
      ],
      [
        103.9419632,
        1.3455185
      ],
      [
        103.941379,
        1.3452177
      ],
      [
        103.9409479,
        1.3450234
      ],
      [
        103.940776,
        1.3449573
      ],
      [
        103.9407193,
        1.344941
      ],
      [
        103.9405303,
        1.3448868
      ],
      [
        103.940092,
        1.3447951
      ],
      [
        103.9396674,
        1.3447305
      ],
      [
        103.9394416,
        1.3447071
      ],
      [
        103.9392153,
        1.344694
      ],
      [
        103.9386141,
        1.3446718
      ],
      [
        103.9385326,
        1.3446298
      ],
      [
        103.9384982,
        1.3446051
      ],
      [
        103.938484,
        1.3445949
      ],
      [
        103.9384718,
        1.344579
      ],
      [
        103.9384624,
        1.3445607
      ],
      [
        103.9384518,
        1.3445403
      ],
      [
        103.9384225,
        1.344492
      ],
      [
        103.9383792,
        1.3441245
      ],
      [
        103.9383654,
        1.3440027
      ],
      [
        103.9383661,
        1.3438789
      ],
      [
        103.9383382,
        1.3437871
      ],
      [
        103.938294,
        1.343644
      ],
      [
        103.9381633,
        1.3433744
      ],
      [
        103.9380358,
        1.3431607
      ],
      [
        103.9380081,
        1.3431143
      ],
      [
        103.9379543,
        1.3430332
      ],
      [
        103.937932,
        1.3429926
      ],
      [
        103.9377935,
        1.3427416
      ],
      [
        103.937056,
        1.3413126
      ],
      [
        103.9368604,
        1.341032
      ],
      [
        103.9368344,
        1.3409828
      ],
      [
        103.9367846,
        1.3409002
      ],
      [
        103.9367349,
        1.3408188
      ],
      [
        103.9366253,
        1.3406241
      ],
      [
        103.9365659,
        1.3405368
      ],
      [
        103.9363303,
        1.3402433
      ],
      [
        103.9361726,
        1.3400528
      ],
      [
        103.9360722,
        1.3399475
      ],
      [
        103.9358149,
        1.3396474
      ],
      [
        103.9354041,
        1.3392167
      ],
      [
        103.9350791,
        1.3388786
      ],
      [
        103.9350029,
        1.3387938
      ],
      [
        103.9348428,
        1.3386457
      ],
      [
        103.9347242,
        1.3385611
      ],
      [
        103.9345891,
        1.3384774
      ],
      [
        103.934589,
        1.3384764
      ],
      [
        103.9345211,
        1.3384379
      ],
      [
        103.9344535,
        1.3384015
      ],
      [
        103.9343045,
        1.3383211
      ],
      [
        103.9340453,
        1.3382077
      ],
      [
        103.9338138,
        1.3381259
      ],
      [
        103.9335827,
        1.3380506
      ],
      [
        103.9333085,
        1.3379796
      ],
      [
        103.9332142,
        1.3379191
      ],
      [
        103.9331572,
        1.3378555
      ],
      [
        103.9330954,
        1.337708
      ],
      [
        103.933161,
        1.3373788
      ],
      [
        103.9332867,
        1.3367527
      ],
      [
        103.9333133,
        1.3366428
      ],
      [
        103.9333514,
        1.33648
      ],
      [
        103.9334187,
        1.3362117
      ],
      [
        103.93344,
        1.3361387
      ],
      [
        103.9335628,
        1.3356845
      ],
      [
        103.933611,
        1.3354517
      ],
      [
        103.9336441,
        1.3352698
      ],
      [
        103.9336575,
        1.3351964
      ],
      [
        103.9336789,
        1.3350785
      ],
      [
        103.933715,
        1.334878
      ],
      [
        103.9337543,
        1.3346644
      ],
      [
        103.9338418,
        1.3341831
      ],
      [
        103.9339186,
        1.3337612
      ],
      [
        103.9341132,
        1.332692
      ],
      [
        103.9341392,
        1.332549
      ],
      [
        103.9341628,
        1.3324192
      ],
      [
        103.9342819,
        1.3317674
      ],
      [
        103.9343421,
        1.3317067
      ],
      [
        103.9343922,
        1.3316761
      ],
      [
        103.9344483,
        1.3316505
      ],
      [
        103.9345494,
        1.3316336
      ],
      [
        103.9351607,
        1.3317793
      ],
      [
        103.9356134,
        1.3318809
      ],
      [
        103.9356761,
        1.331895
      ],
      [
        103.9357381,
        1.3319091
      ],
      [
        103.9359377,
        1.3319547
      ],
      [
        103.9360163,
        1.3319727
      ],
      [
        103.936356,
        1.3320556
      ],
      [
        103.9365981,
        1.3320868
      ],
      [
        103.9367724,
        1.3321026
      ],
      [
        103.9369675,
        1.3320979
      ],
      [
        103.937042,
        1.3320938
      ],
      [
        103.9372315,
        1.3320789
      ],
      [
        103.9374119,
        1.3320511
      ],
      [
        103.9376066,
        1.3320223
      ],
      [
        103.9376067,
        1.3320666
      ],
      [
        103.9376029,
        1.3325153
      ],
      [
        103.9376012,
        1.3327291
      ],
      [
        103.9376064,
        1.3328587
      ],
      [
        103.9376077,
        1.3328862
      ],
      [
        103.9376114,
        1.3329135
      ],
      [
        103.9376174,
        1.3329404
      ],
      [
        103.9376256,
        1.3329667
      ],
      [
        103.9376361,
        1.3329922
      ],
      [
        103.9376487,
        1.3330167
      ],
      [
        103.9376634,
        1.3330401
      ],
      [
        103.93768,
        1.3330621
      ],
      [
        103.9376984,
        1.3330826
      ],
      [
        103.9377185,
        1.3331014
      ],
      [
        103.9377401,
        1.3331185
      ],
      [
        103.9377632,
        1.3331337
      ],
      [
        103.9377874,
        1.3331468
      ],
      [
        103.9378127,
        1.3331578
      ],
      [
        103.9378388,
        1.3331667
      ],
      [
        103.9378655,
        1.3331733
      ],
      [
        103.9381591,
        1.3332377
      ],
      [
        103.9383432,
        1.3332746
      ],
      [
        103.938549,
        1.3333159
      ],
      [
        103.9393754,
        1.3334877
      ],
      [
        103.9394684,
        1.333507
      ],
      [
        103.9395149,
        1.3335181
      ],
      [
        103.9397962,
        1.3335978
      ],
      [
        103.9402408,
        1.3337284
      ],
      [
        103.9403576,
        1.3337623
      ],
      [
        103.9405896,
        1.3338302
      ],
      [
        103.9407556,
        1.3338791
      ],
      [
        103.9409188,
        1.3339271
      ],
      [
        103.9409494,
        1.3339346
      ],
      [
        103.9413322,
        1.3340192
      ],
      [
        103.9414261,
        1.3340399
      ],
      [
        103.9421783,
        1.3342054
      ],
      [
        103.9425092,
        1.3342739
      ],
      [
        103.9427472,
        1.3343285
      ],
      [
        103.9427501,
        1.3343291
      ],
      [
        103.9429102,
        1.3343664
      ],
      [
        103.9430768,
        1.3344136
      ],
      [
        103.9432118,
        1.3344971
      ],
      [
        103.9433406,
        1.3346046
      ],
      [
        103.9434374,
        1.3347312
      ],
      [
        103.9435045,
        1.3348823
      ],
      [
        103.9435884,
        1.3352342
      ],
      [
        103.9436355,
        1.3356001
      ],
      [
        103.9436598,
        1.3357583
      ],
      [
        103.9437007,
        1.336024
      ],
      [
        103.943759,
        1.3361456
      ],
      [
        103.9438064,
        1.3362214
      ],
      [
        103.943831,
        1.3362584
      ],
      [
        103.9441278,
        1.3365256
      ],
      [
        103.9442018,
        1.3365831
      ],
      [
        103.9444138,
        1.3367743
      ],
      [
        103.9446501,
        1.3369836
      ],
      [
        103.9447356,
        1.33706
      ],
      [
        103.9447938,
        1.3371068
      ],
      [
        103.945188,
        1.337424
      ],
      [
        103.9453624,
        1.3375644
      ],
      [
        103.945403,
        1.3375972
      ],
      [
        103.9454746,
        1.3376547
      ],
      [
        103.9455865,
        1.3377482
      ],
      [
        103.9456947,
        1.3378074
      ],
      [
        103.9457703,
        1.337838
      ],
      [
        103.9458756,
        1.3378593
      ],
      [
        103.9460274,
        1.3378699
      ],
      [
        103.9461203,
        1.3378709
      ],
      [
        103.9461976,
        1.3378641
      ],
      [
        103.9466885,
        1.3377782
      ],
      [
        103.9468617,
        1.3377507
      ],
      [
        103.9470447,
        1.3377172
      ],
      [
        103.9474516,
        1.3376512
      ],
      [
        103.9474579,
        1.3377157
      ],
      [
        103.9474705,
        1.3378452
      ]
    ]
  }
}