{
  "type": "Feature",
  "properties": {
    "relation": 14946902,
    "direction": "2",
    "from": "Bedok North Depot",
    "name": "Svc 18 (Bedok North Depot → Tampines North Interchange)",
    "network": "Land Transport Authority",
    "network:short": "LTA",
    "network:wikidata": "Q3299279",
    "operator": "Go-Ahead Singapore",
    "operator:wikidata": "Q24698874",
    "operator:wikipedia": "en:Go-Ahead Singapore",
    "public_transport:version": "2",
    "ref": "18",
    "roundtrip": "no",
    "route": "bus",
    "to": "Tampines North Interchange",
    "type": "route",
    "website": "https://go-aheadsingapore.com/bus-services/"
  },
  "geometry": {
    "type": "LineString",
    "coordinates": [
      [
        103.9475855,
        1.3378226
      ],
      [
        103.947569,
        1.3376927
      ],
      [
        103.9475613,
        1.3376323
      ],
      [
        103.9475541,
        1.3375895
      ],
      [
        103.9474481,
        1.337609
      ],
      [
        103.9470372,
        1.3376714
      ],
      [
        103.9468566,
        1.337706
      ],
      [
        103.9463872,
        1.3377723
      ],
      [
        103.9462189,
        1.3377958
      ],
      [
        103.9460203,
        1.3378069
      ],
      [
        103.9459506,
        1.3378085
      ],
      [
        103.9458904,
        1.3378049
      ],
      [
        103.9457837,
        1.337779
      ],
      [
        103.945672,
        1.3377314
      ],
      [
        103.9452875,
        1.3374278
      ],
      [
        103.9448356,
        1.3370525
      ],
      [
        103.9447806,
        1.3370068
      ],
      [
        103.9446943,
        1.3369314
      ],
      [
        103.9445959,
        1.3368455
      ],
      [
        103.9442598,
        1.3365519
      ],
      [
        103.9438865,
        1.3362412
      ],
      [
        103.9438592,
        1.3361901
      ],
      [
        103.9438196,
        1.3361162
      ],
      [
        103.9437642,
        1.3359967
      ],
      [
        103.9437285,
        1.3357475
      ],
      [
        103.9437063,
        1.3355926
      ],
      [
        103.9436585,
        1.3352229
      ],
      [
        103.9435641,
        1.3348647
      ],
      [
        103.9434954,
        1.3347099
      ],
      [
        103.9433961,
        1.33458
      ],
      [
        103.9432649,
        1.3344705
      ],
      [
        103.9431183,
        1.334375
      ],
      [
        103.9429277,
        1.3343154
      ],
      [
        103.942773,
        1.3342813
      ],
      [
        103.9425202,
        1.3342223
      ],
      [
        103.9421889,
        1.3341512
      ],
      [
        103.9414365,
        1.3339779
      ],
      [
        103.9409522,
        1.3338663
      ],
      [
        103.9406031,
        1.3337606
      ],
      [
        103.9403705,
        1.3336919
      ],
      [
        103.9403077,
        1.3336733
      ],
      [
        103.9400363,
        1.3335931
      ],
      [
        103.9397928,
        1.3335211
      ],
      [
        103.9395304,
        1.3334435
      ],
      [
        103.9394837,
        1.3334329
      ],
      [
        103.9391845,
        1.3333705
      ],
      [
        103.9385644,
        1.3332418
      ],
      [
        103.9383593,
        1.3332004
      ],
      [
        103.9381718,
        1.3331644
      ],
      [
        103.9381015,
        1.3331497
      ],
      [
        103.9379041,
        1.3331083
      ],
      [
        103.9378596,
        1.3330944
      ],
      [
        103.9378181,
        1.3330735
      ],
      [
        103.9377805,
        1.333046
      ],
      [
        103.937748,
        1.3330128
      ],
      [
        103.9377351,
        1.3329944
      ],
      [
        103.9377213,
        1.3329746
      ],
      [
        103.9377013,
        1.3329327
      ],
      [
        103.9376883,
        1.3328875
      ],
      [
        103.937683,
        1.3328409
      ],
      [
        103.9376801,
        1.3327146
      ],
      [
        103.937683,
        1.3324188
      ],
      [
        103.9376851,
        1.3320556
      ],
      [
        103.9376872,
        1.3320081
      ],
      [
        103.9376836,
        1.3318899
      ],
      [
        103.9376016,
        1.3319065
      ],
      [
        103.9373941,
        1.3319393
      ],
      [
        103.9372885,
        1.3319561
      ],
      [
        103.9371003,
        1.3319756
      ],
      [
        103.9370205,
        1.3319839
      ],
      [
        103.9367811,
        1.3319862
      ],
      [
        103.9366131,
        1.3319799
      ],
      [
        103.9365016,
        1.3319618
      ],
      [
        103.9364552,
        1.3319543
      ],
      [
        103.9360407,
        1.3318673
      ],
      [
        103.935962,
        1.3318487
      ],
      [
        103.9356364,
        1.3317701
      ],
      [
        103.9349513,
        1.3316199
      ],
      [
        103.9344068,
        1.3314912
      ],
      [
        103.934337,
        1.3314761
      ],
      [
        103.9342433,
        1.3314484
      ],
      [
        103.9342179,
        1.3315626
      ],
      [
        103.9342077,
        1.3316171
      ],
      [
        103.9341834,
        1.3317506
      ],
      [
        103.9340485,
        1.3324796
      ],
      [
        103.9340129,
        1.3326745
      ],
      [
        103.9339071,
        1.3332448
      ],
      [
        103.9338414,
        1.3336151
      ],
      [
        103.9338161,
        1.3337378
      ],
      [
        103.9337513,
        1.3340884
      ],
      [
        103.9337252,
        1.3342296
      ],
      [
        103.9336476,
        1.3346497
      ],
      [
        103.9336065,
        1.3348725
      ],
      [
        103.9335596,
        1.335126
      ],
      [
        103.933534,
        1.3352648
      ],
      [
        103.9334939,
        1.3354819
      ],
      [
        103.9334512,
        1.3356763
      ],
      [
        103.933372,
        1.3359824
      ],
      [
        103.9333179,
        1.3361849
      ],
      [
        103.9332358,
        1.3365163
      ],
      [
        103.9332107,
        1.3366225
      ],
      [
        103.9331887,
        1.3367146
      ],
      [
        103.9331562,
        1.336884
      ],
      [
        103.9331122,
        1.3370963
      ],
      [
        103.9330133,
        1.3376271
      ],
      [
        103.9329777,
        1.3377925
      ],
      [
        103.9329643,
        1.3378546
      ],
      [
        103.9329526,
        1.3379069
      ],
      [
        103.9329337,
        1.3380044
      ],
      [
        103.9330272,
        1.3380233
      ],
      [
        103.9330867,
        1.3380363
      ],
      [
        103.933365,
        1.3380975
      ],
      [
        103.9335434,
        1.3381484
      ],
      [
        103.9338016,
        1.3382322
      ],
      [
        103.9340182,
        1.3383167
      ],
      [
        103.9342508,
        1.3384172
      ],
      [
        103.934392,
        1.3384933
      ],
      [
        103.9344598,
        1.3385299
      ],
      [
        103.9345266,
        1.338568
      ],
      [
        103.9346142,
        1.338627
      ],
      [
        103.9347366,
        1.3387079
      ],
      [
        103.9348677,
        1.3388239
      ],
      [
        103.9350135,
        1.3389697
      ],
      [
        103.9351238,
        1.3390827
      ],
      [
        103.9352734,
        1.3392358
      ],
      [
        103.9353265,
        1.33929
      ],
      [
        103.935667,
        1.3396335
      ],
      [
        103.9357457,
        1.3397072
      ],
      [
        103.93599,
        1.3400186
      ],
      [
        103.9361412,
        1.3401883
      ],
      [
        103.9362676,
        1.3403381
      ],
      [
        103.9364513,
        1.3406194
      ],
      [
        103.9366379,
        1.3409034
      ],
      [
        103.9366982,
        1.3409979
      ],
      [
        103.9367493,
        1.3410779
      ],
      [
        103.9367723,
        1.3411141
      ],
      [
        103.9368524,
        1.3412456
      ],
      [
        103.937376,
        1.3422762
      ],
      [
        103.9377918,
        1.3430671
      ],
      [
        103.9378144,
        1.34311
      ],
      [
        103.9378675,
        1.343196
      ],
      [
        103.9378863,
        1.3432324
      ],
      [
        103.9380147,
        1.3434812
      ],
      [
        103.9381084,
        1.343681
      ],
      [
        103.9381885,
        1.3438573
      ],
      [
        103.9382347,
        1.3439994
      ],
      [
        103.9382612,
        1.344097
      ],
      [
        103.9383058,
        1.3443468
      ],
      [
        103.9383214,
        1.3446294
      ],
      [
        103.9383227,
        1.3446522
      ],
      [
        103.9383241,
        1.3446783
      ],
      [
        103.9383309,
        1.3448481
      ],
      [
        103.9384379,
        1.3448475
      ],
      [
        103.9384806,
        1.3448479
      ],
      [
        103.9386503,
        1.3448499
      ],
      [
        103.9394127,
        1.3448587
      ],
      [
        103.9395261,
        1.3448662
      ],
      [
        103.9396354,
        1.3448783
      ],
      [
        103.939837,
        1.3449101
      ],
      [
        103.9401382,
        1.3449669
      ],
      [
        103.9406584,
        1.345099
      ],
      [
        103.9407102,
        1.3451122
      ],
      [
        103.9408918,
        1.3451814
      ],
      [
        103.9412333,
        1.3453368
      ],
      [
        103.9415584,
        1.3454965
      ],
      [
        103.9419944,
        1.3457477
      ],
      [
        103.9421432,
        1.3458436
      ],
      [
        103.9421903,
        1.3458772
      ],
      [
        103.9422983,
        1.3459592
      ],
      [
        103.9424252,
        1.3460531
      ],
      [
        103.9427679,
        1.3463146
      ],
      [
        103.9428212,
        1.3463552
      ],
      [
        103.9429736,
        1.3464741
      ],
      [
        103.9430073,
        1.3465037
      ],
      [
        103.9434183,
        1.3468644
      ],
      [
        103.9437903,
        1.3471375
      ],
      [
        103.9439692,
        1.3472688
      ],
      [
        103.9444507,
        1.3476004
      ],
      [
        103.9444863,
        1.3476197
      ],
      [
        103.9445489,
        1.3476536
      ],
      [
        103.9450125,
        1.3479043
      ],
      [
        103.9451855,
        1.3479861
      ],
      [
        103.9456957,
        1.3481909
      ],
      [
        103.9457327,
        1.348206
      ],
      [
        103.9457585,
        1.3482142
      ],
      [
        103.9474463,
        1.3487905
      ],
      [
        103.947678,
        1.3488699
      ],
      [
        103.9480843,
        1.349009
      ],
      [
        103.9482472,
        1.3490648
      ],
      [
        103.9483633,
        1.3491045
      ],
      [
        103.9485009,
        1.3491517
      ],
      [
        103.9486672,
        1.3492087
      ],
      [
        103.9493041,
        1.3494268
      ],
      [
        103.9495605,
        1.3495145
      ],
      [
        103.9497467,
        1.3495615
      ],
      [
        103.9499708,
        1.3496388
      ],
      [
        103.9507933,
        1.349925
      ],
      [
        103.9508965,
        1.349959
      ],
      [
        103.9515759,
        1.3501903
      ],
      [
        103.9519959,
        1.3503351
      ],
      [
        103.9522608,
        1.3504356
      ],
      [
        103.9525729,
        1.3505539
      ],
      [
        103.9530068,
        1.3507184
      ],
      [
        103.9532455,
        1.3508511
      ],
      [
        103.9534165,
        1.3509952
      ],
      [
        103.9538088,
        1.3514291
      ],
      [
        103.9539286,
        1.3515796
      ],
      [
        103.95401,
        1.3516838
      ],
      [
        103.954178,
        1.3518948
      ],
      [
        103.9543621,
        1.3521456
      ],
      [
        103.9544709,
        1.352294
      ],
      [
        103.9545022,
        1.3523366
      ],
      [
        103.9545506,
        1.3524091
      ],
      [
        103.9546725,
        1.3525982
      ],
      [
        103.9547961,
        1.352818
      ],
      [
        103.9548624,
        1.3529495
      ],
      [
        103.9549604,
        1.3531785
      ],
      [
        103.955026,
        1.3533527
      ],
      [
        103.9551291,
        1.3537004
      ],
      [
        103.955154,
        1.3537849
      ],
      [
        103.9552112,
        1.3537849
      ],
      [
        103.955154,
        1.3537849
      ],
      [
        103.9553798,
        1.3537826
      ],
      [
        103.9555801,
        1.3537775
      ],
      [
        103.9556267,
        1.3537763
      ],
      [
        103.9559251,
        1.3537775
      ],
      [
        103.9560596,
        1.3537816
      ],
      [
        103.9569014,
        1.3537821
      ],
      [
        103.9570013,
        1.3537812
      ],
      [
        103.9577272,
        1.3537743
      ],
      [
        103.9578749,
        1.3537746
      ],
      [
        103.9579508,
        1.3537748
      ],
      [
        103.9579503,
        1.3536607
      ],
      [
        103.9579475,
        1.3533091
      ],
      [
        103.9579457,
        1.3532814
      ],
      [
        103.9579398,
        1.3532468
      ],
      [
        103.9579281,
        1.3532111
      ],
      [
        103.9579155,
        1.3531797
      ],
      [
        103.9579155,
        1.3531797
      ],
      [
        103.9580126,
        1.3523332
      ],
      [
        103.9579806,
        1.3523782
      ],
      [
        103.9579542,
        1.3524208
      ],
      [
        103.9579279,
        1.3524798
      ],
      [
        103.9579166,
        1.3525238
      ],
      [
        103.9579157,
        1.3525826
      ],
      [
        103.9579158,
        1.3526925
      ],
      [
        103.9579137,
        1.3531406
      ],
      [
        103.9582158,
        1.3521897
      ],
      [
        103.9581565,
        1.3522174
      ],
      [
        103.9580995,
        1.3522525
      ],
      [
        103.9580474,
        1.3522913
      ],
      [
        103.9580282,
        1.3523144
      ],
      [
        103.9583938,
        1.352158
      ],
      [
        103.9583313,
        1.3521644
      ],
      [
        103.9582673,
        1.3521739
      ],
      [
        103.9596212,
        1.3521558
      ],
      [
        103.9595716,
        1.3521558
      ],
      [
        103.9593664,
        1.352156
      ],
      [
        103.9592881,
        1.3521561
      ],
      [
        103.9591893,
        1.3521558
      ],
      [
        103.9590344,
        1.3521554
      ],
      [
        103.9588115,
        1.3521562
      ],
      [
        103.9599565,
        1.3521552
      ],
      [
        103.9597258,
        1.3521557
      ],
      [
        103.9600898,
        1.3521549
      ],
      [
        103.96045,
        1.3521504
      ],
      [
        103.9609677,
        1.352154
      ],
      [
        103.9608382,
        1.3521548
      ],
      [
        103.9613298,
        1.352153
      ],
      [
        103.9612091,
        1.3521531
      ],
      [
        103.9611045,
        1.3521531
      ],
      [
        103.9623568,
        1.3522806
      ],
      [
        103.9623022,
        1.3522371
      ],
      [
        103.9622492,
        1.3522063
      ],
      [
        103.9622001,
        1.3521841
      ],
      [
        103.9621361,
        1.3521691
      ],
      [
        103.9620609,
        1.3521573
      ],
      [
        103.96197,
        1.3521521
      ],
      [
        103.9615889,
        1.3521527
      ],
      [
        103.9614183,
        1.352153
      ],
      [
        103.9613984,
        1.352153
      ],
      [
        103.9624881,
        1.3524862
      ],
      [
        103.9624683,
        1.3524198
      ],
      [
        103.9624479,
        1.3523768
      ],
      [
        103.9624003,
        1.352315
      ],
      [
        103.9621018,
        1.3537755
      ],
      [
        103.9621703,
        1.3537582
      ],
      [
        103.9622331,
        1.3537353
      ],
      [
        103.9623158,
        1.3536944
      ],
      [
        103.9623607,
        1.3536576
      ],
      [
        103.9624155,
        1.3536018
      ],
      [
        103.9624553,
        1.353541
      ],
      [
        103.9624783,
        1.3534832
      ],
      [
        103.9624972,
        1.3534194
      ],
      [
        103.9625052,
        1.3533616
      ],
      [
        103.962511,
        1.3532895
      ],
      [
        103.9625047,
        1.3526381
      ],
      [
        103.9624999,
        1.3525677
      ],
      [
        103.9617281,
        1.3537857
      ],
      [
        103.961677,
        1.3537855
      ],
      [
        103.9614826,
        1.3537874
      ],
      [
        103.9610549,
        1.3537898
      ],
      [
        103.9608629,
        1.3537909
      ],
      [
        103.9608095,
        1.3537914
      ],
      [
        103.9607559,
        1.3537895
      ],
      [
        103.9607558,
        1.3538593
      ],
      [
        103.9607552,
        1.3545865
      ],
      [
        103.9607558,
        1.3548265
      ],
      [
        103.9607558,
        1.3548868
      ],
      [
        103.9607558,
        1.3549701
      ],
      [
        103.9607526,
        1.3550538
      ],
      [
        103.9607695,
        1.3551166
      ],
      [
        103.9607537,
        1.3551729
      ],
      [
        103.9607332,
        1.3552273
      ],
      [
        103.9607089,
        1.3552779
      ],
      [
        103.9606664,
        1.3553472
      ],
      [
        103.9606242,
        1.3554011
      ],
      [
        103.9604879,
        1.3555657
      ],
      [
        103.9603723,
        1.3556804
      ],
      [
        103.9602015,
        1.3558499
      ],
      [
        103.9601602,
        1.3558909
      ],
      [
        103.9600981,
        1.3559525
      ],
      [
        103.9600077,
        1.3560421
      ],
      [
        103.9598345,
        1.356214
      ],
      [
        103.9595788,
        1.3564856
      ],
      [
        103.9592151,
        1.3568564
      ],
      [
        103.9589589,
        1.3571296
      ],
      [
        103.9587998,
        1.3572947
      ],
      [
        103.9587705,
        1.3573237
      ],
      [
        103.9586601,
        1.3573678
      ],
      [
        103.9586075,
        1.3573849
      ],
      [
        103.9585469,
        1.357393
      ],
      [
        103.958519,
        1.3573964
      ],
      [
        103.9584856,
        1.3573898
      ],
      [
        103.9584503,
        1.3573797
      ],
      [
        103.9583606,
        1.3573536
      ],
      [
        103.9577498,
        1.3567461
      ],
      [
        103.9576228,
        1.3566399
      ],
      [
        103.9574168,
        1.3564911
      ],
      [
        103.9572582,
        1.3564013
      ],
      [
        103.9570512,
        1.3563163
      ],
      [
        103.9569554,
        1.3562888
      ],
      [
        103.9568341,
        1.3562497
      ],
      [
        103.9566622,
        1.356225
      ],
      [
        103.9564086,
        1.3562028
      ],
      [
        103.9560113,
        1.3562093
      ],
      [
        103.9555595,
        1.3562141
      ],
      [
        103.955509,
        1.356214
      ],
      [
        103.9554046,
        1.3562134
      ],
      [
        103.9554027,
        1.3563141
      ],
      [
        103.9554021,
        1.3563496
      ],
      [
        103.9554013,
        1.3563651
      ],
      [
        103.955392,
        1.3568208
      ],
      [
        103.9554209,
        1.3577265
      ],
      [
        103.955427,
        1.3582167
      ],
      [
        103.9554242,
        1.3583841
      ],
      [
        103.9554219,
        1.3585081
      ],
      [
        103.9554216,
        1.3585334
      ],
      [
        103.9554211,
        1.3586009
      ],
      [
        103.9554221,
        1.358656
      ],
      [
        103.9554228,
        1.3587056
      ],
      [
        103.9554228,
        1.3587197
      ],
      [
        103.9554235,
        1.3591637
      ],
      [
        103.9554237,
        1.3592569
      ],
      [
        103.9554245,
        1.3596927
      ],
      [
        103.9554331,
        1.3600088
      ],
      [
        103.9554333,
        1.3600882
      ],
      [
        103.9554336,
        1.3601686
      ],
      [
        103.9554344,
        1.3604269
      ],
      [
        103.9554038,
        1.3605483
      ],
      [
        103.9553587,
        1.3606506
      ],
      [
        103.955327,
        1.3607069
      ],
      [
        103.9552777,
        1.3607708
      ],
      [
        103.9552435,
        1.360807
      ],
      [
        103.9551887,
        1.3608632
      ],
      [
        103.9548184,
        1.3612392
      ],
      [
        103.9547138,
        1.3613476
      ],
      [
        103.9546576,
        1.3614065
      ],
      [
        103.9546326,
        1.3614304
      ],
      [
        103.9546109,
        1.3614522
      ],
      [
        103.9545084,
        1.3615596
      ],
      [
        103.9542705,
        1.3617941
      ],
      [
        103.9542321,
        1.3618301
      ],
      [
        103.9541933,
        1.3618664
      ],
      [
        103.9541135,
        1.3619337
      ],
      [
        103.954032,
        1.3619911
      ],
      [
        103.9540225,
        1.3619978
      ],
      [
        103.9539406,
        1.3620428
      ],
      [
        103.9538443,
        1.3620882
      ],
      [
        103.9537145,
        1.3621406
      ],
      [
        103.9535911,
        1.3621821
      ],
      [
        103.953452,
        1.3622056
      ],
      [
        103.9533377,
        1.3622184
      ],
      [
        103.9532323,
        1.3622259
      ],
      [
        103.9531243,
        1.362232
      ],
      [
        103.9529868,
        1.3622266
      ],
      [
        103.9528461,
        1.3622096
      ],
      [
        103.9526908,
        1.3621727
      ],
      [
        103.9526105,
        1.3621478
      ],
      [
        103.9524954,
        1.3621001
      ],
      [
        103.9524781,
        1.3620931
      ],
      [
        103.9524047,
        1.3620572
      ],
      [
        103.9523263,
        1.3620113
      ],
      [
        103.9522096,
        1.3619343
      ],
      [
        103.9521496,
        1.3618881
      ],
      [
        103.9520896,
        1.3618386
      ],
      [
        103.9516695,
        1.3614088
      ],
      [
        103.9516343,
        1.3613691
      ],
      [
        103.9515879,
        1.3613191
      ],
      [
        103.9514327,
        1.3611603
      ],
      [
        103.9513201,
        1.3610485
      ],
      [
        103.9512858,
        1.3610145
      ],
      [
        103.9511643,
        1.3608917
      ],
      [
        103.9508937,
        1.3606162
      ],
      [
        103.950802,
        1.3605259
      ],
      [
        103.9507237,
        1.3604488
      ],
      [
        103.9506059,
        1.3603331
      ],
      [
        103.9505346,
        1.3602697
      ],
      [
        103.9504416,
        1.360197
      ],
      [
        103.95026,
        1.3600532
      ],
      [
        103.9501231,
        1.3599664
      ],
      [
        103.9499957,
        1.359915
      ],
      [
        103.9498683,
        1.3598702
      ],
      [
        103.9496416,
        1.3598062
      ],
      [
        103.9494702,
        1.3597871
      ],
      [
        103.9494192,
        1.3597817
      ],
      [
        103.9493741,
        1.3597769
      ],
      [
        103.9493247,
        1.3597765
      ],
      [
        103.9492525,
        1.3597785
      ],
      [
        103.9491505,
        1.3597857
      ],
      [
        103.9489058,
        1.3598345
      ],
      [
        103.9487111,
        1.3599094
      ],
      [
        103.9484356,
        1.3600154
      ],
      [
        103.9478892,
        1.3602286
      ],
      [
        103.9477519,
        1.3602746
      ],
      [
        103.9475796,
        1.3603041
      ],
      [
        103.9474413,
        1.3603134
      ],
      [
        103.9469437,
        1.3603161
      ],
      [
        103.9462435,
        1.3603174
      ],
      [
        103.9455154,
        1.3603158
      ],
      [
        103.9451051,
        1.3603107
      ],
      [
        103.9447121,
        1.360302
      ],
      [
        103.9443561,
        1.3603013
      ],
      [
        103.9442239,
        1.3603016
      ],
      [
        103.9442164,
        1.3603016
      ],
      [
        103.9435367,
        1.3603054
      ],
      [
        103.9433596,
        1.360302
      ],
      [
        103.9430358,
        1.360306
      ],
      [
        103.9427951,
        1.3603088
      ],
      [
        103.94251,
        1.3603155
      ],
      [
        103.942302,
        1.360313
      ],
      [
        103.9421725,
        1.3603145
      ],
      [
        103.9420736,
        1.3603131
      ],
      [
        103.9419918,
        1.360313
      ],
      [
        103.9417969,
        1.3603098
      ],
      [
        103.9411084,
        1.3603339
      ],
      [
        103.9401778,
        1.3603328
      ],
      [
        103.9397075,
        1.3603283
      ],
      [
        103.9394651,
        1.3603244
      ],
      [
        103.9393784,
        1.360323
      ],
      [
        103.9393006,
        1.3603217
      ],
      [
        103.9392302,
        1.3603206
      ],
      [
        103.9389862,
        1.3603167
      ],
      [
        103.9388228,
        1.3603216
      ],
      [
        103.9384372,
        1.3603215
      ],
      [
        103.9382098,
        1.3603109
      ],
      [
        103.9381309,
        1.36031
      ],
      [
        103.9380482,
        1.3603118
      ],
      [
        103.937927,
        1.360314
      ],
      [
        103.934769,
        1.3603422
      ],
      [
        103.9347346,
        1.3603424
      ],
      [
        103.9346194,
        1.3603466
      ],
      [
        103.9346116,
        1.360474
      ],
      [
        103.9346128,
        1.3605413
      ],
      [
        103.9346157,
        1.3607297
      ],
      [
        103.934631,
        1.3617205
      ],
      [
        103.934627,
        1.362179
      ],
      [
        103.9346234,
        1.3626832
      ],
      [
        103.9346253,
        1.3627407
      ],
      [
        103.934625,
        1.3628396
      ],
      [
        103.9346248,
        1.3629057
      ],
      [
        103.9346243,
        1.3630384
      ],
      [
        103.9346233,
        1.363289
      ],
      [
        103.9346195,
        1.364221
      ],
      [
        103.9346186,
        1.3644484
      ],
      [
        103.9345336,
        1.3651619
      ],
      [
        103.9344703,
        1.3654263
      ],
      [
        103.9344417,
        1.3655457
      ],
      [
        103.9343972,
        1.3657147
      ],
      [
        103.9343793,
        1.3657735
      ],
      [
        103.9343169,
        1.3659573
      ],
      [
        103.9342989,
        1.3660505
      ],
      [
        103.9342652,
        1.3662119
      ],
      [
        103.9343486,
        1.3662226
      ],
      [
        103.9344243,
        1.3662318
      ],
      [
        103.934655,
        1.3662772
      ],
      [
        103.9347644,
        1.3662947
      ],
      [
        103.9351849,
        1.3663904
      ],
      [
        103.9353445,
        1.3664358
      ],
      [
        103.9357341,
        1.3666022
      ],
      [
        103.9359129,
        1.3666724
      ],
      [
        103.9360534,
        1.3666884
      ],
      [
        103.9361807,
        1.3666631
      ],
      [
        103.9362802,
        1.3666128
      ],
      [
        103.9363621,
        1.3665415
      ],
      [
        103.9364835,
        1.3663766
      ],
      [
        103.9370128,
        1.365681
      ],
      [
        103.9371897,
        1.3654559
      ],
      [
        103.937394,
        1.365385
      ],
      [
        103.9374831,
        1.3653735
      ],
      [
        103.9376172,
        1.3654152
      ],
      [
        103.9377794,
        1.3655216
      ],
      [
        103.938159,
        1.3658431
      ],
      [
        103.9384306,
        1.3661134
      ],
      [
        103.9386982,
        1.3664023
      ],
      [
        103.9389803,
        1.3668009
      ],
      [
        103.939353,
        1.3674008
      ],
      [
        103.9394141,
        1.3674984
      ],
      [
        103.9393109,
        1.367549
      ],
      [
        103.9390164,
        1.3676908
      ],
      [
        103.938792,
        1.3677982
      ],
      [
        103.9387234,
        1.3678772
      ],
      [
        103.9387136,
        1.3679183
      ],
      [
        103.9387221,
        1.367974
      ],
      [
        103.9387452,
        1.3680075
      ],
      [
        103.938764,
        1.3680861
      ],
      [
        103.9389943,
        1.368445
      ],
      [
        103.9393372,
        1.3689847
      ],
      [
        103.939395,
        1.369023
      ],
      [
        103.939465,
        1.3690091
      ],
      [
        103.9395824,
        1.3689335
      ],
      [
        103.9396968,
        1.3688461
      ],
      [
        103.9397265,
        1.3688118
      ],
      [
        103.9397,
        1.3687462
      ],
      [
        103.9393531,
        1.3681897
      ],
      [
        103.9393088,
        1.3681735
      ],
      [
        103.9392534,
        1.3681838
      ],
      [
        103.9391234,
        1.368262
      ],
      [
        103.9390511,
        1.3683155
      ]
    ]
  }
}