{
  "type": "Feature",
  "properties": {
    "relation": 6623004,
    "direction": "2",
    "duration": "70",
    "fee": "yes",
    "fixme": "routenew",
    "from": "Kampong Bahru Terminal",
    "name": "Svc 190 (Kampong Bahru Terminal → Choa Chu Kang Interchange)",
    "name:en": "Svc 190 (Kampong Bahru Terminal → Choa Chu Kang Interchange)",
    "network": "Land Transport Authority",
    "network:short": "LTA",
    "network:wikidata": "Q3299279",
    "network:wikipedia": "en:Land Transport Authority",
    "operator": "SMRT Buses",
    "operator:wikidata": "Q10852420",
    "operator:wikipedia": "en:SMRT Buses",
    "public_transport:version": "2",
    "ref": "190",
    "roundtrip": "no",
    "route": "bus",
    "to": "Choa Chu Kang Interchange",
    "type": "route",
    "website": "https://www.smrt.com.sg/",
    "wheelchair": "yes"
  },
  "geometry": {
    "type": "LineString",
    "coordinates": [
      [
        103.8330205,
        1.2758106
      ],
      [
        103.8332977,
        1.2758643
      ],
      [
        103.8333405,
        1.2758623
      ],
      [
        103.8333846,
        1.2758544
      ],
      [
        103.8335445,
        1.2758108
      ],
      [
        103.8340906,
        1.2756948
      ],
      [
        103.8341935,
        1.2756589
      ],
      [
        103.8342637,
        1.2756077
      ],
      [
        103.834301,
        1.2754883
      ],
      [
        103.8343046,
        1.2754082
      ],
      [
        103.8329263,
        1.2751651
      ],
      [
        103.8330572,
        1.2751513
      ],
      [
        103.8332039,
        1.2751619
      ],
      [
        103.8333519,
        1.2751835
      ],
      [
        103.8335857,
        1.2752364
      ],
      [
        103.8343046,
        1.2754082
      ],
      [
        103.8327678,
        1.2752101
      ],
      [
        103.8325533,
        1.2752601
      ],
      [
        103.832438,
        1.2753413
      ],
      [
        103.8322912,
        1.2754753
      ],
      [
        103.8322024,
        1.275563
      ],
      [
        103.8321077,
        1.2756593
      ],
      [
        103.8320364,
        1.2757343
      ],
      [
        103.8319641,
        1.2758458
      ],
      [
        103.8319219,
        1.2759634
      ],
      [
        103.831898,
        1.2760474
      ],
      [
        103.8318754,
        1.2761437
      ],
      [
        103.8318539,
        1.2762292
      ],
      [
        103.8318312,
        1.2763198
      ],
      [
        103.8319065,
        1.2763335
      ],
      [
        103.8319765,
        1.2763461
      ],
      [
        103.8322911,
        1.2763812
      ],
      [
        103.8325576,
        1.2763962
      ],
      [
        103.8328134,
        1.2763967
      ],
      [
        103.8331078,
        1.2764125
      ],
      [
        103.83321,
        1.2764376
      ],
      [
        103.8333408,
        1.2764899
      ],
      [
        103.8334172,
        1.2765396
      ],
      [
        103.8334964,
        1.276602
      ],
      [
        103.833547,
        1.2766441
      ],
      [
        103.8336504,
        1.2767395
      ],
      [
        103.8337199,
        1.2766859
      ],
      [
        103.833778,
        1.2766346
      ],
      [
        103.8337813,
        1.2766322
      ],
      [
        103.8339483,
        1.2764913
      ],
      [
        103.8341074,
        1.2763599
      ],
      [
        103.8342499,
        1.2762731
      ],
      [
        103.8343517,
        1.2762275
      ],
      [
        103.8344471,
        1.2761988
      ],
      [
        103.8345259,
        1.2761838
      ],
      [
        103.834597,
        1.2761781
      ],
      [
        103.8346881,
        1.2761726
      ],
      [
        103.8347583,
        1.2761726
      ],
      [
        103.8348241,
        1.2761748
      ],
      [
        103.8349031,
        1.2761804
      ],
      [
        103.8349781,
        1.2762075
      ],
      [
        103.8351156,
        1.2762595
      ],
      [
        103.83522,
        1.2763055
      ],
      [
        103.8352915,
        1.2763481
      ],
      [
        103.8353804,
        1.2764075
      ],
      [
        103.8355736,
        1.2765762
      ],
      [
        103.8356938,
        1.2766784
      ],
      [
        103.8358027,
        1.276771
      ],
      [
        103.8358174,
        1.2767834
      ],
      [
        103.8359124,
        1.2768696
      ],
      [
        103.836083,
        1.2770168
      ],
      [
        103.8361692,
        1.2770856
      ],
      [
        103.8362813,
        1.2771863
      ],
      [
        103.836549,
        1.2774139
      ],
      [
        103.8365754,
        1.2774392
      ],
      [
        103.8366513,
        1.2775051
      ],
      [
        103.8369114,
        1.2777067
      ],
      [
        103.8374541,
        1.2780654
      ],
      [
        103.8378496,
        1.2783266
      ],
      [
        103.8380782,
        1.2784811
      ],
      [
        103.8382793,
        1.278616
      ],
      [
        103.8387756,
        1.2789636
      ],
      [
        103.8389792,
        1.2791344
      ],
      [
        103.8391138,
        1.2792748
      ],
      [
        103.8391834,
        1.2793475
      ],
      [
        103.8392842,
        1.279468
      ],
      [
        103.8394777,
        1.2796827
      ],
      [
        103.8395466,
        1.279748
      ],
      [
        103.8396515,
        1.2798726
      ],
      [
        103.8397489,
        1.2799961
      ],
      [
        103.840018,
        1.2803568
      ],
      [
        103.8400322,
        1.2803771
      ],
      [
        103.8402821,
        1.2806962
      ],
      [
        103.8403893,
        1.2808331
      ],
      [
        103.8404547,
        1.2809136
      ],
      [
        103.8406786,
        1.281163
      ],
      [
        103.8409951,
        1.2815223
      ],
      [
        103.8412011,
        1.2817755
      ],
      [
        103.8412395,
        1.2818208
      ],
      [
        103.8413367,
        1.2819384
      ],
      [
        103.8414843,
        1.2821153
      ],
      [
        103.8415357,
        1.2821791
      ],
      [
        103.8415725,
        1.2822203
      ],
      [
        103.8416348,
        1.2822906
      ],
      [
        103.8419219,
        1.2826179
      ],
      [
        103.8419604,
        1.2826617
      ],
      [
        103.8421941,
        1.282957
      ],
      [
        103.8423627,
        1.283164
      ],
      [
        103.8425013,
        1.2833367
      ],
      [
        103.8425288,
        1.2833706
      ],
      [
        103.8431163,
        1.2840789
      ],
      [
        103.8431967,
        1.2841758
      ],
      [
        103.8432648,
        1.2842578
      ],
      [
        103.8433782,
        1.2843945
      ],
      [
        103.8434464,
        1.2844765
      ],
      [
        103.8436488,
        1.2847203
      ],
      [
        103.8438155,
        1.2849286
      ],
      [
        103.8438752,
        1.2850033
      ],
      [
        103.843936,
        1.2850694
      ],
      [
        103.8440361,
        1.2851914
      ],
      [
        103.8443411,
        1.2855406
      ],
      [
        103.8445207,
        1.2857434
      ],
      [
        103.8446333,
        1.2858745
      ],
      [
        103.8446809,
        1.2859299
      ],
      [
        103.8448202,
        1.2860934
      ],
      [
        103.8449752,
        1.2862755
      ],
      [
        103.8451329,
        1.2864602
      ],
      [
        103.8452109,
        1.2865509
      ],
      [
        103.8453089,
        1.2866706
      ],
      [
        103.8454456,
        1.2868378
      ],
      [
        103.8455766,
        1.2869815
      ],
      [
        103.8455833,
        1.2869893
      ],
      [
        103.845675,
        1.2870953
      ],
      [
        103.845862,
        1.2873202
      ],
      [
        103.8459283,
        1.2873956
      ],
      [
        103.8459996,
        1.2874818
      ],
      [
        103.8463526,
        1.2878841
      ],
      [
        103.8465239,
        1.2880819
      ],
      [
        103.8466218,
        1.2881974
      ],
      [
        103.8467424,
        1.2883397
      ],
      [
        103.8469287,
        1.2885573
      ],
      [
        103.8474799,
        1.2892359
      ],
      [
        103.8476025,
        1.2893849
      ],
      [
        103.8479836,
        1.2898829
      ],
      [
        103.8481263,
        1.2900514
      ],
      [
        103.8481858,
        1.2901144
      ],
      [
        103.8482584,
        1.2902039
      ],
      [
        103.8483996,
        1.2903724
      ],
      [
        103.8484965,
        1.2904993
      ],
      [
        103.8485901,
        1.2906549
      ],
      [
        103.848755,
        1.2909524
      ],
      [
        103.8489047,
        1.2912404
      ],
      [
        103.8490446,
        1.2914925
      ],
      [
        103.8491756,
        1.291758
      ],
      [
        103.849286,
        1.2919657
      ],
      [
        103.8493692,
        1.2921494
      ],
      [
        103.8494378,
        1.2923308
      ],
      [
        103.8494696,
        1.2923913
      ],
      [
        103.8495306,
        1.2925377
      ],
      [
        103.8495696,
        1.2926289
      ],
      [
        103.8496622,
        1.292845
      ],
      [
        103.8496842,
        1.2928907
      ],
      [
        103.8498421,
        1.2932189
      ],
      [
        103.8500439,
        1.293586
      ],
      [
        103.8501234,
        1.2937429
      ],
      [
        103.8501887,
        1.2938717
      ],
      [
        103.8502345,
        1.2939612
      ],
      [
        103.8502957,
        1.2940826
      ],
      [
        103.8504705,
        1.2944135
      ],
      [
        103.850537,
        1.2945195
      ],
      [
        103.8504482,
        1.2945744
      ],
      [
        103.8500724,
        1.2947904
      ],
      [
        103.8498643,
        1.2949103
      ],
      [
        103.8497726,
        1.2949616
      ],
      [
        103.8498427,
        1.2950632
      ],
      [
        103.8499071,
        1.2951595
      ],
      [
        103.8500682,
        1.295408
      ],
      [
        103.8501005,
        1.2954538
      ],
      [
        103.8501542,
        1.2956288
      ],
      [
        103.850167,
        1.2957264
      ],
      [
        103.8501551,
        1.2957919
      ],
      [
        103.8501379,
        1.2958404
      ],
      [
        103.8500815,
        1.2959029
      ],
      [
        103.8499393,
        1.2960308
      ],
      [
        103.8498669,
        1.2960857
      ],
      [
        103.8497607,
        1.2961709
      ],
      [
        103.8496626,
        1.296267
      ],
      [
        103.8496288,
        1.2962958
      ],
      [
        103.8495715,
        1.2963588
      ],
      [
        103.8495213,
        1.2964195
      ],
      [
        103.8494384,
        1.2965304
      ],
      [
        103.8492526,
        1.2968242
      ],
      [
        103.8491267,
        1.2970113
      ],
      [
        103.8490578,
        1.2971187
      ],
      [
        103.8489855,
        1.2972167
      ],
      [
        103.8489258,
        1.2972882
      ],
      [
        103.8488639,
        1.2973425
      ],
      [
        103.8487422,
        1.2974409
      ],
      [
        103.8486291,
        1.2975236
      ],
      [
        103.8483977,
        1.2976929
      ],
      [
        103.8481278,
        1.2979092
      ],
      [
        103.8480569,
        1.2979702
      ],
      [
        103.8479612,
        1.298048
      ],
      [
        103.847712,
        1.2982594
      ],
      [
        103.8476785,
        1.2982819
      ],
      [
        103.8476472,
        1.2982994
      ],
      [
        103.8476202,
        1.2983082
      ],
      [
        103.8475925,
        1.2983147
      ],
      [
        103.8475616,
        1.2983173
      ],
      [
        103.8475318,
        1.2983164
      ],
      [
        103.8474774,
        1.2983158
      ],
      [
        103.8474447,
        1.2983154
      ],
      [
        103.8473864,
        1.2983067
      ],
      [
        103.847315,
        1.2982863
      ],
      [
        103.8472539,
        1.2982572
      ],
      [
        103.8472,
        1.2982179
      ],
      [
        103.8470101,
        1.298026
      ],
      [
        103.8469634,
        1.2979805
      ],
      [
        103.846857,
        1.2979174
      ],
      [
        103.8467533,
        1.2978736
      ],
      [
        103.8466612,
        1.297858
      ],
      [
        103.8465491,
        1.2978528
      ],
      [
        103.8463648,
        1.2979067
      ],
      [
        103.8459222,
        1.2980223
      ],
      [
        103.8456438,
        1.2981218
      ],
      [
        103.845528,
        1.2982164
      ],
      [
        103.8453722,
        1.2983141
      ],
      [
        103.8453384,
        1.2983289
      ],
      [
        103.845117,
        1.2983968
      ],
      [
        103.8449889,
        1.2983988
      ],
      [
        103.8448834,
        1.2983585
      ],
      [
        103.8447787,
        1.2983861
      ],
      [
        103.8445262,
        1.2984601
      ],
      [
        103.844475,
        1.2984751
      ],
      [
        103.8443111,
        1.2985359
      ],
      [
        103.8441591,
        1.2985922
      ],
      [
        103.843808,
        1.2987681
      ],
      [
        103.8436442,
        1.2988513
      ],
      [
        103.8433675,
        1.2990247
      ],
      [
        103.8431461,
        1.2991707
      ],
      [
        103.8429945,
        1.2992651
      ],
      [
        103.8427006,
        1.2994319
      ],
      [
        103.8425245,
        1.2995386
      ],
      [
        103.8425042,
        1.2995482
      ],
      [
        103.8423939,
        1.2996002
      ],
      [
        103.8422907,
        1.2996393
      ],
      [
        103.8421078,
        1.2996735
      ],
      [
        103.8419558,
        1.2997034
      ],
      [
        103.8416714,
        1.2997552
      ],
      [
        103.8416394,
        1.2997589
      ],
      [
        103.8415857,
        1.2997687
      ],
      [
        103.8414658,
        1.2997943
      ],
      [
        103.8409955,
        1.2998956
      ],
      [
        103.8406914,
        1.2999586
      ],
      [
        103.8405432,
        1.2999911
      ],
      [
        103.8404913,
        1.3000021
      ],
      [
        103.8404144,
        1.3000213
      ],
      [
        103.8403176,
        1.3000465
      ],
      [
        103.8402867,
        1.3000532
      ],
      [
        103.8401977,
        1.3000711
      ],
      [
        103.840108,
        1.3000912
      ],
      [
        103.8398887,
        1.3001362
      ],
      [
        103.8394433,
        1.3002335
      ],
      [
        103.8391674,
        1.3002938
      ],
      [
        103.8390588,
        1.3003175
      ],
      [
        103.8386463,
        1.3004076
      ],
      [
        103.8384943,
        1.3004403
      ],
      [
        103.8383906,
        1.3004626
      ],
      [
        103.8381287,
        1.3005188
      ],
      [
        103.8379596,
        1.3005587
      ],
      [
        103.8378941,
        1.300573
      ],
      [
        103.8376267,
        1.3006332
      ],
      [
        103.8373671,
        1.3006861
      ],
      [
        103.8372326,
        1.3007142
      ],
      [
        103.8369933,
        1.3007768
      ],
      [
        103.8368637,
        1.3008075
      ],
      [
        103.8368154,
        1.3008166
      ],
      [
        103.8368029,
        1.3008102
      ],
      [
        103.8367205,
        1.3008021
      ],
      [
        103.8365659,
        1.3007726
      ],
      [
        103.8364751,
        1.3007427
      ],
      [
        103.8363012,
        1.3006655
      ],
      [
        103.8361168,
        1.3004766
      ],
      [
        103.8359825,
        1.3003978
      ],
      [
        103.8358691,
        1.3003639
      ],
      [
        103.8357698,
        1.3003386
      ],
      [
        103.8356949,
        1.3003358
      ],
      [
        103.83559,
        1.3003357
      ],
      [
        103.835504,
        1.3003416
      ],
      [
        103.8354067,
        1.3003762
      ],
      [
        103.8352941,
        1.3004318
      ],
      [
        103.8352042,
        1.3004968
      ],
      [
        103.835168,
        1.3005639
      ],
      [
        103.8351343,
        1.3006586
      ],
      [
        103.8350949,
        1.3007764
      ],
      [
        103.8350896,
        1.3008723
      ],
      [
        103.8352023,
        1.3010848
      ],
      [
        103.8353159,
        1.3012913
      ],
      [
        103.8353305,
        1.3013848
      ],
      [
        103.8353097,
        1.3014807
      ],
      [
        103.8352677,
        1.3015694
      ],
      [
        103.8352677,
        1.3015694
      ],
      [
        103.8351463,
        1.3016454
      ],
      [
        103.8342482,
        1.3023256
      ],
      [
        103.8340895,
        1.3024633
      ],
      [
        103.8339445,
        1.3026027
      ],
      [
        103.8336401,
        1.3028952
      ],
      [
        103.8335488,
        1.3029821
      ],
      [
        103.8336401,
        1.3028952
      ],
      [
        103.8333349,
        1.3031747
      ],
      [
        103.8331643,
        1.3033186
      ],
      [
        103.8330679,
        1.3033999
      ],
      [
        103.8328695,
        1.3035656
      ],
      [
        103.8328015,
        1.303593
      ],
      [
        103.8327779,
        1.3035907
      ],
      [
        103.8327553,
        1.3035829
      ],
      [
        103.832735,
        1.3035709
      ],
      [
        103.8327169,
        1.3035574
      ],
      [
        103.8326876,
        1.3035253
      ],
      [
        103.8325603,
        1.3033778
      ],
      [
        103.8325229,
        1.3033317
      ],
      [
        103.8322505,
        1.3029959
      ],
      [
        103.8321743,
        1.302902
      ],
      [
        103.8321285,
        1.3029446
      ],
      [
        103.8318567,
        1.3031763
      ],
      [
        103.8317984,
        1.3032199
      ],
      [
        103.8316434,
        1.303334
      ],
      [
        103.8314278,
        1.303472
      ],
      [
        103.830943,
        1.303797
      ],
      [
        103.8308472,
        1.3038595
      ],
      [
        103.8306784,
        1.303956
      ],
      [
        103.8307378,
        1.3040638
      ],
      [
        103.8308503,
        1.3041998
      ],
      [
        103.8309549,
        1.3043023
      ],
      [
        103.8310959,
        1.3044295
      ],
      [
        103.8312483,
        1.3046057
      ],
      [
        103.8313704,
        1.3047469
      ],
      [
        103.8313982,
        1.3047791
      ],
      [
        103.8315677,
        1.3049751
      ],
      [
        103.8315878,
        1.3049984
      ],
      [
        103.8317012,
        1.3051295
      ],
      [
        103.8318494,
        1.3053009
      ],
      [
        103.8319142,
        1.3053759
      ],
      [
        103.8319347,
        1.3053996
      ],
      [
        103.831953,
        1.3054208
      ],
      [
        103.8320557,
        1.3055388
      ],
      [
        103.8321733,
        1.3057064
      ],
      [
        103.8322967,
        1.3059651
      ],
      [
        103.8323934,
        1.3061752
      ],
      [
        103.8324997,
        1.3064109
      ],
      [
        103.8327896,
        1.3070292
      ],
      [
        103.8328093,
        1.3070763
      ],
      [
        103.8328637,
        1.3072062
      ],
      [
        103.8329134,
        1.307325
      ],
      [
        103.8329959,
        1.3075221
      ],
      [
        103.8330152,
        1.3075703
      ],
      [
        103.8330796,
        1.3077474
      ],
      [
        103.8331442,
        1.307934
      ],
      [
        103.8332087,
        1.3081446
      ],
      [
        103.8332301,
        1.3082434
      ],
      [
        103.8332361,
        1.3089986
      ],
      [
        103.8332363,
        1.3090711
      ],
      [
        103.8332294,
        1.3093844
      ],
      [
        103.8332015,
        1.3101101
      ],
      [
        103.8331759,
        1.3105666
      ],
      [
        103.8331605,
        1.3108583
      ],
      [
        103.8331242,
        1.3113658
      ],
      [
        103.8331046,
        1.3115245
      ],
      [
        103.8330639,
        1.311671
      ],
      [
        103.8329668,
        1.3118515
      ],
      [
        103.8327912,
        1.312037
      ],
      [
        103.8326511,
        1.3121407
      ],
      [
        103.8324081,
        1.3122451
      ],
      [
        103.8317764,
        1.3124081
      ],
      [
        103.8312481,
        1.312533
      ],
      [
        103.8311602,
        1.3125548
      ],
      [
        103.8307136,
        1.3126709
      ],
      [
        103.8297794,
        1.3129034
      ],
      [
        103.8292871,
        1.3130423
      ],
      [
        103.8291457,
        1.3130822
      ],
      [
        103.8285664,
        1.3132313
      ],
      [
        103.8280374,
        1.3133699
      ],
      [
        103.8277627,
        1.3134642
      ],
      [
        103.8275107,
        1.3135988
      ],
      [
        103.8273233,
        1.3137258
      ],
      [
        103.8272611,
        1.313768
      ],
      [
        103.8271924,
        1.3138145
      ],
      [
        103.8270431,
        1.3139348
      ],
      [
        103.8268491,
        1.3140909
      ],
      [
        103.8266788,
        1.3142292
      ],
      [
        103.8265875,
        1.3143408
      ],
      [
        103.826496,
        1.3144526
      ],
      [
        103.8263822,
        1.3145809
      ],
      [
        103.8262478,
        1.3147843
      ],
      [
        103.8261934,
        1.3148925
      ],
      [
        103.8261156,
        1.3152304
      ],
      [
        103.8260843,
        1.3154203
      ],
      [
        103.826021,
        1.3157815
      ],
      [
        103.8259543,
        1.3161678
      ],
      [
        103.8258954,
        1.3166148
      ],
      [
        103.8258827,
        1.3167161
      ],
      [
        103.8258637,
        1.316868
      ],
      [
        103.8258536,
        1.3169482
      ],
      [
        103.8258422,
        1.3170392
      ],
      [
        103.8258192,
        1.31724
      ],
      [
        103.8258134,
        1.3173191
      ],
      [
        103.8257878,
        1.3174978
      ],
      [
        103.8257723,
        1.3176156
      ],
      [
        103.8257253,
        1.3179561
      ],
      [
        103.8256554,
        1.3182837
      ],
      [
        103.8255907,
        1.3186007
      ],
      [
        103.8255158,
        1.3191495
      ],
      [
        103.8254739,
        1.3193836
      ],
      [
        103.825437,
        1.3196192
      ],
      [
        103.8253958,
        1.3198362
      ],
      [
        103.8253866,
        1.3199055
      ],
      [
        103.8253476,
        1.3201421
      ],
      [
        103.8253412,
        1.32033
      ],
      [
        103.8253398,
        1.3204387
      ],
      [
        103.8253258,
        1.3206383
      ],
      [
        103.8253538,
        1.3207751
      ],
      [
        103.8253874,
        1.3209138
      ],
      [
        103.8254464,
        1.321085
      ],
      [
        103.825481,
        1.3211972
      ],
      [
        103.8255402,
        1.3213855
      ],
      [
        103.8257367,
        1.3219192
      ],
      [
        103.825813,
        1.3221165
      ],
      [
        103.8258424,
        1.3221998
      ],
      [
        103.8258496,
        1.322219
      ],
      [
        103.8260575,
        1.3227812
      ],
      [
        103.826131,
        1.3229471
      ],
      [
        103.8262186,
        1.3231255
      ],
      [
        103.8262962,
        1.3232582
      ],
      [
        103.8263888,
        1.3234135
      ],
      [
        103.8264983,
        1.3235918
      ],
      [
        103.8267258,
        1.3240596
      ],
      [
        103.8267368,
        1.3241759
      ],
      [
        103.8267307,
        1.3243075
      ],
      [
        103.8266434,
        1.3250267
      ],
      [
        103.8266319,
        1.3254858
      ],
      [
        103.826654,
        1.3257613
      ],
      [
        103.8266312,
        1.3258598
      ],
      [
        103.8266287,
        1.3260511
      ],
      [
        103.826587,
        1.3261488
      ],
      [
        103.8265347,
        1.3262393
      ],
      [
        103.8263563,
        1.3263787
      ],
      [
        103.8260458,
        1.3265644
      ],
      [
        103.8255765,
        1.3269418
      ],
      [
        103.8253525,
        1.3271691
      ],
      [
        103.8252879,
        1.3273238
      ],
      [
        103.8241863,
        1.3284604
      ],
      [
        103.8238219,
        1.3287223
      ],
      [
        103.8232581,
        1.3290412
      ],
      [
        103.8225639,
        1.3293786
      ],
      [
        103.8202969,
        1.3302826
      ],
      [
        103.8197572,
        1.3305609
      ],
      [
        103.8195471,
        1.3306756
      ],
      [
        103.8188651,
        1.3310591
      ],
      [
        103.8184893,
        1.3312704
      ],
      [
        103.8166239,
        1.3323193
      ],
      [
        103.816107,
        1.3325858
      ],
      [
        103.8148678,
        1.3332248
      ],
      [
        103.8143814,
        1.3334294
      ],
      [
        103.8138474,
        1.3335956
      ],
      [
        103.8130575,
        1.3337907
      ],
      [
        103.8124189,
        1.33399
      ],
      [
        103.8120692,
        1.3341405
      ],
      [
        103.8116617,
        1.3343873
      ],
      [
        103.8113052,
        1.3346446
      ],
      [
        103.810537,
        1.3353147
      ],
      [
        103.8098622,
        1.335931
      ],
      [
        103.8088985,
        1.3367976
      ],
      [
        103.8083803,
        1.3372628
      ],
      [
        103.8081441,
        1.3374749
      ],
      [
        103.8072843,
        1.3382911
      ],
      [
        103.8067522,
        1.3387716
      ],
      [
        103.8061549,
        1.3393166
      ],
      [
        103.8049151,
        1.3404193
      ],
      [
        103.8038982,
        1.3414359
      ],
      [
        103.803725,
        1.3416242
      ],
      [
        103.8019548,
        1.3435549
      ],
      [
        103.8000799,
        1.3455003
      ],
      [
        103.7999819,
        1.3456048
      ],
      [
        103.7993349,
        1.3462992
      ],
      [
        103.7989337,
        1.3467299
      ],
      [
        103.798727,
        1.3469518
      ],
      [
        103.7983275,
        1.3472105
      ],
      [
        103.7975594,
        1.3478955
      ],
      [
        103.7972326,
        1.3481392
      ],
      [
        103.7968842,
        1.3483707
      ],
      [
        103.7966603,
        1.348511
      ],
      [
        103.796429,
        1.3486281
      ],
      [
        103.7961865,
        1.3487295
      ],
      [
        103.7958135,
        1.3488657
      ],
      [
        103.7954593,
        1.3489715
      ],
      [
        103.7952957,
        1.3490117
      ],
      [
        103.7951669,
        1.3490305
      ],
      [
        103.7950301,
        1.3490372
      ],
      [
        103.7948933,
        1.3490318
      ],
      [
        103.7947348,
        1.3490101
      ],
      [
        103.7945524,
        1.3489404
      ],
      [
        103.7943754,
        1.3488385
      ],
      [
        103.7942198,
        1.3487098
      ],
      [
        103.7941018,
        1.3485865
      ],
      [
        103.7939999,
        1.3484685
      ],
      [
        103.7938926,
        1.3483344
      ],
      [
        103.7937907,
        1.3482271
      ],
      [
        103.7936995,
        1.3481199
      ],
      [
        103.7935976,
        1.3480126
      ],
      [
        103.793501,
        1.3479375
      ],
      [
        103.7933723,
        1.3478678
      ],
      [
        103.7932489,
        1.3478303
      ],
      [
        103.7931148,
        1.3478142
      ],
      [
        103.7929699,
        1.3478249
      ],
      [
        103.7928412,
        1.3478571
      ],
      [
        103.7927071,
        1.3479
      ],
      [
        103.7925891,
        1.347959
      ],
      [
        103.7924764,
        1.3480394
      ],
      [
        103.7923477,
        1.3481306
      ],
      [
        103.7922404,
        1.3482218
      ],
      [
        103.7921277,
        1.3483558
      ],
      [
        103.7920097,
        1.348506
      ],
      [
        103.7918971,
        1.3486723
      ],
      [
        103.7917919,
        1.3488368
      ],
      [
        103.7913541,
        1.3495919
      ],
      [
        103.791018,
        1.3501574
      ],
      [
        103.7904299,
        1.3510072
      ],
      [
        103.7902519,
        1.3512018
      ],
      [
        103.7896822,
        1.3518363
      ],
      [
        103.7891673,
        1.3523494
      ],
      [
        103.7889919,
        1.3525
      ],
      [
        103.7886825,
        1.3527294
      ],
      [
        103.7883908,
        1.3529366
      ],
      [
        103.7879963,
        1.3531939
      ],
      [
        103.7877363,
        1.3533634
      ],
      [
        103.7857051,
        1.3547318
      ],
      [
        103.7852642,
        1.3550356
      ],
      [
        103.7851301,
        1.3551402
      ],
      [
        103.784918,
        1.3552995
      ],
      [
        103.7844221,
        1.3556845
      ],
      [
        103.7839933,
        1.3560715
      ],
      [
        103.7838151,
        1.3562417
      ],
      [
        103.7837076,
        1.356349
      ],
      [
        103.7833084,
        1.3567679
      ],
      [
        103.7829397,
        1.3571683
      ],
      [
        103.7825804,
        1.3575921
      ],
      [
        103.7823594,
        1.3578753
      ],
      [
        103.7821918,
        1.3580923
      ],
      [
        103.7818921,
        1.3585211
      ],
      [
        103.7815555,
        1.3590423
      ],
      [
        103.7812485,
        1.3596408
      ],
      [
        103.7809632,
        1.3601668
      ],
      [
        103.7808398,
        1.3604625
      ],
      [
        103.7806409,
        1.3609015
      ],
      [
        103.7804979,
        1.3612915
      ],
      [
        103.7802724,
        1.3618535
      ],
      [
        103.7800816,
        1.3624756
      ],
      [
        103.7798932,
        1.3632599
      ],
      [
        103.7797937,
        1.3637452
      ],
      [
        103.7797073,
        1.3643228
      ],
      [
        103.7796137,
        1.3649531
      ],
      [
        103.7794842,
        1.3657931
      ],
      [
        103.7791786,
        1.3676247
      ],
      [
        103.7787063,
        1.3696922
      ],
      [
        103.7784201,
        1.3707778
      ],
      [
        103.7779994,
        1.3723122
      ],
      [
        103.777891,
        1.3727237
      ],
      [
        103.7777969,
        1.3730429
      ],
      [
        103.7777101,
        1.3733559
      ],
      [
        103.7776619,
        1.3734019
      ],
      [
        103.777635,
        1.3734354
      ],
      [
        103.7776211,
        1.3734568
      ],
      [
        103.7774017,
        1.3740282
      ],
      [
        103.7772399,
        1.3744736
      ],
      [
        103.7770349,
        1.3750499
      ],
      [
        103.7769912,
        1.3751402
      ],
      [
        103.776937,
        1.3752177
      ],
      [
        103.77685,
        1.375298
      ],
      [
        103.7767806,
        1.3753437
      ],
      [
        103.776664,
        1.3753841
      ],
      [
        103.7764304,
        1.3754103
      ],
      [
        103.7761126,
        1.375469
      ],
      [
        103.7755014,
        1.3755192
      ],
      [
        103.7750131,
        1.3755882
      ],
      [
        103.7746838,
        1.3756648
      ],
      [
        103.7743252,
        1.3758088
      ],
      [
        103.7742315,
        1.3758491
      ],
      [
        103.7740257,
        1.3759724
      ],
      [
        103.773869,
        1.3760669
      ],
      [
        103.7736106,
        1.3762257
      ],
      [
        103.773528,
        1.3762769
      ],
      [
        103.7733766,
        1.3763697
      ],
      [
        103.7733394,
        1.3763925
      ],
      [
        103.7732958,
        1.3764192
      ],
      [
        103.7732507,
        1.3764468
      ],
      [
        103.7726203,
        1.3768331
      ],
      [
        103.7724713,
        1.3769234
      ],
      [
        103.7722566,
        1.3770536
      ],
      [
        103.7721345,
        1.3771276
      ],
      [
        103.7719065,
        1.377269
      ],
      [
        103.7718778,
        1.3772862
      ],
      [
        103.7717682,
        1.377352
      ],
      [
        103.7717043,
        1.377393
      ],
      [
        103.7714138,
        1.3775793
      ],
      [
        103.7710351,
        1.3778252
      ],
      [
        103.7696715,
        1.3786692
      ],
      [
        103.7683738,
        1.3794757
      ],
      [
        103.7677448,
        1.3798743
      ],
      [
        103.7677042,
        1.3798997
      ],
      [
        103.7676136,
        1.3799562
      ],
      [
        103.7675299,
        1.3800095
      ],
      [
        103.7674327,
        1.3800729
      ],
      [
        103.7671874,
        1.3802198
      ],
      [
        103.7665368,
        1.3806226
      ],
      [
        103.766394,
        1.3807095
      ],
      [
        103.7662125,
        1.3808009
      ],
      [
        103.766071,
        1.3808586
      ],
      [
        103.7660365,
        1.3808719
      ],
      [
        103.7657985,
        1.3809422
      ],
      [
        103.7655847,
        1.3809829
      ],
      [
        103.7654367,
        1.3810142
      ],
      [
        103.7651439,
        1.3810475
      ],
      [
        103.7647839,
        1.3810542
      ],
      [
        103.7645262,
        1.3810287
      ],
      [
        103.7642395,
        1.3809703
      ],
      [
        103.7640386,
        1.3808981
      ],
      [
        103.7638591,
        1.3808183
      ],
      [
        103.7636193,
        1.3807135
      ],
      [
        103.7635864,
        1.3806992
      ],
      [
        103.7634843,
        1.3806528
      ],
      [
        103.763402,
        1.3806147
      ],
      [
        103.7626502,
        1.380228
      ],
      [
        103.7624758,
        1.3801477
      ],
      [
        103.762188,
        1.3800153
      ],
      [
        103.7619692,
        1.3799147
      ],
      [
        103.7615248,
        1.3797313
      ],
      [
        103.7614837,
        1.3797155
      ],
      [
        103.7611432,
        1.3795511
      ],
      [
        103.7610778,
        1.3795187
      ],
      [
        103.7608708,
        1.379422
      ],
      [
        103.7605183,
        1.3792633
      ],
      [
        103.7602139,
        1.379119
      ],
      [
        103.7601163,
        1.3790787
      ],
      [
        103.7597742,
        1.3789534
      ],
      [
        103.7591558,
        1.3787232
      ],
      [
        103.7588276,
        1.3785867
      ],
      [
        103.7584834,
        1.3784317
      ],
      [
        103.7582156,
        1.3783199
      ],
      [
        103.7580418,
        1.3782411
      ],
      [
        103.7578094,
        1.3781367
      ],
      [
        103.7575952,
        1.3780372
      ],
      [
        103.757413,
        1.3779511
      ],
      [
        103.7570239,
        1.3777716
      ],
      [
        103.7566167,
        1.3775387
      ],
      [
        103.7563393,
        1.3773719
      ],
      [
        103.7563248,
        1.3773632
      ],
      [
        103.7562566,
        1.3773184
      ],
      [
        103.7562028,
        1.3774108
      ],
      [
        103.7561778,
        1.3774603
      ],
      [
        103.7561305,
        1.3776298
      ],
      [
        103.756108,
        1.3777218
      ],
      [
        103.7560958,
        1.3777681
      ],
      [
        103.7560878,
        1.3778102
      ],
      [
        103.756083,
        1.3778655
      ],
      [
        103.7560793,
        1.3779224
      ],
      [
        103.7560782,
        1.3779751
      ],
      [
        103.7560814,
        1.3780203
      ],
      [
        103.7560878,
        1.3780741
      ],
      [
        103.7560958,
        1.3781305
      ],
      [
        103.756185,
        1.3785566
      ],
      [
        103.7561917,
        1.3786055
      ],
      [
        103.7561944,
        1.3786493
      ],
      [
        103.7561968,
        1.3787014
      ],
      [
        103.7561953,
        1.3787317
      ],
      [
        103.7561849,
        1.3789347
      ],
      [
        103.7561673,
        1.3792926
      ],
      [
        103.7561202,
        1.3795089
      ],
      [
        103.7560935,
        1.3796318
      ],
      [
        103.7560636,
        1.3797109
      ],
      [
        103.7560378,
        1.379779
      ],
      [
        103.7560037,
        1.3798692
      ],
      [
        103.7558789,
        1.3801319
      ],
      [
        103.7557542,
        1.3803317
      ],
      [
        103.7556754,
        1.3804361
      ],
      [
        103.7555276,
        1.3805824
      ],
      [
        103.75547,
        1.3806251
      ],
      [
        103.7554375,
        1.3806493
      ],
      [
        103.7553412,
        1.3807017
      ],
      [
        103.7547259,
        1.3809219
      ],
      [
        103.7546401,
        1.3809543
      ],
      [
        103.754577,
        1.3809788
      ],
      [
        103.7544879,
        1.3810122
      ],
      [
        103.7539275,
        1.3812038
      ],
      [
        103.7537412,
        1.3812687
      ],
      [
        103.7535002,
        1.3813486
      ],
      [
        103.7531786,
        1.3814612
      ],
      [
        103.7528622,
        1.3815718
      ],
      [
        103.75268,
        1.3816391
      ],
      [
        103.7526247,
        1.3816523
      ],
      [
        103.7524963,
        1.381672
      ],
      [
        103.7523407,
        1.3816721
      ],
      [
        103.7521373,
        1.38164
      ],
      [
        103.7519317,
        1.3815994
      ],
      [
        103.7517433,
        1.3815725
      ],
      [
        103.7515877,
        1.3815605
      ],
      [
        103.7514771,
        1.3815766
      ],
      [
        103.7513691,
        1.3815986
      ],
      [
        103.7509314,
        1.3817549
      ],
      [
        103.7507444,
        1.3818327
      ],
      [
        103.7505752,
        1.3819052
      ],
      [
        103.7503449,
        1.3820043
      ],
      [
        103.7502229,
        1.3820477
      ],
      [
        103.7501923,
        1.3820586
      ],
      [
        103.7501016,
        1.3821005
      ],
      [
        103.75008,
        1.3821103
      ],
      [
        103.7499778,
        1.3821569
      ],
      [
        103.7496864,
        1.382293
      ],
      [
        103.7481324,
        1.383018
      ],
      [
        103.7479235,
        1.3831071
      ],
      [
        103.7475525,
        1.383271
      ],
      [
        103.7474072,
        1.383356
      ],
      [
        103.7472638,
        1.383478
      ],
      [
        103.7471658,
        1.3836064
      ],
      [
        103.7471231,
        1.3836776
      ],
      [
        103.7469968,
        1.3838653
      ],
      [
        103.7469662,
        1.3839053
      ],
      [
        103.7469255,
        1.383963
      ],
      [
        103.7468988,
        1.3840118
      ],
      [
        103.7467939,
        1.3841959
      ],
      [
        103.7467749,
        1.3842251
      ],
      [
        103.7466264,
        1.3844534
      ],
      [
        103.7464838,
        1.3846687
      ],
      [
        103.7463513,
        1.3848767
      ],
      [
        103.7463289,
        1.3849232
      ],
      [
        103.7462874,
        1.385007
      ],
      [
        103.7462742,
        1.3850429
      ],
      [
        103.7461836,
        1.3852888
      ],
      [
        103.7461366,
        1.3854335
      ],
      [
        103.7461216,
        1.3855116
      ],
      [
        103.7461112,
        1.3855659
      ],
      [
        103.7460998,
        1.3856512
      ],
      [
        103.7460834,
        1.3857855
      ],
      [
        103.7460833,
        1.3859813
      ],
      [
        103.7460981,
        1.3861418
      ],
      [
        103.7460572,
        1.3862757
      ],
      [
        103.7460303,
        1.3863018
      ],
      [
        103.7459639,
        1.3863381
      ],
      [
        103.7458456,
        1.386349
      ],
      [
        103.7454258,
        1.3863353
      ],
      [
        103.7449801,
        1.3863368
      ],
      [
        103.7449244,
        1.386337
      ],
      [
        103.7449334,
        1.3862586
      ],
      [
        103.7449894,
        1.3861545
      ],
      [
        103.7456297,
        1.3861348
      ],
      [
        103.7456898,
        1.3861098
      ],
      [
        103.7457185,
        1.386066
      ],
      [
        103.7457385,
        1.3860095
      ],
      [
        103.7457448,
        1.3858397
      ]
    ]
  }
}