{
  "type": "Feature",
  "properties": {
    "relation": 1156178,
    "direction": "1",
    "fee": "yes",
    "from": "Buona Vista Terminal",
    "name": "Svc 191 (Buona Vista Terminal ↺ Media Circle)",
    "name:en": "Svc 191 (Buona Vista Terminal ↺ Media Circle)",
    "network": "Land Transport Authority",
    "network:short": "LTA",
    "network:wikidata": "Q3299279",
    "network:wikipedia": "en:Land Transport Authority",
    "operator": "SBS Transit",
    "operator:wikidata": "Q2661305",
    "operator:wikipedia": "en:SBS Transit",
    "public_transport:version": "2",
    "ref": "191",
    "roundtrip": "yes",
    "route": "bus",
    "to": "Buona Vista Terminal",
    "type": "route",
    "via": "Media Circle",
    "website": "https://www.sbstransit.com.sg/"
  },
  "geometry": {
    "type": "LineString",
    "coordinates": [
      [
        103.7921406,
        1.3091162
      ],
      [
        103.7920334,
        1.3090858
      ],
      [
        103.7918056,
        1.3090364
      ],
      [
        103.7921406,
        1.3091162
      ],
      [
        103.7922325,
        1.3091621
      ],
      [
        103.7921882,
        1.3091324
      ],
      [
        103.7922763,
        1.3092299
      ],
      [
        103.7922739,
        1.3092159
      ],
      [
        103.7922702,
        1.3092001
      ],
      [
        103.7922572,
        1.3091828
      ],
      [
        103.7922594,
        1.3093896
      ],
      [
        103.7922761,
        1.309256
      ],
      [
        103.7925228,
        1.3095818
      ],
      [
        103.7923035,
        1.3094671
      ],
      [
        103.7922647,
        1.3094362
      ],
      [
        103.7927747,
        1.3096959
      ],
      [
        103.7925993,
        1.3096178
      ],
      [
        103.7928191,
        1.3097302
      ],
      [
        103.7929413,
        1.3095269
      ],
      [
        103.7929651,
        1.3094502
      ],
      [
        103.79309,
        1.3089705
      ],
      [
        103.7931321,
        1.3088388
      ],
      [
        103.7931666,
        1.3087185
      ],
      [
        103.793226,
        1.3085116
      ],
      [
        103.7932789,
        1.3083609
      ],
      [
        103.7933313,
        1.3082116
      ],
      [
        103.7933722,
        1.308132
      ],
      [
        103.793447,
        1.3080247
      ],
      [
        103.793467,
        1.3079982
      ],
      [
        103.7935339,
        1.3079408
      ],
      [
        103.7935762,
        1.3079043
      ],
      [
        103.7936358,
        1.3078516
      ],
      [
        103.7937438,
        1.3077615
      ],
      [
        103.7938135,
        1.3077075
      ],
      [
        103.7940011,
        1.3075622
      ],
      [
        103.7940358,
        1.3075353
      ],
      [
        103.7940908,
        1.3074934
      ],
      [
        103.7940566,
        1.3074421
      ],
      [
        103.7938871,
        1.3071575
      ],
      [
        103.793864,
        1.3071172
      ],
      [
        103.7937656,
        1.3069607
      ],
      [
        103.7936777,
        1.3068171
      ],
      [
        103.7936068,
        1.3066903
      ],
      [
        103.7935629,
        1.3066256
      ],
      [
        103.7935103,
        1.3066081
      ],
      [
        103.7934632,
        1.3065939
      ],
      [
        103.7933002,
        1.3065513
      ],
      [
        103.7929653,
        1.3068075
      ],
      [
        103.7926951,
        1.3070234
      ],
      [
        103.7925384,
        1.307144
      ],
      [
        103.7921621,
        1.3073936
      ],
      [
        103.7920424,
        1.3074561
      ],
      [
        103.7916733,
        1.3076294
      ],
      [
        103.7915153,
        1.3076901
      ],
      [
        103.7914146,
        1.3076798
      ],
      [
        103.7913798,
        1.3076669
      ],
      [
        103.7913519,
        1.3076566
      ],
      [
        103.7912863,
        1.3076258
      ],
      [
        103.7912611,
        1.3076011
      ],
      [
        103.7912525,
        1.3075926
      ],
      [
        103.7912359,
        1.3075763
      ],
      [
        103.7911403,
        1.3074717
      ],
      [
        103.7910811,
        1.3072686
      ],
      [
        103.7910243,
        1.3070208
      ],
      [
        103.7909459,
        1.3068091
      ],
      [
        103.7908637,
        1.3066138
      ],
      [
        103.7907668,
        1.3064253
      ],
      [
        103.7906634,
        1.3062206
      ],
      [
        103.7903742,
        1.3057632
      ],
      [
        103.7903092,
        1.3056682
      ],
      [
        103.7901341,
        1.3054524
      ],
      [
        103.7901124,
        1.3054249
      ],
      [
        103.7900157,
        1.305332
      ],
      [
        103.7899749,
        1.3053025
      ],
      [
        103.7896004,
        1.3050321
      ],
      [
        103.789146,
        1.3047323
      ],
      [
        103.7887925,
        1.3045054
      ],
      [
        103.7885979,
        1.3043774
      ],
      [
        103.7882355,
        1.304147
      ],
      [
        103.7880443,
        1.3039908
      ],
      [
        103.7878932,
        1.3038692
      ],
      [
        103.7877594,
        1.3037449
      ],
      [
        103.7876193,
        1.3036017
      ],
      [
        103.787587,
        1.3035561
      ],
      [
        103.7875355,
        1.3034701
      ],
      [
        103.7875078,
        1.3034209
      ],
      [
        103.7874695,
        1.3033505
      ],
      [
        103.7874161,
        1.3032518
      ],
      [
        103.7873218,
        1.3030773
      ],
      [
        103.787182,
        1.3027051
      ],
      [
        103.7871355,
        1.3025436
      ],
      [
        103.7870577,
        1.3021554
      ],
      [
        103.7870453,
        1.3019808
      ],
      [
        103.7870389,
        1.3018861
      ],
      [
        103.787041,
        1.3018052
      ],
      [
        103.7870485,
        1.3017371
      ],
      [
        103.787057,
        1.3016924
      ],
      [
        103.7870704,
        1.3016152
      ],
      [
        103.7870991,
        1.3015468
      ],
      [
        103.7871585,
        1.3014036
      ],
      [
        103.7872005,
        1.3013022
      ],
      [
        103.7873,
        1.3011089
      ],
      [
        103.7873127,
        1.3010901
      ],
      [
        103.7873208,
        1.3010787
      ],
      [
        103.7873402,
        1.3010506
      ],
      [
        103.7874002,
        1.3010026
      ],
      [
        103.7874616,
        1.3009681
      ],
      [
        103.7875502,
        1.3009314
      ],
      [
        103.7875783,
        1.3008991
      ],
      [
        103.7877301,
        1.3008748
      ],
      [
        103.7878407,
        1.3008485
      ],
      [
        103.7879309,
        1.3007976
      ],
      [
        103.7879458,
        1.3007821
      ],
      [
        103.7879786,
        1.3007496
      ],
      [
        103.788171,
        1.3006141
      ],
      [
        103.7883196,
        1.3005292
      ],
      [
        103.7884155,
        1.3004824
      ],
      [
        103.788538,
        1.3004294
      ],
      [
        103.788679,
        1.300403
      ],
      [
        103.788866,
        1.3004115
      ],
      [
        103.7889977,
        1.3004156
      ],
      [
        103.7890729,
        1.3004165
      ],
      [
        103.7892224,
        1.3004238
      ],
      [
        103.7892507,
        1.3004285
      ],
      [
        103.7892857,
        1.3004325
      ],
      [
        103.7894942,
        1.3004477
      ],
      [
        103.7900104,
        1.3004592
      ],
      [
        103.7900421,
        1.3004599
      ],
      [
        103.7900809,
        1.3004624
      ],
      [
        103.7900875,
        1.300463
      ],
      [
        103.7903361,
        1.3004842
      ],
      [
        103.7906283,
        1.3004813
      ],
      [
        103.7908125,
        1.3004406
      ],
      [
        103.7909092,
        1.3003929
      ],
      [
        103.7909832,
        1.3003564
      ],
      [
        103.7911049,
        1.3002785
      ],
      [
        103.7914286,
        1.3000712
      ],
      [
        103.7914476,
        1.3000591
      ],
      [
        103.7914875,
        1.3000332
      ],
      [
        103.7915929,
        1.2999646
      ],
      [
        103.7917176,
        1.2998804
      ],
      [
        103.791963,
        1.2997456
      ],
      [
        103.7920132,
        1.2997167
      ],
      [
        103.7921002,
        1.2996831
      ],
      [
        103.7921399,
        1.2996714
      ],
      [
        103.7922466,
        1.299667
      ],
      [
        103.7923531,
        1.2996721
      ],
      [
        103.7924657,
        1.2996871
      ],
      [
        103.7925613,
        1.2997062
      ],
      [
        103.7926588,
        1.2997434
      ],
      [
        103.7929264,
        1.2998771
      ],
      [
        103.7932133,
        1.299983
      ],
      [
        103.7933407,
        1.3000084
      ],
      [
        103.7934532,
        1.299991
      ],
      [
        103.7935557,
        1.2999564
      ],
      [
        103.7937434,
        1.2998131
      ],
      [
        103.7938127,
        1.299745
      ],
      [
        103.79393,
        1.2996297
      ],
      [
        103.7939814,
        1.2995726
      ],
      [
        103.7939877,
        1.2995631
      ],
      [
        103.7940457,
        1.2994765
      ],
      [
        103.7940869,
        1.2993695
      ],
      [
        103.7941124,
        1.2991604
      ],
      [
        103.7940927,
        1.2989603
      ],
      [
        103.7940645,
        1.2987793
      ],
      [
        103.7940256,
        1.2986077
      ],
      [
        103.7939693,
        1.2983985
      ],
      [
        103.7939009,
        1.2982095
      ],
      [
        103.7938132,
        1.297993
      ],
      [
        103.7938095,
        1.297984
      ],
      [
        103.7937597,
        1.2977817
      ],
      [
        103.7937215,
        1.2976191
      ],
      [
        103.7937093,
        1.2975054
      ],
      [
        103.7936971,
        1.2973916
      ],
      [
        103.7936592,
        1.2970223
      ],
      [
        103.7936555,
        1.2969867
      ],
      [
        103.7936541,
        1.2968044
      ],
      [
        103.7936702,
        1.2966381
      ],
      [
        103.793689,
        1.296559
      ],
      [
        103.7937191,
        1.2964088
      ],
      [
        103.7937756,
        1.2962791
      ],
      [
        103.7938436,
        1.29615
      ],
      [
        103.7938726,
        1.2960949
      ],
      [
        103.7938726,
        1.2960949
      ],
      [
        103.7939108,
        1.2960311
      ],
      [
        103.7939995,
        1.2959014
      ],
      [
        103.7940777,
        1.2958227
      ],
      [
        103.7939995,
        1.2959014
      ],
      [
        103.7941262,
        1.295774
      ],
      [
        103.7945627,
        1.2953545
      ],
      [
        103.7943361,
        1.2955715
      ],
      [
        103.7946901,
        1.2952332
      ],
      [
        103.7948517,
        1.2951291
      ],
      [
        103.795014,
        1.2950453
      ],
      [
        103.795586,
        1.2947523
      ],
      [
        103.795651,
        1.2947155
      ],
      [
        103.795702,
        1.2946726
      ],
      [
        103.7957469,
        1.2946216
      ],
      [
        103.7957664,
        1.2945767
      ],
      [
        103.7957845,
        1.2944788
      ],
      [
        103.7957986,
        1.2942348
      ],
      [
        103.7958005,
        1.2941958
      ],
      [
        103.7958039,
        1.2941282
      ],
      [
        103.7958264,
        1.2938176
      ],
      [
        103.7958264,
        1.2937061
      ],
      [
        103.7958179,
        1.2933886
      ],
      [
        103.7958142,
        1.2933283
      ],
      [
        103.7958077,
        1.2932217
      ],
      [
        103.7957694,
        1.293118
      ],
      [
        103.7957322,
        1.2930683
      ],
      [
        103.7956658,
        1.2929678
      ],
      [
        103.7955585,
        1.2927754
      ],
      [
        103.795525,
        1.2926896
      ],
      [
        103.7954519,
        1.2924536
      ],
      [
        103.7954237,
        1.2923571
      ],
      [
        103.7953607,
        1.2921593
      ],
      [
        103.7953091,
        1.2920158
      ],
      [
        103.7952588,
        1.2919314
      ],
      [
        103.7951873,
        1.2917956
      ],
      [
        103.795147,
        1.2916876
      ],
      [
        103.7951299,
        1.2916582
      ],
      [
        103.7950964,
        1.291637
      ],
      [
        103.7950567,
        1.2916466
      ],
      [
        103.7950396,
        1.2916732
      ],
      [
        103.7950321,
        1.2916985
      ],
      [
        103.7950458,
        1.2917259
      ],
      [
        103.7950725,
        1.2917614
      ],
      [
        103.7952588,
        1.2919314
      ],
      [
        103.7954237,
        1.2923571
      ],
      [
        103.7953607,
        1.2921593
      ],
      [
        103.7953091,
        1.2920158
      ],
      [
        103.7952588,
        1.2919314
      ],
      [
        103.7957322,
        1.2930683
      ],
      [
        103.7956658,
        1.2929678
      ],
      [
        103.7955585,
        1.2927754
      ],
      [
        103.795525,
        1.2926896
      ],
      [
        103.7954519,
        1.2924536
      ],
      [
        103.7958142,
        1.2933283
      ],
      [
        103.7958077,
        1.2932217
      ],
      [
        103.7957694,
        1.293118
      ],
      [
        103.7956225,
        1.2935279
      ],
      [
        103.795586,
        1.2935544
      ],
      [
        103.795028,
        1.2939555
      ],
      [
        103.7950017,
        1.293914
      ],
      [
        103.7949344,
        1.2938079
      ],
      [
        103.7945721,
        1.293249
      ],
      [
        103.7945288,
        1.2931823
      ],
      [
        103.7944942,
        1.2932111
      ],
      [
        103.7941866,
        1.2934516
      ],
      [
        103.7940544,
        1.2935559
      ],
      [
        103.7939948,
        1.2935997
      ],
      [
        103.7938985,
        1.2936816
      ],
      [
        103.7938018,
        1.2937792
      ],
      [
        103.7935851,
        1.2939635
      ],
      [
        103.7935174,
        1.2940211
      ],
      [
        103.7932739,
        1.2942282
      ],
      [
        103.7931601,
        1.2943278
      ],
      [
        103.7930908,
        1.2944055
      ],
      [
        103.7930468,
        1.2945077
      ],
      [
        103.7930443,
        1.2946183
      ],
      [
        103.793068,
        1.2947003
      ],
      [
        103.7931051,
        1.2947661
      ],
      [
        103.7932445,
        1.2949486
      ],
      [
        103.7933003,
        1.2950069
      ],
      [
        103.7933594,
        1.295039
      ],
      [
        103.7934524,
        1.2950651
      ],
      [
        103.7935267,
        1.2950626
      ],
      [
        103.7935935,
        1.2950398
      ],
      [
        103.7938739,
        1.2948472
      ],
      [
        103.7943807,
        1.2944638
      ],
      [
        103.7944075,
        1.2945604
      ],
      [
        103.7944875,
        1.294849
      ],
      [
        103.7945188,
        1.2949546
      ],
      [
        103.794609,
        1.2953101
      ],
      [
        103.7945627,
        1.2953545
      ],
      [
        103.7943361,
        1.2955715
      ],
      [
        103.7941262,
        1.295774
      ],
      [
        103.7940777,
        1.2958227
      ],
      [
        103.7939995,
        1.2959014
      ],
      [
        103.7939108,
        1.2960311
      ],
      [
        103.7939995,
        1.2959014
      ],
      [
        103.7938726,
        1.2960949
      ],
      [
        103.7938436,
        1.29615
      ],
      [
        103.7938726,
        1.2960949
      ],
      [
        103.7937756,
        1.2962791
      ],
      [
        103.7937191,
        1.2964088
      ],
      [
        103.7936592,
        1.2970223
      ],
      [
        103.7936555,
        1.2969867
      ],
      [
        103.7936541,
        1.2968044
      ],
      [
        103.7936702,
        1.2966381
      ],
      [
        103.793689,
        1.296559
      ],
      [
        103.7937093,
        1.2975054
      ],
      [
        103.7936971,
        1.2973916
      ],
      [
        103.7937597,
        1.2977817
      ],
      [
        103.7937215,
        1.2976191
      ],
      [
        103.7940927,
        1.2989603
      ],
      [
        103.7940645,
        1.2987793
      ],
      [
        103.7940256,
        1.2986077
      ],
      [
        103.7939693,
        1.2983985
      ],
      [
        103.7939009,
        1.2982095
      ],
      [
        103.7938132,
        1.297993
      ],
      [
        103.7938095,
        1.297984
      ],
      [
        103.7939877,
        1.2995631
      ],
      [
        103.7940457,
        1.2994765
      ],
      [
        103.7940869,
        1.2993695
      ],
      [
        103.7941124,
        1.2991604
      ],
      [
        103.79393,
        1.2996297
      ],
      [
        103.7939814,
        1.2995726
      ],
      [
        103.7933407,
        1.3000084
      ],
      [
        103.7934532,
        1.299991
      ],
      [
        103.7935557,
        1.2999564
      ],
      [
        103.7937434,
        1.2998131
      ],
      [
        103.7938127,
        1.299745
      ],
      [
        103.7929264,
        1.2998771
      ],
      [
        103.7932133,
        1.299983
      ],
      [
        103.7925613,
        1.2997062
      ],
      [
        103.7926588,
        1.2997434
      ],
      [
        103.7921399,
        1.2996714
      ],
      [
        103.7922466,
        1.299667
      ],
      [
        103.7923531,
        1.2996721
      ],
      [
        103.7924657,
        1.2996871
      ],
      [
        103.7921002,
        1.2996831
      ],
      [
        103.7917176,
        1.2998804
      ],
      [
        103.791963,
        1.2997456
      ],
      [
        103.7920132,
        1.2997167
      ],
      [
        103.7914875,
        1.3000332
      ],
      [
        103.7915929,
        1.2999646
      ],
      [
        103.7914286,
        1.3000712
      ],
      [
        103.7914476,
        1.3000591
      ],
      [
        103.7909832,
        1.3003564
      ],
      [
        103.7911049,
        1.3002785
      ],
      [
        103.7909092,
        1.3003929
      ],
      [
        103.7908125,
        1.3004406
      ],
      [
        103.7900809,
        1.3004624
      ],
      [
        103.7900875,
        1.300463
      ],
      [
        103.7903361,
        1.3004842
      ],
      [
        103.7906283,
        1.3004813
      ],
      [
        103.7892507,
        1.3004285
      ],
      [
        103.7892857,
        1.3004325
      ],
      [
        103.7894942,
        1.3004477
      ],
      [
        103.7900104,
        1.3004592
      ],
      [
        103.7900421,
        1.3004599
      ],
      [
        103.7892224,
        1.3004238
      ],
      [
        103.7884155,
        1.3004824
      ],
      [
        103.788538,
        1.3004294
      ],
      [
        103.788679,
        1.300403
      ],
      [
        103.788866,
        1.3004115
      ],
      [
        103.7889977,
        1.3004156
      ],
      [
        103.7890729,
        1.3004165
      ],
      [
        103.7883196,
        1.3005292
      ],
      [
        103.788171,
        1.3006141
      ],
      [
        103.7879458,
        1.3007821
      ],
      [
        103.7879786,
        1.3007496
      ],
      [
        103.7879309,
        1.3007976
      ],
      [
        103.7878407,
        1.3008485
      ],
      [
        103.7877301,
        1.3008748
      ],
      [
        103.7875281,
        1.3008868
      ],
      [
        103.7874294,
        1.3009011
      ],
      [
        103.7873871,
        1.3009245
      ],
      [
        103.7873463,
        1.300946
      ],
      [
        103.7872946,
        1.3009903
      ],
      [
        103.7872799,
        1.3010117
      ],
      [
        103.7872182,
        1.3010848
      ],
      [
        103.7871196,
        1.3012638
      ],
      [
        103.7870933,
        1.3013127
      ],
      [
        103.7869988,
        1.3014875
      ],
      [
        103.7869423,
        1.3015844
      ],
      [
        103.7868904,
        1.3016867
      ],
      [
        103.7868702,
        1.3017634
      ],
      [
        103.7868579,
        1.3018347
      ],
      [
        103.7868439,
        1.3020344
      ],
      [
        103.7870277,
        1.302756
      ],
      [
        103.7870828,
        1.302927
      ],
      [
        103.7871882,
        1.3031713
      ],
      [
        103.7872802,
        1.3033171
      ],
      [
        103.7873629,
        1.3034479
      ],
      [
        103.7873995,
        1.3034966
      ],
      [
        103.7874542,
        1.3035815
      ],
      [
        103.7874747,
        1.3036224
      ],
      [
        103.7875845,
        1.3037644
      ],
      [
        103.7877256,
        1.3039009
      ],
      [
        103.7879495,
        1.3041139
      ],
      [
        103.7881747,
        1.3042696
      ],
      [
        103.7885188,
        1.3044998
      ],
      [
        103.7886541,
        1.3045917
      ],
      [
        103.7894153,
        1.3050712
      ],
      [
        103.7894988,
        1.3051324
      ],
      [
        103.789814,
        1.3053756
      ],
      [
        103.7898591,
        1.3054104
      ],
      [
        103.7899645,
        1.3055008
      ],
      [
        103.7899989,
        1.3055427
      ],
      [
        103.7900435,
        1.3055972
      ],
      [
        103.7901287,
        1.3057013
      ],
      [
        103.7902531,
        1.3058532
      ],
      [
        103.7902976,
        1.3059124
      ],
      [
        103.790381,
        1.3060161
      ],
      [
        103.7905728,
        1.306312
      ],
      [
        103.7907937,
        1.3067838
      ],
      [
        103.7908184,
        1.3068393
      ],
      [
        103.7908872,
        1.3070194
      ],
      [
        103.7909246,
        1.3071293
      ],
      [
        103.7909677,
        1.3072592
      ],
      [
        103.7910475,
        1.3075056
      ],
      [
        103.7910609,
        1.3075506
      ],
      [
        103.7911134,
        1.3077159
      ],
      [
        103.7911254,
        1.3077572
      ],
      [
        103.791148,
        1.3078305
      ],
      [
        103.7911613,
        1.307875
      ],
      [
        103.7911834,
        1.3079528
      ],
      [
        103.7912307,
        1.3079377
      ],
      [
        103.7912672,
        1.3079254
      ],
      [
        103.7913944,
        1.3078821
      ],
      [
        103.7914541,
        1.3078591
      ],
      [
        103.7915552,
        1.3078189
      ],
      [
        103.7917538,
        1.3077336
      ],
      [
        103.7919007,
        1.3076668
      ],
      [
        103.7920549,
        1.3075958
      ],
      [
        103.7922098,
        1.3075107
      ],
      [
        103.7923647,
        1.3074255
      ],
      [
        103.7924962,
        1.307337
      ],
      [
        103.7929728,
        1.306999
      ],
      [
        103.7931796,
        1.3068668
      ],
      [
        103.7932572,
        1.3068172
      ],
      [
        103.793291,
        1.3067955
      ],
      [
        103.7934879,
        1.3066693
      ],
      [
        103.793534,
        1.3067315
      ],
      [
        103.7937075,
        1.3070018
      ],
      [
        103.7939965,
        1.3074833
      ],
      [
        103.7939612,
        1.3075054
      ],
      [
        103.7939418,
        1.3075199
      ],
      [
        103.7937574,
        1.3076698
      ],
      [
        103.7937239,
        1.3076973
      ],
      [
        103.7935945,
        1.3077997
      ],
      [
        103.793485,
        1.3078929
      ],
      [
        103.7934193,
        1.3079562
      ],
      [
        103.7933908,
        1.3079861
      ],
      [
        103.7933191,
        1.3080921
      ],
      [
        103.793242,
        1.3082309
      ],
      [
        103.7931603,
        1.3084924
      ],
      [
        103.7931211,
        1.3086498
      ],
      [
        103.7931003,
        1.3087253
      ],
      [
        103.7930744,
        1.3088173
      ],
      [
        103.7929943,
        1.3090767
      ],
      [
        103.7928976,
        1.3093896
      ],
      [
        103.7928607,
        1.3095107
      ],
      [
        103.7928191,
        1.3097302
      ],
      [
        103.7927747,
        1.3096959
      ],
      [
        103.7925993,
        1.3096178
      ],
      [
        103.7925228,
        1.3095818
      ],
      [
        103.7923035,
        1.3094671
      ],
      [
        103.7922647,
        1.3094362
      ],
      [
        103.7922594,
        1.3093896
      ],
      [
        103.7922761,
        1.309256
      ],
      [
        103.7922763,
        1.3092299
      ],
      [
        103.7922739,
        1.3092159
      ],
      [
        103.7922702,
        1.3092001
      ],
      [
        103.7922572,
        1.3091828
      ],
      [
        103.7922325,
        1.3091621
      ],
      [
        103.7921882,
        1.3091324
      ],
      [
        103.7921406,
        1.3091162
      ],
      [
        103.7920334,
        1.3090858
      ],
      [
        103.7918056,
        1.3090364
      ]
    ]
  }
}