{
  "type": "Feature",
  "properties": {
    "relation": 1156857,
    "direction": "1",
    "fee": "yes",
    "from": "Marina Centre Terminal",
    "name": "Svc 195 (Marina Centre Terminal ↺ Commonwealth Avenue)",
    "name:en": "Svc 195 (Marina Centre Terminal ↺ Commonwealth Avenue)",
    "network": "Land Transport Authority",
    "network:short": "LTA",
    "network:wikidata": "Q3299279",
    "network:wikipedia": "en:Land Transport Authority",
    "operator": "SBS Transit",
    "operator:wikidata": "Q2661305",
    "operator:wikipedia": "en:SBS Transit",
    "public_transport:version": "2",
    "ref": "195",
    "roundtrip": "yes",
    "route": "bus",
    "to": "Marina Centre Terminal",
    "type": "route",
    "via": "Commonwealth Avenue",
    "website": "https://www.sbstransit.com.sg/",
    "wheelchair": "yes"
  },
  "geometry": {
    "type": "LineString",
    "coordinates": [
      [
        103.8620486,
        1.2913099
      ],
      [
        103.862347,
        1.2912552
      ],
      [
        103.8624205,
        1.2912445
      ],
      [
        103.8625173,
        1.2912146
      ],
      [
        103.8626973,
        1.2911682
      ],
      [
        103.8628533,
        1.2910903
      ],
      [
        103.8629373,
        1.2910314
      ],
      [
        103.8630066,
        1.2909718
      ],
      [
        103.8629816,
        1.2907619
      ],
      [
        103.8628918,
        1.2904885
      ],
      [
        103.8627595,
        1.2901331
      ],
      [
        103.862723,
        1.2900202
      ],
      [
        103.8626243,
        1.2897223
      ],
      [
        103.8625316,
        1.2896004
      ],
      [
        103.8624329,
        1.289514
      ],
      [
        103.862318,
        1.2894756
      ],
      [
        103.8620801,
        1.289501
      ],
      [
        103.8619737,
        1.2895066
      ],
      [
        103.8617904,
        1.2895164
      ],
      [
        103.8616793,
        1.2895223
      ],
      [
        103.8611045,
        1.2895529
      ],
      [
        103.8609857,
        1.2895592
      ],
      [
        103.8608765,
        1.289565
      ],
      [
        103.8608347,
        1.2895672
      ],
      [
        103.8605926,
        1.2895801
      ],
      [
        103.8603161,
        1.2895948
      ],
      [
        103.8599725,
        1.289613
      ],
      [
        103.8596687,
        1.2896305
      ],
      [
        103.8595101,
        1.2896398
      ],
      [
        103.8591787,
        1.2896553
      ],
      [
        103.8588597,
        1.2896723
      ],
      [
        103.8587507,
        1.289678
      ],
      [
        103.8586061,
        1.2896858
      ],
      [
        103.858293,
        1.2897023
      ],
      [
        103.8580786,
        1.2897137
      ],
      [
        103.8577561,
        1.2897309
      ],
      [
        103.8575749,
        1.2897405
      ],
      [
        103.8574822,
        1.2897454
      ],
      [
        103.8574561,
        1.2897468
      ],
      [
        103.8573305,
        1.2897535
      ],
      [
        103.8573058,
        1.2897548
      ],
      [
        103.8572552,
        1.2897557
      ],
      [
        103.8571045,
        1.2897751
      ],
      [
        103.8569869,
        1.289794
      ],
      [
        103.8568781,
        1.2898254
      ],
      [
        103.8567861,
        1.2898549
      ],
      [
        103.8567376,
        1.2898782
      ],
      [
        103.8566645,
        1.2899135
      ],
      [
        103.8565763,
        1.2899715
      ],
      [
        103.8565472,
        1.2899906
      ],
      [
        103.8564514,
        1.2900794
      ],
      [
        103.8563522,
        1.2901714
      ],
      [
        103.8562871,
        1.2902257
      ],
      [
        103.8561749,
        1.2903222
      ],
      [
        103.8560384,
        1.2904397
      ],
      [
        103.8559972,
        1.2904752
      ],
      [
        103.8558644,
        1.2905895
      ],
      [
        103.8557948,
        1.2906494
      ],
      [
        103.8554503,
        1.2909459
      ],
      [
        103.8552358,
        1.2911304
      ],
      [
        103.8552168,
        1.2911468
      ],
      [
        103.855059,
        1.2912783
      ],
      [
        103.8550077,
        1.291324
      ],
      [
        103.8548655,
        1.2914505
      ],
      [
        103.8547543,
        1.2915628
      ],
      [
        103.854655,
        1.291663
      ],
      [
        103.854467,
        1.2918487
      ],
      [
        103.8543182,
        1.2920088
      ],
      [
        103.8540982,
        1.2922316
      ],
      [
        103.8540891,
        1.2922407
      ],
      [
        103.8539328,
        1.2923967
      ],
      [
        103.8539248,
        1.2924047
      ],
      [
        103.8537917,
        1.2924912
      ],
      [
        103.8536185,
        1.2926038
      ],
      [
        103.8535223,
        1.292673
      ],
      [
        103.8534486,
        1.2927191
      ],
      [
        103.8533555,
        1.2927768
      ],
      [
        103.8530891,
        1.2929424
      ],
      [
        103.8527436,
        1.2931673
      ],
      [
        103.8524616,
        1.2933496
      ],
      [
        103.8521111,
        1.29352
      ],
      [
        103.8520179,
        1.293583
      ],
      [
        103.8519676,
        1.2934896
      ],
      [
        103.8516676,
        1.2930154
      ],
      [
        103.8514262,
        1.2926199
      ],
      [
        103.8513431,
        1.292466
      ],
      [
        103.8512937,
        1.2923809
      ],
      [
        103.8511193,
        1.292075
      ],
      [
        103.8510244,
        1.2918587
      ],
      [
        103.8509674,
        1.2917649
      ],
      [
        103.8509339,
        1.2917097
      ],
      [
        103.850823,
        1.2915271
      ],
      [
        103.8506567,
        1.2912531
      ],
      [
        103.8506264,
        1.2912034
      ],
      [
        103.8506153,
        1.291185
      ],
      [
        103.8505016,
        1.2909977
      ],
      [
        103.8504661,
        1.2909393
      ],
      [
        103.8503579,
        1.2907611
      ],
      [
        103.8503303,
        1.2907156
      ],
      [
        103.8500726,
        1.2902912
      ],
      [
        103.850015,
        1.2901963
      ],
      [
        103.8499859,
        1.2901484
      ],
      [
        103.8498437,
        1.2899142
      ],
      [
        103.849722,
        1.2897137
      ],
      [
        103.8496694,
        1.2896272
      ],
      [
        103.8496256,
        1.2895631
      ],
      [
        103.849596,
        1.2895198
      ],
      [
        103.849535,
        1.2894305
      ],
      [
        103.8494791,
        1.2894129
      ],
      [
        103.8494374,
        1.2894382
      ],
      [
        103.849407,
        1.2894556
      ],
      [
        103.8493199,
        1.2895091
      ],
      [
        103.8491926,
        1.2896048
      ],
      [
        103.8490775,
        1.2896852
      ],
      [
        103.8489245,
        1.2897813
      ],
      [
        103.8486761,
        1.28993
      ],
      [
        103.8486355,
        1.2899491
      ],
      [
        103.8484971,
        1.2900188
      ],
      [
        103.8484667,
        1.2900329
      ],
      [
        103.8483644,
        1.2900874
      ],
      [
        103.8481858,
        1.2901144
      ],
      [
        103.8480604,
        1.290134
      ],
      [
        103.8480053,
        1.2901436
      ],
      [
        103.8479494,
        1.2901535
      ],
      [
        103.8478273,
        1.2901821
      ],
      [
        103.8477176,
        1.2902135
      ],
      [
        103.8473601,
        1.2903699
      ],
      [
        103.8463754,
        1.2910267
      ],
      [
        103.8463005,
        1.2910769
      ],
      [
        103.8461801,
        1.2911575
      ],
      [
        103.8458981,
        1.2913463
      ],
      [
        103.8457481,
        1.2914468
      ],
      [
        103.845518,
        1.2915985
      ],
      [
        103.8448124,
        1.292145
      ],
      [
        103.8445171,
        1.2923736
      ],
      [
        103.8443558,
        1.2924985
      ],
      [
        103.8442802,
        1.2925547
      ],
      [
        103.844113,
        1.2926738
      ],
      [
        103.8440505,
        1.2927149
      ],
      [
        103.8438162,
        1.2928854
      ],
      [
        103.8437449,
        1.2929362
      ],
      [
        103.8436365,
        1.2930037
      ],
      [
        103.8435561,
        1.2930534
      ],
      [
        103.8430953,
        1.2933506
      ],
      [
        103.8430451,
        1.2933822
      ],
      [
        103.8425864,
        1.2936679
      ],
      [
        103.8423409,
        1.2938631
      ],
      [
        103.842265,
        1.2939394
      ],
      [
        103.8421956,
        1.294019
      ],
      [
        103.8421265,
        1.2940746
      ],
      [
        103.8420601,
        1.29417
      ],
      [
        103.8419522,
        1.2943532
      ],
      [
        103.8418737,
        1.2945033
      ],
      [
        103.8417494,
        1.2947476
      ],
      [
        103.8416955,
        1.2948573
      ],
      [
        103.8415277,
        1.2951864
      ],
      [
        103.8413466,
        1.2954745
      ],
      [
        103.8412758,
        1.2955741
      ],
      [
        103.841188,
        1.2956591
      ],
      [
        103.8410864,
        1.2957474
      ],
      [
        103.840916,
        1.2958472
      ],
      [
        103.8407879,
        1.2958839
      ],
      [
        103.8406861,
        1.295891
      ],
      [
        103.8404972,
        1.2958815
      ],
      [
        103.8403322,
        1.2958706
      ],
      [
        103.840271,
        1.2958665
      ],
      [
        103.8400945,
        1.2958545
      ],
      [
        103.8398812,
        1.2958406
      ],
      [
        103.8396861,
        1.2958267
      ],
      [
        103.8394911,
        1.2958117
      ],
      [
        103.839261,
        1.2957869
      ],
      [
        103.8391279,
        1.2957673
      ],
      [
        103.8388984,
        1.2957242
      ],
      [
        103.8387809,
        1.2957048
      ],
      [
        103.8387292,
        1.2956964
      ],
      [
        103.8384609,
        1.2956405
      ],
      [
        103.8381573,
        1.2955797
      ],
      [
        103.8379798,
        1.2955703
      ],
      [
        103.8378378,
        1.2955643
      ],
      [
        103.8376799,
        1.2955629
      ],
      [
        103.8376236,
        1.2955634
      ],
      [
        103.8375264,
        1.2955605
      ],
      [
        103.8374931,
        1.2955627
      ],
      [
        103.8373743,
        1.2955661
      ],
      [
        103.837206,
        1.2955847
      ],
      [
        103.8369852,
        1.2956263
      ],
      [
        103.8366692,
        1.2956835
      ],
      [
        103.8365634,
        1.2957471
      ],
      [
        103.8363455,
        1.2957861
      ],
      [
        103.8359896,
        1.2958436
      ],
      [
        103.8357328,
        1.2958842
      ],
      [
        103.8354989,
        1.2959145
      ],
      [
        103.8351911,
        1.295959
      ],
      [
        103.834644,
        1.2960381
      ],
      [
        103.8344221,
        1.2960723
      ],
      [
        103.8342965,
        1.2960908
      ],
      [
        103.8341198,
        1.296114
      ],
      [
        103.8340765,
        1.2961201
      ],
      [
        103.8339285,
        1.2961415
      ],
      [
        103.8337997,
        1.296139
      ],
      [
        103.8336446,
        1.2961604
      ],
      [
        103.8334677,
        1.2961927
      ],
      [
        103.833266,
        1.2962111
      ],
      [
        103.8330446,
        1.2962389
      ],
      [
        103.8328786,
        1.2962592
      ],
      [
        103.8327628,
        1.2962603
      ],
      [
        103.8326043,
        1.2962548
      ],
      [
        103.8323002,
        1.2962276
      ],
      [
        103.8320117,
        1.2961528
      ],
      [
        103.8317997,
        1.2960877
      ],
      [
        103.831494,
        1.2959857
      ],
      [
        103.8313997,
        1.2959584
      ],
      [
        103.831447,
        1.2958969
      ],
      [
        103.831604,
        1.2956022
      ],
      [
        103.8318592,
        1.2951801
      ],
      [
        103.8319315,
        1.2950539
      ],
      [
        103.8321037,
        1.2947405
      ],
      [
        103.832153,
        1.2946506
      ],
      [
        103.8322775,
        1.294443
      ],
      [
        103.8325305,
        1.2939119
      ],
      [
        103.8325655,
        1.2938517
      ],
      [
        103.8326658,
        1.2936567
      ],
      [
        103.8327546,
        1.2934865
      ],
      [
        103.8327748,
        1.29345
      ],
      [
        103.8328497,
        1.2933051
      ],
      [
        103.832882,
        1.2932544
      ],
      [
        103.8329216,
        1.2931961
      ],
      [
        103.8329606,
        1.2931309
      ],
      [
        103.8330448,
        1.2930071
      ],
      [
        103.8330468,
        1.2929994
      ],
      [
        103.833329,
        1.2925452
      ],
      [
        103.8333821,
        1.292451
      ],
      [
        103.8334548,
        1.2923258
      ],
      [
        103.8335581,
        1.2921367
      ],
      [
        103.833705,
        1.2918707
      ],
      [
        103.8337311,
        1.2918197
      ],
      [
        103.8338671,
        1.2915618
      ],
      [
        103.8339679,
        1.2913723
      ],
      [
        103.8341274,
        1.2911064
      ],
      [
        103.8342088,
        1.2909589
      ],
      [
        103.83426,
        1.2908661
      ],
      [
        103.8343139,
        1.2907683
      ],
      [
        103.8343754,
        1.2906567
      ],
      [
        103.8345487,
        1.2903427
      ],
      [
        103.8348195,
        1.2898518
      ],
      [
        103.8348848,
        1.289708
      ],
      [
        103.8349699,
        1.2895896
      ],
      [
        103.8350177,
        1.2894491
      ],
      [
        103.8350506,
        1.2892871
      ],
      [
        103.8350606,
        1.2891776
      ],
      [
        103.8350639,
        1.289139
      ],
      [
        103.835069,
        1.2890535
      ],
      [
        103.8350717,
        1.2889604
      ],
      [
        103.8350724,
        1.2889108
      ],
      [
        103.8350734,
        1.2887792
      ],
      [
        103.8350712,
        1.288663
      ],
      [
        103.8350616,
        1.2885304
      ],
      [
        103.8350588,
        1.2884165
      ],
      [
        103.8350502,
        1.2882518
      ],
      [
        103.8350328,
        1.2879703
      ],
      [
        103.8350663,
        1.2874295
      ],
      [
        103.8350688,
        1.2873221
      ],
      [
        103.8350792,
        1.2872498
      ],
      [
        103.8350874,
        1.2871864
      ],
      [
        103.835042,
        1.2869789
      ],
      [
        103.8349893,
        1.2867507
      ],
      [
        103.8348802,
        1.2862528
      ],
      [
        103.8348655,
        1.2861052
      ],
      [
        103.834853,
        1.2858987
      ],
      [
        103.8348451,
        1.2857686
      ],
      [
        103.834867,
        1.2854622
      ],
      [
        103.8348684,
        1.2854324
      ],
      [
        103.8348712,
        1.2854109
      ],
      [
        103.8348949,
        1.2851485
      ],
      [
        103.8349917,
        1.2849139
      ],
      [
        103.8351071,
        1.2846319
      ],
      [
        103.8351582,
        1.2845059
      ],
      [
        103.8351835,
        1.2844481
      ],
      [
        103.8352559,
        1.2843095
      ],
      [
        103.8352336,
        1.2841926
      ],
      [
        103.8351837,
        1.284101
      ],
      [
        103.8351206,
        1.2840541
      ],
      [
        103.8350715,
        1.284043
      ],
      [
        103.8350235,
        1.2840428
      ],
      [
        103.8349675,
        1.2840591
      ],
      [
        103.8347989,
        1.2841165
      ],
      [
        103.8347006,
        1.2841522
      ],
      [
        103.8346106,
        1.2842117
      ],
      [
        103.834528,
        1.2842953
      ],
      [
        103.8343164,
        1.2845578
      ],
      [
        103.8340683,
        1.2848746
      ],
      [
        103.8336948,
        1.2853483
      ],
      [
        103.8336675,
        1.2853816
      ],
      [
        103.8336456,
        1.2854143
      ],
      [
        103.8335333,
        1.28553
      ],
      [
        103.8334301,
        1.2856372
      ],
      [
        103.8332662,
        1.2857472
      ],
      [
        103.8331252,
        1.2858363
      ],
      [
        103.8329323,
        1.2859042
      ],
      [
        103.8328261,
        1.2859331
      ],
      [
        103.8327545,
        1.2859497
      ],
      [
        103.8326366,
        1.2859553
      ],
      [
        103.8323879,
        1.2859509
      ],
      [
        103.8320239,
        1.285943
      ],
      [
        103.8319371,
        1.2859388
      ],
      [
        103.8314947,
        1.2859214
      ],
      [
        103.8310415,
        1.2859035
      ],
      [
        103.8306042,
        1.2858862
      ],
      [
        103.8302797,
        1.2858745
      ],
      [
        103.8301717,
        1.2858724
      ],
      [
        103.8301037,
        1.285869
      ],
      [
        103.8300497,
        1.2858651
      ],
      [
        103.8299164,
        1.2858611
      ],
      [
        103.8294625,
        1.2858422
      ],
      [
        103.8294107,
        1.2858403
      ],
      [
        103.8289144,
        1.2858198
      ],
      [
        103.828407,
        1.285795
      ],
      [
        103.8283618,
        1.2857945
      ],
      [
        103.8283139,
        1.2857937
      ],
      [
        103.8279925,
        1.2858099
      ],
      [
        103.827675,
        1.2858625
      ],
      [
        103.8274801,
        1.285899
      ],
      [
        103.8272492,
        1.2859312
      ],
      [
        103.8271775,
        1.2859419
      ],
      [
        103.8271007,
        1.2859541
      ],
      [
        103.8263959,
        1.2860635
      ],
      [
        103.826082,
        1.2861163
      ],
      [
        103.8260516,
        1.2861083
      ],
      [
        103.8257897,
        1.2860394
      ],
      [
        103.82557,
        1.2859844
      ],
      [
        103.8254869,
        1.2859467
      ],
      [
        103.8254102,
        1.285912
      ],
      [
        103.8253554,
        1.2858706
      ],
      [
        103.8253264,
        1.2858487
      ],
      [
        103.8252797,
        1.2854474
      ],
      [
        103.8252557,
        1.285241
      ],
      [
        103.8251965,
        1.284821
      ],
      [
        103.825174,
        1.284653
      ],
      [
        103.825076,
        1.2843789
      ],
      [
        103.8249446,
        1.2840002
      ],
      [
        103.8248206,
        1.2837038
      ],
      [
        103.8247135,
        1.2834849
      ],
      [
        103.8245984,
        1.2832526
      ],
      [
        103.8243172,
        1.2826767
      ],
      [
        103.8242451,
        1.282535
      ],
      [
        103.824193,
        1.2824326
      ],
      [
        103.8240992,
        1.2822673
      ],
      [
        103.8239891,
        1.2820126
      ],
      [
        103.8239474,
        1.2819041
      ],
      [
        103.823905,
        1.2817687
      ],
      [
        103.823892,
        1.2817066
      ],
      [
        103.8238204,
        1.2812888
      ],
      [
        103.8238145,
        1.2811832
      ],
      [
        103.8238126,
        1.2810684
      ],
      [
        103.8238156,
        1.2809096
      ],
      [
        103.8238345,
        1.280342
      ],
      [
        103.8238351,
        1.2803162
      ],
      [
        103.8238368,
        1.2802439
      ],
      [
        103.8238383,
        1.2801794
      ],
      [
        103.8238396,
        1.280128
      ],
      [
        103.8238423,
        1.280012
      ],
      [
        103.8238532,
        1.2795506
      ],
      [
        103.8238619,
        1.2793633
      ],
      [
        103.8238633,
        1.2793332
      ],
      [
        103.823865,
        1.2791576
      ],
      [
        103.8238655,
        1.2791096
      ],
      [
        103.8238406,
        1.2788556
      ],
      [
        103.8237888,
        1.2784178
      ],
      [
        103.8237732,
        1.2783478
      ],
      [
        103.8237245,
        1.2781352
      ],
      [
        103.823695,
        1.2780269
      ],
      [
        103.8236573,
        1.2778886
      ],
      [
        103.8236065,
        1.2777312
      ],
      [
        103.8235643,
        1.2775493
      ],
      [
        103.8234432,
        1.277054
      ],
      [
        103.8233393,
        1.2766647
      ],
      [
        103.8233047,
        1.2765298
      ],
      [
        103.8232382,
        1.2762792
      ],
      [
        103.8231655,
        1.2760052
      ],
      [
        103.8230807,
        1.2757142
      ],
      [
        103.8230109,
        1.2753561
      ],
      [
        103.82298,
        1.2750624
      ],
      [
        103.8229883,
        1.2747642
      ],
      [
        103.8229898,
        1.2747098
      ],
      [
        103.8229978,
        1.2746105
      ],
      [
        103.8228471,
        1.274615
      ],
      [
        103.8227681,
        1.2746254
      ],
      [
        103.8221635,
        1.2746601
      ],
      [
        103.8219156,
        1.2746814
      ],
      [
        103.8216053,
        1.2747181
      ],
      [
        103.8214566,
        1.2747357
      ],
      [
        103.8211153,
        1.2747886
      ],
      [
        103.8209574,
        1.2748347
      ],
      [
        103.8207539,
        1.2748947
      ],
      [
        103.8203543,
        1.2750142
      ],
      [
        103.8199236,
        1.2752098
      ],
      [
        103.8198612,
        1.2752381
      ],
      [
        103.819761,
        1.2753013
      ],
      [
        103.8192663,
        1.2756732
      ],
      [
        103.8191008,
        1.2757977
      ],
      [
        103.8190345,
        1.2758603
      ],
      [
        103.8187788,
        1.276106
      ],
      [
        103.8184201,
        1.276533
      ],
      [
        103.8181206,
        1.2769953
      ],
      [
        103.8177703,
        1.2775976
      ],
      [
        103.8176093,
        1.2778444
      ],
      [
        103.8173991,
        1.2780546
      ],
      [
        103.8172369,
        1.2781931
      ],
      [
        103.8171241,
        1.2782551
      ],
      [
        103.8169435,
        1.2783474
      ],
      [
        103.8168549,
        1.2783879
      ],
      [
        103.8166487,
        1.2784848
      ],
      [
        103.8166906,
        1.2785818
      ],
      [
        103.8167302,
        1.278664
      ],
      [
        103.8168451,
        1.2789219
      ],
      [
        103.8169786,
        1.2792143
      ],
      [
        103.8170486,
        1.2793712
      ],
      [
        103.8172789,
        1.2799252
      ],
      [
        103.8172646,
        1.2800225
      ],
      [
        103.817246,
        1.2801003
      ],
      [
        103.817241,
        1.2801143
      ],
      [
        103.8171852,
        1.2802144
      ],
      [
        103.8171241,
        1.2802705
      ],
      [
        103.8169858,
        1.2803722
      ],
      [
        103.8167297,
        1.2805501
      ],
      [
        103.8165411,
        1.2806777
      ],
      [
        103.8164918,
        1.2807081
      ],
      [
        103.8162827,
        1.280816
      ],
      [
        103.8159708,
        1.2808882
      ],
      [
        103.815675,
        1.2809047
      ],
      [
        103.8154237,
        1.2809222
      ],
      [
        103.8147165,
        1.2809855
      ],
      [
        103.8144988,
        1.2810042
      ],
      [
        103.8144468,
        1.2810087
      ],
      [
        103.8141642,
        1.2810417
      ],
      [
        103.81377,
        1.2810878
      ],
      [
        103.8134086,
        1.2811268
      ],
      [
        103.8131317,
        1.2811624
      ],
      [
        103.8129262,
        1.2811911
      ],
      [
        103.8128549,
        1.2812011
      ],
      [
        103.8125558,
        1.281243
      ],
      [
        103.8124876,
        1.2812525
      ],
      [
        103.8124242,
        1.2812606
      ],
      [
        103.812034,
        1.2813105
      ],
      [
        103.8115474,
        1.2813623
      ],
      [
        103.8110485,
        1.2814221
      ],
      [
        103.8109447,
        1.2814301
      ],
      [
        103.8105251,
        1.2814755
      ],
      [
        103.8103691,
        1.2815063
      ],
      [
        103.8101256,
        1.2815592
      ],
      [
        103.809826,
        1.2816121
      ],
      [
        103.8096098,
        1.2816529
      ],
      [
        103.8094527,
        1.2816825
      ],
      [
        103.808879,
        1.2817918
      ],
      [
        103.808755,
        1.2818195
      ],
      [
        103.8085795,
        1.2818502
      ],
      [
        103.8082161,
        1.2819136
      ],
      [
        103.8081245,
        1.2819296
      ],
      [
        103.8079578,
        1.2819587
      ],
      [
        103.8075319,
        1.2820331
      ],
      [
        103.8074257,
        1.2820427
      ],
      [
        103.8071671,
        1.2820497
      ],
      [
        103.8068924,
        1.2820404
      ],
      [
        103.8063074,
        1.2819785
      ],
      [
        103.8062372,
        1.2819725
      ],
      [
        103.8057114,
        1.2818287
      ],
      [
        103.8053901,
        1.2817235
      ],
      [
        103.8050368,
        1.2815921
      ],
      [
        103.8048419,
        1.2815214
      ],
      [
        103.804622,
        1.2814285
      ],
      [
        103.8045331,
        1.281408
      ],
      [
        103.8044525,
        1.2813894
      ],
      [
        103.8044012,
        1.2813759
      ],
      [
        103.8042271,
        1.281334
      ],
      [
        103.8040805,
        1.2813019
      ],
      [
        103.8038538,
        1.2812986
      ],
      [
        103.8036483,
        1.2812964
      ],
      [
        103.8033974,
        1.2812854
      ],
      [
        103.8029847,
        1.2813186
      ],
      [
        103.8023175,
        1.2814012
      ],
      [
        103.8021588,
        1.2813905
      ],
      [
        103.8021142,
        1.2813691
      ],
      [
        103.8019801,
        1.2813145
      ],
      [
        103.8019519,
        1.2813635
      ],
      [
        103.8018442,
        1.281564
      ],
      [
        103.8016252,
        1.2819719
      ],
      [
        103.8013591,
        1.2824832
      ],
      [
        103.8012565,
        1.2826806
      ],
      [
        103.8011697,
        1.2829155
      ],
      [
        103.8011399,
        1.2830817
      ],
      [
        103.8011437,
        1.2833648
      ],
      [
        103.801167,
        1.2834741
      ],
      [
        103.8011918,
        1.283581
      ],
      [
        103.8013512,
        1.2839195
      ],
      [
        103.8016834,
        1.2845839
      ],
      [
        103.8017007,
        1.2846089
      ],
      [
        103.8017399,
        1.2846876
      ],
      [
        103.8017892,
        1.2847649
      ],
      [
        103.8018403,
        1.2848451
      ],
      [
        103.8019941,
        1.2850862
      ],
      [
        103.8020826,
        1.2852225
      ],
      [
        103.8021684,
        1.2853545
      ],
      [
        103.8023499,
        1.2856468
      ],
      [
        103.8027779,
        1.2864068
      ],
      [
        103.8028599,
        1.2865231
      ],
      [
        103.8029087,
        1.2865799
      ],
      [
        103.8030614,
        1.2867608
      ],
      [
        103.8032823,
        1.2869305
      ],
      [
        103.8034282,
        1.2870193
      ],
      [
        103.803484,
        1.2870517
      ],
      [
        103.8035528,
        1.2870962
      ],
      [
        103.8036249,
        1.287142
      ],
      [
        103.8039422,
        1.2873454
      ],
      [
        103.8042286,
        1.2875366
      ],
      [
        103.8042843,
        1.2875738
      ],
      [
        103.8044049,
        1.2876667
      ],
      [
        103.804479,
        1.2877108
      ],
      [
        103.8047818,
        1.2879029
      ],
      [
        103.8048762,
        1.2879716
      ],
      [
        103.8050871,
        1.2881439
      ],
      [
        103.8051934,
        1.288249
      ],
      [
        103.8054205,
        1.2884944
      ],
      [
        103.8055035,
        1.2885918
      ],
      [
        103.8056909,
        1.2888118
      ],
      [
        103.805853,
        1.2890145
      ],
      [
        103.8060571,
        1.2892706
      ],
      [
        103.8066894,
        1.2900592
      ],
      [
        103.8067409,
        1.2901195
      ],
      [
        103.8068431,
        1.2902392
      ],
      [
        103.8068842,
        1.2902872
      ],
      [
        103.8069435,
        1.2903567
      ],
      [
        103.8069811,
        1.2904018
      ],
      [
        103.807126,
        1.2905755
      ],
      [
        103.8071519,
        1.2906065
      ],
      [
        103.8073046,
        1.2907747
      ],
      [
        103.8075304,
        1.2910194
      ],
      [
        103.8075941,
        1.2910987
      ],
      [
        103.8077667,
        1.2913435
      ],
      [
        103.8078393,
        1.2914368
      ],
      [
        103.8080296,
        1.2916953
      ],
      [
        103.8080562,
        1.2917739
      ],
      [
        103.808075,
        1.2919133
      ],
      [
        103.8080482,
        1.2920514
      ],
      [
        103.8079579,
        1.2922212
      ],
      [
        103.8076727,
        1.2924818
      ],
      [
        103.8075081,
        1.29263
      ],
      [
        103.8071175,
        1.2929678
      ],
      [
        103.8069205,
        1.2931562
      ],
      [
        103.8067066,
        1.2933894
      ],
      [
        103.8065117,
        1.293641
      ],
      [
        103.8064466,
        1.2937387
      ],
      [
        103.806402,
        1.2938058
      ],
      [
        103.8062056,
        1.2941009
      ],
      [
        103.8060317,
        1.2943852
      ],
      [
        103.8057968,
        1.2947524
      ],
      [
        103.8056769,
        1.2949429
      ],
      [
        103.8055385,
        1.2951577
      ],
      [
        103.8052111,
        1.2957441
      ],
      [
        103.8048092,
        1.2964326
      ],
      [
        103.8045923,
        1.2966877
      ],
      [
        103.8045136,
        1.2967827
      ],
      [
        103.8043136,
        1.2969774
      ],
      [
        103.8040973,
        1.2971731
      ],
      [
        103.8037178,
        1.2975038
      ],
      [
        103.8036102,
        1.2975991
      ],
      [
        103.8033136,
        1.2978615
      ],
      [
        103.803176,
        1.2979782
      ],
      [
        103.8029332,
        1.2981982
      ],
      [
        103.8020977,
        1.2989549
      ],
      [
        103.8016833,
        1.2993183
      ],
      [
        103.8014456,
        1.2995149
      ],
      [
        103.8010431,
        1.2998823
      ],
      [
        103.8009799,
        1.2999419
      ],
      [
        103.8007313,
        1.3001567
      ],
      [
        103.8007902,
        1.3004411
      ],
      [
        103.8008123,
        1.3005395
      ],
      [
        103.8009096,
        1.3009088
      ],
      [
        103.80099,
        1.3013425
      ],
      [
        103.8010463,
        1.3016117
      ],
      [
        103.8010888,
        1.3018123
      ],
      [
        103.8011723,
        1.3021908
      ],
      [
        103.8011991,
        1.3023173
      ],
      [
        103.8012259,
        1.3024438
      ],
      [
        103.8012417,
        1.3025182
      ],
      [
        103.8013497,
        1.3031296
      ],
      [
        103.8014627,
        1.3039579
      ],
      [
        103.8015358,
        1.3050972
      ],
      [
        103.8015487,
        1.305192
      ],
      [
        103.8015852,
        1.3053884
      ],
      [
        103.8015948,
        1.3054238
      ],
      [
        103.8016165,
        1.3055172
      ],
      [
        103.8016328,
        1.305578
      ],
      [
        103.8015452,
        1.3056584
      ],
      [
        103.8014507,
        1.3057057
      ],
      [
        103.8013365,
        1.3057472
      ],
      [
        103.8012949,
        1.3057603
      ],
      [
        103.8012283,
        1.3057812
      ],
      [
        103.8009192,
        1.3058783
      ],
      [
        103.8008415,
        1.3059038
      ],
      [
        103.8006193,
        1.3059767
      ],
      [
        103.8005456,
        1.306001
      ],
      [
        103.8005377,
        1.3060036
      ],
      [
        103.8001364,
        1.3061382
      ],
      [
        103.8000101,
        1.3061684
      ],
      [
        103.7999681,
        1.3061737
      ],
      [
        103.7998892,
        1.3061652
      ],
      [
        103.7998205,
        1.3061522
      ],
      [
        103.7997363,
        1.3061331
      ],
      [
        103.7996639,
        1.3060982
      ],
      [
        103.7995899,
        1.3060543
      ],
      [
        103.7995405,
        1.3060231
      ],
      [
        103.7994987,
        1.305986
      ],
      [
        103.7994823,
        1.3059688
      ],
      [
        103.7994628,
        1.3059484
      ],
      [
        103.7994574,
        1.3059427
      ],
      [
        103.799368,
        1.3058378
      ],
      [
        103.799272,
        1.3056582
      ],
      [
        103.7991902,
        1.3055233
      ],
      [
        103.7989961,
        1.3052106
      ],
      [
        103.7988952,
        1.3050662
      ],
      [
        103.7988309,
        1.304963
      ],
      [
        103.7986751,
        1.3047705
      ],
      [
        103.7986332,
        1.3047274
      ],
      [
        103.7985043,
        1.3045955
      ],
      [
        103.798294,
        1.3043653
      ],
      [
        103.7981043,
        1.3041465
      ],
      [
        103.7979463,
        1.3039518
      ],
      [
        103.7978921,
        1.303885
      ],
      [
        103.7977418,
        1.3036839
      ],
      [
        103.7976041,
        1.3035142
      ],
      [
        103.7975196,
        1.3034163
      ],
      [
        103.7974755,
        1.3033663
      ],
      [
        103.7979614,
        1.3029248
      ],
      [
        103.7983168,
        1.3026093
      ],
      [
        103.7988657,
        1.3021111
      ],
      [
        103.7991269,
        1.3018663
      ],
      [
        103.7992102,
        1.3017925
      ],
      [
        103.7995837,
        1.3014524
      ],
      [
        103.7997642,
        1.3012825
      ],
      [
        103.8001275,
        1.3009811
      ],
      [
        103.8002752,
        1.3008642
      ],
      [
        103.8003638,
        1.3007946
      ],
      [
        103.800715,
        1.3004971
      ],
      [
        103.8007902,
        1.3004411
      ],
      [
        103.8010435,
        1.3002279
      ],
      [
        103.801092,
        1.3001888
      ],
      [
        103.8013246,
        1.300014
      ],
      [
        103.8021634,
        1.299334
      ],
      [
        103.8025657,
        1.2989402
      ],
      [
        103.8026285,
        1.2988788
      ],
      [
        103.8026858,
        1.2988256
      ],
      [
        103.8030795,
        1.2984602
      ],
      [
        103.8031713,
        1.2983767
      ],
      [
        103.8038776,
        1.2977521
      ],
      [
        103.8042985,
        1.2973681
      ],
      [
        103.80441,
        1.2972495
      ],
      [
        103.8045537,
        1.2970898
      ],
      [
        103.8046275,
        1.297004
      ],
      [
        103.8047373,
        1.2968684
      ],
      [
        103.8047752,
        1.296831
      ],
      [
        103.804852,
        1.2967156
      ],
      [
        103.8049543,
        1.2965793
      ],
      [
        103.8049856,
        1.2965333
      ],
      [
        103.8050173,
        1.2964823
      ],
      [
        103.8053053,
        1.2960641
      ],
      [
        103.8054288,
        1.2958709
      ],
      [
        103.8054814,
        1.295788
      ],
      [
        103.8055223,
        1.2957238
      ],
      [
        103.8058056,
        1.2952734
      ],
      [
        103.8059227,
        1.2950873
      ],
      [
        103.8060912,
        1.2948209
      ],
      [
        103.8061501,
        1.2947277
      ],
      [
        103.8062838,
        1.2945163
      ],
      [
        103.8064484,
        1.2942515
      ],
      [
        103.806685,
        1.293882
      ],
      [
        103.8066998,
        1.2938589
      ],
      [
        103.8068415,
        1.2936334
      ],
      [
        103.807047,
        1.2933455
      ],
      [
        103.8075842,
        1.2928089
      ],
      [
        103.8078588,
        1.2925686
      ],
      [
        103.8080885,
        1.29234
      ],
      [
        103.808356,
        1.2921005
      ],
      [
        103.8083829,
        1.2920764
      ],
      [
        103.8085046,
        1.2919688
      ],
      [
        103.8083833,
        1.2918361
      ],
      [
        103.8083418,
        1.2917941
      ],
      [
        103.8082591,
        1.2917106
      ],
      [
        103.8081846,
        1.2916316
      ],
      [
        103.8076301,
        1.2909435
      ],
      [
        103.8076096,
        1.2909197
      ],
      [
        103.8073123,
        1.2905693
      ],
      [
        103.8072709,
        1.2905247
      ],
      [
        103.807046,
        1.2902655
      ],
      [
        103.8069661,
        1.2901659
      ],
      [
        103.8069213,
        1.2901102
      ],
      [
        103.8066375,
        1.2897564
      ],
      [
        103.8065487,
        1.2896459
      ],
      [
        103.8062804,
        1.2893116
      ],
      [
        103.8062205,
        1.2892368
      ],
      [
        103.8061792,
        1.2891854
      ],
      [
        103.8058826,
        1.2888142
      ],
      [
        103.8058188,
        1.2887343
      ],
      [
        103.805599,
        1.2884543
      ],
      [
        103.8055398,
        1.2883902
      ],
      [
        103.8054145,
        1.2882495
      ],
      [
        103.8053355,
        1.2881553
      ],
      [
        103.8052925,
        1.2881054
      ],
      [
        103.8052583,
        1.2880743
      ],
      [
        103.805091,
        1.287907
      ],
      [
        103.8048988,
        1.2877497
      ],
      [
        103.8045974,
        1.2875841
      ],
      [
        103.8045282,
        1.2875458
      ],
      [
        103.8044064,
        1.2874562
      ],
      [
        103.8043463,
        1.2874193
      ],
      [
        103.8040823,
        1.2872571
      ],
      [
        103.8036051,
        1.2869685
      ],
      [
        103.803484,
        1.2868999
      ],
      [
        103.8031738,
        1.2866575
      ],
      [
        103.8030197,
        1.2864683
      ],
      [
        103.8029872,
        1.2864204
      ],
      [
        103.8028733,
        1.2862526
      ],
      [
        103.8026074,
        1.2857913
      ],
      [
        103.8023676,
        1.2853773
      ],
      [
        103.8023453,
        1.2853388
      ],
      [
        103.8023233,
        1.2853007
      ],
      [
        103.8022867,
        1.2852375
      ],
      [
        103.8022698,
        1.2852084
      ],
      [
        103.8022491,
        1.2851726
      ],
      [
        103.8021445,
        1.2849795
      ],
      [
        103.8020985,
        1.284898
      ],
      [
        103.8020027,
        1.2847282
      ],
      [
        103.8019863,
        1.2846999
      ],
      [
        103.8019615,
        1.2846571
      ],
      [
        103.8019193,
        1.284584
      ],
      [
        103.8018909,
        1.2845351
      ],
      [
        103.8018711,
        1.2845008
      ],
      [
        103.801557,
        1.2839032
      ],
      [
        103.8015247,
        1.2838417
      ],
      [
        103.8014627,
        1.2837125
      ],
      [
        103.8013814,
        1.2835406
      ],
      [
        103.8013147,
        1.2833136
      ],
      [
        103.801311,
        1.2830389
      ],
      [
        103.8013943,
        1.2827568
      ],
      [
        103.8016525,
        1.2822772
      ],
      [
        103.801774,
        1.2820154
      ],
      [
        103.8018722,
        1.2818384
      ],
      [
        103.8020808,
        1.281422
      ],
      [
        103.8021321,
        1.2814484
      ],
      [
        103.8022654,
        1.2814546
      ],
      [
        103.802592,
        1.2814347
      ],
      [
        103.8028474,
        1.2814191
      ],
      [
        103.8034281,
        1.2813641
      ],
      [
        103.8038653,
        1.2813749
      ],
      [
        103.8040422,
        1.281406
      ],
      [
        103.8041865,
        1.2814359
      ],
      [
        103.8043689,
        1.2814747
      ],
      [
        103.8044179,
        1.2814839
      ],
      [
        103.8044876,
        1.2815115
      ],
      [
        103.804796,
        1.2816336
      ],
      [
        103.8052815,
        1.281816
      ],
      [
        103.805484,
        1.2818924
      ],
      [
        103.8056899,
        1.2819623
      ],
      [
        103.8062295,
        1.282155
      ],
      [
        103.8063015,
        1.2821565
      ],
      [
        103.8065583,
        1.2821619
      ],
      [
        103.807141,
        1.2821711
      ],
      [
        103.8074329,
        1.2821534
      ],
      [
        103.8075112,
        1.2821472
      ],
      [
        103.8076472,
        1.282125
      ],
      [
        103.8081388,
        1.2820537
      ],
      [
        103.8082338,
        1.2820365
      ],
      [
        103.8087777,
        1.2819376
      ],
      [
        103.808838,
        1.2819266
      ],
      [
        103.8089081,
        1.2819139
      ],
      [
        103.8093459,
        1.2818344
      ],
      [
        103.8094157,
        1.2818217
      ],
      [
        103.8096338,
        1.2817821
      ],
      [
        103.8098639,
        1.2817402
      ],
      [
        103.8100438,
        1.2817047
      ],
      [
        103.8105468,
        1.2816327
      ],
      [
        103.8109623,
        1.2815829
      ],
      [
        103.8110381,
        1.2815725
      ],
      [
        103.812442,
        1.2813809
      ],
      [
        103.8124975,
        1.2813678
      ],
      [
        103.8125773,
        1.2813581
      ],
      [
        103.812815,
        1.2813291
      ],
      [
        103.8129445,
        1.2813133
      ],
      [
        103.8135001,
        1.2812455
      ],
      [
        103.8141739,
        1.2811632
      ],
      [
        103.8144546,
        1.281129
      ],
      [
        103.8145063,
        1.2811227
      ],
      [
        103.814733,
        1.281095
      ],
      [
        103.8148275,
        1.2810893
      ],
      [
        103.8151809,
        1.2810551
      ],
      [
        103.8154316,
        1.2810303
      ],
      [
        103.8156849,
        1.2810052
      ],
      [
        103.8157884,
        1.2809961
      ],
      [
        103.816119,
        1.2809552
      ],
      [
        103.8164167,
        1.280868
      ],
      [
        103.8165877,
        1.2807621
      ],
      [
        103.8169491,
        1.2805248
      ],
      [
        103.8172401,
        1.2803239
      ],
      [
        103.8173951,
        1.2801944
      ],
      [
        103.8174272,
        1.2801676
      ],
      [
        103.8174722,
        1.280085
      ],
      [
        103.8175043,
        1.2800133
      ],
      [
        103.8175572,
        1.2798722
      ],
      [
        103.8174534,
        1.279656
      ],
      [
        103.817381,
        1.2794991
      ],
      [
        103.8173282,
        1.2793798
      ],
      [
        103.8173177,
        1.2793558
      ],
      [
        103.8172467,
        1.2792117
      ],
      [
        103.8172066,
        1.2791252
      ],
      [
        103.8170748,
        1.2788413
      ],
      [
        103.8169446,
        1.2785709
      ],
      [
        103.8169025,
        1.2784846
      ],
      [
        103.8169855,
        1.2784414
      ],
      [
        103.8171905,
        1.2783104
      ],
      [
        103.8174654,
        1.2781159
      ],
      [
        103.8176371,
        1.2779468
      ],
      [
        103.8178458,
        1.2776297
      ],
      [
        103.8180904,
        1.2772366
      ],
      [
        103.8181256,
        1.27718
      ],
      [
        103.8184943,
        1.2765833
      ],
      [
        103.8188384,
        1.2761578
      ],
      [
        103.8190922,
        1.2759152
      ],
      [
        103.8191535,
        1.275862
      ],
      [
        103.8198226,
        1.2753919
      ],
      [
        103.8199102,
        1.2753303
      ],
      [
        103.8199834,
        1.2752975
      ],
      [
        103.8204653,
        1.2750815
      ],
      [
        103.8208512,
        1.2749687
      ],
      [
        103.8211039,
        1.2748964
      ],
      [
        103.821165,
        1.2748791
      ],
      [
        103.8214386,
        1.2748317
      ],
      [
        103.8216994,
        1.2748001
      ],
      [
        103.8219172,
        1.2747778
      ],
      [
        103.8221861,
        1.2747528
      ],
      [
        103.8225677,
        1.2747242
      ],
      [
        103.8227681,
        1.2747195
      ],
      [
        103.8228477,
        1.274719
      ],
      [
        103.8228487,
        1.2747623
      ],
      [
        103.8228529,
        1.2749485
      ],
      [
        103.822856,
        1.2749884
      ],
      [
        103.822862,
        1.2750669
      ],
      [
        103.822905,
        1.2754004
      ],
      [
        103.8229827,
        1.2757385
      ],
      [
        103.8230854,
        1.2761942
      ],
      [
        103.8231246,
        1.2763437
      ],
      [
        103.8231738,
        1.2765525
      ],
      [
        103.8232254,
        1.2767548
      ],
      [
        103.823314,
        1.2770988
      ],
      [
        103.8233558,
        1.2773115
      ],
      [
        103.8234217,
        1.2776163
      ],
      [
        103.8234575,
        1.2778088
      ],
      [
        103.823483,
        1.277921
      ],
      [
        103.8235175,
        1.278102
      ],
      [
        103.8235451,
        1.2782105
      ],
      [
        103.8235735,
        1.2783782
      ],
      [
        103.8236462,
        1.2789064
      ],
      [
        103.8236654,
        1.2791366
      ],
      [
        103.8236647,
        1.2791972
      ],
      [
        103.8236625,
        1.2793775
      ],
      [
        103.8236617,
        1.2793956
      ],
      [
        103.8236609,
        1.2794153
      ],
      [
        103.8236605,
        1.2794253
      ],
      [
        103.8236531,
        1.2795988
      ],
      [
        103.823631,
        1.2801926
      ],
      [
        103.8236305,
        1.2802522
      ],
      [
        103.8236279,
        1.2803376
      ],
      [
        103.8236188,
        1.2806388
      ],
      [
        103.8235997,
        1.2809713
      ],
      [
        103.8235875,
        1.2811854
      ],
      [
        103.8236157,
        1.2813749
      ],
      [
        103.8236587,
        1.2815532
      ],
      [
        103.8236841,
        1.2816263
      ],
      [
        103.8237326,
        1.2817658
      ],
      [
        103.823755,
        1.2818302
      ],
      [
        103.8237883,
        1.2819635
      ],
      [
        103.8238199,
        1.2820927
      ],
      [
        103.8238384,
        1.2821701
      ],
      [
        103.8239906,
        1.2825463
      ],
      [
        103.8240235,
        1.282611
      ],
      [
        103.8240968,
        1.2827582
      ],
      [
        103.8244019,
        1.2833359
      ],
      [
        103.8245024,
        1.283545
      ],
      [
        103.8245459,
        1.2836356
      ],
      [
        103.8245511,
        1.2836464
      ],
      [
        103.8246207,
        1.2837913
      ],
      [
        103.8247391,
        1.2840376
      ],
      [
        103.8248728,
        1.2843785
      ],
      [
        103.8249806,
        1.2847755
      ],
      [
        103.825095,
        1.2853556
      ],
      [
        103.8251266,
        1.2855896
      ],
      [
        103.8251665,
        1.2858915
      ],
      [
        103.8251707,
        1.285923
      ],
      [
        103.8252143,
        1.2862458
      ],
      [
        103.8252244,
        1.2863173
      ],
      [
        103.8252311,
        1.2863947
      ],
      [
        103.8253817,
        1.2863433
      ],
      [
        103.8254361,
        1.2863279
      ],
      [
        103.8256776,
        1.2862659
      ],
      [
        103.8258736,
        1.2862243
      ],
      [
        103.826475,
        1.2861252
      ],
      [
        103.8271207,
        1.2860159
      ],
      [
        103.8271932,
        1.2860058
      ],
      [
        103.8272293,
        1.2859995
      ],
      [
        103.8272614,
        1.2859955
      ],
      [
        103.8275523,
        1.2859431
      ],
      [
        103.8278041,
        1.2859041
      ],
      [
        103.8280578,
        1.2858791
      ],
      [
        103.8283124,
        1.2858682
      ],
      [
        103.8283606,
        1.2858681
      ],
      [
        103.8284057,
        1.2858689
      ],
      [
        103.828786,
        1.2858859
      ],
      [
        103.829404,
        1.285918
      ],
      [
        103.8294597,
        1.2859206
      ],
      [
        103.830047,
        1.2859486
      ],
      [
        103.8301033,
        1.2859482
      ],
      [
        103.8301671,
        1.2859489
      ],
      [
        103.8311931,
        1.2859799
      ],
      [
        103.8314307,
        1.2859871
      ],
      [
        103.8320239,
        1.2860051
      ],
      [
        103.8324049,
        1.2860149
      ],
      [
        103.8326367,
        1.2860101
      ],
      [
        103.8327255,
        1.286002
      ],
      [
        103.8328569,
        1.2859864
      ],
      [
        103.8331981,
        1.2859527
      ],
      [
        103.8332605,
        1.2859517
      ],
      [
        103.833318,
        1.2859613
      ],
      [
        103.8334101,
        1.285989
      ],
      [
        103.8335262,
        1.2860382
      ],
      [
        103.8336561,
        1.2861419
      ],
      [
        103.8336566,
        1.2861993
      ],
      [
        103.8336575,
        1.2862204
      ],
      [
        103.8336593,
        1.2863397
      ],
      [
        103.8336623,
        1.2866131
      ],
      [
        103.833682,
        1.2869908
      ],
      [
        103.8337015,
        1.2873785
      ],
      [
        103.8336897,
        1.2876543
      ],
      [
        103.833652,
        1.2880236
      ],
      [
        103.8336125,
        1.2883594
      ],
      [
        103.8335786,
        1.288587
      ],
      [
        103.8335396,
        1.2888797
      ],
      [
        103.8335236,
        1.2890416
      ],
      [
        103.8334887,
        1.2893326
      ],
      [
        103.833479,
        1.2894069
      ],
      [
        103.8334384,
        1.2896427
      ],
      [
        103.8333862,
        1.289791
      ],
      [
        103.8333541,
        1.2898931
      ],
      [
        103.8332956,
        1.2900402
      ],
      [
        103.8332723,
        1.2901141
      ],
      [
        103.8331202,
        1.2904425
      ],
      [
        103.8330853,
        1.2905022
      ],
      [
        103.8329694,
        1.2907005
      ],
      [
        103.8329073,
        1.2908019
      ],
      [
        103.8327635,
        1.2910368
      ],
      [
        103.8326362,
        1.2912067
      ],
      [
        103.8325,
        1.2913673
      ],
      [
        103.8324328,
        1.2914466
      ],
      [
        103.8319456,
        1.2920117
      ],
      [
        103.8316636,
        1.2923394
      ],
      [
        103.831633,
        1.2923749
      ],
      [
        103.8316191,
        1.2923953
      ],
      [
        103.8315487,
        1.2925124
      ],
      [
        103.8315192,
        1.2925682
      ],
      [
        103.8314153,
        1.2928151
      ],
      [
        103.8314002,
        1.2928546
      ],
      [
        103.8313216,
        1.2931283
      ],
      [
        103.831299,
        1.2931961
      ],
      [
        103.8312843,
        1.2932491
      ],
      [
        103.8311264,
        1.293687
      ],
      [
        103.831074,
        1.2938324
      ],
      [
        103.8310249,
        1.2939694
      ],
      [
        103.831014,
        1.2939997
      ],
      [
        103.8309207,
        1.2942239
      ],
      [
        103.8308522,
        1.2943884
      ],
      [
        103.8308064,
        1.2944997
      ],
      [
        103.8307549,
        1.2946255
      ],
      [
        103.8306762,
        1.2948164
      ],
      [
        103.8305978,
        1.2950068
      ],
      [
        103.8303917,
        1.2954891
      ],
      [
        103.8303526,
        1.295577
      ],
      [
        103.8303114,
        1.2956757
      ],
      [
        103.8304768,
        1.295736
      ],
      [
        103.830755,
        1.2958352
      ],
      [
        103.8309045,
        1.2958891
      ],
      [
        103.8312064,
        1.295996
      ],
      [
        103.8313357,
        1.2960418
      ],
      [
        103.8314266,
        1.2960825
      ],
      [
        103.8317265,
        1.2961766
      ],
      [
        103.8319848,
        1.2962445
      ],
      [
        103.8321789,
        1.2962834
      ],
      [
        103.8323884,
        1.2963235
      ],
      [
        103.8326007,
        1.2963407
      ],
      [
        103.8327658,
        1.2963423
      ],
      [
        103.8328438,
        1.2963355
      ],
      [
        103.8332239,
        1.2962873
      ],
      [
        103.8334665,
        1.2962562
      ],
      [
        103.8336593,
        1.2962297
      ],
      [
        103.8337976,
        1.2962016
      ],
      [
        103.8339285,
        1.2961415
      ],
      [
        103.8339285,
        1.2961415
      ],
      [
        103.8340765,
        1.2961201
      ],
      [
        103.8341198,
        1.296114
      ],
      [
        103.8342965,
        1.2960908
      ],
      [
        103.8344221,
        1.2960723
      ],
      [
        103.834644,
        1.2960381
      ],
      [
        103.8351911,
        1.295959
      ],
      [
        103.8354989,
        1.2959145
      ],
      [
        103.8357328,
        1.2958842
      ],
      [
        103.8359896,
        1.2958436
      ],
      [
        103.8363455,
        1.2957861
      ],
      [
        103.8366875,
        1.2957619
      ],
      [
        103.8368344,
        1.2957454
      ],
      [
        103.8370542,
        1.2957049
      ],
      [
        103.83717,
        1.2956826
      ],
      [
        103.837298,
        1.2956713
      ],
      [
        103.8374278,
        1.295662
      ],
      [
        103.8374941,
        1.2956587
      ],
      [
        103.8377338,
        1.2956481
      ],
      [
        103.8379839,
        1.2956604
      ],
      [
        103.8383083,
        1.2956951
      ],
      [
        103.8384072,
        1.2957043
      ],
      [
        103.8387212,
        1.2957685
      ],
      [
        103.8387784,
        1.2957777
      ],
      [
        103.838836,
        1.2957876
      ],
      [
        103.8388904,
        1.2957967
      ],
      [
        103.8391327,
        1.2958303
      ],
      [
        103.8392649,
        1.2958461
      ],
      [
        103.8396762,
        1.2958885
      ],
      [
        103.8400911,
        1.2959224
      ],
      [
        103.8402708,
        1.295937
      ],
      [
        103.8402883,
        1.2959384
      ],
      [
        103.8405115,
        1.2959566
      ],
      [
        103.8407337,
        1.2959589
      ],
      [
        103.840946,
        1.2959147
      ],
      [
        103.8411003,
        1.2958215
      ],
      [
        103.8412086,
        1.2957314
      ],
      [
        103.8412941,
        1.2956536
      ],
      [
        103.841354,
        1.2955819
      ],
      [
        103.8414133,
        1.2955025
      ],
      [
        103.8417329,
        1.294933
      ],
      [
        103.8417555,
        1.2948889
      ],
      [
        103.8418146,
        1.2947735
      ],
      [
        103.841934,
        1.2945526
      ],
      [
        103.8419868,
        1.2944541
      ],
      [
        103.8420399,
        1.2943563
      ],
      [
        103.8421135,
        1.2942536
      ],
      [
        103.84219,
        1.2941559
      ],
      [
        103.8422114,
        1.294131
      ],
      [
        103.8422715,
        1.2940702
      ],
      [
        103.8423413,
        1.2939891
      ],
      [
        103.8425074,
        1.2938371
      ],
      [
        103.842687,
        1.2937013
      ],
      [
        103.8428785,
        1.2935828
      ],
      [
        103.8431105,
        1.2934465
      ],
      [
        103.8433233,
        1.2933131
      ],
      [
        103.8436135,
        1.2931413
      ],
      [
        103.8436883,
        1.2930986
      ],
      [
        103.8437391,
        1.2930711
      ],
      [
        103.8437991,
        1.2930385
      ],
      [
        103.843876,
        1.2929856
      ],
      [
        103.8439154,
        1.2929584
      ],
      [
        103.8440124,
        1.2928917
      ],
      [
        103.8441322,
        1.2928092
      ],
      [
        103.8442043,
        1.2927595
      ],
      [
        103.8443594,
        1.292644
      ],
      [
        103.8445799,
        1.2924644
      ],
      [
        103.8447254,
        1.2923512
      ],
      [
        103.8449125,
        1.2922042
      ],
      [
        103.8452585,
        1.2919632
      ],
      [
        103.845432,
        1.2918442
      ],
      [
        103.8457119,
        1.2916398
      ],
      [
        103.846228,
        1.2912838
      ],
      [
        103.846298,
        1.291238
      ],
      [
        103.8467107,
        1.2909519
      ],
      [
        103.8473333,
        1.2905215
      ],
      [
        103.8475525,
        1.2903988
      ],
      [
        103.8476375,
        1.2903565
      ],
      [
        103.8478026,
        1.2902856
      ],
      [
        103.8479606,
        1.2902491
      ],
      [
        103.8481026,
        1.2902269
      ],
      [
        103.8482584,
        1.2902039
      ],
      [
        103.8483996,
        1.2903724
      ],
      [
        103.8484965,
        1.2904993
      ],
      [
        103.8485901,
        1.2906549
      ],
      [
        103.848755,
        1.2909524
      ],
      [
        103.8488503,
        1.2910042
      ],
      [
        103.8488985,
        1.2910128
      ],
      [
        103.8489707,
        1.2910001
      ],
      [
        103.8490411,
        1.2909429
      ],
      [
        103.8492807,
        1.2907623
      ],
      [
        103.8495988,
        1.2905183
      ],
      [
        103.8496276,
        1.2904962
      ],
      [
        103.8499282,
        1.2902775
      ],
      [
        103.850015,
        1.2901963
      ],
      [
        103.8500591,
        1.2901637
      ],
      [
        103.8501063,
        1.2901249
      ],
      [
        103.8504264,
        1.2898695
      ],
      [
        103.8505547,
        1.2897637
      ],
      [
        103.8506924,
        1.289648
      ],
      [
        103.85081,
        1.289554
      ],
      [
        103.8510463,
        1.2893652
      ],
      [
        103.8510959,
        1.2893332
      ],
      [
        103.8511455,
        1.2893011
      ],
      [
        103.8511962,
        1.2892686
      ],
      [
        103.8512374,
        1.2892436
      ],
      [
        103.8512536,
        1.2892338
      ],
      [
        103.8512854,
        1.2892183
      ],
      [
        103.8513055,
        1.2892123
      ],
      [
        103.8513257,
        1.289209
      ],
      [
        103.8513518,
        1.2892115
      ],
      [
        103.8513812,
        1.2892173
      ],
      [
        103.8514083,
        1.2892287
      ],
      [
        103.8514352,
        1.2892455
      ],
      [
        103.8515745,
        1.2893739
      ],
      [
        103.8516524,
        1.289514
      ],
      [
        103.8517392,
        1.2896701
      ],
      [
        103.8523289,
        1.2907304
      ],
      [
        103.8524116,
        1.2908769
      ],
      [
        103.8524294,
        1.2909086
      ],
      [
        103.8525268,
        1.2910839
      ],
      [
        103.8526354,
        1.2912821
      ],
      [
        103.8529922,
        1.2919144
      ],
      [
        103.8530832,
        1.2920809
      ],
      [
        103.853132,
        1.2921701
      ],
      [
        103.853252,
        1.2923897
      ],
      [
        103.8533954,
        1.2925175
      ],
      [
        103.8534982,
        1.2925756
      ],
      [
        103.8536185,
        1.2926038
      ],
      [
        103.8537348,
        1.2926339
      ],
      [
        103.8537798,
        1.2926455
      ],
      [
        103.8538524,
        1.2926643
      ],
      [
        103.853919,
        1.2927189
      ],
      [
        103.8539343,
        1.2927314
      ],
      [
        103.8539502,
        1.2927444
      ],
      [
        103.8542384,
        1.2931912
      ],
      [
        103.8542842,
        1.2932583
      ],
      [
        103.8543721,
        1.2934069
      ],
      [
        103.8545895,
        1.2937747
      ],
      [
        103.8546039,
        1.2938078
      ],
      [
        103.8546543,
        1.2939345
      ],
      [
        103.8547866,
        1.2938316
      ],
      [
        103.8553292,
        1.2934669
      ],
      [
        103.8557229,
        1.2932314
      ],
      [
        103.8558226,
        1.293172
      ],
      [
        103.8559769,
        1.2930831
      ],
      [
        103.8562154,
        1.2929484
      ],
      [
        103.856514,
        1.2927809
      ],
      [
        103.8568682,
        1.2925727
      ],
      [
        103.8569856,
        1.2925027
      ],
      [
        103.8570723,
        1.2924516
      ],
      [
        103.857176,
        1.2923891
      ],
      [
        103.8572319,
        1.2923557
      ],
      [
        103.8576827,
        1.292102
      ],
      [
        103.8577256,
        1.2920774
      ],
      [
        103.8578775,
        1.2919894
      ],
      [
        103.8578896,
        1.291982
      ],
      [
        103.8580435,
        1.2918934
      ],
      [
        103.8580705,
        1.2918776
      ],
      [
        103.8582423,
        1.291779
      ],
      [
        103.8582593,
        1.2917694
      ],
      [
        103.8583143,
        1.2917362
      ],
      [
        103.8585312,
        1.291612
      ],
      [
        103.858703,
        1.2915475
      ],
      [
        103.8587725,
        1.2915233
      ],
      [
        103.8588089,
        1.2915103
      ],
      [
        103.8590169,
        1.2914743
      ],
      [
        103.8591706,
        1.2914593
      ],
      [
        103.8592734,
        1.2914491
      ],
      [
        103.8593764,
        1.2914445
      ],
      [
        103.8596063,
        1.2914304
      ],
      [
        103.8597007,
        1.2914253
      ],
      [
        103.8599232,
        1.2914117
      ],
      [
        103.860022,
        1.2914054
      ],
      [
        103.8600553,
        1.2914033
      ],
      [
        103.86038,
        1.2913836
      ],
      [
        103.860753,
        1.2913364
      ],
      [
        103.8608319,
        1.2913301
      ],
      [
        103.8609332,
        1.2913321
      ],
      [
        103.8610007,
        1.2913371
      ],
      [
        103.8612076,
        1.2913424
      ],
      [
        103.8615148,
        1.2913404
      ],
      [
        103.8616157,
        1.2913406
      ],
      [
        103.8620486,
        1.2913099
      ]
    ]
  }
}