{
  "type": "Feature",
  "properties": {
    "relation": 6623008,
    "direction": "2",
    "fee": "yes",
    "from": "Jurong East Interchange",
    "name": "Svc 197 (Jurong East Interchange → Bedok Interchange)",
    "name:en": "Svc 197 (Jurong East Interchange → Bedok Interchange)",
    "network": "Land Transport Authority",
    "network:short": "LTA",
    "network:wikidata": "Q3299279",
    "network:wikipedia": "en:Land Transport Authority",
    "operator": "SBS Transit",
    "operator:wikidata": "Q2661305",
    "operator:wikipedia": "en:SBS Transit",
    "public_transport:version": "2",
    "ref": "197",
    "route": "bus",
    "to": "Bedok Interchange",
    "type": "route",
    "website": "https://www.sbstransit.com.sg/"
  },
  "geometry": {
    "type": "LineString",
    "coordinates": [
      [
        103.7398261,
        1.3324421
      ],
      [
        103.7398885,
        1.3325276
      ],
      [
        103.7399851,
        1.3325458
      ],
      [
        103.740067,
        1.3325282
      ],
      [
        103.7401671,
        1.3324524
      ],
      [
        103.7406316,
        1.3321053
      ],
      [
        103.7406964,
        1.3320078
      ],
      [
        103.740683,
        1.3319375
      ],
      [
        103.7405996,
        1.33179
      ],
      [
        103.7405383,
        1.3316896
      ],
      [
        103.7409131,
        1.3326772
      ],
      [
        103.7408605,
        1.3326429
      ],
      [
        103.7408117,
        1.332571
      ],
      [
        103.7408,
        1.3324909
      ],
      [
        103.7408532,
        1.3323685
      ],
      [
        103.7411744,
        1.3319777
      ],
      [
        103.7411842,
        1.3318926
      ],
      [
        103.7411688,
        1.3318184
      ],
      [
        103.7410392,
        1.3316082
      ],
      [
        103.7409957,
        1.3315451
      ],
      [
        103.7409511,
        1.3315127
      ],
      [
        103.7408692,
        1.3315032
      ],
      [
        103.7408058,
        1.3315153
      ],
      [
        103.7405383,
        1.3316896
      ],
      [
        103.7409,
        1.3328756
      ],
      [
        103.7408097,
        1.333052
      ],
      [
        103.7407762,
        1.3331463
      ],
      [
        103.7407508,
        1.3332422
      ],
      [
        103.74074,
        1.3332831
      ],
      [
        103.7407075,
        1.3334225
      ],
      [
        103.7406807,
        1.3335606
      ],
      [
        103.7406301,
        1.3338228
      ],
      [
        103.7405543,
        1.3343023
      ],
      [
        103.7405202,
        1.3345232
      ],
      [
        103.7404952,
        1.334683
      ],
      [
        103.7404512,
        1.3348509
      ],
      [
        103.7403786,
        1.3349983
      ],
      [
        103.7403066,
        1.3351095
      ],
      [
        103.7402943,
        1.3351284
      ],
      [
        103.7402243,
        1.3351965
      ],
      [
        103.7401917,
        1.3352283
      ],
      [
        103.740126,
        1.3352772
      ],
      [
        103.7400943,
        1.3352986
      ],
      [
        103.7399536,
        1.3353582
      ],
      [
        103.739804,
        1.3353899
      ],
      [
        103.7396255,
        1.3353925
      ],
      [
        103.7394706,
        1.3353707
      ],
      [
        103.7391725,
        1.3353337
      ],
      [
        103.7390337,
        1.3352464
      ],
      [
        103.7389785,
        1.3351873
      ],
      [
        103.7389255,
        1.3351306
      ],
      [
        103.738885,
        1.3350754
      ],
      [
        103.7388688,
        1.3348975
      ],
      [
        103.7388432,
        1.3347548
      ],
      [
        103.7387924,
        1.3346196
      ],
      [
        103.7387143,
        1.3344829
      ],
      [
        103.7384301,
        1.334092
      ],
      [
        103.738292,
        1.3338976
      ],
      [
        103.7380535,
        1.3335683
      ],
      [
        103.7380461,
        1.3334308
      ],
      [
        103.7380518,
        1.3333273
      ],
      [
        103.7380694,
        1.3332581
      ],
      [
        103.738162,
        1.3330687
      ],
      [
        103.7382883,
        1.3329796
      ],
      [
        103.7386926,
        1.3327277
      ],
      [
        103.7391982,
        1.3323792
      ],
      [
        103.7392497,
        1.3323427
      ],
      [
        103.7393443,
        1.3322757
      ],
      [
        103.7395886,
        1.33211
      ],
      [
        103.7398602,
        1.3319
      ],
      [
        103.7400368,
        1.3317789
      ],
      [
        103.7401888,
        1.3316756
      ],
      [
        103.7402715,
        1.331618
      ],
      [
        103.7403489,
        1.3315642
      ],
      [
        103.7406956,
        1.3313333
      ],
      [
        103.7409651,
        1.3311564
      ],
      [
        103.7410334,
        1.3311099
      ],
      [
        103.7411089,
        1.3310618
      ],
      [
        103.7413077,
        1.3309269
      ],
      [
        103.741866,
        1.3305752
      ],
      [
        103.7422493,
        1.3303053
      ],
      [
        103.7426228,
        1.3300396
      ],
      [
        103.7427027,
        1.3299878
      ],
      [
        103.7433876,
        1.3295001
      ],
      [
        103.7435062,
        1.3294584
      ],
      [
        103.7436162,
        1.3294008
      ],
      [
        103.74369,
        1.3293391
      ],
      [
        103.7441432,
        1.3289192
      ],
      [
        103.7444603,
        1.3286277
      ],
      [
        103.7445429,
        1.3285517
      ],
      [
        103.7446328,
        1.328471
      ],
      [
        103.7447393,
        1.3283679
      ],
      [
        103.7450337,
        1.328052
      ],
      [
        103.7450968,
        1.3279822
      ],
      [
        103.7451638,
        1.3278965
      ],
      [
        103.7452094,
        1.3278294
      ],
      [
        103.7455031,
        1.3272944
      ],
      [
        103.7455796,
        1.3271282
      ],
      [
        103.7456748,
        1.3268533
      ],
      [
        103.7457257,
        1.326679
      ],
      [
        103.7457913,
        1.3262576
      ],
      [
        103.7458128,
        1.326059
      ],
      [
        103.7458207,
        1.3259334
      ],
      [
        103.7458384,
        1.3255568
      ],
      [
        103.7458613,
        1.3251734
      ],
      [
        103.7458791,
        1.3243114
      ],
      [
        103.7458875,
        1.3242032
      ],
      [
        103.7458987,
        1.324121
      ],
      [
        103.7459302,
        1.3240068
      ],
      [
        103.7459889,
        1.3238883
      ],
      [
        103.7461766,
        1.3236843
      ],
      [
        103.7462491,
        1.3236542
      ],
      [
        103.7466015,
        1.3235202
      ],
      [
        103.7470042,
        1.3233953
      ],
      [
        103.7472763,
        1.3233327
      ],
      [
        103.7473511,
        1.3233129
      ],
      [
        103.7477822,
        1.3231991
      ],
      [
        103.747933,
        1.3231572
      ],
      [
        103.7479918,
        1.3231409
      ],
      [
        103.748732,
        1.3229291
      ],
      [
        103.7488073,
        1.3229091
      ],
      [
        103.7488572,
        1.3228968
      ],
      [
        103.7490354,
        1.3228485
      ],
      [
        103.7503707,
        1.3224167
      ],
      [
        103.7508864,
        1.3222673
      ],
      [
        103.7515886,
        1.3220687
      ],
      [
        103.7522281,
        1.3218516
      ],
      [
        103.753074,
        1.3215774
      ],
      [
        103.7535744,
        1.3214069
      ],
      [
        103.7541684,
        1.3212829
      ],
      [
        103.7544272,
        1.3211917
      ],
      [
        103.7547209,
        1.3210094
      ],
      [
        103.7547661,
        1.3209718
      ],
      [
        103.7549931,
        1.3207828
      ],
      [
        103.755264,
        1.3204731
      ],
      [
        103.7554366,
        1.3202101
      ],
      [
        103.7559942,
        1.3195347
      ],
      [
        103.7570265,
        1.3183504
      ],
      [
        103.7571023,
        1.3182697
      ],
      [
        103.7574457,
        1.3178272
      ],
      [
        103.7576469,
        1.3175914
      ],
      [
        103.7580642,
        1.3171499
      ],
      [
        103.7583174,
        1.3168514
      ],
      [
        103.7586929,
        1.316426
      ],
      [
        103.759003,
        1.3160748
      ],
      [
        103.7591006,
        1.3160389
      ],
      [
        103.7591424,
        1.3160127
      ],
      [
        103.7592852,
        1.3158703
      ],
      [
        103.7596287,
        1.3155334
      ],
      [
        103.7603376,
        1.3147365
      ],
      [
        103.7606154,
        1.314447
      ],
      [
        103.7610186,
        1.3140144
      ],
      [
        103.7611182,
        1.3139076
      ],
      [
        103.7614853,
        1.3135137
      ],
      [
        103.7614896,
        1.313509
      ],
      [
        103.7616011,
        1.3133994
      ],
      [
        103.7616983,
        1.3132943
      ],
      [
        103.7622011,
        1.3126855
      ],
      [
        103.7629676,
        1.3119128
      ],
      [
        103.7630992,
        1.3117801
      ],
      [
        103.7634377,
        1.3114389
      ],
      [
        103.7634891,
        1.311387
      ],
      [
        103.7635224,
        1.3113534
      ],
      [
        103.7636281,
        1.3112469
      ],
      [
        103.7642431,
        1.3106253
      ],
      [
        103.7644769,
        1.3103902
      ],
      [
        103.7645423,
        1.3103243
      ],
      [
        103.7649619,
        1.3098722
      ],
      [
        103.7650808,
        1.3098181
      ],
      [
        103.7654747,
        1.3094132
      ],
      [
        103.765769,
        1.3090455
      ],
      [
        103.7657744,
        1.3090388
      ],
      [
        103.7659762,
        1.3087677
      ],
      [
        103.766141,
        1.3085172
      ],
      [
        103.7663724,
        1.3081653
      ],
      [
        103.7664666,
        1.3080222
      ],
      [
        103.7666731,
        1.3076926
      ],
      [
        103.7668766,
        1.3074282
      ],
      [
        103.7670838,
        1.3071277
      ],
      [
        103.7672827,
        1.3069191
      ],
      [
        103.7676635,
        1.3065812
      ],
      [
        103.7680884,
        1.3062458
      ],
      [
        103.7686225,
        1.3058122
      ],
      [
        103.768715,
        1.3057908
      ],
      [
        103.7687405,
        1.3057821
      ],
      [
        103.7687947,
        1.3057633
      ],
      [
        103.7688263,
        1.3057459
      ],
      [
        103.7691416,
        1.3055346
      ],
      [
        103.7693139,
        1.305441
      ],
      [
        103.7694722,
        1.3053499
      ],
      [
        103.769637,
        1.305241
      ],
      [
        103.7698313,
        1.3051268
      ],
      [
        103.770373,
        1.3048283
      ],
      [
        103.7709965,
        1.3044468
      ],
      [
        103.7710169,
        1.3044343
      ],
      [
        103.7714014,
        1.3042495
      ],
      [
        103.771762,
        1.30407
      ],
      [
        103.7719765,
        1.303916
      ],
      [
        103.7733402,
        1.3032496
      ],
      [
        103.7735031,
        1.3031694
      ],
      [
        103.7740223,
        1.3028498
      ],
      [
        103.7751878,
        1.3021757
      ],
      [
        103.776593,
        1.3013621
      ],
      [
        103.7779648,
        1.3005578
      ],
      [
        103.7781587,
        1.3004357
      ],
      [
        103.7782637,
        1.3003696
      ],
      [
        103.7786639,
        1.3001207
      ],
      [
        103.778895,
        1.2999762
      ],
      [
        103.7793839,
        1.2996721
      ],
      [
        103.7795213,
        1.2995891
      ],
      [
        103.7805883,
        1.2989448
      ],
      [
        103.7810213,
        1.2987048
      ],
      [
        103.7812262,
        1.2985917
      ],
      [
        103.7818516,
        1.2982483
      ],
      [
        103.7823947,
        1.2979385
      ],
      [
        103.783111,
        1.2975197
      ],
      [
        103.7835041,
        1.297224
      ],
      [
        103.7836355,
        1.2971897
      ],
      [
        103.7836642,
        1.2971804
      ],
      [
        103.7841542,
        1.2967837
      ],
      [
        103.7842867,
        1.2966743
      ],
      [
        103.7845783,
        1.2963651
      ],
      [
        103.7846646,
        1.2962688
      ],
      [
        103.7849631,
        1.2959563
      ],
      [
        103.7851413,
        1.2957979
      ],
      [
        103.7853697,
        1.2956499
      ],
      [
        103.7854631,
        1.2955883
      ],
      [
        103.7855093,
        1.2955637
      ],
      [
        103.7857041,
        1.2954808
      ],
      [
        103.7857428,
        1.2954668
      ],
      [
        103.7860317,
        1.295365
      ],
      [
        103.7860505,
        1.2953536
      ],
      [
        103.7861431,
        1.2953081
      ],
      [
        103.786225,
        1.2952486
      ],
      [
        103.7863511,
        1.2951571
      ],
      [
        103.7864135,
        1.2949112
      ],
      [
        103.7864621,
        1.2947559
      ],
      [
        103.7865157,
        1.2944286
      ],
      [
        103.7865849,
        1.2942987
      ],
      [
        103.7866347,
        1.2941524
      ],
      [
        103.7866602,
        1.2940706
      ],
      [
        103.7867029,
        1.2939193
      ],
      [
        103.7867217,
        1.2938366
      ],
      [
        103.7867584,
        1.2937771
      ],
      [
        103.7871437,
        1.2933728
      ],
      [
        103.7876209,
        1.2928878
      ],
      [
        103.7884484,
        1.2922139
      ],
      [
        103.7903679,
        1.291009
      ],
      [
        103.7911419,
        1.2906672
      ],
      [
        103.7914874,
        1.2904929
      ],
      [
        103.7917438,
        1.2903636
      ],
      [
        103.7926724,
        1.2896456
      ],
      [
        103.7929899,
        1.289369
      ],
      [
        103.7929975,
        1.2893613
      ],
      [
        103.7930373,
        1.2893303
      ],
      [
        103.7930557,
        1.289316
      ],
      [
        103.7931064,
        1.2892756
      ],
      [
        103.7931337,
        1.2892518
      ],
      [
        103.7931871,
        1.2892026
      ],
      [
        103.7935431,
        1.2888991
      ],
      [
        103.7938275,
        1.2886689
      ],
      [
        103.7942988,
        1.2882455
      ],
      [
        103.7946608,
        1.2880208
      ],
      [
        103.7953672,
        1.2876226
      ],
      [
        103.79559,
        1.287497
      ],
      [
        103.7959385,
        1.2873005
      ],
      [
        103.7965043,
        1.2869296
      ],
      [
        103.7967951,
        1.2867315
      ],
      [
        103.797019,
        1.2865904
      ],
      [
        103.7973556,
        1.2863665
      ],
      [
        103.7979713,
        1.2859443
      ],
      [
        103.7982546,
        1.2857501
      ],
      [
        103.7983816,
        1.2857271
      ],
      [
        103.7986163,
        1.2856064
      ],
      [
        103.7987514,
        1.2855262
      ],
      [
        103.7989597,
        1.2854026
      ],
      [
        103.799185,
        1.2852659
      ],
      [
        103.7993754,
        1.2851559
      ],
      [
        103.7995389,
        1.2850594
      ],
      [
        103.7996816,
        1.2849832
      ],
      [
        103.7998661,
        1.2849038
      ],
      [
        103.8000109,
        1.2848609
      ],
      [
        103.8001573,
        1.2848299
      ],
      [
        103.800314,
        1.2848127
      ],
      [
        103.8004025,
        1.2848073
      ],
      [
        103.8005125,
        1.2848127
      ],
      [
        103.8008147,
        1.2848276
      ],
      [
        103.801251,
        1.2848222
      ],
      [
        103.8012821,
        1.2848381
      ],
      [
        103.8014184,
        1.2848493
      ],
      [
        103.801513,
        1.28486
      ],
      [
        103.8016035,
        1.2848716
      ],
      [
        103.8016745,
        1.2848868
      ],
      [
        103.8017255,
        1.2849034
      ],
      [
        103.8017977,
        1.2849359
      ],
      [
        103.8018793,
        1.2849878
      ],
      [
        103.8019941,
        1.2850862
      ],
      [
        103.8020826,
        1.2852225
      ],
      [
        103.8021684,
        1.2853545
      ],
      [
        103.8023499,
        1.2856468
      ],
      [
        103.8027779,
        1.2864068
      ],
      [
        103.8028599,
        1.2865231
      ],
      [
        103.8029087,
        1.2865799
      ],
      [
        103.8030614,
        1.2867608
      ],
      [
        103.8032823,
        1.2869305
      ],
      [
        103.8034282,
        1.2870193
      ],
      [
        103.803484,
        1.2870517
      ],
      [
        103.8035528,
        1.2870962
      ],
      [
        103.8036249,
        1.287142
      ],
      [
        103.8039422,
        1.2873454
      ],
      [
        103.8042286,
        1.2875366
      ],
      [
        103.8042843,
        1.2875738
      ],
      [
        103.8044049,
        1.2876667
      ],
      [
        103.8045282,
        1.2875458
      ],
      [
        103.8045936,
        1.2874745
      ],
      [
        103.8048449,
        1.2872277
      ],
      [
        103.8050076,
        1.2870533
      ],
      [
        103.8051194,
        1.2869389
      ],
      [
        103.8052783,
        1.2868415
      ],
      [
        103.805428,
        1.2867565
      ],
      [
        103.8056021,
        1.286689
      ],
      [
        103.8056995,
        1.2866578
      ],
      [
        103.8061012,
        1.2865293
      ],
      [
        103.806278,
        1.2864979
      ],
      [
        103.8065958,
        1.2864421
      ],
      [
        103.8067916,
        1.2864186
      ],
      [
        103.8072837,
        1.2863602
      ],
      [
        103.8073127,
        1.2863574
      ],
      [
        103.8075308,
        1.2863355
      ],
      [
        103.8075507,
        1.2863342
      ],
      [
        103.8078377,
        1.2863155
      ],
      [
        103.8080757,
        1.2862854
      ],
      [
        103.8083343,
        1.2862578
      ],
      [
        103.8085207,
        1.2862338
      ],
      [
        103.8086759,
        1.286215
      ],
      [
        103.808955,
        1.28618
      ],
      [
        103.8090958,
        1.2861618
      ],
      [
        103.8091608,
        1.2861576
      ],
      [
        103.8097275,
        1.2860866
      ],
      [
        103.810051,
        1.2860364
      ],
      [
        103.8101535,
        1.286021
      ],
      [
        103.8102631,
        1.286006
      ],
      [
        103.8103705,
        1.2859912
      ],
      [
        103.8108055,
        1.2859227
      ],
      [
        103.8111858,
        1.2858611
      ],
      [
        103.8114085,
        1.2858118
      ],
      [
        103.8116447,
        1.2857526
      ],
      [
        103.8124402,
        1.285542
      ],
      [
        103.8133569,
        1.2852994
      ],
      [
        103.8134782,
        1.2852673
      ],
      [
        103.8135749,
        1.2852417
      ],
      [
        103.8140859,
        1.2851059
      ],
      [
        103.8143455,
        1.2850358
      ],
      [
        103.8144673,
        1.2850029
      ],
      [
        103.8145867,
        1.2849707
      ],
      [
        103.8151854,
        1.2848091
      ],
      [
        103.8158608,
        1.2846301
      ],
      [
        103.816125,
        1.2845599
      ],
      [
        103.8161532,
        1.2845524
      ],
      [
        103.8163987,
        1.284487
      ],
      [
        103.8169411,
        1.2843428
      ],
      [
        103.8174794,
        1.2841996
      ],
      [
        103.8179682,
        1.2840694
      ],
      [
        103.818027,
        1.2840538
      ],
      [
        103.8180445,
        1.2840491
      ],
      [
        103.8181329,
        1.2840265
      ],
      [
        103.8183445,
        1.2839695
      ],
      [
        103.8187947,
        1.2838497
      ],
      [
        103.8194316,
        1.2836442
      ],
      [
        103.8195769,
        1.2835968
      ],
      [
        103.8197249,
        1.2835535
      ],
      [
        103.8201131,
        1.2834288
      ],
      [
        103.8201746,
        1.2834069
      ],
      [
        103.8202821,
        1.2833729
      ],
      [
        103.8203581,
        1.2833501
      ],
      [
        103.8207655,
        1.2832142
      ],
      [
        103.8210269,
        1.283112
      ],
      [
        103.8214727,
        1.2829355
      ],
      [
        103.8218364,
        1.282785
      ],
      [
        103.8220232,
        1.2827022
      ],
      [
        103.8227306,
        1.2824072
      ],
      [
        103.8230545,
        1.2822832
      ],
      [
        103.8233049,
        1.2821624
      ],
      [
        103.8234627,
        1.2820982
      ],
      [
        103.823735,
        1.2819876
      ],
      [
        103.8237883,
        1.2819635
      ],
      [
        103.8239474,
        1.2819041
      ],
      [
        103.8240526,
        1.2818603
      ],
      [
        103.8247257,
        1.281542
      ],
      [
        103.8249876,
        1.2814145
      ],
      [
        103.8251551,
        1.2813396
      ],
      [
        103.8259164,
        1.2809391
      ],
      [
        103.8263199,
        1.2807216
      ],
      [
        103.8263816,
        1.2806897
      ],
      [
        103.8269518,
        1.2803878
      ],
      [
        103.8273956,
        1.2801589
      ],
      [
        103.8275348,
        1.2800876
      ],
      [
        103.8276261,
        1.2800261
      ],
      [
        103.8279492,
        1.2798451
      ],
      [
        103.8281815,
        1.2797173
      ],
      [
        103.828519,
        1.2795311
      ],
      [
        103.828598,
        1.2794876
      ],
      [
        103.8287482,
        1.2793691
      ],
      [
        103.828882,
        1.2792549
      ],
      [
        103.8289817,
        1.2791689
      ],
      [
        103.8291862,
        1.279026
      ],
      [
        103.829212,
        1.2790125
      ],
      [
        103.8292673,
        1.2789836
      ],
      [
        103.8296092,
        1.2787872
      ],
      [
        103.8297889,
        1.2786571
      ],
      [
        103.8299404,
        1.278576
      ],
      [
        103.8300095,
        1.2785311
      ],
      [
        103.8301885,
        1.2784366
      ],
      [
        103.8303481,
        1.2783668
      ],
      [
        103.8304334,
        1.2783339
      ],
      [
        103.8305804,
        1.2782905
      ],
      [
        103.8307215,
        1.2782564
      ],
      [
        103.8309961,
        1.2781641
      ],
      [
        103.831221,
        1.2780737
      ],
      [
        103.8315384,
        1.2779435
      ],
      [
        103.8317344,
        1.2778429
      ],
      [
        103.8317931,
        1.2778128
      ],
      [
        103.8318542,
        1.2777846
      ],
      [
        103.8319396,
        1.2777405
      ],
      [
        103.8320669,
        1.2776736
      ],
      [
        103.8321625,
        1.2776237
      ],
      [
        103.8329876,
        1.2771912
      ],
      [
        103.832998,
        1.2771857
      ],
      [
        103.8331384,
        1.2771071
      ],
      [
        103.8332122,
        1.2770623
      ],
      [
        103.8333028,
        1.2770101
      ],
      [
        103.8333956,
        1.2769468
      ],
      [
        103.833592,
        1.2767862
      ],
      [
        103.8336504,
        1.2767395
      ],
      [
        103.8337199,
        1.2766859
      ],
      [
        103.833778,
        1.2766346
      ],
      [
        103.8337813,
        1.2766322
      ],
      [
        103.8339483,
        1.2764913
      ],
      [
        103.8341074,
        1.2763599
      ],
      [
        103.8342499,
        1.2762731
      ],
      [
        103.8343517,
        1.2762275
      ],
      [
        103.8344471,
        1.2761988
      ],
      [
        103.8345259,
        1.2761838
      ],
      [
        103.834597,
        1.2761781
      ],
      [
        103.8346881,
        1.2761726
      ],
      [
        103.8347583,
        1.2761726
      ],
      [
        103.8348241,
        1.2761748
      ],
      [
        103.8349031,
        1.2761804
      ],
      [
        103.8349781,
        1.2762075
      ],
      [
        103.8351156,
        1.2762595
      ],
      [
        103.83522,
        1.2763055
      ],
      [
        103.8352915,
        1.2763481
      ],
      [
        103.8353804,
        1.2764075
      ],
      [
        103.8355736,
        1.2765762
      ],
      [
        103.8356938,
        1.2766784
      ],
      [
        103.8358027,
        1.276771
      ],
      [
        103.8358174,
        1.2767834
      ],
      [
        103.8359124,
        1.2768696
      ],
      [
        103.836083,
        1.2770168
      ],
      [
        103.8361692,
        1.2770856
      ],
      [
        103.8362813,
        1.2771863
      ],
      [
        103.836549,
        1.2774139
      ],
      [
        103.8365754,
        1.2774392
      ],
      [
        103.8366513,
        1.2775051
      ],
      [
        103.8369114,
        1.2777067
      ],
      [
        103.8374541,
        1.2780654
      ],
      [
        103.8378496,
        1.2783266
      ],
      [
        103.8380782,
        1.2784811
      ],
      [
        103.8382793,
        1.278616
      ],
      [
        103.8387756,
        1.2789636
      ],
      [
        103.8389792,
        1.2791344
      ],
      [
        103.8391138,
        1.2792748
      ],
      [
        103.8391834,
        1.2793475
      ],
      [
        103.8392842,
        1.279468
      ],
      [
        103.8394777,
        1.2796827
      ],
      [
        103.8395466,
        1.279748
      ],
      [
        103.8396515,
        1.2798726
      ],
      [
        103.8397489,
        1.2799961
      ],
      [
        103.840018,
        1.2803568
      ],
      [
        103.8400322,
        1.2803771
      ],
      [
        103.8402821,
        1.2806962
      ],
      [
        103.8403893,
        1.2808331
      ],
      [
        103.8404547,
        1.2809136
      ],
      [
        103.8406786,
        1.281163
      ],
      [
        103.8409951,
        1.2815223
      ],
      [
        103.8412011,
        1.2817755
      ],
      [
        103.8412395,
        1.2818208
      ],
      [
        103.8413367,
        1.2819384
      ],
      [
        103.8414843,
        1.2821153
      ],
      [
        103.8415357,
        1.2821791
      ],
      [
        103.8415725,
        1.2822203
      ],
      [
        103.8416348,
        1.2822906
      ],
      [
        103.8419219,
        1.2826179
      ],
      [
        103.8419604,
        1.2826617
      ],
      [
        103.8421941,
        1.282957
      ],
      [
        103.8423627,
        1.283164
      ],
      [
        103.8425013,
        1.2833367
      ],
      [
        103.8425288,
        1.2833706
      ],
      [
        103.8431163,
        1.2840789
      ],
      [
        103.8431967,
        1.2841758
      ],
      [
        103.8432648,
        1.2842578
      ],
      [
        103.8433782,
        1.2843945
      ],
      [
        103.8434464,
        1.2844765
      ],
      [
        103.8436488,
        1.2847203
      ],
      [
        103.8438155,
        1.2849286
      ],
      [
        103.8438752,
        1.2850033
      ],
      [
        103.843936,
        1.2850694
      ],
      [
        103.8440361,
        1.2851914
      ],
      [
        103.8443411,
        1.2855406
      ],
      [
        103.8445207,
        1.2857434
      ],
      [
        103.8446333,
        1.2858745
      ],
      [
        103.8446809,
        1.2859299
      ],
      [
        103.8448202,
        1.2860934
      ],
      [
        103.8449752,
        1.2862755
      ],
      [
        103.8451329,
        1.2864602
      ],
      [
        103.8452109,
        1.2865509
      ],
      [
        103.8453089,
        1.2866706
      ],
      [
        103.8454456,
        1.2868378
      ],
      [
        103.8455766,
        1.2869815
      ],
      [
        103.8455833,
        1.2869893
      ],
      [
        103.845675,
        1.2870953
      ],
      [
        103.845862,
        1.2873202
      ],
      [
        103.8459283,
        1.2873956
      ],
      [
        103.8459996,
        1.2874818
      ],
      [
        103.8463526,
        1.2878841
      ],
      [
        103.8465239,
        1.2880819
      ],
      [
        103.8466218,
        1.2881974
      ],
      [
        103.8467424,
        1.2883397
      ],
      [
        103.8469287,
        1.2885573
      ],
      [
        103.8474799,
        1.2892359
      ],
      [
        103.8476025,
        1.2893849
      ],
      [
        103.8479836,
        1.2898829
      ],
      [
        103.8481263,
        1.2900514
      ],
      [
        103.8481858,
        1.2901144
      ],
      [
        103.8482584,
        1.2902039
      ],
      [
        103.8483996,
        1.2903724
      ],
      [
        103.8484965,
        1.2904993
      ],
      [
        103.8485901,
        1.2906549
      ],
      [
        103.848755,
        1.2909524
      ],
      [
        103.8489047,
        1.2912404
      ],
      [
        103.8490446,
        1.2914925
      ],
      [
        103.8491756,
        1.291758
      ],
      [
        103.849286,
        1.2919657
      ],
      [
        103.8493692,
        1.2921494
      ],
      [
        103.8494378,
        1.2923308
      ],
      [
        103.8494696,
        1.2923913
      ],
      [
        103.8495306,
        1.2925377
      ],
      [
        103.8495696,
        1.2926289
      ],
      [
        103.8496622,
        1.292845
      ],
      [
        103.8496842,
        1.2928907
      ],
      [
        103.8498421,
        1.2932189
      ],
      [
        103.8500439,
        1.293586
      ],
      [
        103.8501234,
        1.2937429
      ],
      [
        103.8501887,
        1.2938717
      ],
      [
        103.8502345,
        1.2939612
      ],
      [
        103.8502957,
        1.2940826
      ],
      [
        103.8504705,
        1.2944135
      ],
      [
        103.850537,
        1.2945195
      ],
      [
        103.8506094,
        1.294611
      ],
      [
        103.8510631,
        1.2951378
      ],
      [
        103.8513344,
        1.2954281
      ],
      [
        103.8513962,
        1.2954858
      ],
      [
        103.8514153,
        1.295506
      ],
      [
        103.8515011,
        1.2955985
      ],
      [
        103.8516569,
        1.2957626
      ],
      [
        103.8517651,
        1.2958866
      ],
      [
        103.8518194,
        1.2959447
      ],
      [
        103.8519011,
        1.2960284
      ],
      [
        103.8519488,
        1.2960865
      ],
      [
        103.8520528,
        1.2962032
      ],
      [
        103.8522026,
        1.2963704
      ],
      [
        103.8523503,
        1.2965295
      ],
      [
        103.8526694,
        1.2968976
      ],
      [
        103.8527418,
        1.2969881
      ],
      [
        103.8527609,
        1.297012
      ],
      [
        103.8530862,
        1.2974185
      ],
      [
        103.853171,
        1.2975217
      ],
      [
        103.8532709,
        1.2976481
      ],
      [
        103.8534083,
        1.2978206
      ],
      [
        103.8534389,
        1.297859
      ],
      [
        103.8536667,
        1.298145
      ],
      [
        103.8538916,
        1.2984272
      ],
      [
        103.8539445,
        1.2984936
      ],
      [
        103.8540378,
        1.2986159
      ],
      [
        103.8540608,
        1.2986427
      ],
      [
        103.854281,
        1.2988992
      ],
      [
        103.8545356,
        1.2991957
      ],
      [
        103.8546626,
        1.2993436
      ],
      [
        103.8549017,
        1.299622
      ],
      [
        103.8549254,
        1.2996495
      ],
      [
        103.8552542,
        1.300045
      ],
      [
        103.8554415,
        1.3002602
      ],
      [
        103.8555723,
        1.3004179
      ],
      [
        103.8556766,
        1.3005381
      ],
      [
        103.8557189,
        1.3005869
      ],
      [
        103.8558114,
        1.3006936
      ],
      [
        103.855876,
        1.3007684
      ],
      [
        103.8561679,
        1.301106
      ],
      [
        103.8565286,
        1.301522
      ],
      [
        103.8567098,
        1.3017351
      ],
      [
        103.856839,
        1.3018849
      ],
      [
        103.8569413,
        1.3020055
      ],
      [
        103.8569904,
        1.3020677
      ],
      [
        103.8570161,
        1.3020949
      ],
      [
        103.8575065,
        1.3026523
      ],
      [
        103.8576065,
        1.3027713
      ],
      [
        103.8576525,
        1.3028261
      ],
      [
        103.8576992,
        1.302876
      ],
      [
        103.8581572,
        1.3033655
      ],
      [
        103.8581703,
        1.3033795
      ],
      [
        103.858186,
        1.3033953
      ],
      [
        103.8586933,
        1.3038658
      ],
      [
        103.8589478,
        1.3041095
      ],
      [
        103.8590774,
        1.3042298
      ],
      [
        103.8592057,
        1.3043283
      ],
      [
        103.8594245,
        1.304491
      ],
      [
        103.8597518,
        1.3047645
      ],
      [
        103.8600243,
        1.304986
      ],
      [
        103.8601125,
        1.3050625
      ],
      [
        103.8601962,
        1.305135
      ],
      [
        103.8603091,
        1.3052362
      ],
      [
        103.8605216,
        1.3054094
      ],
      [
        103.8609546,
        1.3057794
      ],
      [
        103.8615462,
        1.3063202
      ],
      [
        103.8617711,
        1.3065294
      ],
      [
        103.8624943,
        1.3072114
      ],
      [
        103.8627197,
        1.3074487
      ],
      [
        103.8628954,
        1.3076176
      ],
      [
        103.8630661,
        1.3077727
      ],
      [
        103.8630932,
        1.3078
      ],
      [
        103.8631318,
        1.3078396
      ],
      [
        103.8631638,
        1.307868
      ],
      [
        103.8633964,
        1.3080743
      ],
      [
        103.8637483,
        1.3083951
      ],
      [
        103.8638674,
        1.3085135
      ],
      [
        103.8640101,
        1.3086319
      ],
      [
        103.8641022,
        1.3087039
      ],
      [
        103.8642062,
        1.3087852
      ],
      [
        103.8643085,
        1.3088569
      ],
      [
        103.8643514,
        1.3088918
      ],
      [
        103.8649808,
        1.309071
      ],
      [
        103.8656935,
        1.3092427
      ],
      [
        103.8657886,
        1.3092651
      ],
      [
        103.8660028,
        1.3093156
      ],
      [
        103.8669107,
        1.3095236
      ],
      [
        103.867171,
        1.3095778
      ],
      [
        103.8676717,
        1.3097038
      ],
      [
        103.8682088,
        1.3098779
      ],
      [
        103.868521,
        1.3099841
      ],
      [
        103.8686208,
        1.3100181
      ],
      [
        103.8688595,
        1.3100895
      ],
      [
        103.8693263,
        1.3102152
      ],
      [
        103.8693709,
        1.3102269
      ],
      [
        103.8698522,
        1.3103528
      ],
      [
        103.8703859,
        1.3104975
      ],
      [
        103.8708133,
        1.3106306
      ],
      [
        103.8708826,
        1.3106634
      ],
      [
        103.8709088,
        1.310676
      ],
      [
        103.8709926,
        1.3107155
      ],
      [
        103.8712545,
        1.3108716
      ],
      [
        103.871397,
        1.3109897
      ],
      [
        103.87148,
        1.3110557
      ],
      [
        103.8715209,
        1.3110882
      ],
      [
        103.8718325,
        1.3113462
      ],
      [
        103.871888,
        1.3113931
      ],
      [
        103.8720588,
        1.311523
      ],
      [
        103.8721651,
        1.3116046
      ],
      [
        103.8722478,
        1.3116621
      ],
      [
        103.8723365,
        1.3117231
      ],
      [
        103.8725681,
        1.3119035
      ],
      [
        103.8732232,
        1.3123538
      ],
      [
        103.8732541,
        1.3123706
      ],
      [
        103.8734009,
        1.312467
      ],
      [
        103.873537,
        1.3125548
      ],
      [
        103.8739455,
        1.3127903
      ],
      [
        103.874033,
        1.3128319
      ],
      [
        103.8742319,
        1.3129134
      ],
      [
        103.8745663,
        1.3130445
      ],
      [
        103.8748082,
        1.313122
      ],
      [
        103.8749355,
        1.3131627
      ],
      [
        103.8750656,
        1.3132004
      ],
      [
        103.8751062,
        1.3130424
      ],
      [
        103.8752832,
        1.3123505
      ],
      [
        103.8754523,
        1.3117338
      ],
      [
        103.8754718,
        1.3116476
      ],
      [
        103.8755003,
        1.3115459
      ],
      [
        103.8755405,
        1.3114022
      ],
      [
        103.8757176,
        1.3107894
      ],
      [
        103.8758962,
        1.3100434
      ],
      [
        103.8759765,
        1.3096569
      ],
      [
        103.8760181,
        1.3094477
      ],
      [
        103.8761207,
        1.3090453
      ],
      [
        103.8761642,
        1.3089525
      ],
      [
        103.876244,
        1.3088333
      ],
      [
        103.8763395,
        1.3087375
      ],
      [
        103.8764395,
        1.308659
      ],
      [
        103.8765095,
        1.3086141
      ],
      [
        103.8765815,
        1.3085751
      ],
      [
        103.8767244,
        1.3085155
      ],
      [
        103.8767486,
        1.3085087
      ],
      [
        103.8768057,
        1.3085324
      ],
      [
        103.8768488,
        1.3085389
      ],
      [
        103.8769592,
        1.3085236
      ],
      [
        103.8771052,
        1.3085037
      ],
      [
        103.8772031,
        1.3085004
      ],
      [
        103.8773662,
        1.3085364
      ],
      [
        103.8774392,
        1.3085599
      ],
      [
        103.87751,
        1.3085843
      ],
      [
        103.8776021,
        1.3087348
      ],
      [
        103.8778236,
        1.3090654
      ],
      [
        103.8780837,
        1.3093243
      ],
      [
        103.8783489,
        1.3095241
      ],
      [
        103.8786288,
        1.3096983
      ],
      [
        103.8790594,
        1.3098732
      ],
      [
        103.879504,
        1.3099737
      ],
      [
        103.8798866,
        1.3100437
      ],
      [
        103.8800886,
        1.310085
      ],
      [
        103.880809,
        1.3102322
      ],
      [
        103.8811143,
        1.3102946
      ],
      [
        103.8814196,
        1.310357
      ],
      [
        103.8815415,
        1.3103847
      ],
      [
        103.8815473,
        1.310386
      ],
      [
        103.8817303,
        1.3104293
      ],
      [
        103.8820026,
        1.3104903
      ],
      [
        103.882131,
        1.3105215
      ],
      [
        103.8822378,
        1.3105438
      ],
      [
        103.8823274,
        1.3105625
      ],
      [
        103.8826881,
        1.3106377
      ],
      [
        103.8827087,
        1.310642
      ],
      [
        103.8827502,
        1.3106506
      ],
      [
        103.8831116,
        1.3107259
      ],
      [
        103.8833471,
        1.310775
      ],
      [
        103.8833867,
        1.3107832
      ],
      [
        103.8834279,
        1.3107918
      ],
      [
        103.8835705,
        1.3108215
      ],
      [
        103.8838271,
        1.3108749
      ],
      [
        103.8838587,
        1.3108815
      ],
      [
        103.8840506,
        1.3109215
      ],
      [
        103.8840862,
        1.3109257
      ],
      [
        103.8843827,
        1.3109907
      ],
      [
        103.8848875,
        1.3110959
      ],
      [
        103.8849071,
        1.3111
      ],
      [
        103.8849258,
        1.3111039
      ],
      [
        103.8852029,
        1.3111616
      ],
      [
        103.8854214,
        1.3112099
      ],
      [
        103.8856303,
        1.3112497
      ],
      [
        103.8857077,
        1.3112619
      ],
      [
        103.8857291,
        1.3112652
      ],
      [
        103.886202,
        1.311366
      ],
      [
        103.8863671,
        1.3114005
      ],
      [
        103.8864003,
        1.3114071
      ],
      [
        103.8869795,
        1.3115219
      ],
      [
        103.887034,
        1.3115327
      ],
      [
        103.8870647,
        1.3115384
      ],
      [
        103.8872859,
        1.3115796
      ],
      [
        103.8874803,
        1.3116137
      ],
      [
        103.8881247,
        1.3117284
      ],
      [
        103.8882781,
        1.3117581
      ],
      [
        103.8883339,
        1.3117685
      ],
      [
        103.8887119,
        1.3118469
      ],
      [
        103.8887158,
        1.3118479
      ],
      [
        103.8890223,
        1.3119122
      ],
      [
        103.8890353,
        1.3119153
      ],
      [
        103.8893466,
        1.3119804
      ],
      [
        103.8895853,
        1.3120285
      ],
      [
        103.8897344,
        1.3120596
      ],
      [
        103.8900182,
        1.3121193
      ],
      [
        103.8901139,
        1.3121408
      ],
      [
        103.8905101,
        1.3122217
      ],
      [
        103.8909028,
        1.3123063
      ],
      [
        103.8910402,
        1.3123573
      ],
      [
        103.8912156,
        1.312431
      ],
      [
        103.8913065,
        1.3125221
      ],
      [
        103.8913725,
        1.3126281
      ],
      [
        103.8916956,
        1.3132246
      ],
      [
        103.8917935,
        1.3133989
      ],
      [
        103.8919175,
        1.3136275
      ],
      [
        103.8919382,
        1.3137179
      ],
      [
        103.891943,
        1.3137388
      ],
      [
        103.8919645,
        1.3140057
      ],
      [
        103.8919812,
        1.3142034
      ],
      [
        103.8920094,
        1.3144286
      ],
      [
        103.8920403,
        1.3146834
      ],
      [
        103.8920763,
        1.3148946
      ],
      [
        103.8920817,
        1.3149266
      ],
      [
        103.8921061,
        1.3150696
      ],
      [
        103.8921402,
        1.3152378
      ],
      [
        103.8921848,
        1.3154556
      ],
      [
        103.8922682,
        1.3157935
      ],
      [
        103.8922924,
        1.3159081
      ],
      [
        103.8923093,
        1.3160121
      ],
      [
        103.8923192,
        1.3162279
      ],
      [
        103.8923079,
        1.3164787
      ],
      [
        103.8922508,
        1.3167682
      ],
      [
        103.8922266,
        1.3169065
      ],
      [
        103.8923629,
        1.3169357
      ],
      [
        103.8924634,
        1.3169472
      ],
      [
        103.892712,
        1.3169828
      ],
      [
        103.8927954,
        1.316995
      ],
      [
        103.8928912,
        1.3170109
      ],
      [
        103.8931312,
        1.3170404
      ],
      [
        103.8933148,
        1.3170664
      ],
      [
        103.8933724,
        1.3170745
      ],
      [
        103.8935253,
        1.3170912
      ],
      [
        103.8936257,
        1.3171021
      ],
      [
        103.8936918,
        1.3171093
      ],
      [
        103.893709,
        1.3171129
      ],
      [
        103.8938035,
        1.3171273
      ],
      [
        103.8938368,
        1.3169836
      ],
      [
        103.8939433,
        1.3164974
      ],
      [
        103.8940891,
        1.3156053
      ],
      [
        103.8941159,
        1.31548
      ],
      [
        103.89414,
        1.3154001
      ],
      [
        103.8941662,
        1.3151241
      ],
      [
        103.8941784,
        1.3148103
      ],
      [
        103.894184,
        1.3145293
      ],
      [
        103.8941871,
        1.3143362
      ],
      [
        103.8941912,
        1.3140745
      ],
      [
        103.8941976,
        1.3138028
      ],
      [
        103.8942065,
        1.3134953
      ],
      [
        103.8942117,
        1.3131261
      ],
      [
        103.8941789,
        1.3130051
      ],
      [
        103.8941812,
        1.3124833
      ],
      [
        103.8941801,
        1.3125658
      ],
      [
        103.8941858,
        1.3127635
      ],
      [
        103.8941789,
        1.3130051
      ],
      [
        103.8941802,
        1.3123707
      ],
      [
        103.8941816,
        1.3124528
      ],
      [
        103.8941833,
        1.3122311
      ],
      [
        103.8941823,
        1.3122658
      ],
      [
        103.8941957,
        1.3117945
      ],
      [
        103.894193,
        1.3118899
      ],
      [
        103.8942029,
        1.3115388
      ],
      [
        103.8941996,
        1.3116559
      ],
      [
        103.8942107,
        1.3112659
      ],
      [
        103.8942047,
        1.3114774
      ],
      [
        103.8942038,
        1.3115078
      ],
      [
        103.894212,
        1.3111773
      ],
      [
        103.8942116,
        1.3112336
      ],
      [
        103.8942104,
        1.3110485
      ],
      [
        103.8942103,
        1.3106451
      ],
      [
        103.8942103,
        1.3107435
      ],
      [
        103.8942103,
        1.3106183
      ],
      [
        103.8942139,
        1.3104763
      ],
      [
        103.8942542,
        1.3102222
      ],
      [
        103.8942852,
        1.3100329
      ],
      [
        103.8943909,
        1.3097155
      ],
      [
        103.8944492,
        1.3096148
      ],
      [
        103.8944888,
        1.3095157
      ],
      [
        103.8945114,
        1.3094672
      ],
      [
        103.8945496,
        1.3093811
      ],
      [
        103.8946646,
        1.3091142
      ],
      [
        103.8947806,
        1.3088178
      ],
      [
        103.8947758,
        1.3087098
      ],
      [
        103.8947758,
        1.3087098
      ],
      [
        103.8948623,
        1.308528
      ],
      [
        103.8948348,
        1.3085804
      ],
      [
        103.8950336,
        1.3081988
      ],
      [
        103.8950054,
        1.3082536
      ],
      [
        103.8949624,
        1.3083372
      ],
      [
        103.8950768,
        1.3081214
      ],
      [
        103.8950507,
        1.3081657
      ],
      [
        103.8952318,
        1.3078506
      ],
      [
        103.8952292,
        1.3078551
      ],
      [
        103.8952396,
        1.3078369
      ],
      [
        103.8953345,
        1.3076547
      ],
      [
        103.8954168,
        1.3074549
      ],
      [
        103.8955053,
        1.3072051
      ],
      [
        103.8955201,
        1.307163
      ],
      [
        103.8958406,
        1.3063143
      ],
      [
        103.895787,
        1.3064738
      ],
      [
        103.8956821,
        1.3067397
      ],
      [
        103.896022,
        1.3058764
      ],
      [
        103.8962601,
        1.3051788
      ],
      [
        103.8963564,
        1.3048612
      ],
      [
        103.8964055,
        1.3047068
      ],
      [
        103.8965793,
        1.3041507
      ],
      [
        103.8966,
        1.3040971
      ],
      [
        103.8966313,
        1.3039995
      ],
      [
        103.8967259,
        1.3036951
      ],
      [
        103.8967551,
        1.3036018
      ],
      [
        103.8967962,
        1.3034778
      ],
      [
        103.8968134,
        1.3034157
      ],
      [
        103.8968921,
        1.3031646
      ],
      [
        103.8970011,
        1.3027285
      ],
      [
        103.8970113,
        1.3026841
      ],
      [
        103.8970619,
        1.302459
      ],
      [
        103.8971002,
        1.3022713
      ],
      [
        103.8971827,
        1.3022364
      ],
      [
        103.8972355,
        1.3022155
      ],
      [
        103.897406,
        1.3021533
      ],
      [
        103.8975631,
        1.3021406
      ],
      [
        103.8982278,
        1.3023025
      ],
      [
        103.8985261,
        1.302374
      ],
      [
        103.8987607,
        1.3024558
      ],
      [
        103.8996285,
        1.3028098
      ],
      [
        103.8998068,
        1.3028882
      ],
      [
        103.9001622,
        1.3030444
      ],
      [
        103.900373,
        1.3031381
      ],
      [
        103.9003922,
        1.3031466
      ],
      [
        103.9004716,
        1.3031802
      ],
      [
        103.9005215,
        1.3032038
      ],
      [
        103.900556,
        1.303121
      ],
      [
        103.9005719,
        1.303082
      ],
      [
        103.9006263,
        1.3029393
      ],
      [
        103.9006424,
        1.302898
      ],
      [
        103.9006931,
        1.30276
      ],
      [
        103.9008193,
        1.3024255
      ],
      [
        103.9008581,
        1.302327
      ],
      [
        103.9009286,
        1.3021479
      ],
      [
        103.9009625,
        1.3020619
      ],
      [
        103.9010052,
        1.3019751
      ],
      [
        103.9012141,
        1.301544
      ],
      [
        103.90131,
        1.3013638
      ],
      [
        103.9013174,
        1.3013507
      ],
      [
        103.9013242,
        1.3013388
      ],
      [
        103.9014484,
        1.3011046
      ],
      [
        103.901545,
        1.3009544
      ],
      [
        103.9016334,
        1.3008599
      ],
      [
        103.9018234,
        1.3007147
      ],
      [
        103.90193,
        1.3007341
      ],
      [
        103.9020373,
        1.3007183
      ],
      [
        103.9021337,
        1.3006689
      ],
      [
        103.9021979,
        1.300693
      ],
      [
        103.9022711,
        1.3007205
      ],
      [
        103.9023717,
        1.3007728
      ],
      [
        103.9026521,
        1.3009764
      ],
      [
        103.9028317,
        1.3011048
      ],
      [
        103.9033705,
        1.3015282
      ],
      [
        103.903468,
        1.3016048
      ],
      [
        103.9035465,
        1.3016585
      ],
      [
        103.9038309,
        1.3018606
      ],
      [
        103.904042,
        1.3020017
      ],
      [
        103.9046536,
        1.3023825
      ],
      [
        103.9049543,
        1.3025698
      ],
      [
        103.9053435,
        1.3028086
      ],
      [
        103.9053929,
        1.3028409
      ],
      [
        103.9055144,
        1.3029205
      ],
      [
        103.9055688,
        1.3029559
      ],
      [
        103.9060652,
        1.3032975
      ],
      [
        103.9064042,
        1.303578
      ],
      [
        103.9065518,
        1.3036818
      ],
      [
        103.906574,
        1.3036998
      ],
      [
        103.9066354,
        1.3037482
      ],
      [
        103.9067068,
        1.3038001
      ],
      [
        103.9068487,
        1.3038616
      ],
      [
        103.9070074,
        1.303975
      ],
      [
        103.9072901,
        1.3041647
      ],
      [
        103.9075188,
        1.304289
      ],
      [
        103.9077281,
        1.3044065
      ],
      [
        103.9078712,
        1.3044855
      ],
      [
        103.908002,
        1.3045639
      ],
      [
        103.908199,
        1.304652
      ],
      [
        103.9082653,
        1.3046852
      ],
      [
        103.9084121,
        1.3047612
      ],
      [
        103.9084902,
        1.304802
      ],
      [
        103.9085547,
        1.3048338
      ],
      [
        103.9086395,
        1.3048783
      ],
      [
        103.9091173,
        1.3051121
      ],
      [
        103.9092189,
        1.3051618
      ],
      [
        103.9094617,
        1.3052747
      ],
      [
        103.9096823,
        1.3053772
      ],
      [
        103.9098149,
        1.3054415
      ],
      [
        103.9099218,
        1.3054888
      ],
      [
        103.9100368,
        1.3055397
      ],
      [
        103.910132,
        1.3055611
      ],
      [
        103.9104015,
        1.3056728
      ],
      [
        103.9107762,
        1.3057893
      ],
      [
        103.9110559,
        1.3058628
      ],
      [
        103.9114362,
        1.3059497
      ],
      [
        103.9119476,
        1.3060694
      ],
      [
        103.9122487,
        1.3061448
      ],
      [
        103.9126383,
        1.3062366
      ],
      [
        103.9132507,
        1.3063806
      ],
      [
        103.9133551,
        1.3063974
      ],
      [
        103.9134691,
        1.3064283
      ],
      [
        103.9135246,
        1.3064442
      ],
      [
        103.9146271,
        1.3066938
      ],
      [
        103.9148363,
        1.3067448
      ],
      [
        103.9152977,
        1.306856
      ],
      [
        103.91546,
        1.3069016
      ],
      [
        103.9167447,
        1.3072234
      ],
      [
        103.9168681,
        1.3072462
      ],
      [
        103.9169513,
        1.3072663
      ],
      [
        103.9170746,
        1.3072918
      ],
      [
        103.9172168,
        1.3073106
      ],
      [
        103.9173283,
        1.3073311
      ],
      [
        103.918147,
        1.3074863
      ],
      [
        103.9184373,
        1.3075428
      ],
      [
        103.9187743,
        1.3075959
      ],
      [
        103.9198482,
        1.3077708
      ],
      [
        103.9203804,
        1.3078632
      ],
      [
        103.9217322,
        1.3081683
      ],
      [
        103.9224402,
        1.3083164
      ],
      [
        103.9227065,
        1.3083721
      ],
      [
        103.9231078,
        1.3084429
      ],
      [
        103.9233962,
        1.3084849
      ],
      [
        103.9237512,
        1.3085258
      ],
      [
        103.9240043,
        1.3085533
      ],
      [
        103.9245043,
        1.3086077
      ],
      [
        103.9245776,
        1.3086212
      ],
      [
        103.9246522,
        1.30864
      ],
      [
        103.9247348,
        1.3086639
      ],
      [
        103.925018,
        1.3087525
      ],
      [
        103.9252856,
        1.308837
      ],
      [
        103.9255815,
        1.308933
      ],
      [
        103.9258038,
        1.309007
      ],
      [
        103.9258892,
        1.3090378
      ],
      [
        103.9259834,
        1.3090716
      ],
      [
        103.9260113,
        1.3090801
      ],
      [
        103.9263541,
        1.3091986
      ],
      [
        103.9264495,
        1.309221
      ],
      [
        103.9265566,
        1.3092396
      ],
      [
        103.9267791,
        1.3092723
      ],
      [
        103.9270002,
        1.3093017
      ],
      [
        103.9277673,
        1.3093954
      ],
      [
        103.9278325,
        1.3094032
      ],
      [
        103.9280033,
        1.3094263
      ],
      [
        103.9281969,
        1.3094566
      ],
      [
        103.9282911,
        1.3094713
      ],
      [
        103.9283751,
        1.3094844
      ],
      [
        103.9286037,
        1.3095202
      ],
      [
        103.9286835,
        1.3095327
      ],
      [
        103.9287212,
        1.3095431
      ],
      [
        103.9287649,
        1.3095553
      ],
      [
        103.9288644,
        1.309583
      ],
      [
        103.9289646,
        1.3096109
      ],
      [
        103.9291276,
        1.3096661
      ],
      [
        103.9291524,
        1.3096745
      ],
      [
        103.9292593,
        1.3097104
      ],
      [
        103.9293982,
        1.309746
      ],
      [
        103.9295695,
        1.3098137
      ],
      [
        103.9297935,
        1.309876
      ],
      [
        103.9302005,
        1.3099991
      ],
      [
        103.9302787,
        1.3100227
      ],
      [
        103.930765,
        1.3102069
      ],
      [
        103.9309544,
        1.3102603
      ],
      [
        103.9310899,
        1.310302
      ],
      [
        103.9313045,
        1.3103679
      ],
      [
        103.9314969,
        1.3104382
      ],
      [
        103.9317183,
        1.3105055
      ],
      [
        103.9319126,
        1.3105679
      ],
      [
        103.9320961,
        1.3106317
      ],
      [
        103.9323024,
        1.3106928
      ],
      [
        103.932382,
        1.3107127
      ],
      [
        103.9325923,
        1.3107617
      ],
      [
        103.9327988,
        1.3108476
      ],
      [
        103.9329422,
        1.3109139
      ],
      [
        103.9332317,
        1.3110515
      ],
      [
        103.9337141,
        1.3112684
      ],
      [
        103.9341655,
        1.3114853
      ],
      [
        103.9342323,
        1.3115207
      ],
      [
        103.9342423,
        1.3115256
      ],
      [
        103.9342519,
        1.3115312
      ],
      [
        103.934261,
        1.3115377
      ],
      [
        103.9342696,
        1.3115448
      ],
      [
        103.9342734,
        1.3115486
      ],
      [
        103.9341013,
        1.3121397
      ],
      [
        103.9340503,
        1.312323
      ],
      [
        103.9338063,
        1.3132731
      ],
      [
        103.9337098,
        1.3136586
      ],
      [
        103.9336281,
        1.3140141
      ],
      [
        103.933615,
        1.3140901
      ],
      [
        103.9336046,
        1.3141374
      ],
      [
        103.9335975,
        1.3141696
      ],
      [
        103.9335866,
        1.3142211
      ],
      [
        103.9334025,
        1.3151018
      ],
      [
        103.933396,
        1.3151319
      ],
      [
        103.9333808,
        1.3152023
      ],
      [
        103.9332105,
        1.3159916
      ],
      [
        103.9331827,
        1.3161675
      ],
      [
        103.9331324,
        1.3164886
      ],
      [
        103.9330825,
        1.316806
      ],
      [
        103.933065,
        1.3169072
      ],
      [
        103.9329386,
        1.3178033
      ],
      [
        103.9329148,
        1.3179743
      ],
      [
        103.9328766,
        1.318241
      ],
      [
        103.932707,
        1.3185355
      ],
      [
        103.9326166,
        1.3186259
      ],
      [
        103.9325842,
        1.3186465
      ],
      [
        103.9323293,
        1.3187045
      ],
      [
        103.9320921,
        1.3186637
      ],
      [
        103.9312738,
        1.3185186
      ],
      [
        103.9306778,
        1.3184067
      ],
      [
        103.9304909,
        1.3183778
      ],
      [
        103.9303405,
        1.3183624
      ],
      [
        103.9301923,
        1.3183561
      ],
      [
        103.9300748,
        1.3183594
      ],
      [
        103.930041,
        1.3183613
      ],
      [
        103.9298691,
        1.3183813
      ],
      [
        103.9297044,
        1.3184114
      ],
      [
        103.9295473,
        1.3184528
      ],
      [
        103.9293731,
        1.3185054
      ],
      [
        103.9292064,
        1.3185729
      ],
      [
        103.9290527,
        1.3186519
      ],
      [
        103.9288941,
        1.3187434
      ],
      [
        103.9287227,
        1.3188615
      ],
      [
        103.9286293,
        1.3189387
      ],
      [
        103.9285385,
        1.3190203
      ],
      [
        103.9284531,
        1.3191072
      ],
      [
        103.9283708,
        1.3191942
      ],
      [
        103.9282708,
        1.3193175
      ],
      [
        103.9282368,
        1.3193668
      ],
      [
        103.9281737,
        1.319457
      ],
      [
        103.928158,
        1.319481
      ],
      [
        103.9281429,
        1.319505
      ],
      [
        103.9280843,
        1.319606
      ],
      [
        103.9280527,
        1.3196656
      ],
      [
        103.9280254,
        1.3197217
      ],
      [
        103.928,
        1.3197768
      ],
      [
        103.9279813,
        1.3198205
      ],
      [
        103.9279645,
        1.3198631
      ],
      [
        103.9279311,
        1.3199607
      ],
      [
        103.9279015,
        1.3200539
      ],
      [
        103.9278719,
        1.3201593
      ],
      [
        103.9278195,
        1.320435
      ],
      [
        103.9276385,
        1.3214126
      ],
      [
        103.9276046,
        1.3215968
      ],
      [
        103.9275472,
        1.3218863
      ],
      [
        103.927401,
        1.3226283
      ],
      [
        103.9273065,
        1.3230945
      ],
      [
        103.9272711,
        1.3233015
      ],
      [
        103.9272539,
        1.3233973
      ],
      [
        103.9272262,
        1.3236086
      ],
      [
        103.9272139,
        1.3237018
      ],
      [
        103.9271934,
        1.3238583
      ],
      [
        103.9270988,
        1.3245788
      ],
      [
        103.9270167,
        1.3251943
      ],
      [
        103.927008,
        1.3252704
      ],
      [
        103.9269974,
        1.3253553
      ],
      [
        103.9271353,
        1.3253656
      ],
      [
        103.9271946,
        1.3253698
      ],
      [
        103.9273465,
        1.3253795
      ],
      [
        103.9274482,
        1.3253853
      ],
      [
        103.9275428,
        1.3253862
      ],
      [
        103.9276252,
        1.3253822
      ],
      [
        103.9277196,
        1.3253771
      ],
      [
        103.9280581,
        1.3253459
      ],
      [
        103.9283411,
        1.325322
      ],
      [
        103.9284124,
        1.3253188
      ],
      [
        103.9284986,
        1.3253227
      ],
      [
        103.9286722,
        1.3253554
      ],
      [
        103.928857,
        1.3253939
      ],
      [
        103.9289667,
        1.3254191
      ],
      [
        103.9290742,
        1.3254496
      ],
      [
        103.9292107,
        1.3254998
      ],
      [
        103.9293081,
        1.3255439
      ],
      [
        103.929396,
        1.3255854
      ],
      [
        103.9295489,
        1.3256598
      ],
      [
        103.9295888,
        1.3255832
      ],
      [
        103.9296512,
        1.3254801
      ],
      [
        103.9297341,
        1.3252769
      ],
      [
        103.9298191,
        1.3249358
      ],
      [
        103.9298956,
        1.3246112
      ],
      [
        103.929609,
        1.3245425
      ],
      [
        103.9287434,
        1.3243349
      ]
    ]
  }
}