{
  "type": "Feature",
  "properties": {
    "relation": 1157078,
    "direction": "1",
    "fee": "yes",
    "from": "Boon Lay Interchange",
    "name": "Svc 198 (Boon Lay Interchange → Bukit Merah Interchange)",
    "name:en": "Svc 198 (Boon Lay Interchange → Bukit Merah Interchange)",
    "network": "Land Transport Authority",
    "network:short": "LTA",
    "network:wikidata": "Q3299279",
    "network:wikipedia": "en:Land Transport Authority",
    "operator": "SBS Transit",
    "operator:wikidata": "Q2661305",
    "operator:wikipedia": "en:SBS Transit",
    "public_transport:version": "2",
    "ref": "198",
    "route": "bus",
    "to": "Bukit Merah Interchange",
    "type": "route",
    "website": "https://www.sbstransit.com.sg/"
  },
  "geometry": {
    "type": "LineString",
    "coordinates": [
      [
        103.7062823,
        1.339383
      ],
      [
        103.7061361,
        1.3398039
      ],
      [
        103.7060279,
        1.3401151
      ],
      [
        103.706017,
        1.3401465
      ],
      [
        103.7059747,
        1.3402681
      ],
      [
        103.7059442,
        1.340356
      ],
      [
        103.7059209,
        1.3404229
      ],
      [
        103.7059492,
        1.3404611
      ],
      [
        103.7059639,
        1.3404872
      ],
      [
        103.7060186,
        1.3405605
      ],
      [
        103.7067996,
        1.3408454
      ],
      [
        103.7069161,
        1.3408885
      ],
      [
        103.7070207,
        1.3409305
      ],
      [
        103.7070541,
        1.3409445
      ],
      [
        103.7072021,
        1.341016
      ],
      [
        103.7073161,
        1.3411479
      ],
      [
        103.7074154,
        1.3412878
      ],
      [
        103.7074533,
        1.3413581
      ],
      [
        103.7076426,
        1.3416763
      ],
      [
        103.707764,
        1.3418543
      ],
      [
        103.7078216,
        1.3419154
      ],
      [
        103.7079782,
        1.3420747
      ],
      [
        103.7080502,
        1.3421483
      ],
      [
        103.7081055,
        1.3422218
      ],
      [
        103.7081483,
        1.3423096
      ],
      [
        103.7081498,
        1.3423451
      ],
      [
        103.7081674,
        1.3424894
      ],
      [
        103.708054,
        1.3426543
      ],
      [
        103.7076126,
        1.3432926
      ],
      [
        103.7074935,
        1.343453
      ],
      [
        103.7074543,
        1.3435138
      ],
      [
        103.7073035,
        1.343748
      ],
      [
        103.7071655,
        1.3439343
      ],
      [
        103.7071265,
        1.343993
      ],
      [
        103.7070847,
        1.3440562
      ],
      [
        103.7071803,
        1.3441324
      ],
      [
        103.7072364,
        1.344173
      ],
      [
        103.7074692,
        1.3443332
      ],
      [
        103.7079568,
        1.3446631
      ],
      [
        103.7082072,
        1.3448325
      ],
      [
        103.7086979,
        1.3451652
      ],
      [
        103.7088588,
        1.3452791
      ],
      [
        103.7091944,
        1.3455332
      ],
      [
        103.7092421,
        1.3455667
      ],
      [
        103.7093283,
        1.3456298
      ],
      [
        103.7093708,
        1.3456631
      ],
      [
        103.7096877,
        1.3458921
      ],
      [
        103.7098665,
        1.3460509
      ],
      [
        103.7100056,
        1.34624
      ],
      [
        103.7101422,
        1.346465
      ],
      [
        103.7102388,
        1.3466835
      ],
      [
        103.7102944,
        1.3468458
      ],
      [
        103.7103754,
        1.3472229
      ],
      [
        103.7105262,
        1.3479056
      ],
      [
        103.7105601,
        1.3480614
      ],
      [
        103.7106295,
        1.3482989
      ],
      [
        103.7107072,
        1.3484508
      ],
      [
        103.7107525,
        1.348522
      ],
      [
        103.7108184,
        1.3486155
      ],
      [
        103.7109603,
        1.3487489
      ],
      [
        103.7112423,
        1.3489255
      ],
      [
        103.7113453,
        1.3489891
      ],
      [
        103.7114174,
        1.3490348
      ],
      [
        103.7115218,
        1.3491129
      ],
      [
        103.7120241,
        1.3494635
      ],
      [
        103.7125347,
        1.3497962
      ],
      [
        103.7128051,
        1.3499839
      ],
      [
        103.7129845,
        1.3500892
      ],
      [
        103.7130506,
        1.3501336
      ],
      [
        103.7131252,
        1.3501983
      ],
      [
        103.71318,
        1.3501315
      ],
      [
        103.7132246,
        1.3500913
      ],
      [
        103.7133117,
        1.3500176
      ],
      [
        103.7136357,
        1.3497103
      ],
      [
        103.7138286,
        1.349532
      ],
      [
        103.7141857,
        1.3492024
      ],
      [
        103.7142672,
        1.3491512
      ],
      [
        103.7144264,
        1.3490966
      ],
      [
        103.7145633,
        1.3490937
      ],
      [
        103.7146908,
        1.3491269
      ],
      [
        103.7151307,
        1.349462
      ],
      [
        103.71536,
        1.3496264
      ],
      [
        103.7156797,
        1.3498225
      ],
      [
        103.7161284,
        1.3500487
      ],
      [
        103.7163984,
        1.3501823
      ],
      [
        103.7164428,
        1.3502043
      ],
      [
        103.7166785,
        1.3503006
      ],
      [
        103.7169486,
        1.3504165
      ],
      [
        103.7170794,
        1.3504726
      ],
      [
        103.7171315,
        1.350495
      ],
      [
        103.7172116,
        1.350524
      ],
      [
        103.7172496,
        1.3505399
      ],
      [
        103.7174873,
        1.3506139
      ],
      [
        103.7176002,
        1.3506512
      ],
      [
        103.7177148,
        1.350689
      ],
      [
        103.717903,
        1.3507277
      ],
      [
        103.7180454,
        1.350756
      ],
      [
        103.7182908,
        1.3507929
      ],
      [
        103.7187497,
        1.3508513
      ],
      [
        103.7190877,
        1.3508943
      ],
      [
        103.7191444,
        1.3509015
      ],
      [
        103.719247,
        1.3509115
      ],
      [
        103.7199501,
        1.3510059
      ],
      [
        103.7205836,
        1.3510704
      ],
      [
        103.7208777,
        1.3510992
      ],
      [
        103.7210199,
        1.3511106
      ],
      [
        103.7215495,
        1.3511178
      ],
      [
        103.7217113,
        1.35112
      ],
      [
        103.7219971,
        1.351104
      ],
      [
        103.7223047,
        1.3510854
      ],
      [
        103.722451,
        1.3510765
      ],
      [
        103.7226378,
        1.3510538
      ],
      [
        103.7226951,
        1.3510469
      ],
      [
        103.7229356,
        1.351
      ],
      [
        103.7231945,
        1.3509431
      ],
      [
        103.723473,
        1.350871
      ],
      [
        103.723788,
        1.3507756
      ],
      [
        103.7241166,
        1.350668
      ],
      [
        103.724288,
        1.3506065
      ],
      [
        103.7247897,
        1.3504023
      ],
      [
        103.7249225,
        1.3503492
      ],
      [
        103.7250582,
        1.3503003
      ],
      [
        103.7251539,
        1.3502681
      ],
      [
        103.7253536,
        1.3501987
      ],
      [
        103.7257236,
        1.3500832
      ],
      [
        103.7258381,
        1.3500471
      ],
      [
        103.7259397,
        1.3500263
      ],
      [
        103.7262674,
        1.349959
      ],
      [
        103.7267896,
        1.3499281
      ],
      [
        103.7270695,
        1.349938
      ],
      [
        103.7275214,
        1.3499553
      ],
      [
        103.7278771,
        1.3499742
      ],
      [
        103.7278879,
        1.349974
      ],
      [
        103.7281393,
        1.3499829
      ],
      [
        103.7282043,
        1.3499837
      ],
      [
        103.7282917,
        1.3499811
      ],
      [
        103.728355,
        1.3499813
      ],
      [
        103.7284927,
        1.3499818
      ],
      [
        103.7291832,
        1.3499764
      ],
      [
        103.7294266,
        1.3499516
      ],
      [
        103.7294917,
        1.3499468
      ],
      [
        103.7297458,
        1.3498973
      ],
      [
        103.7300201,
        1.3498088
      ],
      [
        103.7303003,
        1.3496893
      ],
      [
        103.730517,
        1.34954
      ],
      [
        103.730664,
        1.3494322
      ],
      [
        103.7306917,
        1.3494119
      ],
      [
        103.7307651,
        1.3493484
      ],
      [
        103.730894,
        1.3491998
      ],
      [
        103.7310119,
        1.3490423
      ],
      [
        103.7310432,
        1.3489934
      ],
      [
        103.731118,
        1.3488766
      ],
      [
        103.7311928,
        1.3487523
      ],
      [
        103.7312586,
        1.3486231
      ],
      [
        103.7312941,
        1.3485452
      ],
      [
        103.7313706,
        1.3483682
      ],
      [
        103.731453,
        1.3480571
      ],
      [
        103.7314653,
        1.347994
      ],
      [
        103.7314702,
        1.3479685
      ],
      [
        103.7314812,
        1.3479116
      ],
      [
        103.7314981,
        1.3478202
      ],
      [
        103.7315029,
        1.3477878
      ],
      [
        103.7315497,
        1.3475423
      ],
      [
        103.7315691,
        1.347435
      ],
      [
        103.731608,
        1.3472366
      ],
      [
        103.7316327,
        1.3470918
      ],
      [
        103.7316884,
        1.346766
      ],
      [
        103.7317355,
        1.3465041
      ],
      [
        103.7317514,
        1.346416
      ],
      [
        103.7317671,
        1.3463532
      ],
      [
        103.7318319,
        1.3461117
      ],
      [
        103.7319137,
        1.3459066
      ],
      [
        103.7319869,
        1.3457611
      ],
      [
        103.7321068,
        1.3455821
      ],
      [
        103.7322369,
        1.3454118
      ],
      [
        103.7324502,
        1.345192
      ],
      [
        103.7326433,
        1.3450552
      ],
      [
        103.7327197,
        1.3450056
      ],
      [
        103.7327441,
        1.3449927
      ],
      [
        103.73289,
        1.3449158
      ],
      [
        103.7330872,
        1.3448313
      ],
      [
        103.7333487,
        1.3447415
      ],
      [
        103.7334832,
        1.3446895
      ],
      [
        103.7335206,
        1.344675
      ],
      [
        103.7336451,
        1.3446269
      ],
      [
        103.7336914,
        1.3446074
      ],
      [
        103.7337538,
        1.3445817
      ],
      [
        103.7338717,
        1.3445364
      ],
      [
        103.7341842,
        1.344409
      ],
      [
        103.7344138,
        1.3442983
      ],
      [
        103.7348557,
        1.3440443
      ],
      [
        103.7350398,
        1.3439438
      ],
      [
        103.7353486,
        1.3437703
      ],
      [
        103.7355426,
        1.3436581
      ],
      [
        103.7355971,
        1.3436265
      ],
      [
        103.7359903,
        1.343393
      ],
      [
        103.7360713,
        1.3433458
      ],
      [
        103.7362216,
        1.3432624
      ],
      [
        103.7362008,
        1.3431865
      ],
      [
        103.7361808,
        1.3431098
      ],
      [
        103.7361155,
        1.3428978
      ],
      [
        103.7360179,
        1.3426599
      ],
      [
        103.7357911,
        1.3421904
      ],
      [
        103.7355065,
        1.3417038
      ],
      [
        103.7353738,
        1.3415183
      ],
      [
        103.73524,
        1.341324
      ],
      [
        103.735052,
        1.3410872
      ],
      [
        103.7350281,
        1.3410589
      ],
      [
        103.7349543,
        1.3409582
      ],
      [
        103.7348989,
        1.3408793
      ],
      [
        103.7347255,
        1.3406499
      ],
      [
        103.7346737,
        1.3405777
      ],
      [
        103.7344592,
        1.340269
      ],
      [
        103.7343425,
        1.3400368
      ],
      [
        103.7342564,
        1.3398494
      ],
      [
        103.734196,
        1.3396306
      ],
      [
        103.7341717,
        1.3395073
      ],
      [
        103.7341333,
        1.3393359
      ],
      [
        103.7340957,
        1.3390838
      ],
      [
        103.7340904,
        1.3387728
      ],
      [
        103.7340957,
        1.3385958
      ],
      [
        103.7341085,
        1.338489
      ],
      [
        103.7341151,
        1.338363
      ],
      [
        103.7341333,
        1.3381668
      ],
      [
        103.7341864,
        1.3379311
      ],
      [
        103.734262,
        1.3377216
      ],
      [
        103.7343476,
        1.3374749
      ],
      [
        103.7344506,
        1.3372919
      ],
      [
        103.7344924,
        1.3372068
      ],
      [
        103.7346265,
        1.3369655
      ],
      [
        103.7347982,
        1.3366598
      ],
      [
        103.7349166,
        1.3364791
      ],
      [
        103.735002,
        1.3363487
      ],
      [
        103.7351428,
        1.3361181
      ],
      [
        103.7353671,
        1.3358095
      ],
      [
        103.7356788,
        1.3354195
      ],
      [
        103.7359676,
        1.3350938
      ],
      [
        103.7362681,
        1.3347774
      ],
      [
        103.7365048,
        1.3345397
      ],
      [
        103.7367411,
        1.3343077
      ],
      [
        103.7369145,
        1.3341445
      ],
      [
        103.7371386,
        1.3339373
      ],
      [
        103.7373278,
        1.3337555
      ],
      [
        103.737418,
        1.3336763
      ],
      [
        103.7375078,
        1.3335974
      ],
      [
        103.7377178,
        1.3334061
      ],
      [
        103.7377482,
        1.3333787
      ],
      [
        103.7378592,
        1.3332945
      ],
      [
        103.7378837,
        1.3332778
      ],
      [
        103.738162,
        1.3330687
      ],
      [
        103.7382883,
        1.3329796
      ],
      [
        103.7386926,
        1.3327277
      ],
      [
        103.7391982,
        1.3323792
      ],
      [
        103.7392497,
        1.3323427
      ],
      [
        103.7393443,
        1.3322757
      ],
      [
        103.7395886,
        1.33211
      ],
      [
        103.7398602,
        1.3319
      ],
      [
        103.7400368,
        1.3317789
      ],
      [
        103.7401888,
        1.3316756
      ],
      [
        103.7402715,
        1.331618
      ],
      [
        103.7403489,
        1.3315642
      ],
      [
        103.7406956,
        1.3313333
      ],
      [
        103.7409651,
        1.3311564
      ],
      [
        103.7410334,
        1.3311099
      ],
      [
        103.7411089,
        1.3310618
      ],
      [
        103.7413077,
        1.3309269
      ],
      [
        103.741866,
        1.3305752
      ],
      [
        103.7422493,
        1.3303053
      ],
      [
        103.7426228,
        1.3300396
      ],
      [
        103.7427027,
        1.3299878
      ],
      [
        103.7433876,
        1.3295001
      ],
      [
        103.7435062,
        1.3294584
      ],
      [
        103.7436162,
        1.3294008
      ],
      [
        103.74369,
        1.3293391
      ],
      [
        103.7441432,
        1.3289192
      ],
      [
        103.7444603,
        1.3286277
      ],
      [
        103.7445429,
        1.3285517
      ],
      [
        103.7446328,
        1.328471
      ],
      [
        103.7447393,
        1.3283679
      ],
      [
        103.7450337,
        1.328052
      ],
      [
        103.7450968,
        1.3279822
      ],
      [
        103.7451638,
        1.3278965
      ],
      [
        103.7452094,
        1.3278294
      ],
      [
        103.7455031,
        1.3272944
      ],
      [
        103.7455796,
        1.3271282
      ],
      [
        103.7456748,
        1.3268533
      ],
      [
        103.7457257,
        1.326679
      ],
      [
        103.7457913,
        1.3262576
      ],
      [
        103.7458128,
        1.326059
      ],
      [
        103.7458207,
        1.3259334
      ],
      [
        103.7458384,
        1.3255568
      ],
      [
        103.7458613,
        1.3251734
      ],
      [
        103.7458791,
        1.3243114
      ],
      [
        103.7458875,
        1.3242032
      ],
      [
        103.7458987,
        1.324121
      ],
      [
        103.7459302,
        1.3240068
      ],
      [
        103.7459889,
        1.3238883
      ],
      [
        103.7461766,
        1.3236843
      ],
      [
        103.7462491,
        1.3236542
      ],
      [
        103.7466015,
        1.3235202
      ],
      [
        103.7470042,
        1.3233953
      ],
      [
        103.7472763,
        1.3233327
      ],
      [
        103.7473511,
        1.3233129
      ],
      [
        103.7477822,
        1.3231991
      ],
      [
        103.747933,
        1.3231572
      ],
      [
        103.7479918,
        1.3231409
      ],
      [
        103.748732,
        1.3229291
      ],
      [
        103.7488073,
        1.3229091
      ],
      [
        103.7488572,
        1.3228968
      ],
      [
        103.7490354,
        1.3228485
      ],
      [
        103.7503707,
        1.3224167
      ],
      [
        103.7508864,
        1.3222673
      ],
      [
        103.7515886,
        1.3220687
      ],
      [
        103.7522281,
        1.3218516
      ],
      [
        103.753074,
        1.3215774
      ],
      [
        103.7535744,
        1.3214069
      ],
      [
        103.7541684,
        1.3212829
      ],
      [
        103.7544272,
        1.3211917
      ],
      [
        103.7547209,
        1.3210094
      ],
      [
        103.7547661,
        1.3209718
      ],
      [
        103.7549931,
        1.3207828
      ],
      [
        103.755264,
        1.3204731
      ],
      [
        103.7554366,
        1.3202101
      ],
      [
        103.7559942,
        1.3195347
      ],
      [
        103.7570265,
        1.3183504
      ],
      [
        103.7571023,
        1.3182697
      ],
      [
        103.7574457,
        1.3178272
      ],
      [
        103.7576469,
        1.3175914
      ],
      [
        103.7580642,
        1.3171499
      ],
      [
        103.7583174,
        1.3168514
      ],
      [
        103.7586929,
        1.316426
      ],
      [
        103.759003,
        1.3160748
      ],
      [
        103.7591006,
        1.3160389
      ],
      [
        103.7591424,
        1.3160127
      ],
      [
        103.7592852,
        1.3158703
      ],
      [
        103.7596287,
        1.3155334
      ],
      [
        103.7603376,
        1.3147365
      ],
      [
        103.7606154,
        1.314447
      ],
      [
        103.7610186,
        1.3140144
      ],
      [
        103.7611182,
        1.3139076
      ],
      [
        103.7614853,
        1.3135137
      ],
      [
        103.7614896,
        1.313509
      ],
      [
        103.7616011,
        1.3133994
      ],
      [
        103.7616983,
        1.3132943
      ],
      [
        103.7622011,
        1.3126855
      ],
      [
        103.7629676,
        1.3119128
      ],
      [
        103.7630992,
        1.3117801
      ],
      [
        103.7634377,
        1.3114389
      ],
      [
        103.7634891,
        1.311387
      ],
      [
        103.7635224,
        1.3113534
      ],
      [
        103.7636281,
        1.3112469
      ],
      [
        103.7642431,
        1.3106253
      ],
      [
        103.7644769,
        1.3103902
      ],
      [
        103.7645423,
        1.3103243
      ],
      [
        103.7649619,
        1.3098722
      ],
      [
        103.7650808,
        1.3098181
      ],
      [
        103.7654747,
        1.3094132
      ],
      [
        103.765769,
        1.3090455
      ],
      [
        103.7657744,
        1.3090388
      ],
      [
        103.7659762,
        1.3087677
      ],
      [
        103.766141,
        1.3085172
      ],
      [
        103.7663724,
        1.3081653
      ],
      [
        103.7664666,
        1.3080222
      ],
      [
        103.7666731,
        1.3076926
      ],
      [
        103.7668766,
        1.3074282
      ],
      [
        103.7670838,
        1.3071277
      ],
      [
        103.7672827,
        1.3069191
      ],
      [
        103.7676635,
        1.3065812
      ],
      [
        103.7680884,
        1.3062458
      ],
      [
        103.7686225,
        1.3058122
      ],
      [
        103.768715,
        1.3057908
      ],
      [
        103.7687405,
        1.3057821
      ],
      [
        103.7687947,
        1.3057633
      ],
      [
        103.7688263,
        1.3057459
      ],
      [
        103.7691416,
        1.3055346
      ],
      [
        103.7693139,
        1.305441
      ],
      [
        103.7694722,
        1.3053499
      ],
      [
        103.769637,
        1.305241
      ],
      [
        103.7698313,
        1.3051268
      ],
      [
        103.770373,
        1.3048283
      ],
      [
        103.7709965,
        1.3044468
      ],
      [
        103.7710169,
        1.3044343
      ],
      [
        103.7714014,
        1.3042495
      ],
      [
        103.771762,
        1.30407
      ],
      [
        103.7719765,
        1.303916
      ],
      [
        103.7733402,
        1.3032496
      ],
      [
        103.7735031,
        1.3031694
      ],
      [
        103.7740223,
        1.3028498
      ],
      [
        103.7751878,
        1.3021757
      ],
      [
        103.776593,
        1.3013621
      ],
      [
        103.7779648,
        1.3005578
      ],
      [
        103.7781587,
        1.3004357
      ],
      [
        103.7782637,
        1.3003696
      ],
      [
        103.7786639,
        1.3001207
      ],
      [
        103.778895,
        1.2999762
      ],
      [
        103.7793839,
        1.2996721
      ],
      [
        103.7795213,
        1.2995891
      ],
      [
        103.7805883,
        1.2989448
      ],
      [
        103.7810213,
        1.2987048
      ],
      [
        103.7812262,
        1.2985917
      ],
      [
        103.7818516,
        1.2982483
      ],
      [
        103.7823947,
        1.2979385
      ],
      [
        103.783111,
        1.2975197
      ],
      [
        103.7835041,
        1.297224
      ],
      [
        103.7836355,
        1.2971897
      ],
      [
        103.7836642,
        1.2971804
      ],
      [
        103.7841542,
        1.2967837
      ],
      [
        103.7842867,
        1.2966743
      ],
      [
        103.7845783,
        1.2963651
      ],
      [
        103.7846646,
        1.2962688
      ],
      [
        103.7849631,
        1.2959563
      ],
      [
        103.7851413,
        1.2957979
      ],
      [
        103.7853697,
        1.2956499
      ],
      [
        103.7854437,
        1.2956459
      ],
      [
        103.7855377,
        1.2956684
      ],
      [
        103.7855949,
        1.2957119
      ],
      [
        103.7856296,
        1.2957383
      ],
      [
        103.7856658,
        1.2958113
      ],
      [
        103.7856915,
        1.2961
      ],
      [
        103.7856602,
        1.2964808
      ],
      [
        103.785621,
        1.2969304
      ],
      [
        103.7856089,
        1.296997
      ],
      [
        103.7856054,
        1.2970196
      ],
      [
        103.7855387,
        1.2974201
      ],
      [
        103.7854278,
        1.2979153
      ],
      [
        103.7854184,
        1.2979572
      ],
      [
        103.785375,
        1.2981911
      ],
      [
        103.7853227,
        1.2985314
      ],
      [
        103.7853193,
        1.2987699
      ],
      [
        103.7853441,
        1.2990114
      ],
      [
        103.7853808,
        1.2992781
      ],
      [
        103.7853957,
        1.2993394
      ],
      [
        103.7854078,
        1.2993846
      ],
      [
        103.785436,
        1.2994958
      ],
      [
        103.7854598,
        1.2995626
      ],
      [
        103.785482,
        1.2996247
      ],
      [
        103.7856019,
        1.2999118
      ],
      [
        103.7856821,
        1.3000725
      ],
      [
        103.7856988,
        1.3001059
      ],
      [
        103.7857701,
        1.300222
      ],
      [
        103.785828,
        1.3003268
      ],
      [
        103.7858294,
        1.3003291
      ],
      [
        103.7861596,
        1.3007869
      ],
      [
        103.7864157,
        1.3011152
      ],
      [
        103.7865035,
        1.3012436
      ],
      [
        103.7865373,
        1.301301
      ],
      [
        103.7866262,
        1.3014525
      ],
      [
        103.7866697,
        1.3015594
      ],
      [
        103.786758,
        1.3017783
      ],
      [
        103.7868439,
        1.3020344
      ],
      [
        103.7870277,
        1.302756
      ],
      [
        103.7870828,
        1.302927
      ],
      [
        103.7871882,
        1.3031713
      ],
      [
        103.7872802,
        1.3033171
      ],
      [
        103.7873629,
        1.3034479
      ],
      [
        103.7873995,
        1.3034966
      ],
      [
        103.7874542,
        1.3035815
      ],
      [
        103.7874747,
        1.3036224
      ],
      [
        103.7875845,
        1.3037644
      ],
      [
        103.7877256,
        1.3039009
      ],
      [
        103.7879495,
        1.3041139
      ],
      [
        103.7881747,
        1.3042696
      ],
      [
        103.7885188,
        1.3044998
      ],
      [
        103.7886541,
        1.3045917
      ],
      [
        103.7894153,
        1.3050712
      ],
      [
        103.7894988,
        1.3051324
      ],
      [
        103.789814,
        1.3053756
      ],
      [
        103.7898591,
        1.3054104
      ],
      [
        103.7899645,
        1.3055008
      ],
      [
        103.7899989,
        1.3055427
      ],
      [
        103.7900435,
        1.3055972
      ],
      [
        103.7901287,
        1.3057013
      ],
      [
        103.7902531,
        1.3058532
      ],
      [
        103.7902976,
        1.3059124
      ],
      [
        103.790381,
        1.3060161
      ],
      [
        103.7905728,
        1.306312
      ],
      [
        103.7907937,
        1.3067838
      ],
      [
        103.7908184,
        1.3068393
      ],
      [
        103.7908872,
        1.3070194
      ],
      [
        103.7909246,
        1.3071293
      ],
      [
        103.7909677,
        1.3072592
      ],
      [
        103.7910475,
        1.3075056
      ],
      [
        103.7910609,
        1.3075506
      ],
      [
        103.7911134,
        1.3077159
      ],
      [
        103.7911254,
        1.3077572
      ],
      [
        103.791148,
        1.3078305
      ],
      [
        103.7911613,
        1.307875
      ],
      [
        103.7911834,
        1.3079528
      ],
      [
        103.7912307,
        1.3079377
      ],
      [
        103.7912672,
        1.3079254
      ],
      [
        103.7913944,
        1.3078821
      ],
      [
        103.7914541,
        1.3078591
      ],
      [
        103.7915552,
        1.3078189
      ],
      [
        103.7917538,
        1.3077336
      ],
      [
        103.7919007,
        1.3076668
      ],
      [
        103.7920549,
        1.3075958
      ],
      [
        103.7922098,
        1.3075107
      ],
      [
        103.7923647,
        1.3074255
      ],
      [
        103.7924962,
        1.307337
      ],
      [
        103.7929728,
        1.306999
      ],
      [
        103.7931796,
        1.3068668
      ],
      [
        103.7932572,
        1.3068172
      ],
      [
        103.793291,
        1.3067955
      ],
      [
        103.7934879,
        1.3066693
      ],
      [
        103.7935629,
        1.3066256
      ],
      [
        103.7935907,
        1.3066088
      ],
      [
        103.7937549,
        1.3065096
      ],
      [
        103.7938153,
        1.3064685
      ],
      [
        103.7941097,
        1.3062551
      ],
      [
        103.7943029,
        1.3061066
      ],
      [
        103.7945182,
        1.3059192
      ],
      [
        103.7945981,
        1.3058511
      ],
      [
        103.7948618,
        1.3056192
      ],
      [
        103.7951301,
        1.3053844
      ],
      [
        103.7952233,
        1.3053029
      ],
      [
        103.7962602,
        1.3044024
      ],
      [
        103.7965643,
        1.3041383
      ],
      [
        103.7966929,
        1.3040294
      ],
      [
        103.7969459,
        1.3038151
      ],
      [
        103.7971152,
        1.3036717
      ],
      [
        103.7971497,
        1.3036425
      ],
      [
        103.7974755,
        1.3033663
      ],
      [
        103.7979614,
        1.3029248
      ],
      [
        103.7983168,
        1.3026093
      ],
      [
        103.7988657,
        1.3021111
      ],
      [
        103.7991269,
        1.3018663
      ],
      [
        103.7992102,
        1.3017925
      ],
      [
        103.7995837,
        1.3014524
      ],
      [
        103.7997642,
        1.3012825
      ],
      [
        103.8001275,
        1.3009811
      ],
      [
        103.8002752,
        1.3008642
      ],
      [
        103.8003638,
        1.3007946
      ],
      [
        103.800715,
        1.3004971
      ],
      [
        103.8007902,
        1.3004411
      ],
      [
        103.8010435,
        1.3002279
      ],
      [
        103.8009799,
        1.2999419
      ],
      [
        103.8009518,
        1.2998102
      ],
      [
        103.8008998,
        1.299571
      ],
      [
        103.8006898,
        1.2986682
      ],
      [
        103.8006533,
        1.2985111
      ],
      [
        103.8006237,
        1.2983824
      ],
      [
        103.8005344,
        1.2979941
      ],
      [
        103.8004623,
        1.2977574
      ],
      [
        103.8003772,
        1.2974866
      ],
      [
        103.8002608,
        1.2972064
      ],
      [
        103.8000837,
        1.2968822
      ],
      [
        103.7996603,
        1.2959364
      ],
      [
        103.7995911,
        1.2957818
      ],
      [
        103.799483,
        1.2954889
      ],
      [
        103.7994275,
        1.2953339
      ],
      [
        103.7994048,
        1.2952384
      ],
      [
        103.7993572,
        1.2950381
      ],
      [
        103.7993022,
        1.2948066
      ],
      [
        103.7992772,
        1.294078
      ],
      [
        103.7992799,
        1.2938072
      ],
      [
        103.7992965,
        1.293665
      ],
      [
        103.7993303,
        1.2935012
      ],
      [
        103.7993759,
        1.2933517
      ],
      [
        103.7994384,
        1.2931844
      ],
      [
        103.7995012,
        1.2930426
      ],
      [
        103.7995195,
        1.2930011
      ],
      [
        103.7998727,
        1.2923694
      ],
      [
        103.7999162,
        1.2922967
      ],
      [
        103.8000864,
        1.2920121
      ],
      [
        103.8001675,
        1.291909
      ],
      [
        103.8001884,
        1.2918864
      ],
      [
        103.8002552,
        1.2918074
      ],
      [
        103.8003674,
        1.2916715
      ],
      [
        103.8004752,
        1.2914991
      ],
      [
        103.8005873,
        1.2913867
      ],
      [
        103.8006908,
        1.2912855
      ],
      [
        103.8007608,
        1.2912171
      ],
      [
        103.8008213,
        1.291158
      ],
      [
        103.8009473,
        1.2910262
      ],
      [
        103.8011415,
        1.2908384
      ],
      [
        103.8012401,
        1.290743
      ],
      [
        103.8013195,
        1.2906663
      ],
      [
        103.801535,
        1.2904579
      ],
      [
        103.8016322,
        1.290364
      ],
      [
        103.8017796,
        1.2902214
      ],
      [
        103.8023579,
        1.2896742
      ],
      [
        103.8025591,
        1.2894611
      ],
      [
        103.8027059,
        1.2893167
      ],
      [
        103.8029346,
        1.2890923
      ],
      [
        103.8029985,
        1.2890259
      ],
      [
        103.8032129,
        1.2888152
      ],
      [
        103.8032949,
        1.2887324
      ],
      [
        103.8033232,
        1.2887031
      ],
      [
        103.8037132,
        1.2883599
      ],
      [
        103.8039852,
        1.2880873
      ],
      [
        103.8041258,
        1.287949
      ],
      [
        103.8043876,
        1.2876792
      ],
      [
        103.8044049,
        1.2876667
      ],
      [
        103.8045282,
        1.2875458
      ],
      [
        103.8045936,
        1.2874745
      ],
      [
        103.8048449,
        1.2872277
      ],
      [
        103.8050076,
        1.2870533
      ],
      [
        103.8051194,
        1.2869389
      ],
      [
        103.8052783,
        1.2868415
      ],
      [
        103.805428,
        1.2867565
      ],
      [
        103.8056021,
        1.286689
      ],
      [
        103.8056995,
        1.2866578
      ],
      [
        103.8061012,
        1.2865293
      ],
      [
        103.806278,
        1.2864979
      ],
      [
        103.8065958,
        1.2864421
      ],
      [
        103.8067916,
        1.2864186
      ],
      [
        103.8072837,
        1.2863602
      ],
      [
        103.8073127,
        1.2863574
      ],
      [
        103.8075308,
        1.2863355
      ],
      [
        103.8075507,
        1.2863342
      ],
      [
        103.8078377,
        1.2863155
      ],
      [
        103.8080757,
        1.2862854
      ],
      [
        103.8083343,
        1.2862578
      ],
      [
        103.8085207,
        1.2862338
      ],
      [
        103.8086759,
        1.286215
      ],
      [
        103.808955,
        1.28618
      ],
      [
        103.8090958,
        1.2861618
      ],
      [
        103.8091608,
        1.2861576
      ],
      [
        103.8097275,
        1.2860866
      ],
      [
        103.810051,
        1.2860364
      ],
      [
        103.8101535,
        1.286021
      ],
      [
        103.8102631,
        1.286006
      ],
      [
        103.8103705,
        1.2859912
      ],
      [
        103.8108055,
        1.2859227
      ],
      [
        103.8111858,
        1.2858611
      ],
      [
        103.8114085,
        1.2858118
      ],
      [
        103.8116447,
        1.2857526
      ],
      [
        103.8124402,
        1.285542
      ],
      [
        103.8133569,
        1.2852994
      ],
      [
        103.8134782,
        1.2852673
      ],
      [
        103.8135749,
        1.2852417
      ],
      [
        103.8140859,
        1.2851059
      ],
      [
        103.8143455,
        1.2850358
      ],
      [
        103.8143204,
        1.2849468
      ],
      [
        103.8142992,
        1.2848716
      ],
      [
        103.8142606,
        1.2847353
      ],
      [
        103.8142244,
        1.2846071
      ],
      [
        103.8141823,
        1.284458
      ],
      [
        103.8141372,
        1.2842984
      ],
      [
        103.8141087,
        1.2841975
      ],
      [
        103.8141051,
        1.2841796
      ],
      [
        103.8140945,
        1.2840819
      ],
      [
        103.8141228,
        1.2840029
      ],
      [
        103.8141858,
        1.2839298
      ],
      [
        103.8144297,
        1.2837963
      ],
      [
        103.8146779,
        1.2836657
      ],
      [
        103.8147522,
        1.2836198
      ],
      [
        103.8148157,
        1.2835843
      ],
      [
        103.8150519,
        1.283452
      ],
      [
        103.8150636,
        1.2834455
      ],
      [
        103.8152664,
        1.2833211
      ],
      [
        103.8153635,
        1.2832669
      ],
      [
        103.8155328,
        1.2831724
      ],
      [
        103.8156445,
        1.2831222
      ],
      [
        103.8157267,
        1.2830928
      ],
      [
        103.8158588,
        1.2830615
      ],
      [
        103.8159263,
        1.2830471
      ],
      [
        103.8159712,
        1.2830522
      ],
      [
        103.8159971,
        1.2830447
      ],
      [
        103.8161369,
        1.2830063
      ],
      [
        103.8171278,
        1.2827344
      ],
      [
        103.8172058,
        1.2827139
      ],
      [
        103.8173041,
        1.282689
      ],
      [
        103.8172953,
        1.2826542
      ],
      [
        103.817127,
        1.2820726
      ],
      [
        103.8170791,
        1.2819092
      ],
      [
        103.8169997,
        1.2816264
      ],
      [
        103.8170876,
        1.2815611
      ],
      [
        103.8171419,
        1.2815535
      ],
      [
        103.8171903,
        1.2815864
      ],
      [
        103.8174539,
        1.282559
      ],
      [
        103.8174539,
        1.2826175
      ]
    ]
  }
}