{
  "type": "Feature",
  "properties": {
    "relation": 12980616,
    "direction": "1",
    "fee": "yes",
    "from": "Before Lorong 18 Geylang",
    "name": "Svc 21A (Before Lorong 18 Geylang → Before Tai Hoe Hotel)",
    "network": "Land Transport Authority",
    "network:short": "LTA",
    "network:wikidata": "Q3299279",
    "network:wikipedia": "en:Land Transport Authority",
    "operator": "SBS Transit",
    "operator:wikidata": "Q2661305",
    "operator:wikipedia": "en:SBS Transit",
    "public_transport:version": "2",
    "ref": "21A",
    "route": "bus",
    "to": "Before Tai Hoe Hotel",
    "type": "route",
    "website": "https://www.sbstransit.com.sg/"
  },
  "geometry": {
    "type": "LineString",
    "coordinates": [
      [
        103.8810546,
        1.3128888
      ],
      [
        103.8808962,
        1.3128601
      ],
      [
        103.8808105,
        1.3128465
      ],
      [
        103.8805789,
        1.3128031
      ],
      [
        103.8804629,
        1.3127885
      ],
      [
        103.8804075,
        1.3127815
      ],
      [
        103.8802562,
        1.3127624
      ],
      [
        103.8801414,
        1.312746
      ],
      [
        103.8800481,
        1.3127326
      ],
      [
        103.8800059,
        1.3127292
      ],
      [
        103.8798386,
        1.3127085
      ],
      [
        103.8797929,
        1.3127014
      ],
      [
        103.8796451,
        1.3126772
      ],
      [
        103.8795257,
        1.3126575
      ],
      [
        103.8793401,
        1.3126304
      ],
      [
        103.8792362,
        1.3126165
      ],
      [
        103.879051,
        1.3125918
      ],
      [
        103.8789066,
        1.3125725
      ],
      [
        103.8785991,
        1.3125312
      ],
      [
        103.8784886,
        1.3125163
      ],
      [
        103.878305,
        1.3124802
      ],
      [
        103.8781279,
        1.3124454
      ],
      [
        103.8777617,
        1.3123795
      ],
      [
        103.8776146,
        1.3123476
      ],
      [
        103.8774963,
        1.3123219
      ],
      [
        103.8773256,
        1.3122888
      ],
      [
        103.8772165,
        1.3122642
      ],
      [
        103.8770118,
        1.312212
      ],
      [
        103.8769515,
        1.3121949
      ],
      [
        103.8768941,
        1.3121783
      ],
      [
        103.8767416,
        1.3121205
      ],
      [
        103.8766575,
        1.3120913
      ],
      [
        103.8766213,
        1.3120787
      ],
      [
        103.8763648,
        1.3119831
      ],
      [
        103.8762829,
        1.3119557
      ],
      [
        103.8760981,
        1.3118908
      ],
      [
        103.8758017,
        1.3117795
      ],
      [
        103.8757393,
        1.3117509
      ],
      [
        103.8756008,
        1.3116974
      ],
      [
        103.8755136,
        1.3116644
      ],
      [
        103.8754718,
        1.3116476
      ],
      [
        103.8753093,
        1.311582
      ],
      [
        103.8751986,
        1.3115326
      ],
      [
        103.8748215,
        1.3113755
      ],
      [
        103.8745898,
        1.3112805
      ],
      [
        103.8744162,
        1.311207
      ],
      [
        103.8740793,
        1.3110626
      ],
      [
        103.8738901,
        1.3109815
      ],
      [
        103.8737468,
        1.3109178
      ],
      [
        103.8734455,
        1.3107892
      ],
      [
        103.8732255,
        1.3106941
      ],
      [
        103.8730731,
        1.3106324
      ],
      [
        103.8729789,
        1.3105949
      ],
      [
        103.8727397,
        1.3104971
      ],
      [
        103.8726957,
        1.3104791
      ],
      [
        103.8725966,
        1.3104349
      ],
      [
        103.8725233,
        1.3105907
      ],
      [
        103.8725107,
        1.3106175
      ],
      [
        103.8724145,
        1.3108965
      ],
      [
        103.8723012,
        1.3112309
      ],
      [
        103.8722329,
        1.3114239
      ],
      [
        103.8721651,
        1.3116046
      ],
      [
        103.8721147,
        1.3117211
      ],
      [
        103.8719705,
        1.312026
      ],
      [
        103.8718827,
        1.3122108
      ],
      [
        103.8714998,
        1.3128647
      ],
      [
        103.8713504,
        1.3131199
      ],
      [
        103.8710957,
        1.313555
      ],
      [
        103.8709569,
        1.3136476
      ],
      [
        103.8709074,
        1.3136653
      ],
      [
        103.8708945,
        1.3136699
      ],
      [
        103.8708047,
        1.3136745
      ],
      [
        103.8706439,
        1.3136735
      ],
      [
        103.8705111,
        1.3136329
      ],
      [
        103.8704366,
        1.3136101
      ],
      [
        103.870091,
        1.3135256
      ],
      [
        103.8698398,
        1.3134641
      ],
      [
        103.869663,
        1.3134209
      ],
      [
        103.8695485,
        1.3133946
      ],
      [
        103.8684453,
        1.3131396
      ],
      [
        103.8682439,
        1.3131011
      ],
      [
        103.8680389,
        1.3130739
      ],
      [
        103.8678336,
        1.3130632
      ],
      [
        103.8676393,
        1.3130672
      ],
      [
        103.8674613,
        1.3130924
      ],
      [
        103.8672906,
        1.3131315
      ],
      [
        103.8671415,
        1.3131902
      ],
      [
        103.8669285,
        1.3133085
      ],
      [
        103.8668476,
        1.3133724
      ],
      [
        103.8667083,
        1.3134737
      ],
      [
        103.8662844,
        1.3137912
      ],
      [
        103.8661806,
        1.313869
      ],
      [
        103.8661171,
        1.3139211
      ],
      [
        103.8650899,
        1.3147638
      ],
      [
        103.864887,
        1.3149302
      ],
      [
        103.8645159,
        1.3152318
      ],
      [
        103.8644553,
        1.3152843
      ],
      [
        103.8643542,
        1.3153688
      ],
      [
        103.8642516,
        1.3154442
      ],
      [
        103.8635964,
        1.3159693
      ],
      [
        103.8634357,
        1.3160966
      ],
      [
        103.8632793,
        1.3162202
      ],
      [
        103.863213,
        1.3162772
      ],
      [
        103.8627242,
        1.3166732
      ],
      [
        103.8626613,
        1.3166838
      ],
      [
        103.8625815,
        1.3166845
      ],
      [
        103.8625292,
        1.316671
      ],
      [
        103.8624028,
        1.3166338
      ],
      [
        103.8621208,
        1.3162715
      ],
      [
        103.8617778,
        1.3158225
      ],
      [
        103.8615546,
        1.3155289
      ],
      [
        103.8615352,
        1.3155043
      ],
      [
        103.8611962,
        1.3150581
      ],
      [
        103.8611268,
        1.3149647
      ],
      [
        103.8610647,
        1.3148828
      ],
      [
        103.860936,
        1.3147129
      ],
      [
        103.8608088,
        1.3145373
      ],
      [
        103.8606487,
        1.3143331
      ],
      [
        103.8604587,
        1.3141108
      ],
      [
        103.8603993,
        1.3140413
      ],
      [
        103.8602816,
        1.3139015
      ],
      [
        103.8602135,
        1.3138181
      ],
      [
        103.8601443,
        1.3137281
      ],
      [
        103.8600655,
        1.3136025
      ],
      [
        103.8599335,
        1.3133546
      ],
      [
        103.8598823,
        1.3131665
      ],
      [
        103.8598679,
        1.3131134
      ],
      [
        103.8598543,
        1.3130637
      ],
      [
        103.8597988,
        1.3128599
      ],
      [
        103.8597129,
        1.3124671
      ],
      [
        103.8596264,
        1.3121601
      ],
      [
        103.8596204,
        1.3121373
      ],
      [
        103.8595694,
        1.3119818
      ],
      [
        103.85946,
        1.3117554
      ],
      [
        103.8594148,
        1.3116733
      ],
      [
        103.8593696,
        1.3116008
      ],
      [
        103.8593085,
        1.31151
      ],
      [
        103.8592174,
        1.3113803
      ],
      [
        103.8591985,
        1.3113517
      ],
      [
        103.8590758,
        1.3111584
      ],
      [
        103.8588146,
        1.3107897
      ],
      [
        103.8587351,
        1.3106732
      ],
      [
        103.8587057,
        1.3106301
      ],
      [
        103.8586304,
        1.310518
      ],
      [
        103.8586023,
        1.3104748
      ],
      [
        103.8582388,
        1.3098963
      ],
      [
        103.8578848,
        1.3093936
      ],
      [
        103.8578612,
        1.3093599
      ],
      [
        103.8578193,
        1.3093002
      ],
      [
        103.857755,
        1.3093581
      ],
      [
        103.8576844,
        1.3094175
      ],
      [
        103.8575835,
        1.3095043
      ],
      [
        103.8575037,
        1.3095798
      ],
      [
        103.8571424,
        1.3099242
      ]
    ]
  }
}