{
  "type": "Feature",
  "properties": {
    "relation": 6623013,
    "direction": "2",
    "fee": "yes",
    "from": "Eunos Interchange",
    "name": "Svc 22 (Eunos Interchange → Ang Mo Kio Interchange)",
    "network": "Land Transport Authority",
    "network:short": "LTA",
    "network:wikidata": "Q3299279",
    "network:wikipedia": "en:Land Transport Authority",
    "operator": "SBS Transit",
    "operator:wikidata": "Q2661305",
    "operator:wikipedia": "en:SBS Transit",
    "public_transport:version": "2",
    "ref": "22",
    "route": "bus",
    "to": "Ang Mo Kio Interchange",
    "type": "route",
    "website": "https://www.sbstransit.com.sg/"
  },
  "geometry": {
    "type": "LineString",
    "coordinates": [
      [
        103.9003948,
        1.3195093
      ],
      [
        103.9012983,
        1.3196935
      ],
      [
        103.9020756,
        1.319848
      ],
      [
        103.9021223,
        1.3198397
      ],
      [
        103.9021587,
        1.3198131
      ],
      [
        103.9021926,
        1.3197085
      ],
      [
        103.9022135,
        1.319602
      ],
      [
        103.9021849,
        1.3195632
      ],
      [
        103.9021377,
        1.3195418
      ],
      [
        103.9013363,
        1.3194386
      ],
      [
        103.9011682,
        1.319419
      ],
      [
        103.9004412,
        1.3192715
      ],
      [
        103.9001325,
        1.3192084
      ],
      [
        103.9001431,
        1.319162
      ],
      [
        103.900165,
        1.319067
      ],
      [
        103.9003269,
        1.3183878
      ],
      [
        103.9003472,
        1.3182941
      ],
      [
        103.9004189,
        1.3183097
      ],
      [
        103.9009343,
        1.3184173
      ],
      [
        103.9015672,
        1.3185502
      ],
      [
        103.9018232,
        1.3185961
      ],
      [
        103.9025805,
        1.3187318
      ],
      [
        103.9026342,
        1.3187414
      ],
      [
        103.9026633,
        1.3187475
      ],
      [
        103.9030701,
        1.3188325
      ],
      [
        103.9031467,
        1.3188486
      ],
      [
        103.9032653,
        1.3188732
      ],
      [
        103.9035721,
        1.3189382
      ],
      [
        103.9038358,
        1.3189961
      ],
      [
        103.9038836,
        1.3190068
      ],
      [
        103.9039559,
        1.3190231
      ],
      [
        103.9040711,
        1.319051
      ],
      [
        103.9043891,
        1.319128
      ],
      [
        103.9046841,
        1.3192039
      ],
      [
        103.9047557,
        1.3192938
      ],
      [
        103.9048271,
        1.319382
      ],
      [
        103.9048728,
        1.3194306
      ],
      [
        103.9049106,
        1.319521
      ],
      [
        103.9049394,
        1.3198309
      ],
      [
        103.9049789,
        1.3202557
      ],
      [
        103.9050499,
        1.3211034
      ],
      [
        103.9050812,
        1.3213293
      ],
      [
        103.9051052,
        1.3215193
      ],
      [
        103.9051143,
        1.3216149
      ],
      [
        103.9051265,
        1.3217344
      ],
      [
        103.9051818,
        1.3222157
      ],
      [
        103.9052545,
        1.3227202
      ],
      [
        103.9053134,
        1.3231446
      ],
      [
        103.905354,
        1.3234301
      ],
      [
        103.9054173,
        1.3238569
      ],
      [
        103.9054802,
        1.3243171
      ],
      [
        103.9054897,
        1.3243824
      ],
      [
        103.9055414,
        1.3247369
      ],
      [
        103.9056419,
        1.3254965
      ],
      [
        103.9056816,
        1.3257969
      ],
      [
        103.9057124,
        1.3260302
      ],
      [
        103.9057451,
        1.3262442
      ],
      [
        103.9057624,
        1.3265443
      ],
      [
        103.9057759,
        1.3267778
      ],
      [
        103.905767,
        1.3270933
      ],
      [
        103.9057269,
        1.3274063
      ],
      [
        103.9056387,
        1.3278766
      ],
      [
        103.9055426,
        1.3281588
      ],
      [
        103.9054917,
        1.328274
      ],
      [
        103.9054392,
        1.3283933
      ],
      [
        103.9053891,
        1.3284798
      ],
      [
        103.9052362,
        1.3287309
      ],
      [
        103.9049597,
        1.3291437
      ],
      [
        103.9047428,
        1.3293878
      ],
      [
        103.904688,
        1.3294477
      ],
      [
        103.9046391,
        1.3295016
      ],
      [
        103.9044189,
        1.3297121
      ],
      [
        103.9042334,
        1.3298913
      ],
      [
        103.9039089,
        1.3302049
      ],
      [
        103.903789,
        1.3303207
      ],
      [
        103.9034397,
        1.3306545
      ],
      [
        103.903211,
        1.3308731
      ],
      [
        103.9029873,
        1.3310869
      ],
      [
        103.9025746,
        1.3314965
      ],
      [
        103.9023746,
        1.3315702
      ],
      [
        103.9022692,
        1.331564
      ],
      [
        103.9021922,
        1.3315595
      ],
      [
        103.9020372,
        1.331516
      ],
      [
        103.9016618,
        1.3312114
      ],
      [
        103.9014358,
        1.3310419
      ],
      [
        103.9006428,
        1.3305183
      ],
      [
        103.9004702,
        1.3304067
      ],
      [
        103.900183,
        1.3302637
      ],
      [
        103.9000647,
        1.3302115
      ],
      [
        103.8988587,
        1.3297122
      ],
      [
        103.8986655,
        1.3296324
      ],
      [
        103.8983924,
        1.3295195
      ],
      [
        103.8982644,
        1.3294647
      ],
      [
        103.8981135,
        1.3294032
      ],
      [
        103.8963034,
        1.328666
      ],
      [
        103.8956385,
        1.3283952
      ],
      [
        103.8934839,
        1.3275608
      ],
      [
        103.8930125,
        1.3274197
      ],
      [
        103.8928898,
        1.3273808
      ],
      [
        103.8927902,
        1.3273473
      ],
      [
        103.8915494,
        1.3269294
      ],
      [
        103.8914054,
        1.3268818
      ],
      [
        103.8913001,
        1.3268494
      ],
      [
        103.8911391,
        1.3267955
      ],
      [
        103.8906839,
        1.3266275
      ],
      [
        103.8904583,
        1.3265512
      ],
      [
        103.8904187,
        1.3265397
      ],
      [
        103.890211,
        1.3264664
      ],
      [
        103.8901917,
        1.326557
      ],
      [
        103.8901767,
        1.3266369
      ],
      [
        103.8901326,
        1.3268722
      ],
      [
        103.8900852,
        1.3271403
      ],
      [
        103.88995,
        1.3278916
      ],
      [
        103.8898316,
        1.3285772
      ],
      [
        103.8897453,
        1.3290583
      ],
      [
        103.8896854,
        1.3293734
      ],
      [
        103.889586,
        1.3298526
      ],
      [
        103.88952,
        1.3301905
      ],
      [
        103.8895092,
        1.3302492
      ],
      [
        103.8894378,
        1.3306165
      ],
      [
        103.8893503,
        1.3309898
      ],
      [
        103.8893227,
        1.3311153
      ],
      [
        103.8892213,
        1.3316027
      ],
      [
        103.8892153,
        1.3316401
      ],
      [
        103.8891998,
        1.331736
      ],
      [
        103.8891406,
        1.3321016
      ],
      [
        103.8891128,
        1.3322634
      ],
      [
        103.8890793,
        1.3324531
      ],
      [
        103.889009,
        1.3328514
      ],
      [
        103.8889932,
        1.332941
      ],
      [
        103.8889367,
        1.3332606
      ],
      [
        103.8889162,
        1.333395
      ],
      [
        103.8888993,
        1.3334729
      ],
      [
        103.8888697,
        1.3336093
      ],
      [
        103.888853,
        1.333686
      ],
      [
        103.8888012,
        1.3338866
      ],
      [
        103.8887084,
        1.3339715
      ],
      [
        103.8885884,
        1.3340551
      ],
      [
        103.8885499,
        1.3340949
      ],
      [
        103.8884443,
        1.3344682
      ],
      [
        103.8883684,
        1.3346717
      ],
      [
        103.8883271,
        1.334767
      ],
      [
        103.8882145,
        1.3349793
      ],
      [
        103.8880558,
        1.3353671
      ],
      [
        103.8879062,
        1.3357437
      ],
      [
        103.8877408,
        1.336149
      ],
      [
        103.8876294,
        1.3363914
      ],
      [
        103.8875197,
        1.3366525
      ],
      [
        103.8873877,
        1.33694
      ],
      [
        103.8873481,
        1.337095
      ],
      [
        103.8873652,
        1.3372467
      ],
      [
        103.8872798,
        1.3374452
      ],
      [
        103.8872242,
        1.3375606
      ],
      [
        103.8872071,
        1.3375755
      ],
      [
        103.8871502,
        1.3376605
      ],
      [
        103.8870851,
        1.3377782
      ],
      [
        103.8869833,
        1.3379657
      ],
      [
        103.886925,
        1.3380677
      ],
      [
        103.8868333,
        1.3382137
      ],
      [
        103.8866923,
        1.3384642
      ],
      [
        103.8865145,
        1.3387273
      ],
      [
        103.8862031,
        1.3391884
      ],
      [
        103.8860305,
        1.3394345
      ],
      [
        103.8857719,
        1.3397567
      ],
      [
        103.8855144,
        1.3400575
      ],
      [
        103.8854068,
        1.3401908
      ],
      [
        103.8852644,
        1.3403643
      ],
      [
        103.8850661,
        1.3406191
      ],
      [
        103.8850218,
        1.3406769
      ],
      [
        103.8849927,
        1.340715
      ],
      [
        103.8848165,
        1.3408806
      ],
      [
        103.8846995,
        1.3409853
      ],
      [
        103.8846049,
        1.3410691
      ],
      [
        103.8845838,
        1.3410882
      ],
      [
        103.8845302,
        1.3411367
      ],
      [
        103.8841679,
        1.3414648
      ],
      [
        103.8838978,
        1.3417032
      ],
      [
        103.8836328,
        1.3419546
      ],
      [
        103.8834516,
        1.3421429
      ],
      [
        103.883384,
        1.3422132
      ],
      [
        103.8831761,
        1.3425065
      ],
      [
        103.8830017,
        1.3427767
      ],
      [
        103.8828667,
        1.3430682
      ],
      [
        103.8827392,
        1.3433901
      ],
      [
        103.8826513,
        1.3436306
      ],
      [
        103.8825834,
        1.3438149
      ],
      [
        103.8825358,
        1.3439378
      ],
      [
        103.8824883,
        1.3440524
      ],
      [
        103.8823915,
        1.3443097
      ],
      [
        103.8822018,
        1.3446331
      ],
      [
        103.8821839,
        1.3446589
      ],
      [
        103.8820063,
        1.3449588
      ],
      [
        103.8819905,
        1.3449855
      ],
      [
        103.8819509,
        1.3450341
      ],
      [
        103.8819358,
        1.3450541
      ],
      [
        103.8817021,
        1.3453647
      ],
      [
        103.8815518,
        1.3455811
      ],
      [
        103.8815142,
        1.3456338
      ],
      [
        103.8813152,
        1.3458715
      ],
      [
        103.8809995,
        1.346219
      ],
      [
        103.8809494,
        1.3462767
      ],
      [
        103.8808608,
        1.3463906
      ],
      [
        103.880716,
        1.3465555
      ],
      [
        103.8806167,
        1.3466815
      ],
      [
        103.8805738,
        1.3467392
      ],
      [
        103.8805376,
        1.3468009
      ],
      [
        103.8804135,
        1.3471391
      ],
      [
        103.8803591,
        1.347427
      ],
      [
        103.8803581,
        1.3474369
      ],
      [
        103.8803543,
        1.3476136
      ],
      [
        103.8803537,
        1.3476328
      ],
      [
        103.8803556,
        1.3476433
      ],
      [
        103.8803498,
        1.3477982
      ],
      [
        103.8803229,
        1.3481166
      ],
      [
        103.8802646,
        1.3484271
      ],
      [
        103.8802324,
        1.3485577
      ],
      [
        103.8801699,
        1.3488013
      ],
      [
        103.8799161,
        1.3493847
      ],
      [
        103.8797506,
        1.3497982
      ],
      [
        103.8796925,
        1.3499339
      ],
      [
        103.8795546,
        1.3502559
      ],
      [
        103.8794591,
        1.3504799
      ],
      [
        103.8794034,
        1.350571
      ],
      [
        103.8793324,
        1.350687
      ],
      [
        103.8792589,
        1.350813
      ],
      [
        103.879241,
        1.3508397
      ],
      [
        103.879187,
        1.3509202
      ],
      [
        103.8791254,
        1.3510071
      ],
      [
        103.8788021,
        1.3513251
      ],
      [
        103.8785902,
        1.3514887
      ],
      [
        103.8784869,
        1.3515691
      ],
      [
        103.8782816,
        1.3516474
      ],
      [
        103.8779251,
        1.3517849
      ],
      [
        103.8777252,
        1.3518329
      ],
      [
        103.8775188,
        1.3518809
      ],
      [
        103.8773416,
        1.3519271
      ],
      [
        103.8771432,
        1.3519927
      ],
      [
        103.8768964,
        1.3521107
      ],
      [
        103.876647,
        1.3521309
      ],
      [
        103.8765611,
        1.3521298
      ],
      [
        103.8765249,
        1.3521295
      ],
      [
        103.8764243,
        1.3521067
      ],
      [
        103.8762892,
        1.3520427
      ],
      [
        103.8757771,
        1.3516048
      ],
      [
        103.875646,
        1.3514825
      ],
      [
        103.8754211,
        1.3512818
      ],
      [
        103.8747058,
        1.3506029
      ],
      [
        103.8745546,
        1.3504688
      ],
      [
        103.8742457,
        1.3501658
      ],
      [
        103.8741382,
        1.3500604
      ],
      [
        103.8740251,
        1.3499487
      ],
      [
        103.8739955,
        1.3499218
      ],
      [
        103.8739093,
        1.3498263
      ],
      [
        103.8737403,
        1.350005
      ],
      [
        103.8737246,
        1.3500304
      ],
      [
        103.8736011,
        1.3502334
      ],
      [
        103.8733206,
        1.3505587
      ],
      [
        103.8731503,
        1.3507563
      ],
      [
        103.8730991,
        1.350815
      ],
      [
        103.8730181,
        1.3509219
      ],
      [
        103.8729287,
        1.3510334
      ],
      [
        103.8728211,
        1.3511729
      ],
      [
        103.8727357,
        1.3513157
      ],
      [
        103.8726691,
        1.3514354
      ],
      [
        103.8726075,
        1.3516415
      ],
      [
        103.8725855,
        1.3517301
      ],
      [
        103.8725643,
        1.3518769
      ],
      [
        103.872578,
        1.3522227
      ],
      [
        103.8726264,
        1.3526445
      ],
      [
        103.8726289,
        1.3526962
      ],
      [
        103.8726515,
        1.3528757
      ],
      [
        103.872668,
        1.3529739
      ],
      [
        103.8727134,
        1.3533164
      ],
      [
        103.8727512,
        1.3536078
      ],
      [
        103.8727677,
        1.3537082
      ],
      [
        103.8727982,
        1.3538571
      ],
      [
        103.8728785,
        1.354185
      ],
      [
        103.8728957,
        1.3542551
      ],
      [
        103.8729582,
        1.3545393
      ],
      [
        103.8730274,
        1.35486
      ],
      [
        103.8730784,
        1.35499
      ],
      [
        103.8732127,
        1.3552603
      ],
      [
        103.8732031,
        1.3553239
      ],
      [
        103.8731709,
        1.3554218
      ],
      [
        103.8731394,
        1.355481
      ],
      [
        103.8731267,
        1.3555049
      ],
      [
        103.8730489,
        1.355584
      ],
      [
        103.8728893,
        1.3556636
      ],
      [
        103.8726975,
        1.3556604
      ],
      [
        103.872271,
        1.3556349
      ],
      [
        103.8721257,
        1.3556253
      ],
      [
        103.871689,
        1.3556068
      ],
      [
        103.8714839,
        1.3555854
      ],
      [
        103.8714703,
        1.3555846
      ],
      [
        103.8713709,
        1.3555784
      ],
      [
        103.8710922,
        1.3555665
      ],
      [
        103.8709044,
        1.3555545
      ],
      [
        103.8705747,
        1.3555353
      ],
      [
        103.8704096,
        1.3555264
      ],
      [
        103.8702316,
        1.3555168
      ],
      [
        103.8698746,
        1.3555021
      ],
      [
        103.8691988,
        1.355464
      ],
      [
        103.8690239,
        1.3554546
      ],
      [
        103.8686552,
        1.3554153
      ],
      [
        103.868374,
        1.355379
      ],
      [
        103.8680714,
        1.3553133
      ],
      [
        103.867944,
        1.3552857
      ],
      [
        103.8678741,
        1.3552701
      ],
      [
        103.8677935,
        1.3552437
      ],
      [
        103.8677283,
        1.3552227
      ],
      [
        103.867506,
        1.3551512
      ],
      [
        103.8673602,
        1.3551043
      ],
      [
        103.8671466,
        1.3550226
      ],
      [
        103.8668785,
        1.3549201
      ],
      [
        103.866598,
        1.354799
      ],
      [
        103.8662797,
        1.3546518
      ],
      [
        103.8660876,
        1.3545629
      ],
      [
        103.8656068,
        1.3543406
      ],
      [
        103.8654014,
        1.3542451
      ],
      [
        103.8652799,
        1.354199
      ],
      [
        103.8651253,
        1.3541321
      ],
      [
        103.864738,
        1.3539721
      ],
      [
        103.8645852,
        1.3539216
      ],
      [
        103.8645268,
        1.3539083
      ],
      [
        103.8643972,
        1.3538789
      ],
      [
        103.8643348,
        1.3538647
      ],
      [
        103.8642001,
        1.3538389
      ],
      [
        103.8641395,
        1.3538328
      ],
      [
        103.8640635,
        1.3538238
      ],
      [
        103.8639842,
        1.3538206
      ],
      [
        103.863904,
        1.35382
      ],
      [
        103.8638199,
        1.3538232
      ],
      [
        103.8637393,
        1.3538276
      ],
      [
        103.8636568,
        1.3538351
      ],
      [
        103.863597,
        1.3538414
      ],
      [
        103.8635259,
        1.353854
      ],
      [
        103.8630545,
        1.3539551
      ],
      [
        103.8627869,
        1.35401
      ],
      [
        103.8627212,
        1.3540259
      ],
      [
        103.8626779,
        1.3540364
      ],
      [
        103.8625448,
        1.3540689
      ],
      [
        103.8623142,
        1.3541252
      ],
      [
        103.8614439,
        1.3543383
      ],
      [
        103.8609644,
        1.3544514
      ],
      [
        103.8606214,
        1.3545425
      ],
      [
        103.8595802,
        1.3547796
      ],
      [
        103.8591167,
        1.354893
      ],
      [
        103.8590756,
        1.3549031
      ],
      [
        103.8590565,
        1.3549073
      ],
      [
        103.8587782,
        1.3549686
      ],
      [
        103.8585247,
        1.355025
      ],
      [
        103.8581499,
        1.3551197
      ],
      [
        103.8577606,
        1.3551969
      ],
      [
        103.857293,
        1.3553085
      ],
      [
        103.8572637,
        1.3553158
      ],
      [
        103.8571733,
        1.3553384
      ],
      [
        103.8568727,
        1.3554056
      ],
      [
        103.8565494,
        1.355489
      ],
      [
        103.8563707,
        1.3555355
      ],
      [
        103.8562386,
        1.3555838
      ],
      [
        103.8561038,
        1.355641
      ],
      [
        103.8559354,
        1.3557166
      ],
      [
        103.855802,
        1.3557845
      ],
      [
        103.8555336,
        1.3559468
      ],
      [
        103.8554058,
        1.3560288
      ],
      [
        103.8551411,
        1.3562417
      ],
      [
        103.854891,
        1.3564783
      ],
      [
        103.8547078,
        1.3567027
      ],
      [
        103.8545919,
        1.3568632
      ],
      [
        103.8544201,
        1.3571532
      ],
      [
        103.8542996,
        1.3574376
      ],
      [
        103.8542117,
        1.357634
      ],
      [
        103.8538694,
        1.3583274
      ],
      [
        103.8538163,
        1.3584302
      ],
      [
        103.8537464,
        1.3585516
      ],
      [
        103.8536899,
        1.3586496
      ],
      [
        103.853678,
        1.3586703
      ],
      [
        103.8535183,
        1.3589255
      ],
      [
        103.8534198,
        1.3590786
      ],
      [
        103.8533226,
        1.3592153
      ],
      [
        103.8531042,
        1.3594894
      ],
      [
        103.8529725,
        1.3596357
      ],
      [
        103.8528069,
        1.3597944
      ],
      [
        103.8523742,
        1.3601802
      ],
      [
        103.8523252,
        1.3602283
      ],
      [
        103.8522206,
        1.3603145
      ],
      [
        103.8522839,
        1.3604528
      ],
      [
        103.8523094,
        1.3605105
      ],
      [
        103.8524862,
        1.3608859
      ],
      [
        103.8525868,
        1.3611007
      ],
      [
        103.8526583,
        1.3612827
      ],
      [
        103.8527258,
        1.3614936
      ],
      [
        103.8527746,
        1.3616287
      ],
      [
        103.8527895,
        1.3616763
      ],
      [
        103.8528095,
        1.3617444
      ],
      [
        103.8528321,
        1.3618466
      ],
      [
        103.8528427,
        1.3618947
      ],
      [
        103.8528628,
        1.3620511
      ],
      [
        103.8528808,
        1.3622243
      ],
      [
        103.8528906,
        1.3623986
      ],
      [
        103.8528919,
        1.3625968
      ],
      [
        103.852879,
        1.3627838
      ],
      [
        103.8528418,
        1.3630992
      ],
      [
        103.8527955,
        1.3632688
      ],
      [
        103.8527498,
        1.3634595
      ],
      [
        103.8526595,
        1.3637149
      ],
      [
        103.8525571,
        1.3639572
      ],
      [
        103.8523552,
        1.3643457
      ],
      [
        103.8522461,
        1.364541
      ],
      [
        103.8521438,
        1.3647148
      ],
      [
        103.8518597,
        1.3651682
      ],
      [
        103.8517932,
        1.3652843
      ],
      [
        103.8516864,
        1.3654799
      ],
      [
        103.8515428,
        1.3657408
      ],
      [
        103.8514163,
        1.3659655
      ],
      [
        103.8513092,
        1.3661427
      ],
      [
        103.8512616,
        1.3662247
      ],
      [
        103.8512236,
        1.3662938
      ],
      [
        103.8511977,
        1.3663436
      ],
      [
        103.8505693,
        1.3674912
      ],
      [
        103.8501991,
        1.3681251
      ],
      [
        103.8500286,
        1.3683937
      ],
      [
        103.8498745,
        1.3686485
      ],
      [
        103.8497559,
        1.3688459
      ],
      [
        103.8497029,
        1.3689342
      ],
      [
        103.849639,
        1.369037
      ],
      [
        103.8495916,
        1.3691231
      ],
      [
        103.8495656,
        1.3691745
      ],
      [
        103.8493623,
        1.3695423
      ],
      [
        103.8490922,
        1.3700192
      ],
      [
        103.8490257,
        1.3699776
      ],
      [
        103.8488976,
        1.3698976
      ],
      [
        103.8488842,
        1.3698734
      ],
      [
        103.8488932,
        1.3698442
      ],
      [
        103.8489514,
        1.3697347
      ],
      [
        103.8490249,
        1.3696195
      ],
      [
        103.8490203,
        1.3695524
      ],
      [
        103.848986,
        1.3695328
      ],
      [
        103.8488873,
        1.3695059
      ],
      [
        103.8484732,
        1.3694438
      ],
      [
        103.8482927,
        1.3694331
      ],
      [
        103.8482028,
        1.3694596
      ],
      [
        103.8481351,
        1.3696116
      ],
      [
        103.8480878,
        1.3697298
      ],
      [
        103.84805,
        1.3698969
      ]
    ]
  }
}