{
  "type": "Feature",
  "properties": {
    "relation": 2136778,
    "direction": "1",
    "fee": "yes",
    "from": "Toa Payoh Interchange",
    "name": "Svc 231 (Toa Payoh Interchange ↺ Lorong 5 Toa Payoh)",
    "name:en": "Svc 231 (Toa Payoh Interchange ↺ Lorong 5 Toa Payoh)",
    "network": "Land Transport Authority",
    "network:short": "LTA",
    "network:wikidata": "Q3299279",
    "network:wikipedia": "en:Land Transport Authority",
    "operator": "SBS Transit",
    "operator:wikidata": "Q2661305",
    "operator:wikipedia": "en:SBS Transit",
    "public_transport:version": "2",
    "ref": "231",
    "roundtrip": "yes",
    "route": "bus",
    "to": "Toa Payoh Interchange",
    "type": "route",
    "via": "Lorong 5 Toa Payoh",
    "website": "https://www.sbstransit.com.sg/"
  },
  "geometry": {
    "type": "LineString",
    "coordinates": [
      [
        103.84767,
        1.3321629
      ],
      [
        103.8477425,
        1.3321673
      ],
      [
        103.8478671,
        1.3321684
      ],
      [
        103.8479987,
        1.3321704
      ],
      [
        103.848011,
        1.3321568
      ],
      [
        103.848017,
        1.3321224
      ],
      [
        103.848036,
        1.3319252
      ],
      [
        103.8479065,
        1.3317735
      ],
      [
        103.8477523,
        1.3316865
      ],
      [
        103.8476595,
        1.3316694
      ],
      [
        103.847692,
        1.3314836
      ],
      [
        103.8476595,
        1.3316694
      ],
      [
        103.8477079,
        1.3314001
      ],
      [
        103.8476758,
        1.3313057
      ],
      [
        103.8475952,
        1.331319
      ],
      [
        103.8471052,
        1.3313797
      ],
      [
        103.8467713,
        1.331427
      ],
      [
        103.8463692,
        1.3314964
      ],
      [
        103.846284,
        1.3315064
      ],
      [
        103.8461621,
        1.3315251
      ],
      [
        103.846083,
        1.3315373
      ],
      [
        103.8458853,
        1.331564
      ],
      [
        103.8456787,
        1.3315966
      ],
      [
        103.845446,
        1.331648
      ],
      [
        103.8453894,
        1.3316666
      ],
      [
        103.8453353,
        1.3316837
      ],
      [
        103.8452177,
        1.3317231
      ],
      [
        103.845042,
        1.331794
      ],
      [
        103.844908,
        1.3318498
      ],
      [
        103.8447489,
        1.3319286
      ],
      [
        103.8446466,
        1.3319849
      ],
      [
        103.8445623,
        1.3320308
      ],
      [
        103.8444966,
        1.3320751
      ],
      [
        103.8444004,
        1.3321361
      ],
      [
        103.8442832,
        1.3322202
      ],
      [
        103.8441832,
        1.3323069
      ],
      [
        103.8440778,
        1.3324053
      ],
      [
        103.844042,
        1.3324442
      ],
      [
        103.8439554,
        1.3325217
      ],
      [
        103.8438548,
        1.3326348
      ],
      [
        103.8437761,
        1.3327197
      ],
      [
        103.8436983,
        1.3328229
      ],
      [
        103.8435994,
        1.3329733
      ],
      [
        103.8434978,
        1.3331514
      ],
      [
        103.8434385,
        1.3332663
      ],
      [
        103.8433714,
        1.3334104
      ],
      [
        103.8433091,
        1.3335517
      ],
      [
        103.843227,
        1.3337492
      ],
      [
        103.8431769,
        1.3339459
      ],
      [
        103.843173,
        1.3339759
      ],
      [
        103.8431428,
        1.3341115
      ],
      [
        103.8431275,
        1.3341968
      ],
      [
        103.8431161,
        1.3344465
      ],
      [
        103.8431147,
        1.3344628
      ],
      [
        103.8431075,
        1.3346132
      ],
      [
        103.843108,
        1.3346549
      ],
      [
        103.843114,
        1.3348442
      ],
      [
        103.8431379,
        1.3350886
      ],
      [
        103.8431635,
        1.3352508
      ],
      [
        103.8431768,
        1.3353082
      ],
      [
        103.8431888,
        1.3353753
      ],
      [
        103.8431939,
        1.3353968
      ],
      [
        103.8432243,
        1.3355539
      ],
      [
        103.8432692,
        1.3357749
      ],
      [
        103.8433186,
        1.3360377
      ],
      [
        103.8433769,
        1.3364061
      ],
      [
        103.8434067,
        1.3366009
      ],
      [
        103.8434685,
        1.3369714
      ],
      [
        103.843476,
        1.3370163
      ],
      [
        103.8434907,
        1.3371074
      ],
      [
        103.8435121,
        1.3372437
      ],
      [
        103.8435324,
        1.3373732
      ],
      [
        103.8435502,
        1.3374763
      ],
      [
        103.8435802,
        1.3376688
      ],
      [
        103.8436438,
        1.3379848
      ],
      [
        103.8436844,
        1.3382043
      ],
      [
        103.8437195,
        1.3384247
      ],
      [
        103.8437505,
        1.3385454
      ],
      [
        103.8437834,
        1.3386809
      ],
      [
        103.8438108,
        1.3387636
      ],
      [
        103.8438218,
        1.338802
      ],
      [
        103.8438738,
        1.3389318
      ],
      [
        103.8439411,
        1.3391072
      ],
      [
        103.8439701,
        1.3391924
      ],
      [
        103.8440343,
        1.3393654
      ],
      [
        103.8441106,
        1.3395494
      ],
      [
        103.8442035,
        1.339755
      ],
      [
        103.84432,
        1.3399512
      ],
      [
        103.8444382,
        1.3401055
      ],
      [
        103.8445339,
        1.3402255
      ],
      [
        103.8446498,
        1.3403481
      ],
      [
        103.8447412,
        1.3404407
      ],
      [
        103.8448254,
        1.3405047
      ],
      [
        103.844989,
        1.3406152
      ],
      [
        103.8451804,
        1.3407247
      ],
      [
        103.8454767,
        1.3408547
      ],
      [
        103.8456151,
        1.3408911
      ],
      [
        103.8457523,
        1.3409297
      ],
      [
        103.8459596,
        1.3409646
      ],
      [
        103.8461479,
        1.3409776
      ],
      [
        103.8463134,
        1.3409712
      ],
      [
        103.8468504,
        1.3409545
      ],
      [
        103.8470285,
        1.3409407
      ],
      [
        103.8470633,
        1.3409394
      ],
      [
        103.8471414,
        1.3409364
      ],
      [
        103.8472328,
        1.3409298
      ],
      [
        103.8476195,
        1.3409215
      ],
      [
        103.8477216,
        1.340917
      ],
      [
        103.8478418,
        1.3409116
      ],
      [
        103.8483948,
        1.3408888
      ],
      [
        103.8484302,
        1.3408873
      ],
      [
        103.8485084,
        1.3408859
      ],
      [
        103.8486949,
        1.3408787
      ],
      [
        103.8488328,
        1.3408734
      ],
      [
        103.8491734,
        1.3408512
      ],
      [
        103.8493464,
        1.3408399
      ],
      [
        103.8495647,
        1.3408104
      ],
      [
        103.8497807,
        1.3407478
      ],
      [
        103.8499898,
        1.340665
      ],
      [
        103.8501901,
        1.3405628
      ],
      [
        103.8503878,
        1.340448
      ],
      [
        103.8509105,
        1.3401585
      ],
      [
        103.8510937,
        1.3400597
      ],
      [
        103.8511108,
        1.3400509
      ],
      [
        103.8511573,
        1.3400268
      ],
      [
        103.8511863,
        1.3400115
      ],
      [
        103.8512271,
        1.3399896
      ],
      [
        103.8511605,
        1.3398731
      ],
      [
        103.8511305,
        1.3398201
      ],
      [
        103.8511169,
        1.339796
      ],
      [
        103.8509718,
        1.3395504
      ],
      [
        103.8508537,
        1.3393567
      ],
      [
        103.8507124,
        1.3391336
      ],
      [
        103.8506434,
        1.3390246
      ],
      [
        103.8506229,
        1.3389899
      ],
      [
        103.8505356,
        1.3388418
      ],
      [
        103.8504981,
        1.3387783
      ],
      [
        103.8504828,
        1.3387515
      ],
      [
        103.8504695,
        1.3387274
      ],
      [
        103.8504439,
        1.3386809
      ],
      [
        103.850403,
        1.3386125
      ],
      [
        103.8503868,
        1.3385861
      ],
      [
        103.8503774,
        1.3385708
      ],
      [
        103.8503386,
        1.3385075
      ],
      [
        103.8500405,
        1.3380206
      ],
      [
        103.8498788,
        1.3377101
      ],
      [
        103.8498626,
        1.3376732
      ],
      [
        103.8498496,
        1.3376394
      ],
      [
        103.8498451,
        1.3375726
      ],
      [
        103.849846,
        1.3375593
      ],
      [
        103.8498486,
        1.3375148
      ],
      [
        103.8498525,
        1.3374486
      ],
      [
        103.8498598,
        1.3373259
      ],
      [
        103.8498702,
        1.3372405
      ],
      [
        103.8498893,
        1.3370832
      ],
      [
        103.8499492,
        1.336862
      ],
      [
        103.8500442,
        1.3366716
      ],
      [
        103.8501438,
        1.3364855
      ],
      [
        103.8502979,
        1.3362746
      ],
      [
        103.85048,
        1.3359805
      ],
      [
        103.8507719,
        1.3355834
      ],
      [
        103.8508641,
        1.3354601
      ],
      [
        103.8509673,
        1.3353018
      ],
      [
        103.851064,
        1.3351437
      ],
      [
        103.8511559,
        1.3349594
      ],
      [
        103.851202,
        1.3348601
      ],
      [
        103.8512672,
        1.3346784
      ],
      [
        103.8512942,
        1.3345835
      ],
      [
        103.8513154,
        1.3345089
      ],
      [
        103.8513395,
        1.3344245
      ],
      [
        103.8514161,
        1.3340213
      ],
      [
        103.8514799,
        1.3336298
      ],
      [
        103.8514933,
        1.3335294
      ],
      [
        103.8516097,
        1.3335394
      ],
      [
        103.8523246,
        1.3336167
      ],
      [
        103.8525359,
        1.3336452
      ],
      [
        103.8525729,
        1.3336511
      ],
      [
        103.852755,
        1.3336804
      ],
      [
        103.8529053,
        1.3337135
      ],
      [
        103.8530738,
        1.3337655
      ],
      [
        103.8532263,
        1.3338405
      ],
      [
        103.8533145,
        1.3338976
      ],
      [
        103.8533896,
        1.3339513
      ],
      [
        103.8534516,
        1.3340162
      ],
      [
        103.8535289,
        1.3340988
      ],
      [
        103.8536163,
        1.3342156
      ],
      [
        103.8536657,
        1.3342824
      ],
      [
        103.8537247,
        1.3344112
      ],
      [
        103.8537677,
        1.3345358
      ],
      [
        103.8538001,
        1.3346675
      ],
      [
        103.8538159,
        1.3347865
      ],
      [
        103.8538226,
        1.334985
      ],
      [
        103.8537998,
        1.3351472
      ],
      [
        103.8537637,
        1.3352777
      ],
      [
        103.8537492,
        1.3352864
      ],
      [
        103.8537382,
        1.3352992
      ],
      [
        103.8537319,
        1.3353149
      ],
      [
        103.853731,
        1.3353318
      ],
      [
        103.8537355,
        1.3353481
      ],
      [
        103.8537247,
        1.3353685
      ],
      [
        103.8537026,
        1.3354107
      ],
      [
        103.8536336,
        1.3355253
      ],
      [
        103.8535584,
        1.3356302
      ],
      [
        103.8534566,
        1.3357448
      ],
      [
        103.8533676,
        1.3358453
      ],
      [
        103.8532461,
        1.3359777
      ],
      [
        103.8532251,
        1.3360005
      ],
      [
        103.8528672,
        1.3364169
      ],
      [
        103.8528076,
        1.3364814
      ],
      [
        103.8526612,
        1.3366365
      ],
      [
        103.8525685,
        1.3367423
      ],
      [
        103.8524422,
        1.3368866
      ],
      [
        103.8520887,
        1.3372441
      ],
      [
        103.8517675,
        1.3375515
      ],
      [
        103.8516416,
        1.3376525
      ],
      [
        103.8514908,
        1.3377885
      ],
      [
        103.8514749,
        1.3377921
      ],
      [
        103.8514604,
        1.3378008
      ],
      [
        103.8514546,
        1.3378075
      ],
      [
        103.8514494,
        1.3378136
      ],
      [
        103.8514431,
        1.3378293
      ],
      [
        103.8514428,
        1.3378352
      ],
      [
        103.8512063,
        1.3380472
      ],
      [
        103.8511004,
        1.3381382
      ],
      [
        103.8510252,
        1.3382027
      ],
      [
        103.8508495,
        1.3383334
      ],
      [
        103.8504816,
        1.3385634
      ],
      [
        103.8504331,
        1.3385937
      ],
      [
        103.850403,
        1.3386125
      ],
      [
        103.8503371,
        1.3386535
      ],
      [
        103.8503786,
        1.3387215
      ],
      [
        103.8504187,
        1.3387915
      ],
      [
        103.850432,
        1.338815
      ],
      [
        103.8504843,
        1.3389067
      ],
      [
        103.850579,
        1.3390662
      ],
      [
        103.850614,
        1.3391242
      ],
      [
        103.8506493,
        1.3391828
      ],
      [
        103.8507084,
        1.3392792
      ],
      [
        103.8508578,
        1.3395239
      ],
      [
        103.8508683,
        1.3396574
      ],
      [
        103.8508771,
        1.3397546
      ],
      [
        103.8508704,
        1.3398605
      ],
      [
        103.8508397,
        1.3399851
      ],
      [
        103.8507792,
        1.3400872
      ],
      [
        103.8503084,
        1.3403939
      ],
      [
        103.8501857,
        1.3404739
      ],
      [
        103.8499832,
        1.3405584
      ],
      [
        103.8497847,
        1.3406295
      ],
      [
        103.8495634,
        1.3406978
      ],
      [
        103.849325,
        1.3407372
      ],
      [
        103.848826,
        1.3407595
      ],
      [
        103.8486443,
        1.3407663
      ],
      [
        103.848506,
        1.3407707
      ],
      [
        103.8484287,
        1.3407722
      ],
      [
        103.8483921,
        1.3407734
      ],
      [
        103.8478267,
        1.3408031
      ],
      [
        103.8476168,
        1.3408187
      ],
      [
        103.8475706,
        1.3408205
      ],
      [
        103.8472298,
        1.3408314
      ],
      [
        103.847138,
        1.3408368
      ],
      [
        103.8470587,
        1.3408388
      ],
      [
        103.8470226,
        1.3408397
      ],
      [
        103.8466929,
        1.3408625
      ],
      [
        103.8464238,
        1.3408782
      ],
      [
        103.8461843,
        1.3408919
      ],
      [
        103.8459827,
        1.3408954
      ],
      [
        103.8458016,
        1.3408594
      ],
      [
        103.8456367,
        1.3408165
      ],
      [
        103.8454288,
        1.3407461
      ],
      [
        103.8452165,
        1.3406455
      ],
      [
        103.8450144,
        1.3405244
      ],
      [
        103.8448669,
        1.3404237
      ],
      [
        103.8447764,
        1.3403588
      ],
      [
        103.8446899,
        1.3402675
      ],
      [
        103.8445517,
        1.3401119
      ],
      [
        103.8444236,
        1.3399457
      ],
      [
        103.8442682,
        1.3396879
      ],
      [
        103.8442151,
        1.3395783
      ],
      [
        103.8441852,
        1.3395088
      ],
      [
        103.8441534,
        1.3394349
      ],
      [
        103.844129,
        1.3393635
      ],
      [
        103.8440984,
        1.339274
      ],
      [
        103.8440699,
        1.3391912
      ],
      [
        103.844026,
        1.3390635
      ],
      [
        103.843941,
        1.3387685
      ],
      [
        103.8439309,
        1.3387333
      ],
      [
        103.8439116,
        1.338644
      ],
      [
        103.8438852,
        1.3385242
      ],
      [
        103.8438302,
        1.3382718
      ],
      [
        103.8438024,
        1.3381523
      ],
      [
        103.8437699,
        1.3380127
      ],
      [
        103.8436856,
        1.3376507
      ],
      [
        103.8436472,
        1.3373579
      ],
      [
        103.8436293,
        1.3372213
      ],
      [
        103.8436129,
        1.3370966
      ],
      [
        103.8436028,
        1.3370107
      ],
      [
        103.8435904,
        1.3369529
      ],
      [
        103.8435811,
        1.3369093
      ],
      [
        103.8435055,
        1.3364596
      ],
      [
        103.843417,
        1.3358788
      ],
      [
        103.8433989,
        1.3357797
      ],
      [
        103.8433429,
        1.3354987
      ],
      [
        103.8433238,
        1.3353951
      ],
      [
        103.8432683,
        1.3350815
      ],
      [
        103.843267,
        1.3350706
      ],
      [
        103.8432428,
        1.3348737
      ],
      [
        103.8432418,
        1.3346673
      ],
      [
        103.8432459,
        1.3344733
      ],
      [
        103.8432482,
        1.3343421
      ],
      [
        103.843255,
        1.3342462
      ],
      [
        103.8432694,
        1.3341297
      ],
      [
        103.8432964,
        1.3339853
      ],
      [
        103.8433349,
        1.3338351
      ],
      [
        103.8433488,
        1.333781
      ],
      [
        103.8434118,
        1.3335825
      ],
      [
        103.8435555,
        1.333256
      ],
      [
        103.8435866,
        1.3331889
      ],
      [
        103.843665,
        1.3330534
      ],
      [
        103.8437637,
        1.3329107
      ],
      [
        103.843874,
        1.3327662
      ],
      [
        103.8439979,
        1.3326241
      ],
      [
        103.8441113,
        1.3325103
      ],
      [
        103.8442088,
        1.3324231
      ],
      [
        103.8443039,
        1.3323374
      ],
      [
        103.8444289,
        1.3322332
      ],
      [
        103.8445305,
        1.332164
      ],
      [
        103.8446993,
        1.3320634
      ],
      [
        103.8447871,
        1.33201
      ],
      [
        103.8449606,
        1.3319313
      ],
      [
        103.8450963,
        1.3318824
      ],
      [
        103.8452955,
        1.3318121
      ],
      [
        103.8453842,
        1.3317829
      ],
      [
        103.845465,
        1.3317641
      ],
      [
        103.8455378,
        1.3317458
      ],
      [
        103.8458288,
        1.3317006
      ],
      [
        103.8461143,
        1.3316626
      ],
      [
        103.8461895,
        1.3316519
      ],
      [
        103.8463159,
        1.3316334
      ],
      [
        103.8464036,
        1.3316147
      ],
      [
        103.8468963,
        1.3315268
      ],
      [
        103.8473107,
        1.3314516
      ],
      [
        103.8475702,
        1.3314206
      ],
      [
        103.8477079,
        1.3314001
      ],
      [
        103.847692,
        1.3314836
      ],
      [
        103.8476595,
        1.3316694
      ],
      [
        103.8476109,
        1.3319386
      ],
      [
        103.8475897,
        1.3320873
      ],
      [
        103.8475937,
        1.3321261
      ],
      [
        103.8476266,
        1.3321528
      ],
      [
        103.84767,
        1.3321629
      ]
    ]
  }
}