{
  "type": "Feature",
  "properties": {
    "relation": 14115252,
    "direction": "1",
    "fee": "yes",
    "from": "Tuas Terminal",
    "name": "Svc 248M (Tuas Terminal ↺ Tuas South Way)",
    "name:en": "Svc 248M (Tuas Terminal ↺ Tuas South Way)",
    "network": "Land Transport Authority",
    "network:short": "LTA",
    "network:wikidata": "Q3299279",
    "network:wikipedia": "en:Land Transport Authority",
    "operator": "SMRT Buses",
    "operator:wikidata": "Q10852420",
    "operator:wikipedia": "en:SMRT Buses",
    "public_transport:version": "2",
    "ref": "248M",
    "roundtrip": "yes",
    "route": "bus",
    "to": "Tuas Terminal",
    "type": "route",
    "via": "Tuas South Way",
    "website": "https://journey.smrt.com.sg/journey/bus_search/bus/248M/"
  },
  "geometry": {
    "type": "LineString",
    "coordinates": [
      [
        103.6402164,
        1.3407019
      ],
      [
        103.6394485,
        1.3414336
      ],
      [
        103.6396322,
        1.3416248
      ],
      [
        103.6396399,
        1.3416297
      ],
      [
        103.639649,
        1.3416329
      ],
      [
        103.63966,
        1.3416341
      ],
      [
        103.6396717,
        1.341633
      ],
      [
        103.6396825,
        1.3416297
      ],
      [
        103.6397037,
        1.3416207
      ],
      [
        103.6397235,
        1.3416063
      ],
      [
        103.6403441,
        1.3410182
      ],
      [
        103.6403962,
        1.3409716
      ],
      [
        103.6404086,
        1.3409554
      ],
      [
        103.6404187,
        1.3409393
      ],
      [
        103.6404272,
        1.3409232
      ],
      [
        103.6404333,
        1.340907
      ],
      [
        103.640432,
        1.3408865
      ],
      [
        103.6404268,
        1.340866
      ],
      [
        103.6404024,
        1.3408269
      ],
      [
        103.6403659,
        1.3407932
      ],
      [
        103.6402164,
        1.3407019
      ],
      [
        103.6402164,
        1.3407019
      ],
      [
        103.6385135,
        1.3417158
      ],
      [
        103.6385684,
        1.3416907
      ],
      [
        103.6386098,
        1.3416609
      ],
      [
        103.6386481,
        1.3416266
      ],
      [
        103.6397821,
        1.3405477
      ],
      [
        103.6398196,
        1.3405151
      ],
      [
        103.6398651,
        1.3404969
      ],
      [
        103.639915,
        1.3404903
      ],
      [
        103.6399688,
        1.3404963
      ],
      [
        103.6400132,
        1.3405117
      ],
      [
        103.6400608,
        1.3405532
      ],
      [
        103.6401324,
        1.3406331
      ],
      [
        103.637738,
        1.3419662
      ],
      [
        103.6382043,
        1.3418103
      ],
      [
        103.6376194,
        1.3418831
      ],
      [
        103.6375651,
        1.3417197
      ],
      [
        103.6374377,
        1.3413606
      ],
      [
        103.6372974,
        1.3409986
      ],
      [
        103.6372593,
        1.3409073
      ],
      [
        103.6372089,
        1.3407783
      ],
      [
        103.6370025,
        1.3402644
      ],
      [
        103.6369126,
        1.3400184
      ],
      [
        103.6368907,
        1.3399562
      ],
      [
        103.6368688,
        1.3398989
      ],
      [
        103.6368219,
        1.3397708
      ],
      [
        103.6366196,
        1.3391699
      ],
      [
        103.6362521,
        1.3381298
      ],
      [
        103.636233,
        1.338076
      ],
      [
        103.6361851,
        1.3379317
      ],
      [
        103.6359306,
        1.3371736
      ],
      [
        103.6358705,
        1.3369947
      ],
      [
        103.635595,
        1.3362433
      ],
      [
        103.6355801,
        1.3361975
      ],
      [
        103.6355391,
        1.3360546
      ],
      [
        103.6352834,
        1.3352423
      ],
      [
        103.6350004,
        1.3345725
      ],
      [
        103.6349692,
        1.3345015
      ],
      [
        103.6350264,
        1.3344475
      ],
      [
        103.6355705,
        1.333929
      ],
      [
        103.635658,
        1.3338493
      ],
      [
        103.6359271,
        1.3336064
      ],
      [
        103.6362843,
        1.3332839
      ],
      [
        103.6363352,
        1.333238
      ],
      [
        103.6366122,
        1.3329675
      ],
      [
        103.636816,
        1.3327512
      ],
      [
        103.6369342,
        1.3326366
      ],
      [
        103.6371479,
        1.3323893
      ],
      [
        103.6372543,
        1.3322923
      ],
      [
        103.6375359,
        1.3320355
      ],
      [
        103.637627,
        1.3319521
      ],
      [
        103.6377057,
        1.331877
      ],
      [
        103.6377626,
        1.3318301
      ],
      [
        103.6379116,
        1.3317016
      ],
      [
        103.6381819,
        1.331466
      ],
      [
        103.6384186,
        1.3312697
      ],
      [
        103.6385561,
        1.3311464
      ],
      [
        103.6387284,
        1.3310036
      ],
      [
        103.638855,
        1.3308928
      ],
      [
        103.6389276,
        1.3308293
      ],
      [
        103.6390235,
        1.3307448
      ],
      [
        103.6390909,
        1.3306772
      ],
      [
        103.6392826,
        1.3304846
      ],
      [
        103.639556,
        1.3302349
      ],
      [
        103.6400003,
        1.329829
      ],
      [
        103.6401388,
        1.3297025
      ],
      [
        103.6404257,
        1.3294472
      ],
      [
        103.6405321,
        1.3293526
      ],
      [
        103.6404612,
        1.3292805
      ],
      [
        103.6405321,
        1.3293526
      ],
      [
        103.6402187,
        1.3290193
      ],
      [
        103.640262,
        1.3290652
      ],
      [
        103.6403552,
        1.3291642
      ],
      [
        103.6398907,
        1.3286713
      ],
      [
        103.6397195,
        1.3284896
      ],
      [
        103.6397981,
        1.328573
      ],
      [
        103.6395986,
        1.3283613
      ],
      [
        103.6394917,
        1.3282478
      ],
      [
        103.639113,
        1.327846
      ],
      [
        103.6390523,
        1.3277816
      ],
      [
        103.6389817,
        1.3277067
      ],
      [
        103.6386332,
        1.3273368
      ],
      [
        103.6383471,
        1.3270333
      ],
      [
        103.6379268,
        1.3265873
      ],
      [
        103.638009,
        1.3266745
      ],
      [
        103.6378984,
        1.3265571
      ],
      [
        103.6375437,
        1.3261807
      ],
      [
        103.637631,
        1.3262734
      ],
      [
        103.6374796,
        1.3261127
      ],
      [
        103.6372632,
        1.3258831
      ],
      [
        103.6370446,
        1.3256511
      ],
      [
        103.6369569,
        1.3255581
      ],
      [
        103.6363868,
        1.3249531
      ],
      [
        103.6364932,
        1.325066
      ],
      [
        103.6356733,
        1.324196
      ],
      [
        103.6357626,
        1.3242907
      ],
      [
        103.6354637,
        1.3239736
      ],
      [
        103.6351748,
        1.323667
      ],
      [
        103.6350658,
        1.3235513
      ],
      [
        103.6345095,
        1.322961
      ],
      [
        103.6345706,
        1.3230259
      ],
      [
        103.6349817,
        1.3234621
      ],
      [
        103.634467,
        1.3228151
      ],
      [
        103.6344165,
        1.3228624
      ],
      [
        103.6350256,
        1.3222918
      ],
      [
        103.6352719,
        1.322061
      ],
      [
        103.6353686,
        1.3219704
      ],
      [
        103.6360679,
        1.3213153
      ],
      [
        103.6360023,
        1.3213767
      ],
      [
        103.6361752,
        1.3212147
      ],
      [
        103.6366688,
        1.3207519
      ],
      [
        103.6372615,
        1.320186
      ],
      [
        103.6376904,
        1.3197766
      ],
      [
        103.6382214,
        1.3192592
      ],
      [
        103.6380875,
        1.319407
      ],
      [
        103.6382703,
        1.3192052
      ],
      [
        103.6382791,
        1.319097
      ],
      [
        103.6382674,
        1.3190847
      ],
      [
        103.6381546,
        1.3189533
      ],
      [
        103.637203,
        1.3179307
      ],
      [
        103.6360835,
        1.3167281
      ],
      [
        103.6356931,
        1.3162342
      ],
      [
        103.6355935,
        1.3161008
      ],
      [
        103.6355536,
        1.3160483
      ],
      [
        103.6355115,
        1.3159919
      ],
      [
        103.6354112,
        1.3158489
      ],
      [
        103.6349923,
        1.3152287
      ],
      [
        103.6346594,
        1.3146459
      ],
      [
        103.6343585,
        1.3140545
      ],
      [
        103.6342182,
        1.3137211
      ],
      [
        103.6341322,
        1.3135183
      ],
      [
        103.633986,
        1.3131153
      ],
      [
        103.6336227,
        1.3121335
      ],
      [
        103.633417,
        1.3115353
      ],
      [
        103.6333115,
        1.3112488
      ],
      [
        103.6332698,
        1.3111478
      ],
      [
        103.6332149,
        1.3109886
      ],
      [
        103.6331944,
        1.3109292
      ],
      [
        103.6331609,
        1.3108215
      ],
      [
        103.6331259,
        1.3107262
      ],
      [
        103.6330851,
        1.3106151
      ],
      [
        103.6322053,
        1.3082102
      ],
      [
        103.6320797,
        1.3078869
      ],
      [
        103.6319149,
        1.3074461
      ],
      [
        103.6318856,
        1.3073677
      ],
      [
        103.6318623,
        1.3073046
      ],
      [
        103.6300971,
        1.302512
      ],
      [
        103.6299884,
        1.3022385
      ],
      [
        103.6298982,
        1.3019853
      ],
      [
        103.6298093,
        1.301729
      ],
      [
        103.6297927,
        1.3016812
      ],
      [
        103.6297647,
        1.3015995
      ],
      [
        103.6297343,
        1.3015124
      ],
      [
        103.629688,
        1.3013794
      ],
      [
        103.6286446,
        1.2985366
      ],
      [
        103.6284998,
        1.2982229
      ],
      [
        103.6284132,
        1.2979935
      ],
      [
        103.628397,
        1.2979506
      ],
      [
        103.6283523,
        1.2978327
      ],
      [
        103.6283174,
        1.2977366
      ],
      [
        103.628295,
        1.2976751
      ],
      [
        103.6282534,
        1.2975719
      ],
      [
        103.6282153,
        1.2974712
      ],
      [
        103.6281411,
        1.2972754
      ],
      [
        103.6274698,
        1.2954663
      ],
      [
        103.6273907,
        1.2952236
      ],
      [
        103.6273022,
        1.294985
      ],
      [
        103.6272375,
        1.2948111
      ],
      [
        103.6272002,
        1.2947175
      ],
      [
        103.6271837,
        1.2946753
      ],
      [
        103.6271564,
        1.2946052
      ],
      [
        103.627135,
        1.2945463
      ],
      [
        103.6270588,
        1.2943367
      ],
      [
        103.6258982,
        1.2911441
      ],
      [
        103.6257648,
        1.2907773
      ],
      [
        103.6255768,
        1.2902601
      ],
      [
        103.6255407,
        1.2901593
      ],
      [
        103.6255243,
        1.2901133
      ],
      [
        103.6254821,
        1.2899848
      ],
      [
        103.6254481,
        1.2898877
      ],
      [
        103.6254135,
        1.2897891
      ],
      [
        103.6252274,
        1.2893148
      ],
      [
        103.6243881,
        1.2870475
      ],
      [
        103.6243226,
        1.2868772
      ],
      [
        103.6241925,
        1.2865192
      ],
      [
        103.6242329,
        1.28629
      ],
      [
        103.6242387,
        1.2862728
      ],
      [
        103.6242493,
        1.2862528
      ],
      [
        103.6242712,
        1.2862189
      ],
      [
        103.6243487,
        1.286121
      ],
      [
        103.6252301,
        1.2858172
      ],
      [
        103.6259349,
        1.2855366
      ],
      [
        103.6264597,
        1.2853355
      ],
      [
        103.6267991,
        1.2852321
      ],
      [
        103.6271538,
        1.2851578
      ],
      [
        103.6272602,
        1.2851355
      ],
      [
        103.6276271,
        1.285106
      ],
      [
        103.6299482,
        1.2849158
      ],
      [
        103.6301586,
        1.2849026
      ],
      [
        103.6305551,
        1.2848715
      ],
      [
        103.6307384,
        1.2848571
      ],
      [
        103.6307965,
        1.2848526
      ],
      [
        103.6309325,
        1.2848422
      ],
      [
        103.6309254,
        1.2847524
      ],
      [
        103.6309214,
        1.2847022
      ],
      [
        103.6309139,
        1.2846089
      ],
      [
        103.6308538,
        1.2838565
      ],
      [
        103.630786,
        1.2830083
      ],
      [
        103.6307703,
        1.2828119
      ],
      [
        103.6307449,
        1.2824944
      ],
      [
        103.6306209,
        1.280943
      ],
      [
        103.630609,
        1.2807937
      ],
      [
        103.6305705,
        1.2803119
      ],
      [
        103.6305566,
        1.2801367
      ],
      [
        103.6305524,
        1.2800779
      ],
      [
        103.6305417,
        1.2799891
      ],
      [
        103.630424,
        1.2799954
      ],
      [
        103.6303227,
        1.2800024
      ],
      [
        103.6301527,
        1.2800389
      ],
      [
        103.6300589,
        1.2800353
      ],
      [
        103.6294225,
        1.2800922
      ],
      [
        103.6288543,
        1.2801362
      ],
      [
        103.6282715,
        1.2802315
      ],
      [
        103.6277896,
        1.2803377
      ],
      [
        103.6276978,
        1.2803612
      ],
      [
        103.627665,
        1.2803668
      ],
      [
        103.6267889,
        1.2806442
      ],
      [
        103.6265767,
        1.2807242
      ],
      [
        103.6264854,
        1.2807586
      ],
      [
        103.6242699,
        1.2816191
      ],
      [
        103.6237942,
        1.2818033
      ],
      [
        103.6230245,
        1.2821014
      ],
      [
        103.6228987,
        1.2821125
      ],
      [
        103.6227923,
        1.2821232
      ],
      [
        103.6227284,
        1.2821125
      ],
      [
        103.6227153,
        1.2821063
      ],
      [
        103.6226603,
        1.2820806
      ],
      [
        103.6226028,
        1.2820189
      ],
      [
        103.6224917,
        1.2819053
      ],
      [
        103.6220599,
        1.2807181
      ],
      [
        103.621708,
        1.2793483
      ],
      [
        103.6216643,
        1.2790355
      ],
      [
        103.6215889,
        1.2784146
      ],
      [
        103.621579,
        1.2783317
      ],
      [
        103.6215737,
        1.2782808
      ],
      [
        103.6213517,
        1.2761593
      ],
      [
        103.6213212,
        1.2758734
      ],
      [
        103.6212743,
        1.2754386
      ],
      [
        103.6212631,
        1.275335
      ],
      [
        103.6212501,
        1.2752013
      ],
      [
        103.6210997,
        1.2752151
      ],
      [
        103.6210626,
        1.2752182
      ],
      [
        103.6209287,
        1.2752292
      ],
      [
        103.6204264,
        1.275269
      ],
      [
        103.6197603,
        1.2753474
      ],
      [
        103.6197317,
        1.2753508
      ],
      [
        103.6191845,
        1.2754849
      ],
      [
        103.6191649,
        1.2754891
      ],
      [
        103.6191434,
        1.2754936
      ],
      [
        103.6189971,
        1.2755316
      ],
      [
        103.6187969,
        1.2755894
      ],
      [
        103.6183134,
        1.2757731
      ],
      [
        103.6182229,
        1.2757651
      ],
      [
        103.6181646,
        1.2757483
      ],
      [
        103.6181355,
        1.2757335
      ],
      [
        103.6181183,
        1.2757248
      ],
      [
        103.6180794,
        1.2757
      ],
      [
        103.6180039,
        1.2756444
      ],
      [
        103.6171975,
        1.2735162
      ],
      [
        103.6162101,
        1.2708172
      ],
      [
        103.6161219,
        1.270529
      ],
      [
        103.6160182,
        1.2702407
      ],
      [
        103.6160396,
        1.2701405
      ],
      [
        103.6160785,
        1.270044
      ],
      [
        103.6161335,
        1.2699973
      ],
      [
        103.6162169,
        1.2699644
      ],
      [
        103.6163216,
        1.2699615
      ],
      [
        103.6165038,
        1.2699602
      ],
      [
        103.6168277,
        1.2699604
      ],
      [
        103.6168725,
        1.2699607
      ],
      [
        103.617083,
        1.2699609
      ],
      [
        103.6178347,
        1.2699581
      ],
      [
        103.6197431,
        1.2699549
      ],
      [
        103.6199382,
        1.2699555
      ],
      [
        103.6203095,
        1.2699547
      ],
      [
        103.6204795,
        1.2699591
      ],
      [
        103.6205758,
        1.2699581
      ],
      [
        103.6205872,
        1.2700648
      ],
      [
        103.6207665,
        1.2717792
      ],
      [
        103.6208852,
        1.2729108
      ],
      [
        103.6209079,
        1.2731613
      ],
      [
        103.620944,
        1.2734898
      ],
      [
        103.6210205,
        1.2742661
      ],
      [
        103.6210379,
        1.2744538
      ],
      [
        103.6210817,
        1.2750696
      ],
      [
        103.6210921,
        1.2751536
      ],
      [
        103.6210997,
        1.2752151
      ],
      [
        103.621113,
        1.2753521
      ],
      [
        103.6212631,
        1.275335
      ],
      [
        103.6213249,
        1.275328
      ],
      [
        103.6214735,
        1.2753172
      ],
      [
        103.6223705,
        1.2752262
      ],
      [
        103.6230449,
        1.2751577
      ],
      [
        103.6234245,
        1.2751153
      ],
      [
        103.6248788,
        1.2749512
      ],
      [
        103.6251792,
        1.2749191
      ],
      [
        103.6287817,
        1.2745148
      ],
      [
        103.6288491,
        1.2745072
      ],
      [
        103.6292253,
        1.2744672
      ],
      [
        103.62951,
        1.2744378
      ],
      [
        103.6297421,
        1.2744178
      ],
      [
        103.6298403,
        1.2744093
      ],
      [
        103.6299594,
        1.2743993
      ],
      [
        103.6300012,
        1.274395
      ],
      [
        103.6302551,
        1.2743693
      ],
      [
        103.6311108,
        1.27428
      ],
      [
        103.6346826,
        1.2739378
      ],
      [
        103.6353839,
        1.2738706
      ],
      [
        103.6355419,
        1.2739523
      ],
      [
        103.6355515,
        1.2739598
      ],
      [
        103.6355969,
        1.2739953
      ],
      [
        103.6356801,
        1.2741441
      ],
      [
        103.63577,
        1.2754761
      ],
      [
        103.6359698,
        1.2786287
      ],
      [
        103.6359912,
        1.2789159
      ],
      [
        103.6360169,
        1.2793066
      ],
      [
        103.636019,
        1.2794857
      ],
      [
        103.6360215,
        1.2795548
      ],
      [
        103.6360281,
        1.2796478
      ],
      [
        103.6360379,
        1.2797582
      ],
      [
        103.6360496,
        1.279933
      ],
      [
        103.6360806,
        1.2801509
      ],
      [
        103.6362115,
        1.2816465
      ],
      [
        103.6362331,
        1.281881
      ],
      [
        103.6362778,
        1.2822996
      ],
      [
        103.636291,
        1.2824783
      ],
      [
        103.636319,
        1.2828155
      ],
      [
        103.6363616,
        1.2835982
      ],
      [
        103.6363689,
        1.2837789
      ],
      [
        103.6363992,
        1.284148
      ],
      [
        103.6363296,
        1.284231
      ],
      [
        103.6362963,
        1.2842704
      ],
      [
        103.636288,
        1.2842802
      ],
      [
        103.6362246,
        1.2843163
      ],
      [
        103.6361252,
        1.2843556
      ],
      [
        103.635041,
        1.2844304
      ],
      [
        103.6341048,
        1.2845035
      ],
      [
        103.6329958,
        1.28459
      ],
      [
        103.6316088,
        1.2846982
      ],
      [
        103.6310805,
        1.2847403
      ],
      [
        103.6309803,
        1.2847481
      ],
      [
        103.6309254,
        1.2847524
      ],
      [
        103.6307898,
        1.2847647
      ],
      [
        103.6307325,
        1.2847691
      ],
      [
        103.6305626,
        1.284782
      ],
      [
        103.6295008,
        1.2848627
      ],
      [
        103.6278637,
        1.2849846
      ],
      [
        103.6272411,
        1.285034
      ],
      [
        103.6267781,
        1.285131
      ],
      [
        103.6263366,
        1.2852712
      ],
      [
        103.6248869,
        1.2858141
      ],
      [
        103.6245422,
        1.2859442
      ],
      [
        103.624299,
        1.2860298
      ],
      [
        103.6241196,
        1.2860934
      ],
      [
        103.6240371,
        1.2861226
      ],
      [
        103.6239148,
        1.2861745
      ],
      [
        103.6239516,
        1.2862639
      ],
      [
        103.6239792,
        1.2863274
      ],
      [
        103.6240416,
        1.2864709
      ],
      [
        103.6245255,
        1.2878138
      ],
      [
        103.6250591,
        1.2892499
      ],
      [
        103.6251445,
        1.2894779
      ],
      [
        103.6252538,
        1.2897662
      ],
      [
        103.6252704,
        1.2898185
      ],
      [
        103.6253061,
        1.2899375
      ],
      [
        103.6253409,
        1.2900356
      ],
      [
        103.6253868,
        1.2901646
      ],
      [
        103.6254007,
        1.2902044
      ],
      [
        103.625449,
        1.290343
      ],
      [
        103.6259358,
        1.2916664
      ],
      [
        103.6259861,
        1.291803
      ],
      [
        103.6262258,
        1.2924546
      ],
      [
        103.6267097,
        1.2937701
      ],
      [
        103.626819,
        1.2940524
      ],
      [
        103.6269868,
        1.294425
      ],
      [
        103.6270219,
        1.2945197
      ],
      [
        103.6270417,
        1.2945774
      ],
      [
        103.6270682,
        1.2946547
      ],
      [
        103.6270896,
        1.2947104
      ],
      [
        103.6271429,
        1.2948494
      ],
      [
        103.6278185,
        1.2968178
      ],
      [
        103.6278883,
        1.2969787
      ],
      [
        103.627988,
        1.297261
      ],
      [
        103.6280872,
        1.2975197
      ],
      [
        103.6281246,
        1.2976173
      ],
      [
        103.6281592,
        1.2977191
      ],
      [
        103.6281843,
        1.2977861
      ],
      [
        103.6282687,
        1.2980116
      ],
      [
        103.6287794,
        1.2993847
      ],
      [
        103.6292274,
        1.3005537
      ],
      [
        103.629336,
        1.3008086
      ],
      [
        103.6294057,
        1.3009989
      ],
      [
        103.6294929,
        1.3012068
      ],
      [
        103.6295514,
        1.3013752
      ],
      [
        103.6295915,
        1.301495
      ],
      [
        103.6296114,
        1.301559
      ],
      [
        103.6296382,
        1.3016451
      ],
      [
        103.6296621,
        1.3017181
      ],
      [
        103.6296817,
        1.3017707
      ],
      [
        103.6298691,
        1.3022738
      ],
      [
        103.6307764,
        1.3047159
      ],
      [
        103.6311353,
        1.3056754
      ],
      [
        103.6314757,
        1.306608
      ],
      [
        103.6315419,
        1.3068167
      ],
      [
        103.6316377,
        1.3071261
      ],
      [
        103.6317409,
        1.3073556
      ],
      [
        103.6317687,
        1.3074175
      ],
      [
        103.6317979,
        1.3074963
      ],
      [
        103.6318774,
        1.3077112
      ],
      [
        103.6327511,
        1.3100726
      ],
      [
        103.6328305,
        1.3102833
      ],
      [
        103.6329348,
        1.3106383
      ],
      [
        103.6329852,
        1.3107785
      ],
      [
        103.6330188,
        1.310872
      ],
      [
        103.633054,
        1.3109809
      ],
      [
        103.6330774,
        1.3110362
      ],
      [
        103.6331537,
        1.3112162
      ],
      [
        103.6336325,
        1.3125275
      ],
      [
        103.6337987,
        1.3129957
      ],
      [
        103.6338565,
        1.3131407
      ],
      [
        103.633896,
        1.3132482
      ],
      [
        103.6340912,
        1.313766
      ],
      [
        103.6342505,
        1.3141115
      ],
      [
        103.6345179,
        1.3147221
      ],
      [
        103.6349889,
        1.3154912
      ],
      [
        103.6352374,
        1.3158468
      ],
      [
        103.6354114,
        1.3160892
      ],
      [
        103.635448,
        1.3161377
      ],
      [
        103.6354883,
        1.3161917
      ],
      [
        103.635668,
        1.3164353
      ],
      [
        103.6358119,
        1.3166239
      ],
      [
        103.6362818,
        1.3171093
      ],
      [
        103.6364505,
        1.3172798
      ],
      [
        103.6373457,
        1.3182082
      ],
      [
        103.6380994,
        1.3190179
      ],
      [
        103.6381336,
        1.3191288
      ],
      [
        103.6381471,
        1.3192048
      ],
      [
        103.6381412,
        1.3192698
      ],
      [
        103.6381243,
        1.3193289
      ],
      [
        103.6380875,
        1.319407
      ],
      [
        103.6376904,
        1.3197766
      ],
      [
        103.6372615,
        1.320186
      ],
      [
        103.6366688,
        1.3207519
      ],
      [
        103.6361752,
        1.3212147
      ],
      [
        103.6360679,
        1.3213153
      ],
      [
        103.6360023,
        1.3213767
      ],
      [
        103.6353686,
        1.3219704
      ],
      [
        103.6352719,
        1.322061
      ],
      [
        103.6350256,
        1.3222918
      ],
      [
        103.634467,
        1.3228151
      ],
      [
        103.6344165,
        1.3228624
      ],
      [
        103.6345095,
        1.322961
      ],
      [
        103.6345706,
        1.3230259
      ],
      [
        103.6349817,
        1.3234621
      ],
      [
        103.6350658,
        1.3235513
      ],
      [
        103.6351748,
        1.323667
      ],
      [
        103.6354637,
        1.3239736
      ],
      [
        103.6356733,
        1.324196
      ],
      [
        103.6357626,
        1.3242907
      ],
      [
        103.6363868,
        1.3249531
      ],
      [
        103.6364932,
        1.325066
      ],
      [
        103.6369569,
        1.3255581
      ],
      [
        103.6370446,
        1.3256511
      ],
      [
        103.6372632,
        1.3258831
      ],
      [
        103.6374796,
        1.3261127
      ],
      [
        103.6375437,
        1.3261807
      ],
      [
        103.637631,
        1.3262734
      ],
      [
        103.6378984,
        1.3265571
      ],
      [
        103.6379268,
        1.3265873
      ],
      [
        103.638009,
        1.3266745
      ],
      [
        103.6383471,
        1.3270333
      ],
      [
        103.6386332,
        1.3273368
      ],
      [
        103.6389817,
        1.3277067
      ],
      [
        103.6390523,
        1.3277816
      ],
      [
        103.639113,
        1.327846
      ],
      [
        103.6394917,
        1.3282478
      ],
      [
        103.6395986,
        1.3283613
      ],
      [
        103.6397195,
        1.3284896
      ],
      [
        103.6397981,
        1.328573
      ],
      [
        103.6398907,
        1.3286713
      ],
      [
        103.6402187,
        1.3290193
      ],
      [
        103.640262,
        1.3290652
      ],
      [
        103.6403552,
        1.3291642
      ],
      [
        103.6402383,
        1.3292736
      ],
      [
        103.6398515,
        1.3296353
      ],
      [
        103.6397907,
        1.3296938
      ],
      [
        103.6397327,
        1.3297495
      ],
      [
        103.6391284,
        1.3303301
      ],
      [
        103.6389353,
        1.3305058
      ],
      [
        103.6388612,
        1.3305732
      ],
      [
        103.638768,
        1.330661
      ],
      [
        103.6387012,
        1.3307234
      ],
      [
        103.6385008,
        1.3308649
      ],
      [
        103.6382,
        1.3311357
      ],
      [
        103.6380974,
        1.3312334
      ],
      [
        103.6378295,
        1.3314696
      ],
      [
        103.6375985,
        1.3316633
      ],
      [
        103.6375411,
        1.3317133
      ],
      [
        103.6374639,
        1.3317799
      ],
      [
        103.637356,
        1.3318593
      ],
      [
        103.637088,
        1.3320857
      ],
      [
        103.6369322,
        1.3322869
      ],
      [
        103.6367003,
        1.3326918
      ],
      [
        103.6365458,
        1.3329269
      ],
      [
        103.6362682,
        1.3331917
      ],
      [
        103.635743,
        1.3336339
      ],
      [
        103.6356683,
        1.3336968
      ],
      [
        103.6356217,
        1.333736
      ],
      [
        103.6352979,
        1.3340517
      ],
      [
        103.6351449,
        1.3341994
      ],
      [
        103.6349653,
        1.3343783
      ],
      [
        103.6349301,
        1.3344127
      ],
      [
        103.6348718,
        1.334487
      ],
      [
        103.634902,
        1.3345644
      ],
      [
        103.6349253,
        1.334624
      ],
      [
        103.635426,
        1.3359485
      ],
      [
        103.635516,
        1.3362201
      ],
      [
        103.6355327,
        1.3362679
      ],
      [
        103.6358885,
        1.3372787
      ],
      [
        103.6359155,
        1.3373554
      ],
      [
        103.6360715,
        1.3377986
      ],
      [
        103.6361687,
        1.3381005
      ],
      [
        103.6361866,
        1.3381533
      ],
      [
        103.6365108,
        1.3390854
      ],
      [
        103.6365485,
        1.3391936
      ],
      [
        103.6367552,
        1.3397842
      ],
      [
        103.6368029,
        1.3399264
      ],
      [
        103.6368211,
        1.3399812
      ],
      [
        103.6368446,
        1.3400468
      ],
      [
        103.6370896,
        1.3407163
      ],
      [
        103.6371694,
        1.3409392
      ],
      [
        103.6371997,
        1.3410333
      ],
      [
        103.6373019,
        1.3413305
      ],
      [
        103.637449,
        1.3417704
      ],
      [
        103.6375268,
        1.3420295
      ],
      [
        103.6376536,
        1.3419929
      ],
      [
        103.637738,
        1.3419662
      ],
      [
        103.6382043,
        1.3418103
      ],
      [
        103.6385135,
        1.3417158
      ],
      [
        103.6385684,
        1.3416907
      ],
      [
        103.6386098,
        1.3416609
      ],
      [
        103.6386481,
        1.3416266
      ],
      [
        103.6397821,
        1.3405477
      ],
      [
        103.6398196,
        1.3405151
      ],
      [
        103.6398651,
        1.3404969
      ],
      [
        103.639915,
        1.3404903
      ],
      [
        103.6399688,
        1.3404963
      ],
      [
        103.6400132,
        1.3405117
      ],
      [
        103.6400608,
        1.3405532
      ],
      [
        103.6401324,
        1.3406331
      ],
      [
        103.6402164,
        1.3407019
      ]
    ]
  }
}