{
  "type": "Feature",
  "properties": {
    "relation": 12994297,
    "direction": "1",
    "fee": "yes",
    "from": "Boon Lay Interchange",
    "name": "Svc 251 (Boon Lay Interchange ↺ Shipyard Road)",
    "name:en": "Svc 251 (Boon Lay Interchange ↺ Shipyard Road)",
    "network": "Land Transport Authority",
    "network:short": "LTA",
    "network:wikidata": "Q3299279",
    "network:wikipedia": "en:Land Transport Authority",
    "operator": "SMRT Buses",
    "operator:wikidata": "Q10852420",
    "operator:wikipedia": "en:SMRT Buses",
    "public_transport:version": "2",
    "ref": "251",
    "roundtrip": "yes",
    "route": "bus",
    "to": "Boon Lay Interchange",
    "type": "route",
    "via": "Shipyard Road",
    "website": "https://journey.smrt.com.sg/journey/bus_search/bus/251/"
  },
  "geometry": {
    "type": "LineString",
    "coordinates": [
      [
        103.7057965,
        1.339427
      ],
      [
        103.7053904,
        1.3392791
      ],
      [
        103.7047704,
        1.3390533
      ],
      [
        103.7047322,
        1.3390454
      ],
      [
        103.7046939,
        1.3390461
      ],
      [
        103.7046745,
        1.3390568
      ],
      [
        103.7046621,
        1.3390677
      ],
      [
        103.7045954,
        1.3392562
      ],
      [
        103.7045394,
        1.3394125
      ],
      [
        103.7045451,
        1.3394436
      ],
      [
        103.7045625,
        1.3394703
      ],
      [
        103.7055021,
        1.3398079
      ],
      [
        103.7055872,
        1.3398497
      ],
      [
        103.7055977,
        1.3398652
      ],
      [
        103.7056021,
        1.3398758
      ],
      [
        103.7056031,
        1.3398872
      ],
      [
        103.705497,
        1.340199
      ],
      [
        103.7054751,
        1.3402633
      ],
      [
        103.7052326,
        1.3401663
      ],
      [
        103.7050505,
        1.3400936
      ],
      [
        103.7049991,
        1.340073
      ],
      [
        103.7049334,
        1.3400449
      ],
      [
        103.7047485,
        1.3399708
      ],
      [
        103.7043991,
        1.3398415
      ],
      [
        103.7043623,
        1.3398107
      ],
      [
        103.7043029,
        1.3397666
      ],
      [
        103.7042554,
        1.3397144
      ],
      [
        103.7041953,
        1.3396385
      ],
      [
        103.7041774,
        1.3395871
      ],
      [
        103.7042152,
        1.3394399
      ],
      [
        103.7042042,
        1.3393347
      ],
      [
        103.7041168,
        1.3391065
      ],
      [
        103.7040916,
        1.3390132
      ],
      [
        103.7040972,
        1.3388209
      ],
      [
        103.7041192,
        1.3387496
      ],
      [
        103.7042223,
        1.3384703
      ],
      [
        103.7042875,
        1.3382776
      ],
      [
        103.704322,
        1.3381764
      ],
      [
        103.7043531,
        1.3381095
      ],
      [
        103.7045836,
        1.3374673
      ],
      [
        103.70464,
        1.3373781
      ],
      [
        103.7046922,
        1.3373097
      ],
      [
        103.7047563,
        1.337238
      ],
      [
        103.7048395,
        1.3371634
      ],
      [
        103.7049294,
        1.3371039
      ],
      [
        103.7051214,
        1.3370351
      ],
      [
        103.7052293,
        1.336982
      ],
      [
        103.7054772,
        1.3368475
      ],
      [
        103.7055668,
        1.3368095
      ],
      [
        103.7058377,
        1.3366972
      ],
      [
        103.7061186,
        1.3365682
      ],
      [
        103.7061974,
        1.3365366
      ],
      [
        103.7063051,
        1.3364884
      ],
      [
        103.7062569,
        1.3363478
      ],
      [
        103.7062301,
        1.3362813
      ],
      [
        103.7061677,
        1.3360835
      ],
      [
        103.7059969,
        1.3357587
      ],
      [
        103.7058048,
        1.3354371
      ],
      [
        103.7057869,
        1.3354189
      ],
      [
        103.7057412,
        1.3353724
      ],
      [
        103.7055259,
        1.3351533
      ],
      [
        103.7052588,
        1.3349812
      ],
      [
        103.7049838,
        1.3348534
      ],
      [
        103.704954,
        1.3348451
      ],
      [
        103.7047076,
        1.3347768
      ],
      [
        103.7043519,
        1.3347471
      ],
      [
        103.7017587,
        1.3347505
      ],
      [
        103.6999488,
        1.3347529
      ],
      [
        103.6996583,
        1.3347494
      ],
      [
        103.6990005,
        1.3347497
      ],
      [
        103.6989602,
        1.334749
      ],
      [
        103.6988384,
        1.3347478
      ],
      [
        103.6988115,
        1.3347478
      ],
      [
        103.6974131,
        1.3347472
      ],
      [
        103.6971523,
        1.3347449
      ],
      [
        103.6970201,
        1.3347419
      ],
      [
        103.6968793,
        1.3346827
      ],
      [
        103.6966764,
        1.3345979
      ],
      [
        103.6966474,
        1.3345705
      ],
      [
        103.6965587,
        1.3344849
      ],
      [
        103.6965671,
        1.3338802
      ],
      [
        103.6965722,
        1.3328731
      ],
      [
        103.6965845,
        1.3322592
      ],
      [
        103.69659,
        1.3321361
      ],
      [
        103.6965877,
        1.3319988
      ],
      [
        103.6966021,
        1.331478
      ],
      [
        103.6965869,
        1.3310891
      ],
      [
        103.6965746,
        1.3307834
      ],
      [
        103.6965805,
        1.3305956
      ],
      [
        103.6966123,
        1.3298225
      ],
      [
        103.6966136,
        1.3286598
      ],
      [
        103.6966207,
        1.328322
      ],
      [
        103.6966256,
        1.3279073
      ],
      [
        103.6966263,
        1.3278458
      ],
      [
        103.6966269,
        1.3277018
      ],
      [
        103.696627,
        1.3276372
      ],
      [
        103.6966277,
        1.3270904
      ],
      [
        103.6966014,
        1.325837
      ],
      [
        103.6966004,
        1.325687
      ],
      [
        103.696597,
        1.325188
      ],
      [
        103.6965921,
        1.3246774
      ],
      [
        103.6965894,
        1.324577
      ],
      [
        103.6965946,
        1.3238874
      ],
      [
        103.6965973,
        1.3235382
      ],
      [
        103.696629,
        1.3233792
      ],
      [
        103.6967435,
        1.3231412
      ],
      [
        103.69682,
        1.3230211
      ],
      [
        103.6968303,
        1.3230122
      ],
      [
        103.6968383,
        1.3230045
      ],
      [
        103.6968928,
        1.3229351
      ],
      [
        103.6969348,
        1.3228483
      ],
      [
        103.6969569,
        1.3227545
      ],
      [
        103.6969582,
        1.3226582
      ],
      [
        103.6969385,
        1.3225638
      ],
      [
        103.6968988,
        1.322476
      ],
      [
        103.6968409,
        1.3223988
      ],
      [
        103.6967677,
        1.322336
      ],
      [
        103.6967536,
        1.322328
      ],
      [
        103.6966811,
        1.3222102
      ],
      [
        103.696615,
        1.3221076
      ],
      [
        103.6965727,
        1.3219868
      ],
      [
        103.6965492,
        1.3217243
      ],
      [
        103.6965018,
        1.3205947
      ],
      [
        103.6964831,
        1.3202488
      ],
      [
        103.6964548,
        1.3198085
      ],
      [
        103.6964449,
        1.3196459
      ],
      [
        103.6964427,
        1.3195307
      ],
      [
        103.6964283,
        1.3193961
      ],
      [
        103.6964123,
        1.3192654
      ],
      [
        103.6961404,
        1.316736
      ],
      [
        103.6960566,
        1.3159999
      ],
      [
        103.6960311,
        1.3157828
      ],
      [
        103.6959915,
        1.3155281
      ],
      [
        103.6959591,
        1.3153194
      ],
      [
        103.6959439,
        1.3152217
      ],
      [
        103.6959241,
        1.3150733
      ],
      [
        103.6958012,
        1.3150908
      ],
      [
        103.6956611,
        1.3151088
      ],
      [
        103.6951942,
        1.3151649
      ],
      [
        103.6945538,
        1.3152444
      ],
      [
        103.693856,
        1.3152886
      ],
      [
        103.6933668,
        1.3152785
      ],
      [
        103.6929303,
        1.3152303
      ],
      [
        103.6917838,
        1.315095
      ],
      [
        103.6914601,
        1.3150573
      ],
      [
        103.6911735,
        1.3150184
      ],
      [
        103.6908902,
        1.3149825
      ],
      [
        103.6908093,
        1.3149701
      ],
      [
        103.6907336,
        1.3149527
      ],
      [
        103.6904296,
        1.3148773
      ],
      [
        103.6901111,
        1.3147984
      ],
      [
        103.6898728,
        1.3147209
      ],
      [
        103.689722,
        1.3146546
      ],
      [
        103.6893735,
        1.3144946
      ],
      [
        103.6888911,
        1.3142315
      ],
      [
        103.6884682,
        1.3140001
      ],
      [
        103.6881199,
        1.3138092
      ],
      [
        103.6876305,
        1.3135402
      ],
      [
        103.6872176,
        1.313292
      ],
      [
        103.6862231,
        1.312725
      ],
      [
        103.6861787,
        1.3126997
      ],
      [
        103.6860794,
        1.312643
      ],
      [
        103.6857569,
        1.3124617
      ],
      [
        103.6847959,
        1.3118995
      ],
      [
        103.6839947,
        1.3116037
      ],
      [
        103.6833887,
        1.3113785
      ],
      [
        103.6831547,
        1.3112946
      ],
      [
        103.6828859,
        1.3111983
      ],
      [
        103.6822137,
        1.3109574
      ],
      [
        103.6818884,
        1.3108193
      ],
      [
        103.6818126,
        1.3107582
      ],
      [
        103.681754,
        1.3106962
      ],
      [
        103.6817367,
        1.3106777
      ],
      [
        103.6817201,
        1.3106259
      ],
      [
        103.6817192,
        1.3104933
      ],
      [
        103.6819053,
        1.3099431
      ],
      [
        103.6820289,
        1.3095709
      ],
      [
        103.6821492,
        1.3093568
      ],
      [
        103.6823293,
        1.309224
      ],
      [
        103.6825208,
        1.3091569
      ],
      [
        103.6826553,
        1.3091375
      ],
      [
        103.6843541,
        1.3091534
      ],
      [
        103.6844799,
        1.3091285
      ],
      [
        103.684553,
        1.3090849
      ],
      [
        103.6846134,
        1.3089938
      ],
      [
        103.6846416,
        1.3088731
      ],
      [
        103.6846475,
        1.3086513
      ],
      [
        103.6846588,
        1.3082283
      ],
      [
        103.6846473,
        1.3072871
      ],
      [
        103.6846536,
        1.3062954
      ],
      [
        103.6846569,
        1.3057204
      ],
      [
        103.6846602,
        1.3051539
      ],
      [
        103.6846609,
        1.3050319
      ],
      [
        103.6846617,
        1.3048975
      ],
      [
        103.6846738,
        1.3041281
      ],
      [
        103.6846622,
        1.3039517
      ],
      [
        103.6859915,
        1.3038057
      ],
      [
        103.6862526,
        1.303777
      ],
      [
        103.6872719,
        1.3036638
      ],
      [
        103.687914,
        1.3035885
      ],
      [
        103.6880303,
        1.3035749
      ],
      [
        103.688489,
        1.3035226
      ],
      [
        103.6885867,
        1.3035126
      ],
      [
        103.688961,
        1.3034743
      ],
      [
        103.6892016,
        1.3034725
      ],
      [
        103.6894089,
        1.3034641
      ],
      [
        103.6896115,
        1.3034794
      ],
      [
        103.689756,
        1.3034934
      ],
      [
        103.6899171,
        1.3035315
      ],
      [
        103.6902502,
        1.3036101
      ],
      [
        103.6904054,
        1.3036575
      ],
      [
        103.6907031,
        1.3037747
      ],
      [
        103.6909177,
        1.3038806
      ],
      [
        103.6913388,
        1.3041246
      ],
      [
        103.6914679,
        1.3042217
      ],
      [
        103.6918669,
        1.304565
      ],
      [
        103.6919429,
        1.3046566
      ],
      [
        103.6922655,
        1.3050618
      ],
      [
        103.6925217,
        1.3054828
      ],
      [
        103.6927295,
        1.3059038
      ],
      [
        103.6927999,
        1.3060496
      ],
      [
        103.6929016,
        1.3062603
      ],
      [
        103.6930486,
        1.306565
      ],
      [
        103.6931221,
        1.3066893
      ],
      [
        103.693215,
        1.3068463
      ],
      [
        103.6933049,
        1.3069657
      ],
      [
        103.6935774,
        1.3072404
      ],
      [
        103.6938813,
        1.3075131
      ],
      [
        103.6939859,
        1.3076069
      ],
      [
        103.6942998,
        1.3077758
      ],
      [
        103.6946706,
        1.3079384
      ],
      [
        103.695068,
        1.308117
      ],
      [
        103.6961278,
        1.3085806
      ],
      [
        103.6968173,
        1.3088553
      ],
      [
        103.6970508,
        1.3089483
      ],
      [
        103.6972305,
        1.3090199
      ],
      [
        103.6972589,
        1.3090439
      ],
      [
        103.6974149,
        1.3091048
      ],
      [
        103.6974678,
        1.3091553
      ],
      [
        103.6975712,
        1.3092937
      ],
      [
        103.6976739,
        1.30942
      ],
      [
        103.6976413,
        1.309468
      ],
      [
        103.6975512,
        1.3096057
      ],
      [
        103.6972238,
        1.3100735
      ],
      [
        103.6969688,
        1.3104771
      ],
      [
        103.6967917,
        1.3108311
      ],
      [
        103.696211,
        1.3122189
      ],
      [
        103.6960255,
        1.3127262
      ],
      [
        103.6959255,
        1.3130047
      ],
      [
        103.6959202,
        1.3130269
      ],
      [
        103.6958617,
        1.3132654
      ],
      [
        103.6957976,
        1.3135252
      ],
      [
        103.6957293,
        1.3139962
      ],
      [
        103.6957362,
        1.3145009
      ],
      [
        103.695786,
        1.314949
      ],
      [
        103.6958012,
        1.3150908
      ],
      [
        103.6958201,
        1.3152381
      ],
      [
        103.6958319,
        1.3153361
      ],
      [
        103.6958974,
        1.3158824
      ],
      [
        103.6962522,
        1.3189159
      ],
      [
        103.6963118,
        1.3194053
      ],
      [
        103.6963243,
        1.3195476
      ],
      [
        103.6963322,
        1.3196565
      ],
      [
        103.6963931,
        1.3212414
      ],
      [
        103.6964339,
        1.3219124
      ],
      [
        103.6964263,
        1.3219963
      ],
      [
        103.6963948,
        1.3220747
      ],
      [
        103.6963296,
        1.3221725
      ],
      [
        103.6963078,
        1.3222219
      ],
      [
        103.6962314,
        1.3223545
      ],
      [
        103.6962177,
        1.322375
      ],
      [
        103.6961548,
        1.3224499
      ],
      [
        103.6961091,
        1.3225346
      ],
      [
        103.6960829,
        1.3226271
      ],
      [
        103.6960773,
        1.3227231
      ],
      [
        103.6960926,
        1.322818
      ],
      [
        103.6961281,
        1.3229073
      ],
      [
        103.696182,
        1.3229868
      ],
      [
        103.6962501,
        1.3230506
      ],
      [
        103.6962574,
        1.3230556
      ],
      [
        103.6963243,
        1.323178
      ],
      [
        103.6964153,
        1.3233115
      ],
      [
        103.6964492,
        1.3234071
      ],
      [
        103.6964692,
        1.3236577
      ],
      [
        103.6964712,
        1.3241444
      ],
      [
        103.6964676,
        1.3245772
      ],
      [
        103.6964681,
        1.3246784
      ],
      [
        103.6964727,
        1.3257923
      ],
      [
        103.6964702,
        1.3266423
      ],
      [
        103.696472,
        1.3268667
      ],
      [
        103.6964624,
        1.3272562
      ],
      [
        103.6964594,
        1.3276379
      ],
      [
        103.6964589,
        1.3277003
      ],
      [
        103.696458,
        1.3278449
      ],
      [
        103.6964576,
        1.327909
      ],
      [
        103.6964548,
        1.3283337
      ],
      [
        103.6964466,
        1.3288187
      ],
      [
        103.696449,
        1.3290504
      ],
      [
        103.6964375,
        1.3300068
      ],
      [
        103.6964513,
        1.3305914
      ],
      [
        103.6964563,
        1.3308997
      ],
      [
        103.6964658,
        1.3313546
      ],
      [
        103.6964668,
        1.331997
      ],
      [
        103.6964684,
        1.3321394
      ],
      [
        103.6964637,
        1.332261
      ],
      [
        103.6964576,
        1.3329162
      ],
      [
        103.696449,
        1.3336256
      ],
      [
        103.6964378,
        1.3339332
      ],
      [
        103.6964344,
        1.3340027
      ],
      [
        103.6964283,
        1.3343661
      ],
      [
        103.6964128,
        1.3346831
      ],
      [
        103.6964109,
        1.3347466
      ],
      [
        103.6964036,
        1.3348782
      ],
      [
        103.6965348,
        1.3348788
      ],
      [
        103.6965985,
        1.3348796
      ],
      [
        103.6969188,
        1.3348839
      ],
      [
        103.6980268,
        1.3348932
      ],
      [
        103.6982694,
        1.3348885
      ],
      [
        103.6985354,
        1.3348786
      ],
      [
        103.6988112,
        1.334878
      ],
      [
        103.6988379,
        1.334878
      ],
      [
        103.6989596,
        1.3348777
      ],
      [
        103.6989999,
        1.3348764
      ],
      [
        103.6992537,
        1.3348767
      ],
      [
        103.6999458,
        1.3348776
      ],
      [
        103.7017633,
        1.3348799
      ],
      [
        103.7043488,
        1.3348831
      ],
      [
        103.704671,
        1.3349144
      ],
      [
        103.7049043,
        1.3349771
      ],
      [
        103.705177,
        1.3351014
      ],
      [
        103.705426,
        1.3352612
      ],
      [
        103.7056652,
        1.335482
      ],
      [
        103.7057869,
        1.3356593
      ],
      [
        103.7058748,
        1.3358015
      ],
      [
        103.7059973,
        1.3360805
      ],
      [
        103.7059891,
        1.3361896
      ],
      [
        103.705984,
        1.3362801
      ],
      [
        103.7059686,
        1.3363451
      ],
      [
        103.705933,
        1.3364255
      ],
      [
        103.7058482,
        1.336507
      ],
      [
        103.7053727,
        1.3366912
      ],
      [
        103.7051548,
        1.336797
      ],
      [
        103.7048477,
        1.3369812
      ],
      [
        103.704706,
        1.3371159
      ],
      [
        103.7046604,
        1.337178
      ],
      [
        103.704599,
        1.3372637
      ],
      [
        103.7045651,
        1.3373264
      ],
      [
        103.7044695,
        1.3375704
      ],
      [
        103.7042862,
        1.3380841
      ],
      [
        103.7042578,
        1.3381568
      ],
      [
        103.7042288,
        1.3382569
      ],
      [
        103.7041839,
        1.3383661
      ],
      [
        103.7041394,
        1.3384977
      ],
      [
        103.7041379,
        1.3385024
      ],
      [
        103.7040269,
        1.3388446
      ],
      [
        103.7040088,
        1.3389912
      ],
      [
        103.7040123,
        1.3391041
      ],
      [
        103.7040333,
        1.3392581
      ],
      [
        103.7040031,
        1.3395279
      ],
      [
        103.7039734,
        1.3396607
      ],
      [
        103.7039597,
        1.3396967
      ],
      [
        103.703933,
        1.3397852
      ],
      [
        103.7041066,
        1.3398499
      ],
      [
        103.7041751,
        1.3398748
      ],
      [
        103.7043943,
        1.3399522
      ],
      [
        103.704447,
        1.3399704
      ],
      [
        103.7046431,
        1.3400383
      ],
      [
        103.7047057,
        1.3400624
      ],
      [
        103.7047585,
        1.3400827
      ],
      [
        103.7048322,
        1.34011
      ],
      [
        103.7052737,
        1.3402782
      ],
      [
        103.7054385,
        1.340341
      ],
      [
        103.7055251,
        1.3403729
      ],
      [
        103.7055558,
        1.340292
      ],
      [
        103.7055796,
        1.3402265
      ],
      [
        103.7056101,
        1.3401424
      ],
      [
        103.705696,
        1.3398822
      ],
      [
        103.7057212,
        1.3398057
      ],
      [
        103.7057629,
        1.3396795
      ],
      [
        103.7058153,
        1.3395208
      ],
      [
        103.705821,
        1.3394659
      ],
      [
        103.7058152,
        1.3394449
      ],
      [
        103.7057965,
        1.339427
      ]
    ]
  }
}