{
  "type": "Feature",
  "properties": {
    "relation": 5702379,
    "direction": "1",
    "fee": "yes",
    "from": "Joo Koon Interchange",
    "name": "Svc 253 (Joo Koon Interchange ↺ Benoi Road)",
    "name:en": "Svc 253 (Joo Koon Interchange ↺ Benoi Road)",
    "network": "Land Transport Authority",
    "network:short": "LTA",
    "network:wikidata": "Q3299279",
    "network:wikipedia": "en:Land Transport Authority",
    "operator": "SMRT Buses",
    "operator:wikidata": "Q10852420",
    "operator:wikipedia": "en:SMRT Buses",
    "public_transport:version": "2",
    "ref": "253",
    "roundtrip": "yes",
    "route": "bus",
    "to": "Joo Koon Interchange",
    "type": "route",
    "via": "Benoi Road",
    "website": "https://journey.smrt.com.sg/journey/bus_search/bus/253/"
  },
  "geometry": {
    "type": "LineString",
    "coordinates": [
      [
        103.6786488,
        1.3266829
      ],
      [
        103.6786471,
        1.3266395
      ],
      [
        103.6786142,
        1.3265792
      ],
      [
        103.6785834,
        1.3265389
      ],
      [
        103.6779745,
        1.3265589
      ],
      [
        103.6779409,
        1.32663
      ],
      [
        103.6779377,
        1.3267111
      ],
      [
        103.6779524,
        1.3267762
      ],
      [
        103.6779692,
        1.3268479
      ],
      [
        103.6779177,
        1.3268522
      ],
      [
        103.6778191,
        1.3268707
      ],
      [
        103.6777907,
        1.3269036
      ],
      [
        103.6777907,
        1.3271265
      ],
      [
        103.6778001,
        1.3273838
      ],
      [
        103.6777998,
        1.3274741
      ],
      [
        103.6777996,
        1.3275664
      ],
      [
        103.6777994,
        1.3276237
      ],
      [
        103.6777868,
        1.3278618
      ],
      [
        103.6781813,
        1.3278653
      ],
      [
        103.678987,
        1.3278682
      ],
      [
        103.679216,
        1.3278693
      ],
      [
        103.6792422,
        1.3278693
      ],
      [
        103.6794296,
        1.3278602
      ],
      [
        103.6794158,
        1.3276468
      ],
      [
        103.6794128,
        1.327576
      ],
      [
        103.6793988,
        1.3272538
      ],
      [
        103.6793908,
        1.3270036
      ],
      [
        103.6793811,
        1.3268244
      ],
      [
        103.6793694,
        1.3265549
      ],
      [
        103.6793368,
        1.3257394
      ],
      [
        103.6792913,
        1.3246972
      ],
      [
        103.6792717,
        1.3240969
      ],
      [
        103.67926,
        1.3237392
      ],
      [
        103.6792557,
        1.3229816
      ],
      [
        103.6792597,
        1.3229325
      ],
      [
        103.6792609,
        1.3228295
      ],
      [
        103.6792613,
        1.3227698
      ],
      [
        103.679262,
        1.3226937
      ],
      [
        103.679263,
        1.3226159
      ],
      [
        103.6792649,
        1.3224738
      ],
      [
        103.6792629,
        1.3224399
      ],
      [
        103.6792414,
        1.3221678
      ],
      [
        103.6792028,
        1.3217533
      ],
      [
        103.6791638,
        1.3210816
      ],
      [
        103.6791333,
        1.3205561
      ],
      [
        103.6791328,
        1.3205438
      ],
      [
        103.6790921,
        1.3195924
      ],
      [
        103.6791721,
        1.3195895
      ],
      [
        103.6790921,
        1.3195924
      ],
      [
        103.6795583,
        1.3195919
      ],
      [
        103.6804609,
        1.3195919
      ],
      [
        103.680792,
        1.3195819
      ],
      [
        103.6809679,
        1.3195808
      ],
      [
        103.6812133,
        1.3195767
      ],
      [
        103.6813703,
        1.3195715
      ],
      [
        103.6817531,
        1.3195799
      ],
      [
        103.6827213,
        1.3195838
      ],
      [
        103.6828597,
        1.3195805
      ],
      [
        103.6829509,
        1.3195806
      ],
      [
        103.6832947,
        1.3195797
      ],
      [
        103.6833995,
        1.3195811
      ],
      [
        103.6837319,
        1.3195815
      ],
      [
        103.6839531,
        1.3195844
      ],
      [
        103.6840621,
        1.3195799
      ],
      [
        103.6850033,
        1.3195829
      ],
      [
        103.6850476,
        1.319583
      ],
      [
        103.6852763,
        1.3195825
      ],
      [
        103.6859366,
        1.319572
      ],
      [
        103.6855598,
        1.319582
      ],
      [
        103.6860534,
        1.3195689
      ],
      [
        103.6866488,
        1.3195724
      ],
      [
        103.687563,
        1.319278
      ],
      [
        103.6872385,
        1.319577
      ],
      [
        103.6877753,
        1.3190944
      ],
      [
        103.688036,
        1.3188576
      ],
      [
        103.6881749,
        1.3187281
      ],
      [
        103.6885478,
        1.3183919
      ],
      [
        103.6889548,
        1.3180193
      ],
      [
        103.6895152,
        1.3175143
      ],
      [
        103.6890501,
        1.3179355
      ],
      [
        103.689723,
        1.3173311
      ],
      [
        103.6895644,
        1.3174697
      ],
      [
        103.6905962,
        1.3164494
      ],
      [
        103.6905699,
        1.3165174
      ],
      [
        103.690538,
        1.3165697
      ],
      [
        103.6904885,
        1.316627
      ],
      [
        103.6901688,
        1.3169362
      ],
      [
        103.6906571,
        1.3160785
      ],
      [
        103.690636,
        1.3162196
      ],
      [
        103.6906711,
        1.3159659
      ],
      [
        103.6907,
        1.315729
      ],
      [
        103.6907798,
        1.3151642
      ],
      [
        103.6907474,
        1.3153775
      ],
      [
        103.6907922,
        1.3150828
      ],
      [
        103.6907336,
        1.3149527
      ],
      [
        103.6904296,
        1.3148773
      ],
      [
        103.6901111,
        1.3147984
      ],
      [
        103.6898728,
        1.3147209
      ],
      [
        103.689722,
        1.3146546
      ],
      [
        103.6893735,
        1.3144946
      ],
      [
        103.6888911,
        1.3142315
      ],
      [
        103.6884682,
        1.3140001
      ],
      [
        103.6881199,
        1.3138092
      ],
      [
        103.6876305,
        1.3135402
      ],
      [
        103.6872176,
        1.313292
      ],
      [
        103.6862231,
        1.312725
      ],
      [
        103.6861787,
        1.3126997
      ],
      [
        103.6860794,
        1.312643
      ],
      [
        103.6857569,
        1.3124617
      ],
      [
        103.6847959,
        1.3118995
      ],
      [
        103.6839947,
        1.3116037
      ],
      [
        103.6833887,
        1.3113785
      ],
      [
        103.6831547,
        1.3112946
      ],
      [
        103.6828859,
        1.3111983
      ],
      [
        103.6822137,
        1.3109574
      ],
      [
        103.6818884,
        1.3108193
      ],
      [
        103.6818601,
        1.3108088
      ],
      [
        103.6816444,
        1.3107286
      ],
      [
        103.6815485,
        1.310695
      ],
      [
        103.6814255,
        1.310652
      ],
      [
        103.6813421,
        1.3106228
      ],
      [
        103.6812365,
        1.3105858
      ],
      [
        103.6810499,
        1.3105204
      ],
      [
        103.6804701,
        1.3103173
      ],
      [
        103.6801867,
        1.3102241
      ],
      [
        103.6797595,
        1.3100712
      ],
      [
        103.6792012,
        1.3098764
      ],
      [
        103.6789575,
        1.3097936
      ],
      [
        103.678869,
        1.3096797
      ],
      [
        103.6787878,
        1.3095944
      ],
      [
        103.6787197,
        1.3095064
      ],
      [
        103.6786662,
        1.3093255
      ],
      [
        103.6786864,
        1.3090344
      ],
      [
        103.678692,
        1.3089335
      ],
      [
        103.6786898,
        1.308879
      ],
      [
        103.678694,
        1.3083597
      ],
      [
        103.6786966,
        1.3083391
      ],
      [
        103.6787872,
        1.3076207
      ],
      [
        103.6789018,
        1.306713
      ],
      [
        103.6789587,
        1.3062612
      ],
      [
        103.6790163,
        1.3058051
      ],
      [
        103.679044,
        1.3055854
      ],
      [
        103.679092,
        1.3052048
      ],
      [
        103.6791072,
        1.3050845
      ],
      [
        103.6791889,
        1.3044369
      ],
      [
        103.6792684,
        1.303807
      ],
      [
        103.6793359,
        1.303272
      ],
      [
        103.6794209,
        1.3025983
      ],
      [
        103.6794618,
        1.302276
      ],
      [
        103.6794886,
        1.3020333
      ],
      [
        103.6795154,
        1.3018215
      ],
      [
        103.6795438,
        1.3016243
      ],
      [
        103.6795674,
        1.3014368
      ],
      [
        103.6796234,
        1.3009928
      ],
      [
        103.6796251,
        1.3009795
      ],
      [
        103.6796099,
        1.3009776
      ],
      [
        103.678549,
        1.3008431
      ],
      [
        103.6785158,
        1.3008421
      ],
      [
        103.6784871,
        1.3008479
      ],
      [
        103.6784596,
        1.3008611
      ],
      [
        103.6784361,
        1.3008824
      ],
      [
        103.6779929,
        1.3013233
      ],
      [
        103.6777763,
        1.3015416
      ],
      [
        103.677465,
        1.3018551
      ],
      [
        103.6772445,
        1.3020772
      ],
      [
        103.6771009,
        1.3022219
      ],
      [
        103.676996,
        1.3023276
      ],
      [
        103.6768605,
        1.3024641
      ],
      [
        103.6766046,
        1.3027219
      ],
      [
        103.6764024,
        1.3029256
      ],
      [
        103.6763806,
        1.302973
      ],
      [
        103.6763701,
        1.303008
      ],
      [
        103.6763249,
        1.3032422
      ],
      [
        103.6762513,
        1.303818
      ],
      [
        103.6761952,
        1.3042783
      ],
      [
        103.6761467,
        1.3046758
      ],
      [
        103.6761208,
        1.3049216
      ],
      [
        103.676081,
        1.3053025
      ],
      [
        103.6760678,
        1.3054289
      ],
      [
        103.6760617,
        1.3054831
      ],
      [
        103.676054,
        1.3055444
      ],
      [
        103.6760394,
        1.3056609
      ],
      [
        103.6759685,
        1.3062269
      ],
      [
        103.6759462,
        1.3064047
      ],
      [
        103.6758549,
        1.3071337
      ],
      [
        103.6758277,
        1.307351
      ],
      [
        103.6756817,
        1.3085157
      ],
      [
        103.6756675,
        1.3086294
      ],
      [
        103.6756006,
        1.3091761
      ],
      [
        103.6755899,
        1.3092631
      ],
      [
        103.6755793,
        1.3093534
      ],
      [
        103.6767416,
        1.3095055
      ],
      [
        103.6776934,
        1.3096146
      ],
      [
        103.6781299,
        1.3097086
      ],
      [
        103.6784117,
        1.3097687
      ],
      [
        103.6784994,
        1.3097855
      ],
      [
        103.6786513,
        1.3098192
      ],
      [
        103.6787016,
        1.3098344
      ],
      [
        103.6790083,
        1.3099088
      ],
      [
        103.6797902,
        1.3101947
      ],
      [
        103.6799192,
        1.310238
      ],
      [
        103.6804331,
        1.3104134
      ],
      [
        103.6809441,
        1.3105847
      ],
      [
        103.6810045,
        1.3106049
      ],
      [
        103.6811971,
        1.3106733
      ],
      [
        103.6815201,
        1.3107765
      ],
      [
        103.6816168,
        1.3108074
      ],
      [
        103.682439,
        1.3111177
      ],
      [
        103.6831297,
        1.311373
      ],
      [
        103.6833737,
        1.3114632
      ],
      [
        103.6836673,
        1.3115717
      ],
      [
        103.684628,
        1.3119344
      ],
      [
        103.68474,
        1.3119966
      ],
      [
        103.6854031,
        1.3123651
      ],
      [
        103.6860285,
        1.3127222
      ],
      [
        103.686134,
        1.3127833
      ],
      [
        103.6861742,
        1.3128062
      ],
      [
        103.6871317,
        1.313352
      ],
      [
        103.6871801,
        1.3133809
      ],
      [
        103.6875945,
        1.3136028
      ],
      [
        103.6878575,
        1.3137437
      ],
      [
        103.6882669,
        1.3139792
      ],
      [
        103.68881,
        1.3142821
      ],
      [
        103.6899382,
        1.3148573
      ],
      [
        103.6902644,
        1.3149488
      ],
      [
        103.6904664,
        1.3150111
      ],
      [
        103.690583,
        1.3150852
      ],
      [
        103.6906424,
        1.3151422
      ],
      [
        103.690656,
        1.3151678
      ],
      [
        103.6907162,
        1.315252
      ],
      [
        103.6907474,
        1.3153775
      ],
      [
        103.6907,
        1.315729
      ],
      [
        103.6906711,
        1.3159659
      ],
      [
        103.6906571,
        1.3160785
      ],
      [
        103.690636,
        1.3162196
      ],
      [
        103.6905962,
        1.3164494
      ],
      [
        103.6905699,
        1.3165174
      ],
      [
        103.690538,
        1.3165697
      ],
      [
        103.6904885,
        1.316627
      ],
      [
        103.6901688,
        1.3169362
      ],
      [
        103.689723,
        1.3173311
      ],
      [
        103.6895644,
        1.3174697
      ],
      [
        103.6895152,
        1.3175143
      ],
      [
        103.6890501,
        1.3179355
      ],
      [
        103.6889548,
        1.3180193
      ],
      [
        103.6885478,
        1.3183919
      ],
      [
        103.6881749,
        1.3187281
      ],
      [
        103.688036,
        1.3188576
      ],
      [
        103.6877753,
        1.3190944
      ],
      [
        103.687563,
        1.319278
      ],
      [
        103.6872385,
        1.319577
      ],
      [
        103.6866488,
        1.3195724
      ],
      [
        103.6860534,
        1.3195689
      ],
      [
        103.6859366,
        1.319572
      ],
      [
        103.6855598,
        1.319582
      ],
      [
        103.6852763,
        1.3195825
      ],
      [
        103.6850476,
        1.319583
      ],
      [
        103.6850033,
        1.3195829
      ],
      [
        103.6840621,
        1.3195799
      ],
      [
        103.6839531,
        1.3195844
      ],
      [
        103.6837319,
        1.3195815
      ],
      [
        103.6833995,
        1.3195811
      ],
      [
        103.6832947,
        1.3195797
      ],
      [
        103.6829509,
        1.3195806
      ],
      [
        103.6828597,
        1.3195805
      ],
      [
        103.6827213,
        1.3195838
      ],
      [
        103.6817531,
        1.3195799
      ],
      [
        103.6813703,
        1.3195715
      ],
      [
        103.6812133,
        1.3195767
      ],
      [
        103.6809679,
        1.3195808
      ],
      [
        103.680792,
        1.3195819
      ],
      [
        103.6804609,
        1.3195919
      ],
      [
        103.6795583,
        1.3195919
      ],
      [
        103.6791721,
        1.3195895
      ],
      [
        103.6790921,
        1.3195924
      ],
      [
        103.6788899,
        1.319593
      ],
      [
        103.6789211,
        1.3205288
      ],
      [
        103.6789216,
        1.3206379
      ],
      [
        103.6789752,
        1.3211939
      ],
      [
        103.6789987,
        1.3214379
      ],
      [
        103.6790279,
        1.3219031
      ],
      [
        103.679057,
        1.3224184
      ],
      [
        103.6790601,
        1.3224728
      ],
      [
        103.6790611,
        1.3225973
      ],
      [
        103.6790606,
        1.3226784
      ],
      [
        103.6790621,
        1.3227969
      ],
      [
        103.6790628,
        1.3229035
      ],
      [
        103.6790637,
        1.3229345
      ],
      [
        103.6790641,
        1.3229794
      ],
      [
        103.6790768,
        1.3236358
      ],
      [
        103.6790998,
        1.3242951
      ],
      [
        103.6791147,
        1.3247229
      ],
      [
        103.6791632,
        1.3264469
      ],
      [
        103.679152,
        1.3264498
      ],
      [
        103.6791198,
        1.326494
      ],
      [
        103.6790619,
        1.3265278
      ],
      [
        103.6790554,
        1.3265316
      ],
      [
        103.6786598,
        1.3265369
      ],
      [
        103.6785834,
        1.3265389
      ],
      [
        103.6779745,
        1.3265589
      ],
      [
        103.6779409,
        1.32663
      ],
      [
        103.6779377,
        1.3267111
      ],
      [
        103.6779524,
        1.3267762
      ],
      [
        103.6779692,
        1.3268479
      ],
      [
        103.6786216,
        1.3268124
      ],
      [
        103.6786517,
        1.3267246
      ],
      [
        103.6786488,
        1.3266829
      ]
    ]
  }
}