{
  "type": "Feature",
  "properties": {
    "relation": 12980569,
    "direction": "1",
    "fee": "yes",
    "from": "Liuxun Sanhemiao Temple",
    "name": "Svc 268A (Liuxun Sanhemiao Temple → Techplace 2)",
    "name:en": "Svc 268A (Liuxun Sanhemiao Temple → Techplace 2)",
    "network": "Land Transport Authority",
    "network:short": "LTA",
    "network:wikidata": "Q3299279",
    "network:wikipedia": "en:Land Transport Authority",
    "operator": "SBS Transit",
    "operator:wikidata": "Q2661305",
    "operator:wikipedia": "en:SBS Transit",
    "public_transport:version": "2",
    "ref": "268A",
    "route": "bus",
    "to": "Techplace 2",
    "type": "route",
    "website": "https://www.sbstransit.com.sg/"
  },
  "geometry": {
    "type": "LineString",
    "coordinates": [
      [
        103.8481553,
        1.386985
      ],
      [
        103.848176,
        1.3867628
      ],
      [
        103.8481553,
        1.386985
      ],
      [
        103.8481227,
        1.3872963
      ],
      [
        103.8480905,
        1.3875914
      ],
      [
        103.8480855,
        1.3876377
      ],
      [
        103.8474518,
        1.3874903
      ],
      [
        103.8464482,
        1.387237
      ],
      [
        103.8463397,
        1.3872551
      ],
      [
        103.8462657,
        1.3872983
      ],
      [
        103.8462315,
        1.387353
      ],
      [
        103.8462076,
        1.3874345
      ],
      [
        103.8460654,
        1.3880428
      ],
      [
        103.845868,
        1.3888064
      ],
      [
        103.8458053,
        1.3887757
      ],
      [
        103.8452734,
        1.3885151
      ],
      [
        103.8449169,
        1.3883372
      ],
      [
        103.8448218,
        1.3882395
      ],
      [
        103.8447654,
        1.388138
      ],
      [
        103.8447466,
        1.3880334
      ],
      [
        103.8447628,
        1.387936
      ],
      [
        103.8447694,
        1.3878966
      ],
      [
        103.8448306,
        1.387705
      ],
      [
        103.8448664,
        1.3876225
      ],
      [
        103.8449034,
        1.3875372
      ],
      [
        103.8449346,
        1.387461
      ],
      [
        103.8450184,
        1.3872652
      ],
      [
        103.8450696,
        1.3871585
      ],
      [
        103.8452153,
        1.3868539
      ],
      [
        103.8454801,
        1.3863847
      ],
      [
        103.8455987,
        1.3861784
      ],
      [
        103.8457609,
        1.3858924
      ],
      [
        103.8459137,
        1.3855925
      ],
      [
        103.846063,
        1.3852428
      ],
      [
        103.8461254,
        1.3850221
      ],
      [
        103.846144,
        1.3848808
      ],
      [
        103.8461513,
        1.3848303
      ],
      [
        103.8461539,
        1.38476
      ],
      [
        103.8461473,
        1.3845092
      ],
      [
        103.8461424,
        1.3844263
      ],
      [
        103.8461379,
        1.3843497
      ],
      [
        103.8461405,
        1.384284
      ],
      [
        103.8460727,
        1.3842847
      ],
      [
        103.8456646,
        1.3842695
      ],
      [
        103.8455928,
        1.3842596
      ],
      [
        103.8455233,
        1.3842541
      ],
      [
        103.8454793,
        1.3842479
      ],
      [
        103.845336,
        1.384233
      ],
      [
        103.8452905,
        1.3842262
      ],
      [
        103.8450567,
        1.3841925
      ],
      [
        103.8448216,
        1.3841657
      ],
      [
        103.8447315,
        1.3841471
      ],
      [
        103.8445384,
        1.3841022
      ],
      [
        103.8444983,
        1.3840985
      ],
      [
        103.8444293,
        1.3840922
      ],
      [
        103.844122,
        1.3840633
      ],
      [
        103.8439955,
        1.384045
      ],
      [
        103.8438738,
        1.3840288
      ],
      [
        103.8437743,
        1.3840156
      ],
      [
        103.8437107,
        1.3840093
      ],
      [
        103.8435778,
        1.3839896
      ],
      [
        103.8426859,
        1.3838768
      ],
      [
        103.8424316,
        1.3838441
      ],
      [
        103.8422554,
        1.3838215
      ],
      [
        103.8422046,
        1.3838151
      ],
      [
        103.8420224,
        1.3837916
      ],
      [
        103.8417631,
        1.3837598
      ],
      [
        103.8415168,
        1.3837245
      ],
      [
        103.8413722,
        1.3836987
      ],
      [
        103.8412408,
        1.3836608
      ],
      [
        103.8411207,
        1.3836269
      ],
      [
        103.8408841,
        1.3835305
      ],
      [
        103.8408201,
        1.3834958
      ],
      [
        103.8404298,
        1.3832841
      ],
      [
        103.8401621,
        1.3831476
      ],
      [
        103.840111,
        1.38312
      ],
      [
        103.840068,
        1.3830955
      ],
      [
        103.8395379,
        1.3827685
      ],
      [
        103.8394626,
        1.382722
      ],
      [
        103.8393783,
        1.3826733
      ],
      [
        103.8393014,
        1.3826249
      ],
      [
        103.8388057,
        1.382313
      ],
      [
        103.8387389,
        1.3822709
      ],
      [
        103.838766,
        1.3822264
      ],
      [
        103.8390425,
        1.3817723
      ],
      [
        103.8392193,
        1.3814902
      ],
      [
        103.8392946,
        1.3813674
      ],
      [
        103.8393596,
        1.3812483
      ],
      [
        103.839421,
        1.3811452
      ],
      [
        103.8395363,
        1.380906
      ],
      [
        103.8396275,
        1.3807169
      ],
      [
        103.8397549,
        1.3803657
      ],
      [
        103.8398174,
        1.3801753
      ],
      [
        103.8398438,
        1.3800704
      ],
      [
        103.8399149,
        1.3795025
      ],
      [
        103.8399171,
        1.3792416
      ],
      [
        103.8398291,
        1.3784954
      ],
      [
        103.8397916,
        1.378245
      ],
      [
        103.8397661,
        1.3780031
      ],
      [
        103.8397501,
        1.3778096
      ],
      [
        103.8397175,
        1.3775152
      ],
      [
        103.8396928,
        1.3772432
      ],
      [
        103.8396805,
        1.3771316
      ],
      [
        103.8396598,
        1.377013
      ],
      [
        103.8396352,
        1.3769155
      ],
      [
        103.8395919,
        1.3767328
      ],
      [
        103.839547,
        1.3765393
      ],
      [
        103.8395021,
        1.3763375
      ],
      [
        103.8394425,
        1.3761356
      ],
      [
        103.839344,
        1.3759256
      ],
      [
        103.8392291,
        1.375717
      ],
      [
        103.8392108,
        1.3756905
      ],
      [
        103.8391133,
        1.3755494
      ],
      [
        103.839038,
        1.3754785
      ],
      [
        103.8389687,
        1.3754097
      ],
      [
        103.8388623,
        1.3753266
      ],
      [
        103.8387384,
        1.375217
      ],
      [
        103.8386964,
        1.3751868
      ],
      [
        103.8385632,
        1.3750911
      ],
      [
        103.8381761,
        1.3748435
      ],
      [
        103.8380943,
        1.3747878
      ],
      [
        103.8380501,
        1.3747578
      ],
      [
        103.837892,
        1.3746308
      ],
      [
        103.8378094,
        1.3745561
      ],
      [
        103.8377335,
        1.3744677
      ],
      [
        103.8376398,
        1.3743464
      ],
      [
        103.8375949,
        1.374278
      ],
      [
        103.8374775,
        1.3740538
      ],
      [
        103.8374001,
        1.3738185
      ],
      [
        103.8373647,
        1.3737012
      ],
      [
        103.8373369,
        1.3736274
      ],
      [
        103.8373254,
        1.3735904
      ],
      [
        103.8373061,
        1.3735281
      ],
      [
        103.8372868,
        1.373466
      ],
      [
        103.8372788,
        1.3734292
      ],
      [
        103.837264,
        1.3733879
      ],
      [
        103.8372411,
        1.3733252
      ],
      [
        103.8371796,
        1.3731694
      ],
      [
        103.8371123,
        1.3729766
      ],
      [
        103.8370716,
        1.3728524
      ],
      [
        103.8370206,
        1.3726969
      ],
      [
        103.8369538,
        1.3724931
      ],
      [
        103.8368594,
        1.3722277
      ],
      [
        103.836726,
        1.3718657
      ],
      [
        103.8367139,
        1.3718284
      ],
      [
        103.8366816,
        1.3717235
      ],
      [
        103.8366453,
        1.3715912
      ],
      [
        103.8366248,
        1.3715001
      ],
      [
        103.8366182,
        1.3714154
      ],
      [
        103.8366331,
        1.371144
      ],
      [
        103.8366433,
        1.3710475
      ],
      [
        103.8366465,
        1.3709628
      ],
      [
        103.8366493,
        1.3709035
      ],
      [
        103.8366565,
        1.3708013
      ],
      [
        103.8366684,
        1.3707147
      ],
      [
        103.8367262,
        1.3704328
      ],
      [
        103.8367808,
        1.3702847
      ],
      [
        103.83681,
        1.3702054
      ],
      [
        103.8369435,
        1.3699198
      ],
      [
        103.8371984,
        1.3694984
      ],
      [
        103.8372625,
        1.3694087
      ],
      [
        103.8373743,
        1.3694937
      ],
      [
        103.8376002,
        1.3696425
      ],
      [
        103.8380837,
        1.3698201
      ],
      [
        103.8383702,
        1.3698706
      ],
      [
        103.8386103,
        1.369902
      ],
      [
        103.8388413,
        1.3699068
      ],
      [
        103.8388693,
        1.3699088
      ],
      [
        103.8392777,
        1.3698631
      ],
      [
        103.8400939,
        1.3697774
      ],
      [
        103.8402862,
        1.3697533
      ],
      [
        103.8403665,
        1.3697356
      ],
      [
        103.8408317,
        1.3696763
      ],
      [
        103.8409074,
        1.36967
      ],
      [
        103.8413887,
        1.3696197
      ],
      [
        103.8416911,
        1.3695818
      ],
      [
        103.8423562,
        1.3695033
      ],
      [
        103.8426048,
        1.3694818
      ],
      [
        103.8427437,
        1.3694659
      ],
      [
        103.8428186,
        1.3694508
      ],
      [
        103.8431051,
        1.3694164
      ],
      [
        103.8432412,
        1.3693978
      ],
      [
        103.8434198,
        1.3693734
      ],
      [
        103.8435984,
        1.3693489
      ],
      [
        103.8439426,
        1.3693471
      ],
      [
        103.8440539,
        1.3693404
      ],
      [
        103.8441489,
        1.3693326
      ],
      [
        103.8444837,
        1.3692943
      ],
      [
        103.8446547,
        1.3692836
      ],
      [
        103.8447645,
        1.3692614
      ],
      [
        103.8454095,
        1.3691548
      ],
      [
        103.8455521,
        1.3691478
      ],
      [
        103.8456547,
        1.3691409
      ],
      [
        103.8457075,
        1.3691439
      ],
      [
        103.8459755,
        1.3690926
      ],
      [
        103.8464119,
        1.3690409
      ],
      [
        103.8468064,
        1.3689874
      ],
      [
        103.8469249,
        1.368967
      ],
      [
        103.8474384,
        1.3688976
      ],
      [
        103.8477057,
        1.3688648
      ],
      [
        103.847981,
        1.3688394
      ],
      [
        103.8482505,
        1.3688259
      ],
      [
        103.8485784,
        1.3688258
      ],
      [
        103.8487989,
        1.3688462
      ],
      [
        103.8490582,
        1.3688914
      ],
      [
        103.8494921,
        1.3689926
      ],
      [
        103.8495785,
        1.3690175
      ],
      [
        103.849639,
        1.369037
      ],
      [
        103.8497652,
        1.3690664
      ],
      [
        103.8498972,
        1.3690954
      ],
      [
        103.8502167,
        1.3691765
      ],
      [
        103.8509725,
        1.3694101
      ],
      [
        103.8511927,
        1.3694845
      ],
      [
        103.8516254,
        1.3696007
      ],
      [
        103.8519869,
        1.3696949
      ],
      [
        103.8520505,
        1.3697106
      ],
      [
        103.8522987,
        1.369771
      ],
      [
        103.8532344,
        1.3699285
      ],
      [
        103.8536571,
        1.3699186
      ],
      [
        103.8539149,
        1.3699003
      ],
      [
        103.8539355,
        1.3698979
      ],
      [
        103.8541601,
        1.3698658
      ],
      [
        103.8543452,
        1.3698132
      ],
      [
        103.8549212,
        1.3696455
      ],
      [
        103.855432,
        1.3694937
      ],
      [
        103.8558599,
        1.3693854
      ],
      [
        103.8560131,
        1.369342
      ],
      [
        103.8563484,
        1.3692545
      ],
      [
        103.8565221,
        1.3692193
      ],
      [
        103.8566989,
        1.3691679
      ],
      [
        103.8567822,
        1.3691436
      ],
      [
        103.8568528,
        1.3691273
      ],
      [
        103.8569409,
        1.3691211
      ],
      [
        103.8578081,
        1.3690601
      ],
      [
        103.8580526,
        1.3690636
      ],
      [
        103.858227,
        1.369069
      ],
      [
        103.8583676,
        1.3691189
      ],
      [
        103.8584755,
        1.3692284
      ],
      [
        103.858586,
        1.3693438
      ],
      [
        103.8586678,
        1.3694095
      ],
      [
        103.8588064,
        1.3694941
      ],
      [
        103.8589056,
        1.3695319
      ],
      [
        103.8590055,
        1.3695425
      ],
      [
        103.8591444,
        1.3695398
      ],
      [
        103.8593025,
        1.3694768
      ],
      [
        103.8594518,
        1.3694084
      ],
      [
        103.8596605,
        1.3693212
      ],
      [
        103.8598605,
        1.3693251
      ],
      [
        103.8604291,
        1.3694176
      ],
      [
        103.8612927,
        1.3696428
      ],
      [
        103.8617616,
        1.3697635
      ],
      [
        103.8627817,
        1.3700724
      ],
      [
        103.8631032,
        1.370155
      ],
      [
        103.8634295,
        1.3702734
      ],
      [
        103.8636532,
        1.370353
      ],
      [
        103.8638447,
        1.3704162
      ],
      [
        103.8638975,
        1.370431
      ],
      [
        103.8639929,
        1.3704671
      ],
      [
        103.8640183,
        1.3704755
      ],
      [
        103.8641543,
        1.3705207
      ],
      [
        103.8643093,
        1.3705722
      ],
      [
        103.864668,
        1.3706914
      ],
      [
        103.8647601,
        1.3707368
      ],
      [
        103.8648051,
        1.370759
      ],
      [
        103.8649402,
        1.3708321
      ],
      [
        103.8650277,
        1.3708817
      ],
      [
        103.8652624,
        1.3710286
      ],
      [
        103.8657747,
        1.371379
      ],
      [
        103.8660716,
        1.3715536
      ],
      [
        103.8661292,
        1.3717129
      ],
      [
        103.8661745,
        1.3718409
      ],
      [
        103.8662216,
        1.3721193
      ],
      [
        103.8662216,
        1.3721193
      ],
      [
        103.8662045,
        1.3722948
      ],
      [
        103.8661252,
        1.3726219
      ],
      [
        103.8661783,
        1.372637
      ],
      [
        103.8658324,
        1.3725267
      ],
      [
        103.865507,
        1.3724195
      ],
      [
        103.8654287,
        1.3723941
      ],
      [
        103.8647303,
        1.3721678
      ],
      [
        103.8647733,
        1.3721817
      ],
      [
        103.8646481,
        1.3721411
      ],
      [
        103.8643673,
        1.3720501
      ],
      [
        103.8635927,
        1.3718001
      ],
      [
        103.8640211,
        1.3719379
      ],
      [
        103.8635478,
        1.3717846
      ],
      [
        103.8634013,
        1.3719835
      ],
      [
        103.8632327,
        1.3725092
      ],
      [
        103.8631731,
        1.3726506
      ],
      [
        103.863049,
        1.3730011
      ],
      [
        103.86284,
        1.3736592
      ],
      [
        103.862728,
        1.3739689
      ],
      [
        103.8626346,
        1.3742271
      ],
      [
        103.862597,
        1.3743143
      ],
      [
        103.862535,
        1.3743554
      ],
      [
        103.8622838,
        1.3742898
      ],
      [
        103.8621716,
        1.3742603
      ],
      [
        103.8621023,
        1.3742371
      ],
      [
        103.8620307,
        1.3742987
      ],
      [
        103.8619492,
        1.3744323
      ],
      [
        103.8617226,
        1.3751142
      ],
      [
        103.8615413,
        1.3756525
      ],
      [
        103.8613766,
        1.3761703
      ],
      [
        103.8612158,
        1.3766769
      ],
      [
        103.8611142,
        1.3770176
      ],
      [
        103.8610738,
        1.3771532
      ],
      [
        103.8610607,
        1.3771938
      ],
      [
        103.8610142,
        1.3773497
      ],
      [
        103.8611262,
        1.3773785
      ],
      [
        103.8611648,
        1.3773891
      ],
      [
        103.8612658,
        1.3774184
      ],
      [
        103.8627022,
        1.3778267
      ],
      [
        103.8628682,
        1.3778747
      ],
      [
        103.8631028,
        1.3779414
      ],
      [
        103.8632864,
        1.3779869
      ],
      [
        103.8633498,
        1.3780034
      ],
      [
        103.8634548,
        1.3780288
      ],
      [
        103.8634954,
        1.377894
      ],
      [
        103.8635163,
        1.3778297
      ],
      [
        103.863657,
        1.377398
      ],
      [
        103.8642387,
        1.3755601
      ],
      [
        103.864889,
        1.3757518
      ],
      [
        103.8649878,
        1.3757836
      ],
      [
        103.8652051,
        1.3758534
      ],
      [
        103.8652611,
        1.3758714
      ],
      [
        103.8653216,
        1.3758891
      ],
      [
        103.8657242,
        1.3760068
      ],
      [
        103.8659145,
        1.376043
      ],
      [
        103.8660587,
        1.3760703
      ],
      [
        103.866098,
        1.3760778
      ],
      [
        103.866567,
        1.3761194
      ],
      [
        103.8666838,
        1.3761657
      ],
      [
        103.8668119,
        1.3762647
      ],
      [
        103.8668852,
        1.3763782
      ],
      [
        103.866945,
        1.3765183
      ],
      [
        103.8669624,
        1.3765763
      ],
      [
        103.8670019,
        1.3768215
      ],
      [
        103.8670394,
        1.3770543
      ],
      [
        103.8670912,
        1.37733
      ],
      [
        103.8671383,
        1.3775791
      ],
      [
        103.8671762,
        1.3777663
      ],
      [
        103.8672245,
        1.3780478
      ],
      [
        103.8672685,
        1.3783027
      ],
      [
        103.867292,
        1.3784392
      ],
      [
        103.867138,
        1.3784282
      ],
      [
        103.8665729,
        1.3783879
      ],
      [
        103.8660894,
        1.3783534
      ]
    ]
  }
}