{
  "type": "Feature",
  "properties": {
    "relation": 12980545,
    "direction": "1",
    "fee": "yes",
    "from": "Blk 203B",
    "name": "Svc 27A (Blk 203B → Opposite Century Square)",
    "network": "Land Transport Authority",
    "network:short": "LTA",
    "network:wikidata": "Q3299279",
    "network:wikipedia": "en:Land Transport Authority",
    "operator": "SBS Transit",
    "operator:wikidata": "Q2661305",
    "operator:wikipedia": "en:SBS Transit",
    "public_transport:version": "2",
    "ref": "27A",
    "route": "bus",
    "to": "Opposite Century Square",
    "type": "route",
    "website": "https://www.sbstransit.com.sg/"
  },
  "geometry": {
    "type": "LineString",
    "coordinates": [
      [
        103.8940907,
        1.3866603
      ],
      [
        103.8941411,
        1.386648
      ],
      [
        103.8944587,
        1.3865708
      ],
      [
        103.8947419,
        1.3864764
      ],
      [
        103.8949203,
        1.3863984
      ],
      [
        103.8950423,
        1.3863391
      ],
      [
        103.8952147,
        1.3862391
      ],
      [
        103.895523,
        1.3860388
      ],
      [
        103.8956445,
        1.3860137
      ],
      [
        103.8957482,
        1.3860049
      ],
      [
        103.895792,
        1.386011
      ],
      [
        103.8959008,
        1.3860727
      ],
      [
        103.8959677,
        1.3861491
      ],
      [
        103.8960799,
        1.3864331
      ],
      [
        103.8961182,
        1.3865488
      ],
      [
        103.896313,
        1.3871285
      ],
      [
        103.8963801,
        1.3873363
      ],
      [
        103.896484,
        1.3876523
      ],
      [
        103.8965797,
        1.3879385
      ],
      [
        103.896597,
        1.3879904
      ],
      [
        103.8966216,
        1.3880641
      ],
      [
        103.8966471,
        1.3881402
      ],
      [
        103.89672,
        1.3883582
      ],
      [
        103.8969044,
        1.3888473
      ],
      [
        103.8969639,
        1.3890007
      ],
      [
        103.8970197,
        1.3891624
      ],
      [
        103.8970974,
        1.3894132
      ],
      [
        103.8971972,
        1.3897002
      ],
      [
        103.8972176,
        1.3897571
      ],
      [
        103.897239,
        1.389826
      ],
      [
        103.8972652,
        1.3899023
      ],
      [
        103.8973084,
        1.390029
      ],
      [
        103.8973468,
        1.3901389
      ],
      [
        103.8975594,
        1.3907775
      ],
      [
        103.8976096,
        1.3909185
      ],
      [
        103.8976302,
        1.3909736
      ],
      [
        103.8976913,
        1.3911643
      ],
      [
        103.8977807,
        1.391432
      ],
      [
        103.8978542,
        1.3916536
      ],
      [
        103.8978827,
        1.3917589
      ],
      [
        103.8978996,
        1.3918212
      ],
      [
        103.8979284,
        1.3919003
      ],
      [
        103.8979523,
        1.3919794
      ],
      [
        103.8979907,
        1.3921061
      ],
      [
        103.8980833,
        1.3923659
      ],
      [
        103.8981664,
        1.3925972
      ],
      [
        103.8983715,
        1.3931762
      ],
      [
        103.8984347,
        1.3933542
      ],
      [
        103.8986182,
        1.3938711
      ],
      [
        103.8986787,
        1.3940278
      ],
      [
        103.8987605,
        1.3942222
      ],
      [
        103.8989189,
        1.3946193
      ],
      [
        103.8989988,
        1.3948386
      ],
      [
        103.8990196,
        1.3948975
      ],
      [
        103.8990629,
        1.3950205
      ],
      [
        103.8991386,
        1.3950011
      ],
      [
        103.899193,
        1.3949871
      ],
      [
        103.8994258,
        1.3949275
      ],
      [
        103.900126,
        1.3946883
      ],
      [
        103.9002547,
        1.3946378
      ],
      [
        103.9006823,
        1.3944823
      ],
      [
        103.900848,
        1.3944239
      ],
      [
        103.901093,
        1.3943457
      ],
      [
        103.9012444,
        1.3943343
      ],
      [
        103.9013274,
        1.394342
      ],
      [
        103.9013504,
        1.3943528
      ],
      [
        103.9014042,
        1.3943779
      ],
      [
        103.9015132,
        1.3944413
      ],
      [
        103.9016164,
        1.3945697
      ],
      [
        103.9016937,
        1.3946449
      ],
      [
        103.9018717,
        1.3948181
      ],
      [
        103.902069,
        1.3950117
      ],
      [
        103.9021273,
        1.3950689
      ],
      [
        103.902262,
        1.3952039
      ],
      [
        103.9023761,
        1.3953012
      ],
      [
        103.9025148,
        1.3954326
      ],
      [
        103.902686,
        1.3955679
      ],
      [
        103.9027628,
        1.3956382
      ],
      [
        103.902865,
        1.3957589
      ],
      [
        103.9030989,
        1.3960945
      ],
      [
        103.9033057,
        1.3964639
      ],
      [
        103.9033475,
        1.3965386
      ],
      [
        103.9033995,
        1.3966378
      ],
      [
        103.9036491,
        1.3971141
      ],
      [
        103.9037373,
        1.3972956
      ],
      [
        103.903827,
        1.397235
      ],
      [
        103.903889,
        1.3971932
      ],
      [
        103.9042112,
        1.3969641
      ],
      [
        103.9043574,
        1.3968283
      ],
      [
        103.9045343,
        1.3966667
      ],
      [
        103.904897,
        1.396363
      ],
      [
        103.9053372,
        1.3959463
      ],
      [
        103.9059416,
        1.3953595
      ],
      [
        103.9060462,
        1.3951853
      ],
      [
        103.9064441,
        1.3948354
      ],
      [
        103.9069777,
        1.3943434
      ],
      [
        103.907186,
        1.3941345
      ],
      [
        103.9082255,
        1.393071
      ],
      [
        103.9088331,
        1.3923736
      ],
      [
        103.9095217,
        1.3915719
      ],
      [
        103.9097173,
        1.391345
      ],
      [
        103.9097619,
        1.3912943
      ],
      [
        103.9100165,
        1.391
      ],
      [
        103.9105877,
        1.3903421
      ],
      [
        103.9111708,
        1.3896819
      ],
      [
        103.9121552,
        1.3885384
      ],
      [
        103.9129309,
        1.3876257
      ],
      [
        103.9131814,
        1.3873309
      ],
      [
        103.9137876,
        1.3866261
      ],
      [
        103.9144594,
        1.3858453
      ],
      [
        103.9148964,
        1.3853374
      ],
      [
        103.9151807,
        1.3850111
      ],
      [
        103.9158047,
        1.3842662
      ],
      [
        103.9164311,
        1.38358
      ],
      [
        103.9168516,
        1.3831384
      ],
      [
        103.9174174,
        1.3825638
      ],
      [
        103.9178167,
        1.3821509
      ],
      [
        103.9181936,
        1.3818229
      ],
      [
        103.9184251,
        1.3815926
      ],
      [
        103.9188484,
        1.3811631
      ],
      [
        103.9195864,
        1.3805479
      ],
      [
        103.920098,
        1.3801797
      ],
      [
        103.9202763,
        1.3800685
      ],
      [
        103.9204621,
        1.3799573
      ],
      [
        103.9207032,
        1.3798298
      ],
      [
        103.921643,
        1.3793294
      ],
      [
        103.9221225,
        1.3791235
      ],
      [
        103.9230225,
        1.3787723
      ],
      [
        103.9235173,
        1.3786074
      ],
      [
        103.9240149,
        1.3784639
      ],
      [
        103.9255255,
        1.378103
      ],
      [
        103.9271998,
        1.3776671
      ],
      [
        103.9281991,
        1.3773868
      ],
      [
        103.9284515,
        1.3773129
      ],
      [
        103.9285183,
        1.3773265
      ],
      [
        103.9285322,
        1.3773294
      ],
      [
        103.9285487,
        1.3773274
      ],
      [
        103.928584,
        1.3773158
      ],
      [
        103.9286497,
        1.3772985
      ],
      [
        103.9289803,
        1.3772159
      ],
      [
        103.9292931,
        1.377128
      ],
      [
        103.9308066,
        1.3766507
      ],
      [
        103.9310569,
        1.3765779
      ],
      [
        103.9312923,
        1.3764452
      ],
      [
        103.9314054,
        1.3763667
      ],
      [
        103.9315583,
        1.3762322
      ],
      [
        103.9317253,
        1.3760433
      ],
      [
        103.9317779,
        1.3759504
      ],
      [
        103.9318164,
        1.3758644
      ],
      [
        103.9318307,
        1.3757996
      ],
      [
        103.931841,
        1.3756729
      ],
      [
        103.9318592,
        1.3755398
      ],
      [
        103.9317561,
        1.3753174
      ],
      [
        103.9315992,
        1.374979
      ],
      [
        103.9314888,
        1.3747407
      ],
      [
        103.9313823,
        1.3745407
      ],
      [
        103.9312081,
        1.3741865
      ],
      [
        103.9309823,
        1.373657
      ],
      [
        103.930875,
        1.373421
      ],
      [
        103.9307617,
        1.3731242
      ],
      [
        103.9306975,
        1.3729549
      ],
      [
        103.9306055,
        1.3727532
      ],
      [
        103.9305468,
        1.3725435
      ],
      [
        103.9304864,
        1.3722361
      ],
      [
        103.9304263,
        1.3717905
      ],
      [
        103.9304197,
        1.3714606
      ],
      [
        103.9304365,
        1.3712756
      ],
      [
        103.9304456,
        1.3711761
      ],
      [
        103.9305702,
        1.3703695
      ],
      [
        103.9306402,
        1.3698932
      ],
      [
        103.9307077,
        1.3694675
      ],
      [
        103.930765,
        1.3691442
      ],
      [
        103.9307767,
        1.3690787
      ],
      [
        103.9307983,
        1.3689581
      ],
      [
        103.9308141,
        1.36887
      ],
      [
        103.9308392,
        1.3687039
      ],
      [
        103.9309016,
        1.3683089
      ],
      [
        103.9309299,
        1.3681099
      ],
      [
        103.9309762,
        1.3675743
      ],
      [
        103.9310087,
        1.3671421
      ],
      [
        103.9310008,
        1.366733
      ],
      [
        103.9310091,
        1.3662544
      ],
      [
        103.9310104,
        1.3661874
      ],
      [
        103.9310127,
        1.3660498
      ],
      [
        103.9310142,
        1.3659648
      ],
      [
        103.9310185,
        1.3657124
      ],
      [
        103.9310178,
        1.3652373
      ],
      [
        103.9310215,
        1.3646017
      ],
      [
        103.9310164,
        1.3637294
      ],
      [
        103.9310157,
        1.3628824
      ],
      [
        103.9310166,
        1.3627873
      ],
      [
        103.9310139,
        1.3615761
      ],
      [
        103.9310125,
        1.3613172
      ],
      [
        103.9310123,
        1.3610194
      ],
      [
        103.9310182,
        1.3608855
      ],
      [
        103.9311036,
        1.3606905
      ],
      [
        103.9311595,
        1.3605878
      ],
      [
        103.9312067,
        1.3605307
      ],
      [
        103.9312942,
        1.3604706
      ],
      [
        103.9324149,
        1.3604744
      ],
      [
        103.9330435,
        1.3604765
      ],
      [
        103.933745,
        1.3604695
      ],
      [
        103.9339264,
        1.3604738
      ],
      [
        103.9342296,
        1.3604703
      ],
      [
        103.9345419,
        1.3604733
      ],
      [
        103.9346116,
        1.360474
      ],
      [
        103.9347335,
        1.3604753
      ],
      [
        103.9347693,
        1.3604756
      ],
      [
        103.9350266,
        1.3604782
      ],
      [
        103.9357737,
        1.360479
      ],
      [
        103.9370497,
        1.3604662
      ],
      [
        103.9373132,
        1.3604634
      ],
      [
        103.9376525,
        1.360457
      ],
      [
        103.9379201,
        1.3604568
      ],
      [
        103.9380449,
        1.3604545
      ],
      [
        103.9381291,
        1.3604552
      ],
      [
        103.9382156,
        1.3604514
      ],
      [
        103.938378,
        1.3604454
      ],
      [
        103.9386388,
        1.3604409
      ],
      [
        103.9392265,
        1.3604401
      ],
      [
        103.9393021,
        1.36044
      ],
      [
        103.9393822,
        1.3604422
      ],
      [
        103.9394675,
        1.3604445
      ],
      [
        103.9398602,
        1.3604553
      ],
      [
        103.9401862,
        1.3604647
      ],
      [
        103.9405001,
        1.3604663
      ],
      [
        103.9410495,
        1.3604658
      ],
      [
        103.9413577,
        1.3604586
      ],
      [
        103.9417744,
        1.3604552
      ],
      [
        103.9419832,
        1.3604293
      ],
      [
        103.9420628,
        1.360432
      ],
      [
        103.9421618,
        1.3604378
      ],
      [
        103.9421725,
        1.3603145
      ],
      [
        103.9421732,
        1.3602246
      ],
      [
        103.942181,
        1.3599489
      ],
      [
        103.9421844,
        1.3597229
      ],
      [
        103.9421939,
        1.359384
      ],
      [
        103.9421936,
        1.3592909
      ],
      [
        103.9421927,
        1.3590404
      ],
      [
        103.9421926,
        1.3590165
      ],
      [
        103.9421946,
        1.3589223
      ],
      [
        103.9421952,
        1.3588406
      ],
      [
        103.9421982,
        1.3584304
      ],
      [
        103.9422017,
        1.3582802
      ],
      [
        103.9422114,
        1.3581845
      ],
      [
        103.9422255,
        1.3580729
      ],
      [
        103.9422439,
        1.3579728
      ],
      [
        103.9422782,
        1.3578533
      ],
      [
        103.9423159,
        1.3577497
      ],
      [
        103.9423709,
        1.3576289
      ],
      [
        103.9424288,
        1.3575024
      ],
      [
        103.9425353,
        1.3573461
      ],
      [
        103.9427953,
        1.3571101
      ],
      [
        103.9430203,
        1.3569714
      ],
      [
        103.9432603,
        1.3568588
      ],
      [
        103.9436001,
        1.3567854
      ],
      [
        103.9439573,
        1.356779
      ],
      [
        103.9440631,
        1.3567752
      ],
      [
        103.9441334,
        1.3567737
      ],
      [
        103.9451045,
        1.3567929
      ],
      [
        103.9455045,
        1.3568008
      ],
      [
        103.9460439,
        1.3567971
      ],
      [
        103.9461144,
        1.3567961
      ],
      [
        103.946241,
        1.3567963
      ],
      [
        103.9463231,
        1.3567952
      ],
      [
        103.9463234,
        1.3566616
      ],
      [
        103.9463242,
        1.3566028
      ],
      [
        103.9463335,
        1.3559111
      ],
      [
        103.9463386,
        1.3553721
      ],
      [
        103.9463394,
        1.3552833
      ],
      [
        103.9463469,
        1.3548094
      ],
      [
        103.9463433,
        1.3544763
      ],
      [
        103.9463429,
        1.3544149
      ],
      [
        103.9463423,
        1.3543384
      ],
      [
        103.9463423,
        1.3540433
      ],
      [
        103.9463318,
        1.3538547
      ],
      [
        103.9463228,
        1.3537776
      ],
      [
        103.9463137,
        1.3536999
      ],
      [
        103.9462816,
        1.3534831
      ],
      [
        103.9461995,
        1.3531821
      ],
      [
        103.946162,
        1.3530979
      ],
      [
        103.9460837,
        1.3528995
      ],
      [
        103.946022,
        1.3527952
      ],
      [
        103.9458085,
        1.3525211
      ],
      [
        103.9456733,
        1.3523768
      ],
      [
        103.9456555,
        1.3523608
      ],
      [
        103.9455259,
        1.3522414
      ],
      [
        103.945252,
        1.3520341
      ],
      [
        103.944976,
        1.3518749
      ],
      [
        103.9447697,
        1.3517922
      ],
      [
        103.9445995,
        1.3517489
      ],
      [
        103.9445166,
        1.3517323
      ],
      [
        103.9444059,
        1.3517047
      ],
      [
        103.9443183,
        1.3516938
      ],
      [
        103.9442085,
        1.3516801
      ],
      [
        103.9438588,
        1.3516736
      ],
      [
        103.9433477,
        1.3516789
      ],
      [
        103.9432769,
        1.3516797
      ]
    ]
  }
}