{
  "type": "Feature",
  "properties": {
    "relation": 16405868,
    "from": "Changi Village Terminal",
    "name": "Svc 2B (Changi Village Terminal → Bedok Station Exit A)",
    "network": "Land Transport Authority",
    "network:short": "LTA",
    "network:wikidata": "Q3299279",
    "operator": "Go-Ahead Singapore",
    "operator:wikidata": "Q24698874",
    "operator:wikipedia": "en:Go-Ahead Singapore",
    "public_transport:version": "2",
    "ref": "2B",
    "route": "bus",
    "to": "Bedok Station Exit A",
    "type": "route",
    "website": "https://go-aheadsingapore.com/bus-services/"
  },
  "geometry": {
    "type": "LineString",
    "coordinates": [
      [
        103.9878661,
        1.3894598
      ],
      [
        103.9879022,
        1.3893378
      ],
      [
        103.9879492,
        1.389179
      ],
      [
        103.9879373,
        1.3891489
      ],
      [
        103.9876946,
        1.389082
      ],
      [
        103.9876758,
        1.3890909
      ],
      [
        103.987665,
        1.389106
      ],
      [
        103.9875052,
        1.3897001
      ],
      [
        103.9870892,
        1.3895812
      ],
      [
        103.9872907,
        1.3896388
      ],
      [
        103.9875052,
        1.3897001
      ],
      [
        103.9871036,
        1.3893948
      ],
      [
        103.9871447,
        1.389269
      ],
      [
        103.9871629,
        1.3892135
      ],
      [
        103.9872688,
        1.3888478
      ],
      [
        103.9873252,
        1.3885924
      ],
      [
        103.9873531,
        1.3883374
      ],
      [
        103.987366,
        1.3880938
      ],
      [
        103.9873801,
        1.3878707
      ],
      [
        103.9873983,
        1.3876158
      ],
      [
        103.9874022,
        1.3875608
      ],
      [
        103.9874,
        1.3874477
      ],
      [
        103.9872927,
        1.3874445
      ],
      [
        103.9872375,
        1.3874479
      ],
      [
        103.9869824,
        1.3874634
      ],
      [
        103.9865098,
        1.3874698
      ],
      [
        103.985973,
        1.3875297
      ],
      [
        103.985251,
        1.3876227
      ],
      [
        103.9851402,
        1.3876306
      ],
      [
        103.9834559,
        1.3878102
      ],
      [
        103.9828754,
        1.3878457
      ],
      [
        103.9826429,
        1.387856
      ],
      [
        103.9824719,
        1.3878512
      ],
      [
        103.9823527,
        1.3878422
      ],
      [
        103.9822143,
        1.3878209
      ],
      [
        103.9820546,
        1.3877853
      ],
      [
        103.9815831,
        1.3876366
      ],
      [
        103.9809705,
        1.3874108
      ],
      [
        103.9808016,
        1.3873434
      ],
      [
        103.9807122,
        1.3873016
      ],
      [
        103.9802426,
        1.3870925
      ],
      [
        103.9801644,
        1.3870566
      ],
      [
        103.9800809,
        1.3870116
      ],
      [
        103.9800401,
        1.3869898
      ],
      [
        103.9799162,
        1.386923
      ],
      [
        103.9797521,
        1.386822
      ],
      [
        103.979562,
        1.3866945
      ],
      [
        103.9793034,
        1.3865028
      ],
      [
        103.9790441,
        1.3862435
      ],
      [
        103.9788363,
        1.3859834
      ],
      [
        103.9786555,
        1.3856776
      ],
      [
        103.9785161,
        1.3853592
      ],
      [
        103.9784223,
        1.3850653
      ],
      [
        103.9783792,
        1.3848803
      ],
      [
        103.9783598,
        1.3847165
      ],
      [
        103.9783488,
        1.3845019
      ],
      [
        103.9783509,
        1.3841124
      ],
      [
        103.9784518,
        1.3823381
      ],
      [
        103.9786144,
        1.379474
      ],
      [
        103.9786335,
        1.3791942
      ],
      [
        103.9786474,
        1.3787316
      ],
      [
        103.9786468,
        1.3786301
      ],
      [
        103.9786128,
        1.3783885
      ],
      [
        103.9785659,
        1.3781725
      ],
      [
        103.9785212,
        1.3780012
      ],
      [
        103.9784563,
        1.3778155
      ],
      [
        103.9783797,
        1.3776372
      ],
      [
        103.9783009,
        1.3774851
      ],
      [
        103.9782051,
        1.3773308
      ],
      [
        103.9780999,
        1.3771835
      ],
      [
        103.9779603,
        1.3770126
      ],
      [
        103.9775317,
        1.3765695
      ],
      [
        103.9773551,
        1.3763835
      ],
      [
        103.9757529,
        1.3746961
      ],
      [
        103.9754912,
        1.3744071
      ],
      [
        103.9752635,
        1.3741555
      ],
      [
        103.9752102,
        1.3740377
      ],
      [
        103.9751914,
        1.373968
      ],
      [
        103.9751885,
        1.3739484
      ],
      [
        103.9751914,
        1.3739043
      ],
      [
        103.9751995,
        1.3738607
      ],
      [
        103.9752293,
        1.3737506
      ],
      [
        103.975518,
        1.3734686
      ],
      [
        103.9756117,
        1.373385
      ],
      [
        103.9757179,
        1.3732948
      ],
      [
        103.975825,
        1.3732307
      ],
      [
        103.9762403,
        1.3731457
      ],
      [
        103.976611,
        1.3730698
      ],
      [
        103.9767895,
        1.3730286
      ],
      [
        103.9775699,
        1.3728486
      ],
      [
        103.9787813,
        1.3725526
      ],
      [
        103.9789169,
        1.3725179
      ],
      [
        103.9790344,
        1.3724803
      ],
      [
        103.9791076,
        1.3724541
      ],
      [
        103.979145,
        1.3724406
      ],
      [
        103.9792388,
        1.3723971
      ],
      [
        103.979325,
        1.3723486
      ],
      [
        103.9794112,
        1.3722878
      ],
      [
        103.9795438,
        1.3721725
      ],
      [
        103.9796399,
        1.3720716
      ],
      [
        103.9797123,
        1.3719857
      ],
      [
        103.9797867,
        1.3718832
      ],
      [
        103.9798464,
        1.371782
      ],
      [
        103.9798913,
        1.3716841
      ],
      [
        103.9799356,
        1.3715782
      ],
      [
        103.9799758,
        1.3714448
      ],
      [
        103.9799997,
        1.3713466
      ],
      [
        103.9800098,
        1.3712748
      ],
      [
        103.9800168,
        1.3711774
      ],
      [
        103.9800194,
        1.3710338
      ],
      [
        103.980004,
        1.3708805
      ],
      [
        103.9799774,
        1.370731
      ],
      [
        103.9799436,
        1.3706061
      ],
      [
        103.9798913,
        1.3704593
      ],
      [
        103.9798424,
        1.3703588
      ],
      [
        103.9797948,
        1.3702803
      ],
      [
        103.9797713,
        1.3702435
      ],
      [
        103.9797277,
        1.3701852
      ],
      [
        103.9796623,
        1.3701085
      ],
      [
        103.9791401,
        1.3695853
      ],
      [
        103.9787969,
        1.3692413
      ],
      [
        103.9777447,
        1.3683439
      ],
      [
        103.9776433,
        1.3682586
      ],
      [
        103.9772905,
        1.3679712
      ],
      [
        103.9767378,
        1.3675817
      ],
      [
        103.9762622,
        1.3672362
      ],
      [
        103.9758987,
        1.3669022
      ],
      [
        103.9758351,
        1.3668298
      ],
      [
        103.9758134,
        1.366805
      ],
      [
        103.9757374,
        1.3666999
      ],
      [
        103.9756914,
        1.3666224
      ],
      [
        103.9756414,
        1.3665267
      ],
      [
        103.9755834,
        1.3663851
      ],
      [
        103.9755325,
        1.366129
      ],
      [
        103.9754118,
        1.3657011
      ],
      [
        103.9753476,
        1.3654742
      ],
      [
        103.9751208,
        1.3647956
      ],
      [
        103.9750702,
        1.3646634
      ],
      [
        103.9748667,
        1.3640952
      ],
      [
        103.974717,
        1.3637137
      ],
      [
        103.9746853,
        1.3636455
      ],
      [
        103.9746416,
        1.3635419
      ],
      [
        103.9745785,
        1.3634018
      ],
      [
        103.9744826,
        1.3632395
      ],
      [
        103.9743808,
        1.3630977
      ],
      [
        103.9743311,
        1.3630284
      ],
      [
        103.9741863,
        1.3628641
      ],
      [
        103.9739783,
        1.3627029
      ],
      [
        103.9737644,
        1.3625682
      ],
      [
        103.9736078,
        1.3624841
      ],
      [
        103.9734862,
        1.3624277
      ],
      [
        103.9733101,
        1.362354
      ],
      [
        103.9724264,
        1.3620449
      ],
      [
        103.9720513,
        1.3618928
      ],
      [
        103.9719421,
        1.3618347
      ],
      [
        103.9718776,
        1.3617777
      ],
      [
        103.9718225,
        1.3617291
      ],
      [
        103.9717734,
        1.3616859
      ],
      [
        103.9717079,
        1.3616284
      ],
      [
        103.9716897,
        1.3616124
      ],
      [
        103.9715529,
        1.3614756
      ],
      [
        103.9714268,
        1.3613362
      ],
      [
        103.9712874,
        1.3611766
      ],
      [
        103.9706936,
        1.3605362
      ],
      [
        103.9703336,
        1.3601323
      ],
      [
        103.9702721,
        1.3600569
      ],
      [
        103.9702522,
        1.3600287
      ],
      [
        103.9702122,
        1.3599716
      ],
      [
        103.9701303,
        1.3598364
      ],
      [
        103.970052,
        1.3596416
      ],
      [
        103.9698746,
        1.3589821
      ],
      [
        103.9698599,
        1.3589275
      ],
      [
        103.9698376,
        1.3588486
      ],
      [
        103.9696396,
        1.3581464
      ],
      [
        103.9695628,
        1.3578738
      ],
      [
        103.9694977,
        1.3576429
      ],
      [
        103.9694782,
        1.3575686
      ],
      [
        103.9692524,
        1.3566583
      ],
      [
        103.9689497,
        1.3554802
      ],
      [
        103.9688821,
        1.3552298
      ],
      [
        103.9687627,
        1.3547872
      ],
      [
        103.9686984,
        1.3546397
      ],
      [
        103.9686095,
        1.3544508
      ],
      [
        103.9685454,
        1.3543319
      ],
      [
        103.9685008,
        1.354249
      ],
      [
        103.9684162,
        1.3541288
      ],
      [
        103.9682183,
        1.3539389
      ],
      [
        103.9681948,
        1.3539244
      ],
      [
        103.9680121,
        1.3538142
      ],
      [
        103.9678415,
        1.3537348
      ],
      [
        103.9675688,
        1.3536336
      ],
      [
        103.967412,
        1.3535817
      ],
      [
        103.9672935,
        1.3535452
      ],
      [
        103.9669471,
        1.3534387
      ],
      [
        103.9664752,
        1.3532993
      ],
      [
        103.966445,
        1.3532902
      ],
      [
        103.9657585,
        1.353077
      ],
      [
        103.9656943,
        1.3530571
      ],
      [
        103.9651393,
        1.3529033
      ],
      [
        103.9649468,
        1.3528444
      ],
      [
        103.9647648,
        1.3527888
      ],
      [
        103.9646553,
        1.3527554
      ],
      [
        103.9645633,
        1.3526607
      ],
      [
        103.9644845,
        1.3525953
      ],
      [
        103.9644136,
        1.3525213
      ],
      [
        103.964408,
        1.35231
      ],
      [
        103.9644118,
        1.3521339
      ],
      [
        103.9643988,
        1.351893
      ],
      [
        103.9643764,
        1.3515869
      ],
      [
        103.9643665,
        1.3514351
      ],
      [
        103.9643471,
        1.3512426
      ],
      [
        103.9642566,
        1.3507898
      ],
      [
        103.964244,
        1.3506514
      ],
      [
        103.9642124,
        1.3505216
      ],
      [
        103.9640837,
        1.3501087
      ],
      [
        103.9638852,
        1.3494893
      ],
      [
        103.96365,
        1.3486768
      ],
      [
        103.9635885,
        1.3484805
      ],
      [
        103.9635574,
        1.3483813
      ],
      [
        103.9634471,
        1.3479884
      ],
      [
        103.9631737,
        1.3470666
      ],
      [
        103.9631537,
        1.3469993
      ],
      [
        103.9630862,
        1.3467689
      ],
      [
        103.9629775,
        1.3463904
      ],
      [
        103.9629677,
        1.3463587
      ],
      [
        103.9628103,
        1.3458489
      ],
      [
        103.9627539,
        1.3456528
      ],
      [
        103.9627356,
        1.3455891
      ],
      [
        103.9626722,
        1.3453947
      ],
      [
        103.9626504,
        1.3453302
      ],
      [
        103.9625763,
        1.3451109
      ],
      [
        103.9624781,
        1.3447695
      ],
      [
        103.9623825,
        1.344472
      ],
      [
        103.9623019,
        1.3442234
      ],
      [
        103.9622243,
        1.3439665
      ],
      [
        103.9622157,
        1.3439413
      ],
      [
        103.9621279,
        1.3436541
      ],
      [
        103.9619883,
        1.3431931
      ],
      [
        103.9619767,
        1.343152
      ],
      [
        103.9618379,
        1.3427081
      ],
      [
        103.9616959,
        1.3422303
      ],
      [
        103.9615971,
        1.3419021
      ],
      [
        103.9614783,
        1.3414794
      ],
      [
        103.9614577,
        1.3414044
      ],
      [
        103.9614282,
        1.3412848
      ],
      [
        103.9613505,
        1.3409884
      ],
      [
        103.9612257,
        1.3405249
      ],
      [
        103.9611405,
        1.3402101
      ],
      [
        103.96111,
        1.3400629
      ],
      [
        103.9610905,
        1.3399686
      ],
      [
        103.9610747,
        1.3398924
      ],
      [
        103.9610319,
        1.3397515
      ],
      [
        103.9610183,
        1.3397142
      ],
      [
        103.9609315,
        1.3394773
      ],
      [
        103.9608595,
        1.339344
      ],
      [
        103.9606985,
        1.339046
      ],
      [
        103.960155,
        1.3380403
      ],
      [
        103.960106,
        1.3379775
      ],
      [
        103.9600737,
        1.3379317
      ],
      [
        103.9600209,
        1.3378552
      ],
      [
        103.9597903,
        1.3375212
      ],
      [
        103.9596674,
        1.3373501
      ],
      [
        103.9596454,
        1.3373195
      ],
      [
        103.9595647,
        1.3372061
      ],
      [
        103.9595436,
        1.3371779
      ],
      [
        103.9594291,
        1.3370244
      ],
      [
        103.9592779,
        1.3368298
      ],
      [
        103.9589817,
        1.336436
      ],
      [
        103.9587644,
        1.3361399
      ],
      [
        103.958715,
        1.3360772
      ],
      [
        103.958678,
        1.3360246
      ],
      [
        103.9585592,
        1.3361075
      ],
      [
        103.958477,
        1.3361703
      ],
      [
        103.9583932,
        1.336236
      ],
      [
        103.9578161,
        1.3367869
      ],
      [
        103.957502,
        1.3371024
      ],
      [
        103.9574691,
        1.3371682
      ],
      [
        103.9574459,
        1.3372145
      ],
      [
        103.9573052,
        1.3371505
      ],
      [
        103.9569269,
        1.3369813
      ],
      [
        103.956696,
        1.3368833
      ],
      [
        103.9566721,
        1.3368733
      ],
      [
        103.956563,
        1.3368271
      ],
      [
        103.956298,
        1.3367013
      ],
      [
        103.955465,
        1.3363528
      ],
      [
        103.9553589,
        1.3363084
      ],
      [
        103.9552018,
        1.3362391
      ],
      [
        103.9545999,
        1.3359804
      ],
      [
        103.9544227,
        1.3358992
      ],
      [
        103.9542481,
        1.3358229
      ],
      [
        103.9542155,
        1.3358073
      ],
      [
        103.954091,
        1.3357528
      ],
      [
        103.9539091,
        1.3356731
      ],
      [
        103.9533073,
        1.3354019
      ],
      [
        103.9531924,
        1.3353543
      ],
      [
        103.9529651,
        1.3352684
      ],
      [
        103.9528788,
        1.3352323
      ],
      [
        103.9526718,
        1.33512
      ],
      [
        103.952591,
        1.3350778
      ],
      [
        103.9525302,
        1.335046
      ],
      [
        103.9523904,
        1.3349706
      ],
      [
        103.9523026,
        1.3349322
      ],
      [
        103.9522802,
        1.3349205
      ],
      [
        103.9520984,
        1.3348416
      ],
      [
        103.95194,
        1.3347729
      ],
      [
        103.9517328,
        1.3346967
      ],
      [
        103.9515412,
        1.3346217
      ],
      [
        103.9510636,
        1.3344061
      ],
      [
        103.9509754,
        1.3343682
      ],
      [
        103.9508758,
        1.3343222
      ],
      [
        103.9508477,
        1.3343092
      ],
      [
        103.9507759,
        1.3342771
      ],
      [
        103.950689,
        1.3342429
      ],
      [
        103.950531,
        1.3341772
      ],
      [
        103.9504275,
        1.3341354
      ],
      [
        103.9499285,
        1.3339337
      ],
      [
        103.9497853,
        1.3338758
      ],
      [
        103.9496359,
        1.3338109
      ],
      [
        103.949633,
        1.3338096
      ],
      [
        103.9496164,
        1.3338024
      ],
      [
        103.9492708,
        1.333638
      ],
      [
        103.9491396,
        1.333582
      ],
      [
        103.9488132,
        1.3334377
      ],
      [
        103.948684,
        1.3333821
      ],
      [
        103.9484286,
        1.3332801
      ],
      [
        103.9481042,
        1.3331497
      ],
      [
        103.9480128,
        1.3331129
      ],
      [
        103.9478522,
        1.3330325
      ],
      [
        103.9477122,
        1.3329624
      ],
      [
        103.9474635,
        1.3328623
      ],
      [
        103.9473737,
        1.3328205
      ],
      [
        103.9472087,
        1.3327518
      ],
      [
        103.9469342,
        1.332629
      ],
      [
        103.9468981,
        1.3325732
      ],
      [
        103.946877,
        1.332538
      ],
      [
        103.9468694,
        1.3325153
      ],
      [
        103.9468628,
        1.3324943
      ],
      [
        103.9468508,
        1.3324597
      ],
      [
        103.9469247,
        1.3323008
      ],
      [
        103.9469309,
        1.3322875
      ],
      [
        103.9469874,
        1.332193
      ],
      [
        103.9471879,
        1.3319058
      ],
      [
        103.9472124,
        1.3318737
      ],
      [
        103.9472166,
        1.3318681
      ],
      [
        103.9472737,
        1.331791
      ],
      [
        103.9473135,
        1.3317347
      ],
      [
        103.9475278,
        1.3314517
      ],
      [
        103.9476347,
        1.3313129
      ],
      [
        103.9476912,
        1.3312394
      ],
      [
        103.9477501,
        1.3311628
      ],
      [
        103.9479459,
        1.3309084
      ],
      [
        103.9480636,
        1.3307554
      ],
      [
        103.9485809,
        1.3300831
      ],
      [
        103.9489152,
        1.3296434
      ],
      [
        103.9493644,
        1.3290448
      ],
      [
        103.9494426,
        1.3289484
      ],
      [
        103.949456,
        1.3289308
      ],
      [
        103.9495233,
        1.328843
      ],
      [
        103.9496162,
        1.32871
      ],
      [
        103.9496765,
        1.3286405
      ],
      [
        103.9498754,
        1.3284453
      ],
      [
        103.9499654,
        1.3283331
      ],
      [
        103.9498556,
        1.3282885
      ],
      [
        103.949782,
        1.3282549
      ],
      [
        103.9493911,
        1.3281032
      ],
      [
        103.9487918,
        1.3278562
      ],
      [
        103.9485584,
        1.3277614
      ],
      [
        103.9482478,
        1.3276357
      ],
      [
        103.94757,
        1.3273682
      ],
      [
        103.9468955,
        1.3271301
      ],
      [
        103.9464307,
        1.3269604
      ],
      [
        103.9459389,
        1.3267815
      ],
      [
        103.9457464,
        1.326719
      ],
      [
        103.945019,
        1.3265011
      ],
      [
        103.9448832,
        1.3264588
      ],
      [
        103.9446129,
        1.3263728
      ],
      [
        103.9442123,
        1.3262697
      ],
      [
        103.9441189,
        1.3262444
      ],
      [
        103.9440523,
        1.326223
      ],
      [
        103.9438705,
        1.3261645
      ],
      [
        103.9430849,
        1.3259107
      ],
      [
        103.9425928,
        1.3257563
      ],
      [
        103.9424887,
        1.3257225
      ],
      [
        103.9421502,
        1.3256125
      ],
      [
        103.9418408,
        1.3255166
      ],
      [
        103.9417673,
        1.3254941
      ],
      [
        103.9415509,
        1.325428
      ],
      [
        103.9414331,
        1.3253986
      ],
      [
        103.9412985,
        1.3253656
      ],
      [
        103.9410644,
        1.3253142
      ],
      [
        103.9406579,
        1.325236
      ],
      [
        103.9405816,
        1.3252213
      ],
      [
        103.9405233,
        1.3252103
      ],
      [
        103.9404649,
        1.3251993
      ],
      [
        103.9404405,
        1.3251955
      ],
      [
        103.9401652,
        1.325153
      ],
      [
        103.9400397,
        1.3251358
      ],
      [
        103.9398587,
        1.325109
      ],
      [
        103.9391291,
        1.3250099
      ],
      [
        103.9385832,
        1.3249464
      ],
      [
        103.9379529,
        1.324863
      ],
      [
        103.9372404,
        1.3247658
      ],
      [
        103.9369563,
        1.3247341
      ],
      [
        103.9366963,
        1.3247001
      ],
      [
        103.936435,
        1.3246636
      ],
      [
        103.9362981,
        1.3246445
      ],
      [
        103.9357035,
        1.3245537
      ],
      [
        103.9356683,
        1.3245481
      ],
      [
        103.9356043,
        1.3245391
      ],
      [
        103.934737,
        1.324448
      ],
      [
        103.9338848,
        1.3243309
      ],
      [
        103.9338205,
        1.3243218
      ],
      [
        103.9334767,
        1.3242846
      ],
      [
        103.9329172,
        1.3242095
      ],
      [
        103.9327897,
        1.324192
      ],
      [
        103.9323706,
        1.3241225
      ],
      [
        103.9320923,
        1.324091
      ],
      [
        103.9318804,
        1.3240677
      ],
      [
        103.9318476,
        1.3240667
      ],
      [
        103.9315385,
        1.3240257
      ],
      [
        103.9313169,
        1.3239995
      ],
      [
        103.9309716,
        1.3239528
      ],
      [
        103.9307418,
        1.3239265
      ],
      [
        103.9302239,
        1.32385
      ],
      [
        103.9296718,
        1.3237718
      ],
      [
        103.9295566,
        1.3237576
      ],
      [
        103.9294714,
        1.3237464
      ],
      [
        103.9282572,
        1.323568
      ]
    ]
  }
}