{
  "type": "Feature",
  "properties": {
    "relation": 12980625,
    "direction": "1",
    "fee": "yes",
    "from": "Kent Ridge Terminal",
    "name": "Svc 33A (Kent Ridge Terminal → Blk 1)",
    "network": "Land Transport Authority",
    "network:short": "LTA",
    "network:wikidata": "Q3299279",
    "network:wikipedia": "en:Land Transport Authority",
    "operator": "SBS Transit",
    "operator:wikidata": "Q2661305",
    "operator:wikipedia": "en:SBS Transit",
    "public_transport:version": "2",
    "ref": "33A",
    "route": "bus",
    "to": "Blk 1",
    "type": "route",
    "website": "https://www.sbstransit.com.sg/"
  },
  "geometry": {
    "type": "LineString",
    "coordinates": [
      [
        103.7696875,
        1.2939472
      ],
      [
        103.7696189,
        1.2938999
      ],
      [
        103.7693844,
        1.2939075
      ],
      [
        103.7693528,
        1.293909
      ],
      [
        103.7693037,
        1.2939114
      ],
      [
        103.7692491,
        1.2939141
      ],
      [
        103.7691206,
        1.2940233
      ],
      [
        103.7691704,
        1.2941082
      ],
      [
        103.7693188,
        1.2943817
      ],
      [
        103.7694185,
        1.2946358
      ],
      [
        103.7694851,
        1.2948767
      ],
      [
        103.7695014,
        1.2949467
      ],
      [
        103.7695305,
        1.2951321
      ],
      [
        103.7695389,
        1.2952499
      ],
      [
        103.7695482,
        1.2954479
      ],
      [
        103.7695538,
        1.2957602
      ],
      [
        103.7695664,
        1.2959825
      ],
      [
        103.7695704,
        1.2960534
      ],
      [
        103.7695702,
        1.2961463
      ],
      [
        103.7695737,
        1.2962078
      ],
      [
        103.7696687,
        1.2978696
      ],
      [
        103.7696736,
        1.2979531
      ],
      [
        103.7696857,
        1.2981593
      ],
      [
        103.7697527,
        1.2993014
      ],
      [
        103.7697715,
        1.2996223
      ],
      [
        103.7697853,
        1.2998014
      ],
      [
        103.7698378,
        1.3001968
      ],
      [
        103.7699419,
        1.3005904
      ],
      [
        103.7699522,
        1.3006292
      ],
      [
        103.7699994,
        1.3007414
      ],
      [
        103.770039,
        1.3008355
      ],
      [
        103.770109,
        1.3009829
      ],
      [
        103.7702219,
        1.3012301
      ],
      [
        103.7703335,
        1.3014503
      ],
      [
        103.7703826,
        1.3015602
      ],
      [
        103.770434,
        1.3016685
      ],
      [
        103.7704678,
        1.3017283
      ],
      [
        103.7705335,
        1.3018777
      ],
      [
        103.7708012,
        1.302473
      ],
      [
        103.7708359,
        1.302566
      ],
      [
        103.7708629,
        1.302643
      ],
      [
        103.7709162,
        1.3027964
      ],
      [
        103.770989,
        1.3030173
      ],
      [
        103.7709943,
        1.3030307
      ],
      [
        103.7710485,
        1.3032682
      ],
      [
        103.7711021,
        1.3036194
      ],
      [
        103.7711222,
        1.3039064
      ],
      [
        103.7711328,
        1.3041686
      ],
      [
        103.771132,
        1.3043325
      ],
      [
        103.7711273,
        1.3044965
      ],
      [
        103.7711292,
        1.3054332
      ],
      [
        103.7711396,
        1.3056428
      ],
      [
        103.7711766,
        1.3061225
      ],
      [
        103.7712514,
        1.3071062
      ],
      [
        103.7713247,
        1.3075019
      ],
      [
        103.7714351,
        1.3080287
      ],
      [
        103.7714979,
        1.3083178
      ],
      [
        103.771509,
        1.3083717
      ],
      [
        103.7715799,
        1.3086925
      ],
      [
        103.7716439,
        1.3089516
      ],
      [
        103.7716563,
        1.309002
      ],
      [
        103.771772,
        1.3095671
      ],
      [
        103.77178,
        1.309608
      ],
      [
        103.7717996,
        1.3097027
      ],
      [
        103.7719494,
        1.3096662
      ],
      [
        103.7719993,
        1.3096434
      ],
      [
        103.7720255,
        1.3096281
      ],
      [
        103.7720542,
        1.309607
      ],
      [
        103.7721656,
        1.3095092
      ],
      [
        103.7724301,
        1.3092591
      ],
      [
        103.7725921,
        1.3091386
      ],
      [
        103.7726781,
        1.3090878
      ],
      [
        103.7727953,
        1.3090395
      ],
      [
        103.7729046,
        1.309012
      ],
      [
        103.7729998,
        1.3089959
      ],
      [
        103.7731756,
        1.3089742
      ],
      [
        103.7732882,
        1.3089695
      ],
      [
        103.7733702,
        1.3089661
      ],
      [
        103.77358,
        1.3089573
      ],
      [
        103.77375,
        1.3089502
      ],
      [
        103.7740673,
        1.3088902
      ],
      [
        103.774291,
        1.3088623
      ],
      [
        103.7744244,
        1.308849
      ],
      [
        103.7746644,
        1.3087851
      ],
      [
        103.7749216,
        1.3086902
      ],
      [
        103.7751488,
        1.308599
      ],
      [
        103.7753411,
        1.3085186
      ],
      [
        103.7755762,
        1.3084274
      ],
      [
        103.7758913,
        1.3083101
      ],
      [
        103.7761266,
        1.3082263
      ],
      [
        103.7763111,
        1.3081567
      ],
      [
        103.7765578,
        1.3080538
      ],
      [
        103.7769652,
        1.3078761
      ],
      [
        103.7772412,
        1.3077557
      ],
      [
        103.7780626,
        1.3073795
      ],
      [
        103.778317,
        1.307264
      ],
      [
        103.7783852,
        1.307235
      ],
      [
        103.7785414,
        1.3071675
      ],
      [
        103.7785938,
        1.3071448
      ],
      [
        103.7786903,
        1.3071031
      ],
      [
        103.778889,
        1.3070171
      ],
      [
        103.7791475,
        1.3069109
      ],
      [
        103.7792588,
        1.306863
      ],
      [
        103.7796778,
        1.3066918
      ],
      [
        103.7798871,
        1.3065618
      ],
      [
        103.7799432,
        1.3065202
      ],
      [
        103.7800607,
        1.306425
      ],
      [
        103.7801727,
        1.3063197
      ],
      [
        103.7802859,
        1.3061841
      ],
      [
        103.7805586,
        1.3057938
      ],
      [
        103.7806256,
        1.3056975
      ],
      [
        103.7806773,
        1.3056389
      ],
      [
        103.7807269,
        1.3055652
      ],
      [
        103.7812801,
        1.3047545
      ],
      [
        103.7817794,
        1.3040331
      ],
      [
        103.7818236,
        1.303966
      ],
      [
        103.7819349,
        1.3038045
      ],
      [
        103.7820992,
        1.3035712
      ],
      [
        103.782282,
        1.3033083
      ],
      [
        103.782354,
        1.3032034
      ],
      [
        103.7823859,
        1.3031511
      ],
      [
        103.7824339,
        1.3030545
      ],
      [
        103.7830513,
        1.3022263
      ],
      [
        103.7833214,
        1.3018644
      ],
      [
        103.7833505,
        1.3018297
      ],
      [
        103.7833894,
        1.3017761
      ],
      [
        103.7835445,
        1.3015888
      ],
      [
        103.7835882,
        1.3015296
      ],
      [
        103.7836814,
        1.3014033
      ],
      [
        103.7837437,
        1.301319
      ],
      [
        103.7838119,
        1.301237
      ],
      [
        103.7838844,
        1.3011498
      ],
      [
        103.7841551,
        1.3008781
      ],
      [
        103.7844238,
        1.3005492
      ],
      [
        103.7844712,
        1.3004912
      ],
      [
        103.7845279,
        1.3004285
      ],
      [
        103.7848211,
        1.3001143
      ],
      [
        103.7851011,
        1.2998143
      ],
      [
        103.7853877,
        1.2995417
      ],
      [
        103.785436,
        1.2994958
      ],
      [
        103.7855463,
        1.2994257
      ],
      [
        103.7855162,
        1.2993226
      ],
      [
        103.785508,
        1.2992614
      ],
      [
        103.7854721,
        1.2990011
      ],
      [
        103.7854593,
        1.2988431
      ],
      [
        103.7854535,
        1.298772
      ],
      [
        103.7854574,
        1.29854
      ],
      [
        103.785493,
        1.2982114
      ],
      [
        103.7855451,
        1.2979705
      ],
      [
        103.7855514,
        1.2979446
      ],
      [
        103.7856724,
        1.2974511
      ],
      [
        103.7857524,
        1.2970779
      ],
      [
        103.7859294,
        1.2963619
      ],
      [
        103.7859937,
        1.2960107
      ],
      [
        103.7860918,
        1.2959173
      ],
      [
        103.7861895,
        1.2956444
      ],
      [
        103.7862656,
        1.2954004
      ],
      [
        103.7863511,
        1.2951571
      ],
      [
        103.7864135,
        1.2949112
      ],
      [
        103.7864621,
        1.2947559
      ],
      [
        103.7865157,
        1.2944286
      ],
      [
        103.7865849,
        1.2942987
      ],
      [
        103.7866347,
        1.2941524
      ],
      [
        103.7866602,
        1.2940706
      ],
      [
        103.7867029,
        1.2939193
      ],
      [
        103.7867217,
        1.2938366
      ],
      [
        103.7867584,
        1.2937771
      ],
      [
        103.7871437,
        1.2933728
      ],
      [
        103.7876209,
        1.2928878
      ],
      [
        103.7884484,
        1.2922139
      ],
      [
        103.7903679,
        1.291009
      ],
      [
        103.7911419,
        1.2906672
      ],
      [
        103.7914874,
        1.2904929
      ],
      [
        103.7917438,
        1.2903636
      ],
      [
        103.7926724,
        1.2896456
      ],
      [
        103.7929899,
        1.289369
      ],
      [
        103.7929975,
        1.2893613
      ],
      [
        103.7930373,
        1.2893303
      ],
      [
        103.7930557,
        1.289316
      ],
      [
        103.7931064,
        1.2892756
      ],
      [
        103.7931337,
        1.2892518
      ],
      [
        103.7931871,
        1.2892026
      ],
      [
        103.7935431,
        1.2888991
      ],
      [
        103.7938275,
        1.2886689
      ],
      [
        103.7942988,
        1.2882455
      ],
      [
        103.7946608,
        1.2880208
      ],
      [
        103.7953672,
        1.2876226
      ],
      [
        103.79559,
        1.287497
      ],
      [
        103.7959385,
        1.2873005
      ],
      [
        103.7965043,
        1.2869296
      ],
      [
        103.7967951,
        1.2867315
      ],
      [
        103.797019,
        1.2865904
      ],
      [
        103.7973556,
        1.2863665
      ],
      [
        103.7979713,
        1.2859443
      ],
      [
        103.7982546,
        1.2857501
      ],
      [
        103.7983816,
        1.2857271
      ],
      [
        103.7986163,
        1.2856064
      ],
      [
        103.7987514,
        1.2855262
      ],
      [
        103.7989597,
        1.2854026
      ],
      [
        103.799185,
        1.2852659
      ],
      [
        103.7993754,
        1.2851559
      ],
      [
        103.7995389,
        1.2850594
      ],
      [
        103.7996816,
        1.2849832
      ],
      [
        103.7998661,
        1.2849038
      ],
      [
        103.8000109,
        1.2848609
      ],
      [
        103.8001573,
        1.2848299
      ],
      [
        103.800314,
        1.2848127
      ],
      [
        103.8004025,
        1.2848073
      ],
      [
        103.8005125,
        1.2848127
      ],
      [
        103.8008147,
        1.2848276
      ],
      [
        103.801251,
        1.2848222
      ],
      [
        103.8012821,
        1.2848381
      ],
      [
        103.8014184,
        1.2848493
      ],
      [
        103.801513,
        1.28486
      ],
      [
        103.8016035,
        1.2848716
      ],
      [
        103.8016745,
        1.2848868
      ],
      [
        103.8017255,
        1.2849034
      ],
      [
        103.8017977,
        1.2849359
      ],
      [
        103.8018793,
        1.2849878
      ],
      [
        103.8019941,
        1.2850862
      ],
      [
        103.8020826,
        1.2852225
      ],
      [
        103.8021684,
        1.2853545
      ],
      [
        103.8023499,
        1.2856468
      ],
      [
        103.8027779,
        1.2864068
      ],
      [
        103.8028599,
        1.2865231
      ],
      [
        103.8029087,
        1.2865799
      ],
      [
        103.8030614,
        1.2867608
      ],
      [
        103.8032823,
        1.2869305
      ],
      [
        103.8034282,
        1.2870193
      ],
      [
        103.803484,
        1.2870517
      ],
      [
        103.8035528,
        1.2870962
      ],
      [
        103.8036249,
        1.287142
      ],
      [
        103.8039422,
        1.2873454
      ],
      [
        103.8042286,
        1.2875366
      ],
      [
        103.8042843,
        1.2875738
      ],
      [
        103.8044049,
        1.2876667
      ],
      [
        103.804479,
        1.2877108
      ],
      [
        103.8047818,
        1.2879029
      ],
      [
        103.8048762,
        1.2879716
      ],
      [
        103.8050871,
        1.2881439
      ],
      [
        103.8051934,
        1.288249
      ],
      [
        103.8054205,
        1.2884944
      ],
      [
        103.8055035,
        1.2885918
      ],
      [
        103.8056909,
        1.2888118
      ],
      [
        103.805853,
        1.2890145
      ],
      [
        103.8060571,
        1.2892706
      ],
      [
        103.8066894,
        1.2900592
      ],
      [
        103.8067409,
        1.2901195
      ],
      [
        103.8068431,
        1.2902392
      ],
      [
        103.8068842,
        1.2902872
      ],
      [
        103.8069435,
        1.2903567
      ],
      [
        103.8069811,
        1.2904018
      ],
      [
        103.807126,
        1.2905755
      ],
      [
        103.8071519,
        1.2906065
      ],
      [
        103.8073046,
        1.2907747
      ],
      [
        103.8075304,
        1.2910194
      ],
      [
        103.8075941,
        1.2910987
      ],
      [
        103.8077667,
        1.2913435
      ],
      [
        103.8078393,
        1.2914368
      ],
      [
        103.8080296,
        1.2916953
      ],
      [
        103.8080979,
        1.2917726
      ],
      [
        103.8081194,
        1.2917962
      ],
      [
        103.8082129,
        1.2918988
      ],
      [
        103.8082596,
        1.2919474
      ],
      [
        103.8083829,
        1.2920764
      ],
      [
        103.8084433,
        1.2921214
      ],
      [
        103.808692,
        1.292307
      ],
      [
        103.8089473,
        1.2924469
      ],
      [
        103.808978,
        1.2924559
      ],
      [
        103.809193,
        1.2925187
      ],
      [
        103.80955,
        1.2925395
      ],
      [
        103.8099455,
        1.2924855
      ],
      [
        103.8101609,
        1.2924589
      ],
      [
        103.8103959,
        1.2924188
      ],
      [
        103.8106392,
        1.2923919
      ],
      [
        103.810923,
        1.2923442
      ],
      [
        103.8109879,
        1.2923343
      ],
      [
        103.812269,
        1.2921208
      ],
      [
        103.8123398,
        1.2921094
      ],
      [
        103.8127904,
        1.2920366
      ],
      [
        103.8130263,
        1.2919988
      ],
      [
        103.8137452,
        1.2918905
      ],
      [
        103.8139602,
        1.2918574
      ],
      [
        103.8140832,
        1.2918407
      ],
      [
        103.8142937,
        1.291802
      ],
      [
        103.8144989,
        1.2917685
      ],
      [
        103.8146888,
        1.2917375
      ],
      [
        103.8149849,
        1.2916856
      ],
      [
        103.8153101,
        1.291636
      ],
      [
        103.8153478,
        1.2916303
      ],
      [
        103.8154847,
        1.2916178
      ],
      [
        103.8154651,
        1.2914799
      ],
      [
        103.8154554,
        1.291426
      ],
      [
        103.8154121,
        1.2911873
      ],
      [
        103.8153711,
        1.2909439
      ],
      [
        103.8153621,
        1.2908906
      ],
      [
        103.8153483,
        1.2908085
      ],
      [
        103.8153327,
        1.2906472
      ],
      [
        103.8153337,
        1.2905318
      ],
      [
        103.8153487,
        1.2904352
      ],
      [
        103.8153893,
        1.2903379
      ],
      [
        103.8154465,
        1.2902515
      ],
      [
        103.8155249,
        1.2901614
      ],
      [
        103.8156038,
        1.2900133
      ],
      [
        103.8156038,
        1.2900133
      ],
      [
        103.8156634,
        1.2899814
      ],
      [
        103.8161091,
        1.2897392
      ],
      [
        103.8160465,
        1.2897725
      ],
      [
        103.8158934,
        1.2898533
      ],
      [
        103.81613,
        1.2897272
      ],
      [
        103.8162653,
        1.2896551
      ],
      [
        103.8161843,
        1.2897006
      ],
      [
        103.8164964,
        1.2895239
      ],
      [
        103.8167256,
        1.2893784
      ],
      [
        103.8169166,
        1.2892446
      ],
      [
        103.816948,
        1.2892211
      ],
      [
        103.8172953,
        1.2889513
      ],
      [
        103.8171212,
        1.2890872
      ],
      [
        103.817485,
        1.2888315
      ],
      [
        103.8173938,
        1.2888838
      ],
      [
        103.8177629,
        1.288743
      ],
      [
        103.8177027,
        1.288755
      ],
      [
        103.8176011,
        1.2887867
      ],
      [
        103.8178542,
        1.2887364
      ],
      [
        103.8185838,
        1.2886913
      ],
      [
        103.8180491,
        1.288723
      ],
      [
        103.8179342,
        1.2887291
      ],
      [
        103.818788,
        1.2886799
      ],
      [
        103.8189245,
        1.2886744
      ],
      [
        103.8193719,
        1.2886934
      ],
      [
        103.8199721,
        1.2886578
      ],
      [
        103.8198921,
        1.2886625
      ],
      [
        103.8197492,
        1.2886695
      ],
      [
        103.8199873,
        1.2886585
      ],
      [
        103.8213269,
        1.2886083
      ],
      [
        103.8207326,
        1.2886336
      ],
      [
        103.8202369,
        1.2886536
      ],
      [
        103.8214924,
        1.2885961
      ],
      [
        103.8218701,
        1.2885642
      ],
      [
        103.8217317,
        1.2885825
      ],
      [
        103.8221412,
        1.2884742
      ],
      [
        103.8220559,
        1.2885118
      ],
      [
        103.821971,
        1.2885399
      ],
      [
        103.8222656,
        1.2884137
      ],
      [
        103.8225245,
        1.2882912
      ],
      [
        103.8223536,
        1.2883683
      ],
      [
        103.8225923,
        1.2882492
      ],
      [
        103.8226314,
        1.2882144
      ],
      [
        103.8227314,
        1.2881208
      ],
      [
        103.8229376,
        1.2879517
      ],
      [
        103.8232646,
        1.2876535
      ],
      [
        103.8239787,
        1.287067
      ],
      [
        103.8234119,
        1.2875303
      ],
      [
        103.824158,
        1.2869189
      ],
      [
        103.824354,
        1.2867746
      ],
      [
        103.8247835,
        1.2865361
      ],
      [
        103.8244486,
        1.2867145
      ],
      [
        103.825143,
        1.2863875
      ],
      [
        103.8249683,
        1.2864563
      ],
      [
        103.8249208,
        1.286475
      ],
      [
        103.8252311,
        1.2863947
      ],
      [
        103.8253817,
        1.2863433
      ],
      [
        103.8254361,
        1.2863279
      ],
      [
        103.8256776,
        1.2862659
      ],
      [
        103.8258736,
        1.2862243
      ],
      [
        103.826475,
        1.2861252
      ],
      [
        103.8271207,
        1.2860159
      ],
      [
        103.8271932,
        1.2860058
      ],
      [
        103.8272293,
        1.2859995
      ],
      [
        103.8272614,
        1.2859955
      ],
      [
        103.8275523,
        1.2859431
      ],
      [
        103.8278041,
        1.2859041
      ],
      [
        103.8280578,
        1.2858791
      ],
      [
        103.8283124,
        1.2858682
      ],
      [
        103.8283606,
        1.2858681
      ],
      [
        103.8284057,
        1.2858689
      ],
      [
        103.828786,
        1.2858859
      ],
      [
        103.829404,
        1.285918
      ],
      [
        103.8294597,
        1.2859206
      ],
      [
        103.830047,
        1.2859486
      ],
      [
        103.8301033,
        1.2859482
      ],
      [
        103.8301671,
        1.2859489
      ],
      [
        103.8311931,
        1.2859799
      ],
      [
        103.8314307,
        1.2859871
      ],
      [
        103.8320239,
        1.2860051
      ],
      [
        103.8324049,
        1.2860149
      ],
      [
        103.8326367,
        1.2860101
      ],
      [
        103.8327255,
        1.286002
      ],
      [
        103.8328569,
        1.2859864
      ],
      [
        103.8331981,
        1.2859527
      ],
      [
        103.8332605,
        1.2859517
      ],
      [
        103.833318,
        1.2859613
      ],
      [
        103.8334101,
        1.285989
      ],
      [
        103.8335262,
        1.2860382
      ],
      [
        103.8336561,
        1.2861419
      ]
    ]
  }
}