{
  "type": "Feature",
  "properties": {
    "relation": 6623031,
    "direction": "1",
    "fee": "yes",
    "from": "Punggol Coast Interchange",
    "name": "Svc 34A (Punggol Coast Interchange → Opposite Our Tampines Hub)",
    "name:en": "Svc 34A (Punggol Coast Interchange → Opposite Our Tampines Hub)",
    "network": "Land Transport Authority",
    "network:short": "LTA",
    "network:wikidata": "Q3299279",
    "network:wikipedia": "en:Land Transport Authority",
    "operator": "Go-Ahead Singapore",
    "operator:wikidata": "Q24698874",
    "operator:wikipedia": "en:Go-Ahead Singapore",
    "public_transport:version": "2",
    "ref": "34A",
    "route": "bus",
    "to": "Opposite Our Tampines Hub",
    "type": "route",
    "website": "https://go-aheadsingapore.com/bus-services/"
  },
  "geometry": {
    "type": "LineString",
    "coordinates": [
      [
        103.9082071,
        1.4154675
      ],
      [
        103.9082542,
        1.415605
      ],
      [
        103.9083052,
        1.4156251
      ],
      [
        103.9084358,
        1.4156061
      ],
      [
        103.9085814,
        1.4155849
      ],
      [
        103.9086217,
        1.4155581
      ],
      [
        103.9086378,
        1.4155071
      ],
      [
        103.9085573,
        1.414885
      ],
      [
        103.9085447,
        1.4147847
      ],
      [
        103.9084843,
        1.4147058
      ],
      [
        103.908332,
        1.4147275
      ],
      [
        103.9081975,
        1.4147466
      ],
      [
        103.9081158,
        1.4148175
      ],
      [
        103.9081228,
        1.4149038
      ],
      [
        103.9081563,
        1.4151867
      ],
      [
        103.9081549,
        1.4153047
      ],
      [
        103.9081476,
        1.4153848
      ],
      [
        103.9081283,
        1.4154426
      ],
      [
        103.9081108,
        1.4154452
      ],
      [
        103.9081283,
        1.4154426
      ],
      [
        103.9078737,
        1.4155494
      ],
      [
        103.9078121,
        1.4156431
      ],
      [
        103.9078816,
        1.4158904
      ],
      [
        103.9079421,
        1.4161541
      ],
      [
        103.907914,
        1.4162944
      ],
      [
        103.9078797,
        1.4163419
      ],
      [
        103.9077588,
        1.4164568
      ],
      [
        103.9071899,
        1.4165548
      ],
      [
        103.9070845,
        1.4165749
      ],
      [
        103.9069687,
        1.4166143
      ],
      [
        103.9068269,
        1.4166734
      ],
      [
        103.9061598,
        1.4170062
      ],
      [
        103.9061084,
        1.4170309
      ],
      [
        103.9060465,
        1.417062
      ],
      [
        103.9059845,
        1.4170916
      ],
      [
        103.905557,
        1.4172808
      ],
      [
        103.9052376,
        1.4173754
      ],
      [
        103.9050878,
        1.4174037
      ],
      [
        103.9048856,
        1.4174133
      ],
      [
        103.9047509,
        1.4173999
      ],
      [
        103.9046095,
        1.417382
      ],
      [
        103.9043108,
        1.4173052
      ],
      [
        103.9042641,
        1.4172868
      ],
      [
        103.904211,
        1.4172626
      ],
      [
        103.9041493,
        1.4172354
      ],
      [
        103.9039082,
        1.4171205
      ],
      [
        103.9034227,
        1.416834
      ],
      [
        103.9029743,
        1.4165542
      ],
      [
        103.9026501,
        1.4163052
      ],
      [
        103.9023773,
        1.4160262
      ],
      [
        103.9017888,
        1.4153454
      ],
      [
        103.9015991,
        1.4150189
      ],
      [
        103.9011719,
        1.4135771
      ],
      [
        103.9010976,
        1.4133055
      ],
      [
        103.9010811,
        1.413242
      ],
      [
        103.9010453,
        1.413114
      ],
      [
        103.9010233,
        1.4130334
      ],
      [
        103.9009483,
        1.4128042
      ],
      [
        103.9008203,
        1.4125499
      ],
      [
        103.9006886,
        1.4123004
      ],
      [
        103.9005252,
        1.4119832
      ],
      [
        103.9002198,
        1.4113755
      ],
      [
        103.9000583,
        1.4110639
      ],
      [
        103.8999033,
        1.4107623
      ],
      [
        103.8998795,
        1.4107161
      ],
      [
        103.8998302,
        1.4106317
      ],
      [
        103.8996556,
        1.4107265
      ],
      [
        103.8995932,
        1.4107558
      ],
      [
        103.8993986,
        1.4108386
      ],
      [
        103.8989702,
        1.4110314
      ],
      [
        103.8986117,
        1.4111915
      ],
      [
        103.898378,
        1.4112871
      ],
      [
        103.8982223,
        1.4113012
      ],
      [
        103.898149,
        1.4112833
      ],
      [
        103.8981056,
        1.4112686
      ],
      [
        103.8980614,
        1.4112373
      ],
      [
        103.8979755,
        1.4111767
      ],
      [
        103.8978677,
        1.4109603
      ],
      [
        103.897415,
        1.4103131
      ],
      [
        103.8973011,
        1.4101517
      ],
      [
        103.8972377,
        1.4100461
      ],
      [
        103.8970259,
        1.4097553
      ],
      [
        103.8963806,
        1.4088551
      ],
      [
        103.8962685,
        1.4086899
      ],
      [
        103.8961808,
        1.4085585
      ],
      [
        103.8959887,
        1.4082852
      ],
      [
        103.8958086,
        1.4080205
      ],
      [
        103.8956461,
        1.4077775
      ],
      [
        103.8955527,
        1.4075858
      ],
      [
        103.8954967,
        1.407432
      ],
      [
        103.895431,
        1.4071911
      ],
      [
        103.8953998,
        1.4069681
      ],
      [
        103.8954473,
        1.4068213
      ],
      [
        103.8954719,
        1.4067447
      ],
      [
        103.8955243,
        1.406649
      ],
      [
        103.8956913,
        1.4065571
      ],
      [
        103.8961156,
        1.4065092
      ],
      [
        103.8965625,
        1.4064887
      ],
      [
        103.8970492,
        1.4064838
      ],
      [
        103.8974568,
        1.406472
      ],
      [
        103.8975245,
        1.4064733
      ],
      [
        103.8977348,
        1.4064775
      ],
      [
        103.89781,
        1.4064804
      ],
      [
        103.8981287,
        1.4064895
      ],
      [
        103.898603,
        1.4064403
      ],
      [
        103.8989603,
        1.4063878
      ],
      [
        103.8990288,
        1.4063818
      ],
      [
        103.8992139,
        1.4063629
      ],
      [
        103.8994252,
        1.4063601
      ],
      [
        103.8996362,
        1.4063517
      ],
      [
        103.8999473,
        1.4063406
      ],
      [
        103.9000943,
        1.4063195
      ],
      [
        103.9002389,
        1.4062819
      ],
      [
        103.9003529,
        1.4062525
      ],
      [
        103.9004375,
        1.406225
      ],
      [
        103.9006302,
        1.406106
      ],
      [
        103.9006764,
        1.406047
      ],
      [
        103.9007439,
        1.4059689
      ],
      [
        103.9008264,
        1.4058797
      ],
      [
        103.9009095,
        1.4057919
      ],
      [
        103.9010553,
        1.4056455
      ],
      [
        103.9011851,
        1.4055552
      ],
      [
        103.9012379,
        1.4055236
      ],
      [
        103.9012699,
        1.4055076
      ],
      [
        103.901484,
        1.4054403
      ],
      [
        103.9017381,
        1.405381
      ],
      [
        103.9017954,
        1.4053677
      ],
      [
        103.9021968,
        1.4052696
      ],
      [
        103.9023689,
        1.4052176
      ],
      [
        103.9024838,
        1.4051538
      ],
      [
        103.9028184,
        1.4049933
      ],
      [
        103.903,
        1.4049912
      ],
      [
        103.903186,
        1.4050417
      ],
      [
        103.9035565,
        1.4052544
      ],
      [
        103.9036562,
        1.4052901
      ],
      [
        103.9037625,
        1.4053064
      ],
      [
        103.9039172,
        1.4052672
      ],
      [
        103.9040447,
        1.4052158
      ],
      [
        103.9041054,
        1.4051825
      ],
      [
        103.9041757,
        1.4051389
      ],
      [
        103.9041299,
        1.4050732
      ],
      [
        103.9040113,
        1.4048963
      ],
      [
        103.9039263,
        1.4047832
      ],
      [
        103.9038565,
        1.4046759
      ],
      [
        103.9039153,
        1.4046405
      ],
      [
        103.9042177,
        1.4043294
      ],
      [
        103.9044553,
        1.404106
      ],
      [
        103.9045947,
        1.4039928
      ],
      [
        103.9048992,
        1.4038111
      ],
      [
        103.905179,
        1.4036215
      ],
      [
        103.9054338,
        1.4034671
      ],
      [
        103.9055952,
        1.4033781
      ],
      [
        103.9058865,
        1.4031907
      ],
      [
        103.9061751,
        1.4030206
      ],
      [
        103.9062514,
        1.4029677
      ],
      [
        103.9063671,
        1.4028932
      ],
      [
        103.9063242,
        1.4027819
      ],
      [
        103.9062847,
        1.4026883
      ],
      [
        103.9061699,
        1.4024165
      ],
      [
        103.9060044,
        1.4020273
      ],
      [
        103.9057549,
        1.401378
      ],
      [
        103.9056944,
        1.4012267
      ],
      [
        103.9055098,
        1.4007703
      ],
      [
        103.9054296,
        1.4005801
      ],
      [
        103.9053789,
        1.4004672
      ],
      [
        103.9052784,
        1.4002649
      ],
      [
        103.905183,
        1.4000445
      ],
      [
        103.9051577,
        1.3999848
      ],
      [
        103.9050898,
        1.3998178
      ],
      [
        103.9050671,
        1.3997685
      ],
      [
        103.9049717,
        1.3995537
      ],
      [
        103.9046416,
        1.3988584
      ],
      [
        103.9044522,
        1.3984454
      ],
      [
        103.9042792,
        1.3980713
      ],
      [
        103.9041011,
        1.3977284
      ],
      [
        103.9040748,
        1.3975609
      ],
      [
        103.9040403,
        1.3974097
      ],
      [
        103.9040419,
        1.3973301
      ],
      [
        103.9040578,
        1.3972539
      ],
      [
        103.904107,
        1.3971487
      ],
      [
        103.9041423,
        1.397079
      ],
      [
        103.9041667,
        1.3970303
      ],
      [
        103.9042112,
        1.3969641
      ],
      [
        103.9043574,
        1.3968283
      ],
      [
        103.9045343,
        1.3966667
      ],
      [
        103.904897,
        1.396363
      ],
      [
        103.9053372,
        1.3959463
      ],
      [
        103.9059416,
        1.3953595
      ],
      [
        103.9060462,
        1.3951853
      ],
      [
        103.9064441,
        1.3948354
      ],
      [
        103.9069777,
        1.3943434
      ],
      [
        103.907186,
        1.3941345
      ],
      [
        103.9082255,
        1.393071
      ],
      [
        103.9088331,
        1.3923736
      ],
      [
        103.9095217,
        1.3915719
      ],
      [
        103.9097173,
        1.391345
      ],
      [
        103.9097619,
        1.3912943
      ],
      [
        103.9100165,
        1.391
      ],
      [
        103.9105877,
        1.3903421
      ],
      [
        103.9111708,
        1.3896819
      ],
      [
        103.9121552,
        1.3885384
      ],
      [
        103.9129309,
        1.3876257
      ],
      [
        103.9131814,
        1.3873309
      ],
      [
        103.9137876,
        1.3866261
      ],
      [
        103.9144594,
        1.3858453
      ],
      [
        103.9148964,
        1.3853374
      ],
      [
        103.9151807,
        1.3850111
      ],
      [
        103.9158047,
        1.3842662
      ],
      [
        103.9164311,
        1.38358
      ],
      [
        103.9168516,
        1.3831384
      ],
      [
        103.9174174,
        1.3825638
      ],
      [
        103.9178167,
        1.3821509
      ],
      [
        103.9181936,
        1.3818229
      ],
      [
        103.9184251,
        1.3815926
      ],
      [
        103.9188484,
        1.3811631
      ],
      [
        103.9195864,
        1.3805479
      ],
      [
        103.920098,
        1.3801797
      ],
      [
        103.9202763,
        1.3800685
      ],
      [
        103.9204621,
        1.3799573
      ],
      [
        103.9207032,
        1.3798298
      ],
      [
        103.921643,
        1.3793294
      ],
      [
        103.9221225,
        1.3791235
      ],
      [
        103.9230225,
        1.3787723
      ],
      [
        103.9235173,
        1.3786074
      ],
      [
        103.9240149,
        1.3784639
      ],
      [
        103.9255255,
        1.378103
      ],
      [
        103.9271998,
        1.3776671
      ],
      [
        103.9281991,
        1.3773868
      ],
      [
        103.9284515,
        1.3773129
      ],
      [
        103.9285183,
        1.3773265
      ],
      [
        103.9285322,
        1.3773294
      ],
      [
        103.9285487,
        1.3773274
      ],
      [
        103.928584,
        1.3773158
      ],
      [
        103.9286497,
        1.3772985
      ],
      [
        103.9289803,
        1.3772159
      ],
      [
        103.9292931,
        1.377128
      ],
      [
        103.9308066,
        1.3766507
      ],
      [
        103.9310569,
        1.3765779
      ],
      [
        103.9312923,
        1.3764452
      ],
      [
        103.9314054,
        1.3763667
      ],
      [
        103.9315583,
        1.3762322
      ],
      [
        103.9317253,
        1.3760433
      ],
      [
        103.9317779,
        1.3759504
      ],
      [
        103.9318164,
        1.3758644
      ],
      [
        103.9318307,
        1.3757996
      ],
      [
        103.931841,
        1.3756729
      ],
      [
        103.9318592,
        1.3755398
      ],
      [
        103.9317561,
        1.3753174
      ],
      [
        103.9315992,
        1.374979
      ],
      [
        103.9314888,
        1.3747407
      ],
      [
        103.9313823,
        1.3745407
      ],
      [
        103.9312081,
        1.3741865
      ],
      [
        103.9309823,
        1.373657
      ],
      [
        103.930875,
        1.373421
      ],
      [
        103.9307617,
        1.3731242
      ],
      [
        103.9306975,
        1.3729549
      ],
      [
        103.9306055,
        1.3727532
      ],
      [
        103.9305468,
        1.3725435
      ],
      [
        103.9304864,
        1.3722361
      ],
      [
        103.9304263,
        1.3717905
      ],
      [
        103.9304197,
        1.3714606
      ],
      [
        103.9304365,
        1.3712756
      ],
      [
        103.9304456,
        1.3711761
      ],
      [
        103.9305702,
        1.3703695
      ],
      [
        103.9306402,
        1.3698932
      ],
      [
        103.9307077,
        1.3694675
      ],
      [
        103.930765,
        1.3691442
      ],
      [
        103.9307767,
        1.3690787
      ],
      [
        103.9307983,
        1.3689581
      ],
      [
        103.9308141,
        1.36887
      ],
      [
        103.9308392,
        1.3687039
      ],
      [
        103.9309016,
        1.3683089
      ],
      [
        103.9309299,
        1.3681099
      ],
      [
        103.9309762,
        1.3675743
      ],
      [
        103.9310087,
        1.3671421
      ],
      [
        103.9310008,
        1.366733
      ],
      [
        103.9310091,
        1.3662544
      ],
      [
        103.9310104,
        1.3661874
      ],
      [
        103.9310127,
        1.3660498
      ],
      [
        103.9310142,
        1.3659648
      ],
      [
        103.9310185,
        1.3657124
      ],
      [
        103.9310178,
        1.3652373
      ],
      [
        103.9310215,
        1.3646017
      ],
      [
        103.9310164,
        1.3637294
      ],
      [
        103.9310157,
        1.3628824
      ],
      [
        103.9310166,
        1.3627873
      ],
      [
        103.9310139,
        1.3615761
      ],
      [
        103.9310125,
        1.3613172
      ],
      [
        103.9310123,
        1.3610194
      ],
      [
        103.9310182,
        1.3608855
      ],
      [
        103.931009,
        1.3605583
      ],
      [
        103.9310122,
        1.3604697
      ],
      [
        103.9310095,
        1.3603859
      ],
      [
        103.9310123,
        1.3603018
      ],
      [
        103.9309906,
        1.3600993
      ],
      [
        103.930899,
        1.3594655
      ],
      [
        103.9308129,
        1.3590863
      ],
      [
        103.9307166,
        1.3587893
      ],
      [
        103.9306303,
        1.3585501
      ],
      [
        103.9305084,
        1.3582876
      ],
      [
        103.9305095,
        1.3580455
      ],
      [
        103.930525,
        1.3579669
      ],
      [
        103.9305304,
        1.3579399
      ],
      [
        103.9305594,
        1.3578897
      ],
      [
        103.9306454,
        1.3577998
      ],
      [
        103.9315874,
        1.357271
      ],
      [
        103.9319364,
        1.3570698
      ],
      [
        103.9326058,
        1.3567089
      ],
      [
        103.9326723,
        1.3566749
      ],
      [
        103.9327414,
        1.3566396
      ],
      [
        103.9328453,
        1.3565866
      ],
      [
        103.9342008,
        1.3559436
      ],
      [
        103.9343403,
        1.3558948
      ],
      [
        103.934483,
        1.3558627
      ],
      [
        103.9345939,
        1.355852
      ],
      [
        103.9347402,
        1.3558511
      ],
      [
        103.9348191,
        1.3558543
      ],
      [
        103.9349321,
        1.3558547
      ],
      [
        103.9354701,
        1.3558564
      ],
      [
        103.935993,
        1.355858
      ],
      [
        103.9363373,
        1.3558592
      ],
      [
        103.9363825,
        1.3558594
      ],
      [
        103.9366236,
        1.3558601
      ],
      [
        103.9372425,
        1.3558621
      ],
      [
        103.9379033,
        1.3558643
      ],
      [
        103.9380119,
        1.3558646
      ],
      [
        103.938113,
        1.355865
      ],
      [
        103.9381625,
        1.3558648
      ],
      [
        103.9384505,
        1.3558535
      ],
      [
        103.9387455,
        1.3558465
      ],
      [
        103.9390368,
        1.3558417
      ],
      [
        103.9393839,
        1.3558469
      ],
      [
        103.9399229,
        1.3558549
      ],
      [
        103.9402657,
        1.3558454
      ],
      [
        103.9404313,
        1.3558334
      ],
      [
        103.9406676,
        1.3557565
      ],
      [
        103.9408678,
        1.3556579
      ],
      [
        103.9410112,
        1.3555616
      ],
      [
        103.9411467,
        1.3554438
      ],
      [
        103.9412702,
        1.3553007
      ],
      [
        103.9413674,
        1.3551529
      ],
      [
        103.9414553,
        1.3549631
      ],
      [
        103.9414924,
        1.3548261
      ],
      [
        103.9415177,
        1.3546497
      ],
      [
        103.9415222,
        1.3542123
      ],
      [
        103.9415231,
        1.3541292
      ],
      [
        103.9415239,
        1.3540478
      ],
      [
        103.9415246,
        1.3539771
      ],
      [
        103.9415302,
        1.3534294
      ],
      [
        103.9415421,
        1.3528238
      ]
    ]
  }
}