{
  "type": "Feature",
  "properties": {
    "relation": 2349851,
    "direction": "1",
    "fee": "yes",
    "from": "Pasir Ris Interchange",
    "name": "Svc 358 (Pasir Ris Interchange ↺ Pasir Ris Drive 4/10)",
    "name:en": "Svc 358 (Pasir Ris Interchange ↺ Pasir Ris Drive 4/10)",
    "network": "Land Transport Authority",
    "network:short": "LTA",
    "network:wikidata": "Q3299279",
    "network:wikipedia": "en:Land Transport Authority",
    "operator": "Go-Ahead Singapore",
    "operator:wikidata": "Q24698874",
    "operator:wikipedia": "en:Go-Ahead Singapore",
    "public_transport:version": "2",
    "ref": "358",
    "roundtrip": "yes",
    "route": "bus",
    "to": "Pasir Ris Interchange",
    "type": "route",
    "via": "Pasir Ris Drive 4;Pasir Ris Drive 10",
    "website": "https://go-aheadsingapore.com/bus-services/"
  },
  "geometry": {
    "type": "LineString",
    "coordinates": [
      [
        103.9485976,
        1.3735437
      ],
      [
        103.9485175,
        1.3735669
      ],
      [
        103.9484386,
        1.3736764
      ],
      [
        103.9484088,
        1.3737805
      ],
      [
        103.9484229,
        1.3739023
      ],
      [
        103.9484646,
        1.3740787
      ],
      [
        103.9485192,
        1.3742512
      ],
      [
        103.9485761,
        1.3744308
      ],
      [
        103.9486404,
        1.3746339
      ],
      [
        103.9486862,
        1.3747786
      ],
      [
        103.9487038,
        1.3748343
      ],
      [
        103.9487311,
        1.3748618
      ],
      [
        103.9487827,
        1.3748628
      ],
      [
        103.9489614,
        1.374809
      ],
      [
        103.9492107,
        1.374734
      ],
      [
        103.9492107,
        1.374734
      ],
      [
        103.9492813,
        1.3749702
      ],
      [
        103.9492647,
        1.3749088
      ],
      [
        103.9492671,
        1.3750976
      ],
      [
        103.9491986,
        1.375123
      ],
      [
        103.9489497,
        1.3752189
      ],
      [
        103.9488703,
        1.3752472
      ],
      [
        103.9485121,
        1.3753921
      ],
      [
        103.9484328,
        1.375427
      ],
      [
        103.9483697,
        1.3754525
      ],
      [
        103.9481926,
        1.3755245
      ],
      [
        103.948043,
        1.3755892
      ],
      [
        103.9477125,
        1.3757454
      ],
      [
        103.9470404,
        1.3761019
      ],
      [
        103.9469551,
        1.3761471
      ],
      [
        103.9468912,
        1.3761783
      ],
      [
        103.9468408,
        1.3762043
      ],
      [
        103.9466728,
        1.3762907
      ],
      [
        103.9465552,
        1.3763513
      ],
      [
        103.9463264,
        1.3764737
      ],
      [
        103.9456849,
        1.3768412
      ],
      [
        103.9450293,
        1.3772168
      ],
      [
        103.9442016,
        1.3777038
      ],
      [
        103.9439955,
        1.377852
      ],
      [
        103.9437778,
        1.3780083
      ],
      [
        103.9437435,
        1.378033
      ],
      [
        103.9436419,
        1.3781062
      ],
      [
        103.9434977,
        1.3782099
      ],
      [
        103.9432515,
        1.3783922
      ],
      [
        103.943131,
        1.3784849
      ],
      [
        103.9427823,
        1.3787503
      ],
      [
        103.9425426,
        1.3789118
      ],
      [
        103.9424926,
        1.3789455
      ],
      [
        103.9424586,
        1.3789684
      ],
      [
        103.9423013,
        1.3790819
      ],
      [
        103.9418715,
        1.3793905
      ],
      [
        103.9418106,
        1.3794362
      ],
      [
        103.9417252,
        1.3795085
      ],
      [
        103.9416906,
        1.3795339
      ],
      [
        103.9414483,
        1.3797164
      ],
      [
        103.9410103,
        1.3800467
      ],
      [
        103.940976,
        1.3800733
      ],
      [
        103.9407371,
        1.380259
      ],
      [
        103.9407111,
        1.3802792
      ],
      [
        103.940511,
        1.380437
      ],
      [
        103.940389,
        1.3805435
      ],
      [
        103.9402647,
        1.3806566
      ],
      [
        103.9396163,
        1.3812882
      ],
      [
        103.9395673,
        1.381336
      ],
      [
        103.9395084,
        1.3812612
      ],
      [
        103.9391633,
        1.3808296
      ],
      [
        103.9388726,
        1.3804642
      ],
      [
        103.9387126,
        1.380263
      ],
      [
        103.9386496,
        1.3801784
      ],
      [
        103.938564,
        1.380059
      ],
      [
        103.9381481,
        1.3794787
      ],
      [
        103.9380983,
        1.3794113
      ],
      [
        103.9379466,
        1.3792042
      ],
      [
        103.9378889,
        1.3791255
      ],
      [
        103.937651,
        1.3788009
      ],
      [
        103.9376291,
        1.3787705
      ],
      [
        103.9375288,
        1.3786269
      ],
      [
        103.9371229,
        1.3780431
      ],
      [
        103.9371063,
        1.3780193
      ],
      [
        103.9370742,
        1.3779731
      ],
      [
        103.937122,
        1.3779372
      ],
      [
        103.9378017,
        1.3774271
      ],
      [
        103.9386891,
        1.376761
      ],
      [
        103.9389601,
        1.3765566
      ],
      [
        103.9391979,
        1.376378
      ],
      [
        103.9401028,
        1.3756891
      ],
      [
        103.9404264,
        1.3754266
      ],
      [
        103.9405941,
        1.3753045
      ],
      [
        103.9407381,
        1.3752523
      ],
      [
        103.9408542,
        1.3751716
      ],
      [
        103.9409077,
        1.375162
      ],
      [
        103.9409338,
        1.3751628
      ],
      [
        103.940966,
        1.3751698
      ],
      [
        103.94099,
        1.3751829
      ],
      [
        103.9410445,
        1.3752225
      ],
      [
        103.9410701,
        1.3754292
      ],
      [
        103.9411693,
        1.3761937
      ],
      [
        103.9411793,
        1.3763093
      ],
      [
        103.9412133,
        1.3767042
      ],
      [
        103.9412318,
        1.3768699
      ],
      [
        103.9412991,
        1.3774727
      ],
      [
        103.9413147,
        1.37759
      ],
      [
        103.941351,
        1.3778909
      ],
      [
        103.9414553,
        1.3787494
      ],
      [
        103.9414801,
        1.3788864
      ],
      [
        103.9415176,
        1.3790138
      ],
      [
        103.9415669,
        1.3791514
      ],
      [
        103.9416182,
        1.3792893
      ],
      [
        103.9416825,
        1.3794223
      ],
      [
        103.9417252,
        1.3795085
      ],
      [
        103.941788,
        1.3796217
      ],
      [
        103.9418684,
        1.3795532
      ],
      [
        103.9419355,
        1.3795011
      ],
      [
        103.9429493,
        1.3787229
      ],
      [
        103.9432423,
        1.3785036
      ],
      [
        103.9433035,
        1.3784583
      ],
      [
        103.9439423,
        1.3779982
      ],
      [
        103.9439753,
        1.3779762
      ],
      [
        103.9440877,
        1.3779011
      ],
      [
        103.9442561,
        1.3777822
      ],
      [
        103.9450798,
        1.3773013
      ],
      [
        103.9455651,
        1.3770189
      ],
      [
        103.9457318,
        1.3769219
      ],
      [
        103.9459258,
        1.376809
      ],
      [
        103.9461074,
        1.3767042
      ],
      [
        103.9463674,
        1.3765636
      ],
      [
        103.946443,
        1.3765197
      ],
      [
        103.9468866,
        1.3762947
      ],
      [
        103.9469372,
        1.376269
      ],
      [
        103.9469982,
        1.3762374
      ],
      [
        103.9470855,
        1.3761914
      ],
      [
        103.9477728,
        1.3758294
      ],
      [
        103.9479831,
        1.3757284
      ],
      [
        103.9481728,
        1.3756513
      ],
      [
        103.9484098,
        1.37555
      ],
      [
        103.9484777,
        1.3755243
      ],
      [
        103.9485552,
        1.3754944
      ],
      [
        103.9486286,
        1.3754654
      ],
      [
        103.9488444,
        1.3753796
      ],
      [
        103.9492402,
        1.3752152
      ],
      [
        103.949349,
        1.3751815
      ],
      [
        103.9493175,
        1.3750796
      ],
      [
        103.9492813,
        1.3749702
      ],
      [
        103.9492647,
        1.3749088
      ],
      [
        103.9492107,
        1.374734
      ],
      [
        103.948911,
        1.373622
      ],
      [
        103.9488692,
        1.3735524
      ],
      [
        103.9488217,
        1.3735233
      ],
      [
        103.9487375,
        1.3735015
      ],
      [
        103.9485976,
        1.3735437
      ],
      [
        103.9485175,
        1.3735669
      ],
      [
        103.9484386,
        1.3736764
      ],
      [
        103.9484088,
        1.3737805
      ],
      [
        103.9484229,
        1.3739023
      ],
      [
        103.9484646,
        1.3740787
      ],
      [
        103.9485192,
        1.3742512
      ],
      [
        103.9485761,
        1.3744308
      ],
      [
        103.9486404,
        1.3746339
      ],
      [
        103.9486862,
        1.3747786
      ],
      [
        103.9487038,
        1.3748343
      ],
      [
        103.9487311,
        1.3748618
      ],
      [
        103.9487827,
        1.3748628
      ],
      [
        103.9489614,
        1.374809
      ],
      [
        103.9492107,
        1.374734
      ],
      [
        103.9492107,
        1.374734
      ],
      [
        103.9492813,
        1.3749702
      ],
      [
        103.9492647,
        1.3749088
      ],
      [
        103.9493175,
        1.3750796
      ],
      [
        103.9497279,
        1.3750688
      ],
      [
        103.9498874,
        1.3750318
      ],
      [
        103.949945,
        1.375022
      ],
      [
        103.9501773,
        1.3749838
      ],
      [
        103.9505464,
        1.3749485
      ],
      [
        103.9510212,
        1.3749301
      ],
      [
        103.9511345,
        1.374929
      ],
      [
        103.9512397,
        1.3749286
      ],
      [
        103.951308,
        1.3749314
      ],
      [
        103.951636,
        1.3749591
      ],
      [
        103.9521098,
        1.3750272
      ],
      [
        103.9524404,
        1.375074
      ],
      [
        103.9524826,
        1.37508
      ],
      [
        103.9525104,
        1.3750846
      ],
      [
        103.9525853,
        1.3750945
      ],
      [
        103.9526076,
        1.3750985
      ],
      [
        103.9529046,
        1.3751402
      ],
      [
        103.9533163,
        1.3751923
      ],
      [
        103.9534092,
        1.3752015
      ],
      [
        103.9541549,
        1.3752684
      ],
      [
        103.9543404,
        1.375286
      ],
      [
        103.9547851,
        1.3753562
      ],
      [
        103.9552504,
        1.3754303
      ],
      [
        103.9553757,
        1.3754426
      ],
      [
        103.9554675,
        1.3754568
      ],
      [
        103.956017,
        1.3755297
      ],
      [
        103.9561145,
        1.3755424
      ],
      [
        103.95621,
        1.3755501
      ],
      [
        103.9562206,
        1.3754241
      ],
      [
        103.9562281,
        1.3753341
      ],
      [
        103.9562398,
        1.3751807
      ],
      [
        103.9562422,
        1.3750055
      ],
      [
        103.9562302,
        1.3748147
      ],
      [
        103.9562156,
        1.3746097
      ],
      [
        103.9562267,
        1.3743549
      ],
      [
        103.9562391,
        1.3741441
      ],
      [
        103.9562434,
        1.3740389
      ],
      [
        103.9562555,
        1.3738889
      ],
      [
        103.9562597,
        1.3737218
      ],
      [
        103.9562692,
        1.3735548
      ],
      [
        103.9562867,
        1.3734051
      ],
      [
        103.9563081,
        1.3732731
      ],
      [
        103.9563664,
        1.3730059
      ],
      [
        103.9564783,
        1.3726705
      ],
      [
        103.9566251,
        1.3723194
      ],
      [
        103.956752,
        1.3720428
      ],
      [
        103.9567817,
        1.3719794
      ],
      [
        103.9568213,
        1.3718898
      ],
      [
        103.9569001,
        1.3717464
      ],
      [
        103.9569966,
        1.3714595
      ],
      [
        103.957005,
        1.3714233
      ],
      [
        103.9570557,
        1.3712041
      ],
      [
        103.9570811,
        1.3710472
      ],
      [
        103.9570989,
        1.3707449
      ],
      [
        103.9570995,
        1.3705919
      ],
      [
        103.9570972,
        1.3704627
      ],
      [
        103.9570952,
        1.3701811
      ],
      [
        103.957094,
        1.3700655
      ],
      [
        103.9570852,
        1.3698024
      ],
      [
        103.9570819,
        1.3696741
      ],
      [
        103.957057,
        1.3693304
      ],
      [
        103.9570198,
        1.3690801
      ],
      [
        103.9570173,
        1.3690635
      ],
      [
        103.9570106,
        1.3690179
      ],
      [
        103.9570492,
        1.3690065
      ],
      [
        103.957548,
        1.3688593
      ],
      [
        103.9578148,
        1.3687715
      ],
      [
        103.9579747,
        1.3687108
      ],
      [
        103.9581105,
        1.3686593
      ],
      [
        103.9584998,
        1.3684983
      ],
      [
        103.9588428,
        1.3683245
      ],
      [
        103.9591089,
        1.3681779
      ],
      [
        103.959312,
        1.368063
      ],
      [
        103.9594147,
        1.3680005
      ],
      [
        103.9595446,
        1.3679265
      ],
      [
        103.9596057,
        1.367891
      ],
      [
        103.9596393,
        1.3679428
      ],
      [
        103.9598844,
        1.3683527
      ],
      [
        103.9599964,
        1.3685381
      ],
      [
        103.9600279,
        1.3685884
      ],
      [
        103.9603049,
        1.3690467
      ],
      [
        103.9604393,
        1.369305
      ],
      [
        103.9604983,
        1.3694645
      ],
      [
        103.9605172,
        1.3695284
      ],
      [
        103.9605371,
        1.3695961
      ],
      [
        103.9605547,
        1.3696563
      ],
      [
        103.9606047,
        1.3698691
      ],
      [
        103.9606297,
        1.370092
      ],
      [
        103.9606342,
        1.3704266
      ],
      [
        103.9606356,
        1.3705229
      ],
      [
        103.9606327,
        1.3706277
      ],
      [
        103.9606227,
        1.3707584
      ],
      [
        103.9605848,
        1.371018
      ],
      [
        103.960559,
        1.3712435
      ],
      [
        103.9605401,
        1.3714278
      ],
      [
        103.9605323,
        1.37151
      ],
      [
        103.9605245,
        1.3716988
      ],
      [
        103.960532,
        1.3719812
      ],
      [
        103.9605458,
        1.3720718
      ],
      [
        103.9605663,
        1.372207
      ],
      [
        103.9606619,
        1.3725581
      ],
      [
        103.9608206,
        1.3732557
      ],
      [
        103.9608295,
        1.373295
      ],
      [
        103.9607583,
        1.3733109
      ],
      [
        103.9608295,
        1.373295
      ],
      [
        103.9600475,
        1.3734672
      ],
      [
        103.9601402,
        1.3734491
      ],
      [
        103.9588299,
        1.3733781
      ],
      [
        103.9588407,
        1.3734478
      ],
      [
        103.9588594,
        1.373488
      ],
      [
        103.9588769,
        1.3735229
      ],
      [
        103.9589077,
        1.3735544
      ],
      [
        103.9589734,
        1.3735926
      ],
      [
        103.9590291,
        1.3736167
      ],
      [
        103.9590894,
        1.3736254
      ],
      [
        103.9591572,
        1.3736275
      ],
      [
        103.9593583,
        1.3735993
      ],
      [
        103.9596038,
        1.3735538
      ],
      [
        103.9588058,
        1.3732092
      ],
      [
        103.9583905,
        1.3723313
      ],
      [
        103.958518,
        1.3723662
      ],
      [
        103.9585959,
        1.3723929
      ],
      [
        103.9586669,
        1.3724412
      ],
      [
        103.9587173,
        1.3724959
      ],
      [
        103.958734,
        1.3725524
      ],
      [
        103.9587678,
        1.3727355
      ],
      [
        103.9568653,
        1.3720065
      ],
      [
        103.9570449,
        1.3720412
      ],
      [
        103.9573724,
        1.3721081
      ],
      [
        103.9577075,
        1.3721766
      ],
      [
        103.957901,
        1.3722161
      ],
      [
        103.958083,
        1.3722553
      ],
      [
        103.9582214,
        1.3722851
      ],
      [
        103.9567817,
        1.3719794
      ],
      [
        103.9566802,
        1.3720129
      ],
      [
        103.9564028,
        1.3726444
      ],
      [
        103.9563087,
        1.3729618
      ],
      [
        103.9562617,
        1.3731535
      ],
      [
        103.9562164,
        1.3733631
      ],
      [
        103.9561978,
        1.3734901
      ],
      [
        103.9561806,
        1.3735933
      ],
      [
        103.9561715,
        1.3738797
      ],
      [
        103.9561651,
        1.374027
      ],
      [
        103.9561425,
        1.3746046
      ],
      [
        103.9561442,
        1.3748191
      ],
      [
        103.9561497,
        1.375089
      ],
      [
        103.9560739,
        1.3752184
      ],
      [
        103.9560233,
        1.375287
      ],
      [
        103.9559648,
        1.375339
      ],
      [
        103.9559167,
        1.3753701
      ],
      [
        103.9558663,
        1.3753881
      ],
      [
        103.9554423,
        1.3753436
      ],
      [
        103.9543768,
        1.3752075
      ],
      [
        103.954349,
        1.3752045
      ],
      [
        103.9534852,
        1.3751118
      ],
      [
        103.9533817,
        1.3751007
      ],
      [
        103.9532637,
        1.3750885
      ],
      [
        103.9529224,
        1.3750339
      ],
      [
        103.9526203,
        1.3749926
      ],
      [
        103.9525978,
        1.374989
      ],
      [
        103.952494,
        1.3749767
      ],
      [
        103.9524502,
        1.3749705
      ],
      [
        103.9524276,
        1.3749673
      ],
      [
        103.9521351,
        1.374926
      ],
      [
        103.9519254,
        1.3748977
      ],
      [
        103.9516278,
        1.3748575
      ],
      [
        103.9513023,
        1.3748181
      ],
      [
        103.951244,
        1.3748161
      ],
      [
        103.9511344,
        1.3748107
      ],
      [
        103.9510234,
        1.3748153
      ],
      [
        103.9505378,
        1.3748392
      ],
      [
        103.9501639,
        1.3748793
      ],
      [
        103.9499146,
        1.3749153
      ],
      [
        103.9498585,
        1.3749238
      ],
      [
        103.9496377,
        1.3749796
      ],
      [
        103.9493175,
        1.3750796
      ],
      [
        103.9492813,
        1.3749702
      ],
      [
        103.9492647,
        1.3749088
      ],
      [
        103.9492107,
        1.374734
      ],
      [
        103.948911,
        1.373622
      ],
      [
        103.9488692,
        1.3735524
      ],
      [
        103.9488217,
        1.3735233
      ],
      [
        103.9487375,
        1.3735015
      ],
      [
        103.9485976,
        1.3735437
      ]
    ]
  }
}