{
  "type": "Feature",
  "properties": {
    "relation": 1149300,
    "direction": "1",
    "distance": "52.7",
    "duration": "158",
    "fee": "yes",
    "from": "Changi Airport Terminal 2",
    "name": "Svc 36 (Changi Airport Terminal 2 ↺ Tomlinson Road)",
    "name:en": "Svc 36 (Changi Airport Terminal 2 ↺ Tomlinson Road)",
    "network": "Land Transport Authority",
    "network:short": "LTA",
    "network:wikidata": "Q3299279",
    "network:wikipedia": "en:Land Transport Authority",
    "operator": "Go-Ahead Singapore",
    "operator:wikidata": "Q24698874",
    "operator:wikipedia": "en:Go-Ahead Singapore",
    "public_transport:version": "2",
    "ref": "36",
    "roundtrip": "yes",
    "route": "bus",
    "to": "Changi Airport Terminal 2",
    "type": "route",
    "via": "Tomlinson Road",
    "website": "https://go-aheadsingapore.com/bus-services/",
    "wheelchair": "yes"
  },
  "geometry": {
    "type": "LineString",
    "coordinates": [
      [
        103.990648,
        1.358375
      ],
      [
        103.9900256,
        1.3569366
      ],
      [
        103.9897002,
        1.3561908
      ],
      [
        103.9884758,
        1.3533123
      ],
      [
        103.9876919,
        1.3513695
      ],
      [
        103.9875825,
        1.3512851
      ],
      [
        103.9873976,
        1.3511412
      ],
      [
        103.9873105,
        1.3509761
      ],
      [
        103.9872273,
        1.3507784
      ],
      [
        103.9871762,
        1.3506461
      ],
      [
        103.9871118,
        1.3505629
      ],
      [
        103.9871039,
        1.3505566
      ],
      [
        103.9870615,
        1.3505227
      ],
      [
        103.9869925,
        1.3504992
      ],
      [
        103.9869066,
        1.3505026
      ],
      [
        103.9867302,
        1.3505725
      ],
      [
        103.9865291,
        1.35069
      ],
      [
        103.9864081,
        1.3507094
      ],
      [
        103.9863069,
        1.3506941
      ],
      [
        103.9862425,
        1.3506371
      ],
      [
        103.9859632,
        1.3499676
      ],
      [
        103.9859352,
        1.3499068
      ],
      [
        103.9858925,
        1.3498349
      ],
      [
        103.985846,
        1.3497718
      ],
      [
        103.9857823,
        1.3496843
      ],
      [
        103.985715,
        1.3496298
      ],
      [
        103.985638,
        1.3495713
      ],
      [
        103.9855757,
        1.3495257
      ],
      [
        103.985517,
        1.349481
      ],
      [
        103.9854629,
        1.3494399
      ],
      [
        103.9854141,
        1.3493956
      ],
      [
        103.9853489,
        1.3493268
      ],
      [
        103.9853007,
        1.3492584
      ],
      [
        103.985243,
        1.3491565
      ],
      [
        103.9851584,
        1.3489324
      ],
      [
        103.9851401,
        1.3487755
      ],
      [
        103.9850608,
        1.3485258
      ],
      [
        103.9849399,
        1.3482766
      ],
      [
        103.9849242,
        1.3482258
      ],
      [
        103.9849153,
        1.3481878
      ],
      [
        103.9848463,
        1.3477158
      ],
      [
        103.9847828,
        1.3475581
      ],
      [
        103.9847303,
        1.3474907
      ],
      [
        103.9846516,
        1.3473524
      ],
      [
        103.9845523,
        1.3472118
      ],
      [
        103.9845335,
        1.3471737
      ],
      [
        103.9845123,
        1.3471203
      ],
      [
        103.984491,
        1.3470505
      ],
      [
        103.9844714,
        1.3469893
      ],
      [
        103.9844458,
        1.3469194
      ],
      [
        103.9843385,
        1.3466727
      ],
      [
        103.9842423,
        1.3464691
      ],
      [
        103.9840572,
        1.3460244
      ],
      [
        103.9838887,
        1.3456114
      ],
      [
        103.9836969,
        1.3451415
      ],
      [
        103.9836782,
        1.3450957
      ],
      [
        103.9835371,
        1.3446949
      ],
      [
        103.9835069,
        1.344579
      ],
      [
        103.9834925,
        1.3444996
      ],
      [
        103.9834832,
        1.3444194
      ],
      [
        103.9834814,
        1.3443279
      ],
      [
        103.9834838,
        1.3442321
      ],
      [
        103.9834951,
        1.3439749
      ],
      [
        103.9835049,
        1.3438914
      ],
      [
        103.9835083,
        1.3438009
      ],
      [
        103.9835018,
        1.3437324
      ],
      [
        103.9834935,
        1.3436177
      ],
      [
        103.9834795,
        1.343534
      ],
      [
        103.9834429,
        1.3434183
      ],
      [
        103.9834225,
        1.3433524
      ],
      [
        103.9833883,
        1.3432788
      ],
      [
        103.9833386,
        1.3431891
      ],
      [
        103.9832581,
        1.3430421
      ],
      [
        103.9832262,
        1.3429567
      ],
      [
        103.9831602,
        1.3427335
      ],
      [
        103.9829753,
        1.3422286
      ],
      [
        103.9828322,
        1.3418825
      ],
      [
        103.9826638,
        1.3414743
      ],
      [
        103.9825548,
        1.3412638
      ],
      [
        103.982477,
        1.3411036
      ],
      [
        103.9823971,
        1.3409841
      ],
      [
        103.9823309,
        1.3408662
      ],
      [
        103.9822545,
        1.3406996
      ],
      [
        103.982206,
        1.3405871
      ],
      [
        103.9821837,
        1.3405111
      ],
      [
        103.9821709,
        1.340442
      ],
      [
        103.9821667,
        1.3403742
      ],
      [
        103.982175,
        1.3402996
      ],
      [
        103.9821924,
        1.3402274
      ],
      [
        103.9822273,
        1.3401498
      ],
      [
        103.9822665,
        1.3400881
      ],
      [
        103.9823149,
        1.3400306
      ],
      [
        103.9823995,
        1.3399705
      ],
      [
        103.9825393,
        1.3398926
      ],
      [
        103.9826663,
        1.3398248
      ],
      [
        103.9829557,
        1.339696
      ],
      [
        103.9829989,
        1.3396748
      ],
      [
        103.9830269,
        1.3396481
      ],
      [
        103.9830443,
        1.3396084
      ],
      [
        103.9830476,
        1.3395675
      ],
      [
        103.9830379,
        1.3395236
      ],
      [
        103.9829484,
        1.3392927
      ],
      [
        103.9826547,
        1.3385674
      ],
      [
        103.9823688,
        1.3379014
      ],
      [
        103.9822671,
        1.3376619
      ],
      [
        103.9822523,
        1.3376296
      ],
      [
        103.9822353,
        1.3376018
      ],
      [
        103.9822043,
        1.3375745
      ],
      [
        103.9821683,
        1.3375557
      ],
      [
        103.9821305,
        1.3375484
      ],
      [
        103.9820962,
        1.337547
      ],
      [
        103.9820583,
        1.3375619
      ],
      [
        103.9820207,
        1.3375958
      ],
      [
        103.9818976,
        1.3377428
      ],
      [
        103.9817553,
        1.3380916
      ],
      [
        103.9816741,
        1.3383101
      ],
      [
        103.981646,
        1.3385158
      ],
      [
        103.9816179,
        1.3386046
      ],
      [
        103.9815948,
        1.3386825
      ],
      [
        103.9815807,
        1.3387536
      ],
      [
        103.9815757,
        1.3387971
      ],
      [
        103.9815943,
        1.338924
      ],
      [
        103.981632,
        1.3389555
      ],
      [
        103.9816712,
        1.3389742
      ],
      [
        103.9817205,
        1.3389848
      ],
      [
        103.9817847,
        1.338989
      ],
      [
        103.9818523,
        1.3389696
      ],
      [
        103.9824628,
        1.3387
      ],
      [
        103.9825132,
        1.3386778
      ],
      [
        103.982566,
        1.3386545
      ],
      [
        103.9826024,
        1.3386385
      ],
      [
        103.9826292,
        1.3386116
      ],
      [
        103.9826547,
        1.3385674
      ],
      [
        103.9823688,
        1.3379014
      ],
      [
        103.9822671,
        1.3376619
      ],
      [
        103.9822523,
        1.3376296
      ],
      [
        103.9822353,
        1.3376018
      ],
      [
        103.9822043,
        1.3375745
      ],
      [
        103.9821683,
        1.3375557
      ],
      [
        103.9821305,
        1.3375484
      ],
      [
        103.9820962,
        1.337547
      ],
      [
        103.9820583,
        1.3375619
      ],
      [
        103.9820207,
        1.3375958
      ],
      [
        103.9818976,
        1.3377428
      ],
      [
        103.9817553,
        1.3380916
      ],
      [
        103.9816741,
        1.3383101
      ],
      [
        103.98155,
        1.3385778
      ],
      [
        103.981532,
        1.3386213
      ],
      [
        103.9815085,
        1.3386625
      ],
      [
        103.9814434,
        1.3386968
      ],
      [
        103.9814067,
        1.3387047
      ],
      [
        103.9813686,
        1.3387045
      ],
      [
        103.9813248,
        1.338696
      ],
      [
        103.981284,
        1.3386779
      ],
      [
        103.9812475,
        1.3386451
      ],
      [
        103.9812211,
        1.3386113
      ],
      [
        103.9812042,
        1.3385711
      ],
      [
        103.9811995,
        1.3385148
      ],
      [
        103.9812124,
        1.3384614
      ],
      [
        103.9812389,
        1.3384103
      ],
      [
        103.9813352,
        1.3382727
      ],
      [
        103.9815282,
        1.3379879
      ],
      [
        103.9815685,
        1.3379215
      ],
      [
        103.9816124,
        1.3378359
      ],
      [
        103.9817269,
        1.3375453
      ],
      [
        103.9817856,
        1.3373853
      ],
      [
        103.9818056,
        1.3373158
      ],
      [
        103.9818213,
        1.3372245
      ],
      [
        103.9818269,
        1.3371507
      ],
      [
        103.9818231,
        1.3370726
      ],
      [
        103.9818123,
        1.336999
      ],
      [
        103.9817935,
        1.3369187
      ],
      [
        103.9817704,
        1.3368442
      ],
      [
        103.9817401,
        1.3367815
      ],
      [
        103.9816959,
        1.3367068
      ],
      [
        103.9816477,
        1.3366424
      ],
      [
        103.9816023,
        1.3365931
      ],
      [
        103.9815405,
        1.336539
      ],
      [
        103.9814856,
        1.3364969
      ],
      [
        103.9814241,
        1.3364627
      ],
      [
        103.9813538,
        1.3364298
      ],
      [
        103.9812817,
        1.3364052
      ],
      [
        103.9812124,
        1.3363906
      ],
      [
        103.9811357,
        1.3363813
      ],
      [
        103.9810486,
        1.3363815
      ],
      [
        103.9809595,
        1.3363881
      ],
      [
        103.9808742,
        1.3364074
      ],
      [
        103.9807751,
        1.3364413
      ],
      [
        103.9805477,
        1.3365395
      ],
      [
        103.9804839,
        1.336563
      ],
      [
        103.9804151,
        1.336575
      ],
      [
        103.9803439,
        1.3365807
      ],
      [
        103.9802742,
        1.3365781
      ],
      [
        103.9802162,
        1.3365672
      ],
      [
        103.9801461,
        1.336547
      ],
      [
        103.9800904,
        1.3365254
      ],
      [
        103.9800325,
        1.3364952
      ],
      [
        103.9799615,
        1.3364471
      ],
      [
        103.9799082,
        1.3363978
      ],
      [
        103.9798605,
        1.336346
      ],
      [
        103.9798195,
        1.336281
      ],
      [
        103.979602,
        1.3358663
      ],
      [
        103.9795419,
        1.3357598
      ],
      [
        103.9795006,
        1.3356867
      ],
      [
        103.9794705,
        1.3356336
      ],
      [
        103.9794022,
        1.3355429
      ],
      [
        103.9792762,
        1.3353453
      ],
      [
        103.9791665,
        1.3351995
      ],
      [
        103.9791322,
        1.3351595
      ],
      [
        103.9787666,
        1.3347624
      ],
      [
        103.9783836,
        1.3342154
      ],
      [
        103.9778883,
        1.3335063
      ],
      [
        103.9757403,
        1.33029
      ],
      [
        103.9754463,
        1.3298607
      ],
      [
        103.9752424,
        1.3295348
      ],
      [
        103.9739359,
        1.3275729
      ],
      [
        103.9725307,
        1.325593
      ],
      [
        103.9705254,
        1.3226028
      ],
      [
        103.9691227,
        1.3206835
      ],
      [
        103.9688611,
        1.3203186
      ],
      [
        103.9683946,
        1.3197607
      ],
      [
        103.9678196,
        1.3191714
      ],
      [
        103.9671536,
        1.3186536
      ],
      [
        103.9665693,
        1.3182978
      ],
      [
        103.9660413,
        1.3180396
      ],
      [
        103.9653093,
        1.3177236
      ],
      [
        103.962713,
        1.3166513
      ],
      [
        103.9622589,
        1.3164724
      ],
      [
        103.9607314,
        1.3158458
      ],
      [
        103.9571844,
        1.3143905
      ],
      [
        103.9538032,
        1.3130047
      ],
      [
        103.95234,
        1.3123998
      ],
      [
        103.9518789,
        1.3122317
      ],
      [
        103.9518141,
        1.312207
      ],
      [
        103.951704,
        1.3121578
      ],
      [
        103.9515382,
        1.3120455
      ],
      [
        103.9514954,
        1.3120216
      ],
      [
        103.9513854,
        1.311981
      ],
      [
        103.9508108,
        1.3117302
      ],
      [
        103.9507399,
        1.311707
      ],
      [
        103.9494632,
        1.3112354
      ],
      [
        103.9493559,
        1.311234
      ],
      [
        103.9492975,
        1.3113731
      ],
      [
        103.949255,
        1.3114671
      ],
      [
        103.9492105,
        1.3115594
      ],
      [
        103.9492005,
        1.3115748
      ],
      [
        103.9491891,
        1.3115894
      ],
      [
        103.9491762,
        1.3116034
      ],
      [
        103.949161,
        1.3116168
      ],
      [
        103.9491463,
        1.3116277
      ],
      [
        103.949131,
        1.311638
      ],
      [
        103.9491154,
        1.3116468
      ],
      [
        103.9490987,
        1.3116548
      ],
      [
        103.9490854,
        1.3116602
      ],
      [
        103.9490717,
        1.3116652
      ],
      [
        103.9490455,
        1.3116735
      ],
      [
        103.94902,
        1.3116804
      ],
      [
        103.9490056,
        1.3116832
      ],
      [
        103.9489909,
        1.3116854
      ],
      [
        103.9489623,
        1.3116877
      ],
      [
        103.9487758,
        1.3116947
      ],
      [
        103.9481855,
        1.3117183
      ],
      [
        103.9466787,
        1.3116695
      ],
      [
        103.9455614,
        1.3116352
      ],
      [
        103.9447491,
        1.3116041
      ],
      [
        103.9442879,
        1.3115624
      ],
      [
        103.9438766,
        1.3114882
      ],
      [
        103.9434116,
        1.3113837
      ],
      [
        103.9423582,
        1.3110949
      ],
      [
        103.9398275,
        1.3103691
      ],
      [
        103.9394733,
        1.3102676
      ],
      [
        103.9382578,
        1.309919
      ],
      [
        103.9376267,
        1.3097551
      ],
      [
        103.9374811,
        1.3097153
      ],
      [
        103.937415,
        1.309695
      ],
      [
        103.9373398,
        1.309669
      ],
      [
        103.9363188,
        1.3093753
      ],
      [
        103.935606,
        1.3091571
      ],
      [
        103.9352767,
        1.3090621
      ],
      [
        103.9352191,
        1.3090079
      ],
      [
        103.9351675,
        1.3089784
      ],
      [
        103.9349066,
        1.3089073
      ],
      [
        103.934741,
        1.308847
      ],
      [
        103.9346404,
        1.3088053
      ],
      [
        103.9345425,
        1.308761
      ],
      [
        103.9344973,
        1.3087385
      ],
      [
        103.9344536,
        1.3087145
      ],
      [
        103.9344128,
        1.3086904
      ],
      [
        103.9343736,
        1.3086659
      ],
      [
        103.9343433,
        1.3086442
      ],
      [
        103.9343139,
        1.3086212
      ],
      [
        103.9342871,
        1.3085989
      ],
      [
        103.9342616,
        1.3085758
      ],
      [
        103.9342322,
        1.3085477
      ],
      [
        103.9342179,
        1.3085327
      ],
      [
        103.9342041,
        1.3085169
      ],
      [
        103.93419,
        1.308501
      ],
      [
        103.9341768,
        1.3084848
      ],
      [
        103.9341639,
        1.3084671
      ],
      [
        103.9341521,
        1.3084486
      ],
      [
        103.9341407,
        1.3084279
      ],
      [
        103.9341296,
        1.308406
      ],
      [
        103.9341204,
        1.3083845
      ],
      [
        103.934112,
        1.3083621
      ],
      [
        103.9341065,
        1.3083416
      ],
      [
        103.9341017,
        1.3083208
      ],
      [
        103.934098,
        1.3083001
      ],
      [
        103.934095,
        1.3082794
      ],
      [
        103.9340931,
        1.3082626
      ],
      [
        103.9340923,
        1.3082458
      ],
      [
        103.9340921,
        1.3082291
      ],
      [
        103.9340923,
        1.3082123
      ],
      [
        103.9340929,
        1.3081968
      ],
      [
        103.9340938,
        1.3081814
      ],
      [
        103.9340953,
        1.3081657
      ],
      [
        103.9340973,
        1.3081498
      ],
      [
        103.9340999,
        1.308132
      ],
      [
        103.9341032,
        1.3081142
      ],
      [
        103.9341073,
        1.3080964
      ],
      [
        103.9341118,
        1.3080786
      ],
      [
        103.9341165,
        1.3080628
      ],
      [
        103.9341219,
        1.3080478
      ],
      [
        103.934129,
        1.3080318
      ],
      [
        103.9341371,
        1.3080166
      ],
      [
        103.9341434,
        1.3080064
      ],
      [
        103.9341503,
        1.3079963
      ],
      [
        103.9341652,
        1.3079759
      ],
      [
        103.9341812,
        1.3079554
      ],
      [
        103.9341982,
        1.307936
      ],
      [
        103.9342153,
        1.3079191
      ],
      [
        103.934233,
        1.3079034
      ],
      [
        103.934252,
        1.307888
      ],
      [
        103.9342724,
        1.3078732
      ],
      [
        103.9342939,
        1.3078598
      ],
      [
        103.9343164,
        1.3078473
      ],
      [
        103.9343399,
        1.3078358
      ],
      [
        103.9343634,
        1.3078259
      ],
      [
        103.9343849,
        1.3078181
      ],
      [
        103.9344077,
        1.3078117
      ],
      [
        103.934431,
        1.3078072
      ],
      [
        103.9344547,
        1.3078038
      ],
      [
        103.9344772,
        1.3078015
      ],
      [
        103.9345001,
        1.3078003
      ],
      [
        103.9345452,
        1.3078009
      ],
      [
        103.9345865,
        1.3078047
      ],
      [
        103.9346278,
        1.3078125
      ],
      [
        103.9346682,
        1.3078246
      ],
      [
        103.9347079,
        1.3078387
      ],
      [
        103.9347454,
        1.3078545
      ],
      [
        103.9347811,
        1.3078723
      ],
      [
        103.934814,
        1.3078913
      ],
      [
        103.9348471,
        1.3079131
      ],
      [
        103.9348774,
        1.3079354
      ],
      [
        103.9349027,
        1.3079567
      ],
      [
        103.9349266,
        1.3079797
      ],
      [
        103.9349483,
        1.3080035
      ],
      [
        103.9349661,
        1.308025
      ],
      [
        103.9349827,
        1.3080465
      ],
      [
        103.9349983,
        1.3080689
      ],
      [
        103.9350123,
        1.3080902
      ],
      [
        103.9350264,
        1.3081126
      ],
      [
        103.9350397,
        1.3081354
      ],
      [
        103.9350518,
        1.3081576
      ],
      [
        103.9350626,
        1.3081808
      ],
      [
        103.9350715,
        1.3082012
      ],
      [
        103.9350791,
        1.3082215
      ],
      [
        103.9350865,
        1.3082421
      ],
      [
        103.9350927,
        1.3082628
      ],
      [
        103.9350996,
        1.3082853
      ],
      [
        103.9351045,
        1.3083079
      ],
      [
        103.935108,
        1.3083277
      ],
      [
        103.9351108,
        1.3083472
      ],
      [
        103.9351129,
        1.3083671
      ],
      [
        103.9351136,
        1.308387
      ],
      [
        103.935114,
        1.3084257
      ],
      [
        103.9351122,
        1.3084628
      ],
      [
        103.9351088,
        1.3084948
      ],
      [
        103.9351044,
        1.3085255
      ],
      [
        103.9350993,
        1.3085537
      ],
      [
        103.9350942,
        1.3085778
      ],
      [
        103.9350882,
        1.3086018
      ],
      [
        103.9350275,
        1.3088242
      ],
      [
        103.9348108,
        1.309619
      ],
      [
        103.9344388,
        1.3109827
      ],
      [
        103.934303,
        1.3114463
      ],
      [
        103.9342035,
        1.3114035
      ],
      [
        103.9336243,
        1.3111408
      ],
      [
        103.9332618,
        1.3109746
      ],
      [
        103.9328447,
        1.3107751
      ],
      [
        103.9326448,
        1.3106905
      ],
      [
        103.932396,
        1.3106062
      ],
      [
        103.9323427,
        1.3105889
      ],
      [
        103.9318298,
        1.310429
      ],
      [
        103.9316814,
        1.3103845
      ],
      [
        103.9315142,
        1.3103333
      ],
      [
        103.9312929,
        1.3102763
      ],
      [
        103.930993,
        1.3101794
      ],
      [
        103.9307741,
        1.3101286
      ],
      [
        103.9303474,
        1.3099775
      ],
      [
        103.9303336,
        1.3099725
      ],
      [
        103.930297,
        1.3099608
      ],
      [
        103.93022,
        1.3099397
      ],
      [
        103.929836,
        1.3098297
      ],
      [
        103.9297124,
        1.3097858
      ],
      [
        103.9295553,
        1.3097301
      ],
      [
        103.9294067,
        1.3096773
      ],
      [
        103.9292596,
        1.3096207
      ],
      [
        103.9291528,
        1.309585
      ],
      [
        103.9291359,
        1.3095793
      ],
      [
        103.928988,
        1.3095372
      ],
      [
        103.9289328,
        1.3095249
      ],
      [
        103.9286758,
        1.3094696
      ],
      [
        103.9286021,
        1.3094526
      ],
      [
        103.9284803,
        1.309426
      ],
      [
        103.9283778,
        1.3094035
      ],
      [
        103.9282978,
        1.3093857
      ],
      [
        103.9282132,
        1.3093705
      ],
      [
        103.9277006,
        1.3093122
      ],
      [
        103.9272246,
        1.3092278
      ],
      [
        103.9268891,
        1.3091856
      ],
      [
        103.9265795,
        1.309135
      ],
      [
        103.9265614,
        1.3091316
      ],
      [
        103.9264947,
        1.3091181
      ],
      [
        103.9264497,
        1.3091073
      ],
      [
        103.9264028,
        1.3090947
      ],
      [
        103.9263551,
        1.3090798
      ],
      [
        103.9262893,
        1.309059
      ],
      [
        103.9260399,
        1.3089722
      ],
      [
        103.9260163,
        1.3089606
      ],
      [
        103.9259229,
        1.3089279
      ],
      [
        103.9258301,
        1.3088962
      ],
      [
        103.9255381,
        1.3088008
      ],
      [
        103.9248907,
        1.3086025
      ],
      [
        103.9247488,
        1.3085613
      ],
      [
        103.9246676,
        1.3085401
      ],
      [
        103.9245919,
        1.3085231
      ],
      [
        103.9245269,
        1.3085107
      ],
      [
        103.9244644,
        1.3085015
      ],
      [
        103.9240158,
        1.308453
      ],
      [
        103.9237891,
        1.3084285
      ],
      [
        103.9235543,
        1.3084017
      ],
      [
        103.9233874,
        1.3083805
      ],
      [
        103.9232881,
        1.3083679
      ],
      [
        103.9232337,
        1.3083592
      ],
      [
        103.9231125,
        1.3083417
      ],
      [
        103.922578,
        1.3082415
      ],
      [
        103.9224611,
        1.3082175
      ],
      [
        103.9223325,
        1.3081911
      ],
      [
        103.9217542,
        1.3080702
      ],
      [
        103.9216036,
        1.3080373
      ],
      [
        103.9208798,
        1.3078724
      ],
      [
        103.9206098,
        1.3078118
      ],
      [
        103.9204058,
        1.3077651
      ],
      [
        103.9202379,
        1.3077343
      ],
      [
        103.9192499,
        1.3075681
      ],
      [
        103.919053,
        1.3075357
      ],
      [
        103.918813,
        1.3075003
      ],
      [
        103.9184718,
        1.307447
      ],
      [
        103.918436,
        1.307441
      ],
      [
        103.9181653,
        1.3073876
      ],
      [
        103.9172717,
        1.3072184
      ],
      [
        103.9171143,
        1.3071937
      ],
      [
        103.9169955,
        1.3071761
      ],
      [
        103.916845,
        1.3071464
      ],
      [
        103.9167406,
        1.3071241
      ],
      [
        103.9166553,
        1.3071048
      ],
      [
        103.9165167,
        1.3070732
      ],
      [
        103.9163773,
        1.3070397
      ],
      [
        103.915618,
        1.3068387
      ],
      [
        103.9154236,
        1.3067781
      ],
      [
        103.9151693,
        1.3067377
      ],
      [
        103.9149913,
        1.3066891
      ],
      [
        103.9146775,
        1.3066084
      ],
      [
        103.9145007,
        1.3065596
      ],
      [
        103.9135749,
        1.3063158
      ],
      [
        103.9135134,
        1.3062969
      ],
      [
        103.9134081,
        1.3062755
      ],
      [
        103.9132926,
        1.3062556
      ],
      [
        103.912669,
        1.3061306
      ],
      [
        103.9123499,
        1.3060583
      ],
      [
        103.9120846,
        1.3059929
      ],
      [
        103.9119826,
        1.3059678
      ],
      [
        103.9118272,
        1.3059331
      ],
      [
        103.9114863,
        1.3058545
      ],
      [
        103.9111832,
        1.3057915
      ],
      [
        103.9110533,
        1.3057601
      ],
      [
        103.9109278,
        1.3057298
      ],
      [
        103.9108509,
        1.3057111
      ],
      [
        103.9107895,
        1.3056963
      ],
      [
        103.9107266,
        1.305681
      ],
      [
        103.9104466,
        1.3055961
      ],
      [
        103.9101629,
        1.305487
      ],
      [
        103.9100921,
        1.3054532
      ],
      [
        103.9099751,
        1.3053973
      ],
      [
        103.9098823,
        1.305353
      ],
      [
        103.9097482,
        1.3052891
      ],
      [
        103.909556,
        1.3051999
      ],
      [
        103.9092495,
        1.3050577
      ],
      [
        103.9091846,
        1.3050276
      ],
      [
        103.9090052,
        1.3049443
      ],
      [
        103.9088248,
        1.3048606
      ],
      [
        103.9085231,
        1.3047206
      ],
      [
        103.9084323,
        1.3046772
      ],
      [
        103.908352,
        1.3046346
      ],
      [
        103.9082473,
        1.3045834
      ],
      [
        103.9079526,
        1.304432
      ],
      [
        103.9075822,
        1.3042079
      ],
      [
        103.9067927,
        1.3036856
      ],
      [
        103.9067077,
        1.3036296
      ],
      [
        103.906652,
        1.3035893
      ],
      [
        103.9066309,
        1.3035738
      ],
      [
        103.9064919,
        1.3034811
      ],
      [
        103.9063821,
        1.3034125
      ],
      [
        103.9061441,
        1.3032417
      ],
      [
        103.9059425,
        1.3030996
      ],
      [
        103.9056072,
        1.3028607
      ],
      [
        103.9054461,
        1.3027613
      ],
      [
        103.9054007,
        1.3027333
      ],
      [
        103.9051871,
        1.3026072
      ],
      [
        103.9050845,
        1.3025315
      ],
      [
        103.9047437,
        1.3022898
      ],
      [
        103.9046639,
        1.302233
      ],
      [
        103.9044685,
        1.3020871
      ],
      [
        103.9041582,
        1.3019165
      ],
      [
        103.9040802,
        1.3018628
      ],
      [
        103.9037985,
        1.3016716
      ],
      [
        103.9036835,
        1.3016016
      ],
      [
        103.9036138,
        1.3015582
      ],
      [
        103.9034688,
        1.3014492
      ],
      [
        103.902563,
        1.3007747
      ],
      [
        103.902504,
        1.3007252
      ],
      [
        103.9023586,
        1.3006189
      ],
      [
        103.9022943,
        1.3005384
      ],
      [
        103.9022682,
        1.3003808
      ],
      [
        103.9022475,
        1.3002838
      ],
      [
        103.9021991,
        1.3001972
      ],
      [
        103.9021274,
        1.3001287
      ],
      [
        103.9020386,
        1.3000844
      ],
      [
        103.9019408,
        1.3000681
      ],
      [
        103.9018416,
        1.3000816
      ],
      [
        103.9017971,
        1.3001024
      ],
      [
        103.901751,
        1.3001239
      ],
      [
        103.901677,
        1.3001912
      ],
      [
        103.9016263,
        1.3002775
      ],
      [
        103.9016036,
        1.3003748
      ],
      [
        103.9016076,
        1.3004592
      ],
      [
        103.9016328,
        1.3005398
      ],
      [
        103.9016229,
        1.300592
      ],
      [
        103.9016057,
        1.3006541
      ],
      [
        103.9015927,
        1.3007013
      ],
      [
        103.9015692,
        1.3007527
      ],
      [
        103.9015503,
        1.3007809
      ],
      [
        103.9014808,
        1.300899
      ],
      [
        103.9014337,
        1.3010017
      ],
      [
        103.9012594,
        1.3013073
      ],
      [
        103.9012472,
        1.301327
      ],
      [
        103.9011745,
        1.3014769
      ],
      [
        103.9009318,
        1.3019428
      ],
      [
        103.9008857,
        1.3020315
      ],
      [
        103.9008525,
        1.3021267
      ],
      [
        103.9007856,
        1.3023189
      ],
      [
        103.9007556,
        1.3024014
      ],
      [
        103.9006943,
        1.3025697
      ],
      [
        103.9005928,
        1.3028125
      ],
      [
        103.9004704,
        1.3029492
      ],
      [
        103.9004234,
        1.3029852
      ],
      [
        103.9003819,
        1.3029988
      ],
      [
        103.900256,
        1.3029975
      ],
      [
        103.8994217,
        1.3026286
      ],
      [
        103.8991976,
        1.302532
      ],
      [
        103.898963,
        1.3024356
      ],
      [
        103.8988397,
        1.30239
      ],
      [
        103.8987287,
        1.3023541
      ],
      [
        103.8985534,
        1.3022979
      ],
      [
        103.8982425,
        1.3022175
      ],
      [
        103.897646,
        1.3020647
      ],
      [
        103.8976152,
        1.302036
      ],
      [
        103.8975144,
        1.3019844
      ],
      [
        103.8974456,
        1.3019254
      ],
      [
        103.8974047,
        1.3018577
      ],
      [
        103.8973785,
        1.3017927
      ],
      [
        103.8973403,
        1.3016961
      ],
      [
        103.897307,
        1.3015649
      ],
      [
        103.8974342,
        1.3011712
      ],
      [
        103.8975043,
        1.3008599
      ],
      [
        103.8975255,
        1.300769
      ],
      [
        103.8975348,
        1.3006067
      ],
      [
        103.8975461,
        1.3004569
      ],
      [
        103.8975664,
        1.3002913
      ],
      [
        103.8975862,
        1.30011
      ],
      [
        103.8976107,
        1.2999878
      ],
      [
        103.8976213,
        1.2999299
      ],
      [
        103.8976495,
        1.2997684
      ],
      [
        103.8976781,
        1.2996254
      ],
      [
        103.8977006,
        1.299556
      ],
      [
        103.8977479,
        1.2994271
      ],
      [
        103.8977981,
        1.2992921
      ],
      [
        103.8978591,
        1.2990406
      ],
      [
        103.8978824,
        1.298932
      ],
      [
        103.8979197,
        1.2987525
      ],
      [
        103.8982146,
        1.2976533
      ],
      [
        103.8982696,
        1.2973997
      ],
      [
        103.8982893,
        1.2972522
      ],
      [
        103.8982887,
        1.2971451
      ],
      [
        103.898253,
        1.2969585
      ],
      [
        103.8982027,
        1.2968071
      ],
      [
        103.898153,
        1.2967306
      ],
      [
        103.8980866,
        1.2966386
      ],
      [
        103.8979335,
        1.2965026
      ],
      [
        103.8978325,
        1.296437
      ],
      [
        103.897732,
        1.2963998
      ],
      [
        103.8976199,
        1.2963733
      ],
      [
        103.8975087,
        1.2963641
      ],
      [
        103.8972751,
        1.2963715
      ],
      [
        103.8970455,
        1.296401
      ],
      [
        103.8968637,
        1.2964372
      ],
      [
        103.8967046,
        1.2964786
      ],
      [
        103.8966563,
        1.2964813
      ],
      [
        103.8966027,
        1.2964746
      ],
      [
        103.8965628,
        1.2964623
      ],
      [
        103.8964413,
        1.296448
      ],
      [
        103.8962142,
        1.2963828
      ],
      [
        103.8958258,
        1.2962403
      ],
      [
        103.8952896,
        1.296072
      ],
      [
        103.8949058,
        1.296013
      ],
      [
        103.8944176,
        1.2958409
      ],
      [
        103.8941324,
        1.2957548
      ],
      [
        103.8937971,
        1.2956731
      ],
      [
        103.8936211,
        1.2956362
      ],
      [
        103.8934313,
        1.2956026
      ],
      [
        103.8933035,
        1.2955807
      ],
      [
        103.8927054,
        1.2954968
      ],
      [
        103.892177,
        1.2954864
      ],
      [
        103.8913079,
        1.2954825
      ],
      [
        103.8899831,
        1.2955526
      ],
      [
        103.8897197,
        1.2955644
      ],
      [
        103.8891153,
        1.2955856
      ],
      [
        103.8886885,
        1.2955923
      ],
      [
        103.8884844,
        1.2956057
      ],
      [
        103.8866134,
        1.2956965
      ],
      [
        103.8859765,
        1.2957182
      ],
      [
        103.8854213,
        1.2956998
      ],
      [
        103.8853996,
        1.295699
      ],
      [
        103.885359,
        1.2956977
      ],
      [
        103.8845958,
        1.295673
      ],
      [
        103.8821542,
        1.2955893
      ],
      [
        103.8792641,
        1.2954553
      ],
      [
        103.8786668,
        1.2954516
      ],
      [
        103.8780994,
        1.2954275
      ],
      [
        103.876934,
        1.2953709
      ],
      [
        103.8767674,
        1.2953694
      ],
      [
        103.8765706,
        1.2953597
      ],
      [
        103.8761662,
        1.2953387
      ],
      [
        103.875562,
        1.2953393
      ],
      [
        103.8727238,
        1.2952516
      ],
      [
        103.872544,
        1.2952316
      ],
      [
        103.8710276,
        1.2951604
      ],
      [
        103.8706988,
        1.2950994
      ],
      [
        103.8691905,
        1.2947932
      ],
      [
        103.8688549,
        1.2947204
      ],
      [
        103.866344,
        1.2942435
      ],
      [
        103.8657706,
        1.2941003
      ],
      [
        103.8651243,
        1.2938946
      ],
      [
        103.8644324,
        1.2937257
      ],
      [
        103.8641057,
        1.2936305
      ],
      [
        103.8638503,
        1.2935298
      ],
      [
        103.8635995,
        1.2933962
      ],
      [
        103.8633454,
        1.293225
      ],
      [
        103.8630954,
        1.2929912
      ],
      [
        103.8628937,
        1.2927912
      ],
      [
        103.8627364,
        1.2926735
      ],
      [
        103.8626015,
        1.2926106
      ],
      [
        103.8624365,
        1.2925618
      ],
      [
        103.8622686,
        1.2925403
      ],
      [
        103.8621543,
        1.2925498
      ],
      [
        103.8620236,
        1.2925749
      ],
      [
        103.8618955,
        1.2926249
      ],
      [
        103.8617041,
        1.2927336
      ],
      [
        103.8615612,
        1.2928817
      ],
      [
        103.86146,
        1.2930537
      ],
      [
        103.8613735,
        1.2932922
      ],
      [
        103.8612679,
        1.2936379
      ],
      [
        103.8611242,
        1.2940679
      ],
      [
        103.8610726,
        1.2941833
      ],
      [
        103.8609914,
        1.2945465
      ],
      [
        103.860897,
        1.294961
      ],
      [
        103.8607057,
        1.2953636
      ],
      [
        103.860622,
        1.2955227
      ],
      [
        103.8604265,
        1.2957609
      ],
      [
        103.8600916,
        1.2959897
      ],
      [
        103.8599481,
        1.2960514
      ],
      [
        103.8598515,
        1.2960649
      ],
      [
        103.8597389,
        1.2960514
      ],
      [
        103.8596801,
        1.2960033
      ],
      [
        103.8596517,
        1.2959804
      ],
      [
        103.8596109,
        1.2959128
      ],
      [
        103.859441,
        1.2955969
      ],
      [
        103.8592918,
        1.2953403
      ],
      [
        103.8592288,
        1.2952052
      ],
      [
        103.8592168,
        1.2951712
      ],
      [
        103.8592132,
        1.2951406
      ],
      [
        103.8592153,
        1.2950909
      ],
      [
        103.8592516,
        1.2949576
      ],
      [
        103.8592762,
        1.294908
      ],
      [
        103.8592965,
        1.2948429
      ],
      [
        103.8593052,
        1.2947752
      ],
      [
        103.859302,
        1.2947068
      ],
      [
        103.8592898,
        1.294648
      ],
      [
        103.8592637,
        1.2945813
      ],
      [
        103.8592237,
        1.2945195
      ],
      [
        103.8591778,
        1.2944674
      ],
      [
        103.8591209,
        1.294424
      ],
      [
        103.8590571,
        1.2943915
      ],
      [
        103.8589885,
        1.294371
      ],
      [
        103.8589173,
        1.2943633
      ],
      [
        103.8588347,
        1.2943439
      ],
      [
        103.8587591,
        1.2943119
      ],
      [
        103.8587327,
        1.2942938
      ],
      [
        103.8586994,
        1.2942623
      ],
      [
        103.8586543,
        1.2941959
      ],
      [
        103.8585923,
        1.2940888
      ],
      [
        103.858309,
        1.2936018
      ],
      [
        103.8580944,
        1.2932475
      ],
      [
        103.8579627,
        1.2930027
      ],
      [
        103.8578884,
        1.2928772
      ],
      [
        103.8578346,
        1.2927954
      ],
      [
        103.8577553,
        1.2926699
      ],
      [
        103.8576898,
        1.2925557
      ],
      [
        103.8576693,
        1.29252
      ],
      [
        103.8576395,
        1.2924174
      ],
      [
        103.8576449,
        1.2922932
      ],
      [
        103.8577256,
        1.2920774
      ],
      [
        103.8578775,
        1.2919894
      ],
      [
        103.8578896,
        1.291982
      ],
      [
        103.8580435,
        1.2918934
      ],
      [
        103.8580705,
        1.2918776
      ],
      [
        103.8582423,
        1.291779
      ],
      [
        103.8582593,
        1.2917694
      ],
      [
        103.8583143,
        1.2917362
      ],
      [
        103.8585312,
        1.291612
      ],
      [
        103.858703,
        1.2915475
      ],
      [
        103.8587725,
        1.2915233
      ],
      [
        103.8588089,
        1.2915103
      ],
      [
        103.8590169,
        1.2914743
      ],
      [
        103.8591706,
        1.2914593
      ],
      [
        103.8592734,
        1.2914491
      ],
      [
        103.8593764,
        1.2914445
      ],
      [
        103.8596063,
        1.2914304
      ],
      [
        103.8597007,
        1.2914253
      ],
      [
        103.8599232,
        1.2914117
      ],
      [
        103.860022,
        1.2914054
      ],
      [
        103.8600553,
        1.2914033
      ],
      [
        103.86038,
        1.2913836
      ],
      [
        103.860753,
        1.2913364
      ],
      [
        103.8608319,
        1.2913301
      ],
      [
        103.8609332,
        1.2913321
      ],
      [
        103.8609361,
        1.2912346
      ],
      [
        103.860962,
        1.29038
      ],
      [
        103.8609834,
        1.2896744
      ],
      [
        103.8609842,
        1.2896462
      ],
      [
        103.8609857,
        1.2895592
      ],
      [
        103.8608765,
        1.289565
      ],
      [
        103.8608347,
        1.2895672
      ],
      [
        103.8605926,
        1.2895801
      ],
      [
        103.8603161,
        1.2895948
      ],
      [
        103.8599725,
        1.289613
      ],
      [
        103.8596687,
        1.2896305
      ],
      [
        103.8595101,
        1.2896398
      ],
      [
        103.8591787,
        1.2896553
      ],
      [
        103.8588597,
        1.2896723
      ],
      [
        103.8587507,
        1.289678
      ],
      [
        103.8586061,
        1.2896858
      ],
      [
        103.858293,
        1.2897023
      ],
      [
        103.8580786,
        1.2897137
      ],
      [
        103.8577561,
        1.2897309
      ],
      [
        103.8575749,
        1.2897405
      ],
      [
        103.8574822,
        1.2897454
      ],
      [
        103.8574561,
        1.2897468
      ],
      [
        103.8573305,
        1.2897535
      ],
      [
        103.8573058,
        1.2897548
      ],
      [
        103.8572552,
        1.2897557
      ],
      [
        103.8571045,
        1.2897751
      ],
      [
        103.8569869,
        1.289794
      ],
      [
        103.8568781,
        1.2898254
      ],
      [
        103.8567861,
        1.2898549
      ],
      [
        103.8567376,
        1.2898782
      ],
      [
        103.8566645,
        1.2899135
      ],
      [
        103.8565763,
        1.2899715
      ],
      [
        103.8565472,
        1.2899906
      ],
      [
        103.8564514,
        1.2900794
      ],
      [
        103.8563522,
        1.2901714
      ],
      [
        103.8562871,
        1.2902257
      ],
      [
        103.8561749,
        1.2903222
      ],
      [
        103.8560384,
        1.2904397
      ],
      [
        103.8559972,
        1.2904752
      ],
      [
        103.8558644,
        1.2905895
      ],
      [
        103.8557948,
        1.2906494
      ],
      [
        103.8554503,
        1.2909459
      ],
      [
        103.8552358,
        1.2911304
      ],
      [
        103.8552168,
        1.2911468
      ],
      [
        103.855059,
        1.2912783
      ],
      [
        103.8550077,
        1.291324
      ],
      [
        103.8548655,
        1.2914505
      ],
      [
        103.8547543,
        1.2915628
      ],
      [
        103.854655,
        1.291663
      ],
      [
        103.854467,
        1.2918487
      ],
      [
        103.8543182,
        1.2920088
      ],
      [
        103.8540982,
        1.2922316
      ],
      [
        103.8540891,
        1.2922407
      ],
      [
        103.8539328,
        1.2923967
      ],
      [
        103.8539248,
        1.2924047
      ],
      [
        103.8537917,
        1.2924912
      ],
      [
        103.8536185,
        1.2926038
      ],
      [
        103.8535223,
        1.292673
      ],
      [
        103.8534486,
        1.2927191
      ],
      [
        103.8533555,
        1.2927768
      ],
      [
        103.8530891,
        1.2929424
      ],
      [
        103.8527436,
        1.2931673
      ],
      [
        103.8524616,
        1.2933496
      ],
      [
        103.8521111,
        1.29352
      ],
      [
        103.8520179,
        1.293583
      ],
      [
        103.8519693,
        1.2936139
      ],
      [
        103.8519427,
        1.2936308
      ],
      [
        103.8514419,
        1.2939483
      ],
      [
        103.8512127,
        1.2940937
      ],
      [
        103.8507394,
        1.2943939
      ],
      [
        103.8506392,
        1.2944574
      ],
      [
        103.850537,
        1.2945195
      ],
      [
        103.8504482,
        1.2945744
      ],
      [
        103.8500724,
        1.2947904
      ],
      [
        103.8498643,
        1.2949103
      ],
      [
        103.8497726,
        1.2949616
      ],
      [
        103.8498427,
        1.2950632
      ],
      [
        103.8499071,
        1.2951595
      ],
      [
        103.8500682,
        1.295408
      ],
      [
        103.8501005,
        1.2954538
      ],
      [
        103.8501542,
        1.2956288
      ],
      [
        103.850167,
        1.2957264
      ],
      [
        103.8501551,
        1.2957919
      ],
      [
        103.8501379,
        1.2958404
      ],
      [
        103.8500815,
        1.2959029
      ],
      [
        103.8499393,
        1.2960308
      ],
      [
        103.8498669,
        1.2960857
      ],
      [
        103.8497607,
        1.2961709
      ],
      [
        103.8496626,
        1.296267
      ],
      [
        103.8496288,
        1.2962958
      ],
      [
        103.8495715,
        1.2963588
      ],
      [
        103.8495213,
        1.2964195
      ],
      [
        103.8494384,
        1.2965304
      ],
      [
        103.8492526,
        1.2968242
      ],
      [
        103.8491267,
        1.2970113
      ],
      [
        103.8490578,
        1.2971187
      ],
      [
        103.8489855,
        1.2972167
      ],
      [
        103.8489258,
        1.2972882
      ],
      [
        103.8488639,
        1.2973425
      ],
      [
        103.8487422,
        1.2974409
      ],
      [
        103.8486291,
        1.2975236
      ],
      [
        103.8483977,
        1.2976929
      ],
      [
        103.8481278,
        1.2979092
      ],
      [
        103.8480569,
        1.2979702
      ],
      [
        103.8479612,
        1.298048
      ],
      [
        103.847712,
        1.2982594
      ],
      [
        103.8476785,
        1.2982819
      ],
      [
        103.8476472,
        1.2982994
      ],
      [
        103.8476202,
        1.2983082
      ],
      [
        103.8475925,
        1.2983147
      ],
      [
        103.8475616,
        1.2983173
      ],
      [
        103.8475318,
        1.2983164
      ],
      [
        103.8474774,
        1.2983158
      ],
      [
        103.8474447,
        1.2983154
      ],
      [
        103.8473864,
        1.2983067
      ],
      [
        103.847315,
        1.2982863
      ],
      [
        103.8472539,
        1.2982572
      ],
      [
        103.8472,
        1.2982179
      ],
      [
        103.8470101,
        1.298026
      ],
      [
        103.8469634,
        1.2979805
      ],
      [
        103.846857,
        1.2979174
      ],
      [
        103.8467533,
        1.2978736
      ],
      [
        103.8466612,
        1.297858
      ],
      [
        103.8465491,
        1.2978528
      ],
      [
        103.8463648,
        1.2979067
      ],
      [
        103.8459222,
        1.2980223
      ],
      [
        103.8456438,
        1.2981218
      ],
      [
        103.845528,
        1.2982164
      ],
      [
        103.8453722,
        1.2983141
      ],
      [
        103.8453384,
        1.2983289
      ],
      [
        103.845117,
        1.2983968
      ],
      [
        103.8449889,
        1.2983988
      ],
      [
        103.8448834,
        1.2983585
      ],
      [
        103.8447787,
        1.2983861
      ],
      [
        103.8445262,
        1.2984601
      ],
      [
        103.844475,
        1.2984751
      ],
      [
        103.8443111,
        1.2985359
      ],
      [
        103.8441591,
        1.2985922
      ],
      [
        103.843808,
        1.2987681
      ],
      [
        103.8436442,
        1.2988513
      ],
      [
        103.8433675,
        1.2990247
      ],
      [
        103.8431461,
        1.2991707
      ],
      [
        103.8429945,
        1.2992651
      ],
      [
        103.8427006,
        1.2994319
      ],
      [
        103.8425245,
        1.2995386
      ],
      [
        103.8425042,
        1.2995482
      ],
      [
        103.8423939,
        1.2996002
      ],
      [
        103.8422907,
        1.2996393
      ],
      [
        103.8421078,
        1.2996735
      ],
      [
        103.8419558,
        1.2997034
      ],
      [
        103.8416714,
        1.2997552
      ],
      [
        103.8416394,
        1.2997589
      ],
      [
        103.8415857,
        1.2997687
      ],
      [
        103.8414658,
        1.2997943
      ],
      [
        103.8409955,
        1.2998956
      ],
      [
        103.8406914,
        1.2999586
      ],
      [
        103.8405432,
        1.2999911
      ],
      [
        103.8404913,
        1.3000021
      ],
      [
        103.8404144,
        1.3000213
      ],
      [
        103.8403176,
        1.3000465
      ],
      [
        103.8402867,
        1.3000532
      ],
      [
        103.8401977,
        1.3000711
      ],
      [
        103.840108,
        1.3000912
      ],
      [
        103.8398887,
        1.3001362
      ],
      [
        103.8394433,
        1.3002335
      ],
      [
        103.8391674,
        1.3002938
      ],
      [
        103.8390588,
        1.3003175
      ],
      [
        103.8386463,
        1.3004076
      ],
      [
        103.8384943,
        1.3004403
      ],
      [
        103.8383906,
        1.3004626
      ],
      [
        103.8381287,
        1.3005188
      ],
      [
        103.8379596,
        1.3005587
      ],
      [
        103.8378941,
        1.300573
      ],
      [
        103.8376267,
        1.3006332
      ],
      [
        103.8373671,
        1.3006861
      ],
      [
        103.8372326,
        1.3007142
      ],
      [
        103.8369933,
        1.3007768
      ],
      [
        103.8368637,
        1.3008075
      ],
      [
        103.8368154,
        1.3008166
      ],
      [
        103.8368029,
        1.3008102
      ],
      [
        103.8367205,
        1.3008021
      ],
      [
        103.8365659,
        1.3007726
      ],
      [
        103.8364751,
        1.3007427
      ],
      [
        103.8363012,
        1.3006655
      ],
      [
        103.8361168,
        1.3004766
      ],
      [
        103.8360495,
        1.3003827
      ],
      [
        103.8359432,
        1.3002864
      ],
      [
        103.8357684,
        1.3001968
      ],
      [
        103.8357486,
        1.3001932
      ],
      [
        103.8355448,
        1.3001582
      ],
      [
        103.8354594,
        1.3001868
      ],
      [
        103.8352477,
        1.3002555
      ],
      [
        103.8351245,
        1.3002963
      ],
      [
        103.8349172,
        1.3003675
      ],
      [
        103.8348361,
        1.3004088
      ],
      [
        103.8347585,
        1.3004512
      ],
      [
        103.8346068,
        1.3005663
      ],
      [
        103.8343688,
        1.3007583
      ],
      [
        103.8335171,
        1.3016338
      ],
      [
        103.8329462,
        1.3021969
      ],
      [
        103.8328781,
        1.3022697
      ],
      [
        103.8322002,
        1.3028788
      ],
      [
        103.8321743,
        1.302902
      ],
      [
        103.8321285,
        1.3029446
      ],
      [
        103.8318567,
        1.3031763
      ],
      [
        103.8317984,
        1.3032199
      ],
      [
        103.8316434,
        1.303334
      ],
      [
        103.8314278,
        1.303472
      ],
      [
        103.830943,
        1.303797
      ],
      [
        103.8308472,
        1.3038595
      ],
      [
        103.8306784,
        1.303956
      ],
      [
        103.830597,
        1.3040179
      ],
      [
        103.8302992,
        1.3041993
      ],
      [
        103.8301436,
        1.3042724
      ],
      [
        103.8298908,
        1.3043897
      ],
      [
        103.829671,
        1.3044875
      ],
      [
        103.8295508,
        1.3045292
      ],
      [
        103.8294563,
        1.3045587
      ],
      [
        103.8293657,
        1.3045835
      ],
      [
        103.8292685,
        1.3046076
      ],
      [
        103.8290559,
        1.3046418
      ],
      [
        103.82884,
        1.3046586
      ],
      [
        103.8286073,
        1.3046565
      ],
      [
        103.8283539,
        1.3046478
      ],
      [
        103.8280916,
        1.304623
      ],
      [
        103.827963,
        1.3045905
      ],
      [
        103.8278691,
        1.3045667
      ],
      [
        103.8276484,
        1.3044977
      ],
      [
        103.8272528,
        1.3043046
      ],
      [
        103.8271281,
        1.3042174
      ],
      [
        103.8268834,
        1.3040238
      ],
      [
        103.8263818,
        1.3035947
      ],
      [
        103.8262573,
        1.30349
      ],
      [
        103.8262063,
        1.3034487
      ],
      [
        103.8261538,
        1.3035677
      ],
      [
        103.8261156,
        1.3036557
      ],
      [
        103.8260132,
        1.3039046
      ],
      [
        103.8259231,
        1.3041068
      ],
      [
        103.8257448,
        1.3044758
      ],
      [
        103.825684,
        1.3046096
      ],
      [
        103.825654,
        1.3046751
      ],
      [
        103.8256323,
        1.3047235
      ],
      [
        103.8256134,
        1.3047656
      ],
      [
        103.8254593,
        1.3050862
      ],
      [
        103.8253601,
        1.3052956
      ],
      [
        103.8252503,
        1.3055101
      ],
      [
        103.8252281,
        1.3055536
      ],
      [
        103.8251977,
        1.3056011
      ],
      [
        103.8255532,
        1.3058177
      ],
      [
        103.8256545,
        1.3058778
      ],
      [
        103.8260311,
        1.3061012
      ],
      [
        103.8261089,
        1.3061596
      ],
      [
        103.82614,
        1.3061829
      ],
      [
        103.8267028,
        1.3066052
      ],
      [
        103.8269951,
        1.3068186
      ],
      [
        103.8270735,
        1.3068757
      ],
      [
        103.8271024,
        1.3068939
      ],
      [
        103.8271267,
        1.3069101
      ],
      [
        103.8271647,
        1.3069335
      ],
      [
        103.8271737,
        1.3069395
      ],
      [
        103.8273525,
        1.3070506
      ],
      [
        103.827446,
        1.3070954
      ],
      [
        103.8275631,
        1.3071337
      ],
      [
        103.8276996,
        1.3071505
      ],
      [
        103.8277208,
        1.3071487
      ],
      [
        103.8277721,
        1.3071443
      ],
      [
        103.8278252,
        1.3071362
      ],
      [
        103.8278833,
        1.3071218
      ],
      [
        103.8279413,
        1.3070989
      ],
      [
        103.8281004,
        1.3070223
      ],
      [
        103.8284095,
        1.3068733
      ],
      [
        103.8284674,
        1.3068453
      ],
      [
        103.828674,
        1.3067453
      ],
      [
        103.8287006,
        1.3067325
      ],
      [
        103.8287713,
        1.306699
      ],
      [
        103.8288805,
        1.3066402
      ],
      [
        103.8292834,
        1.3064201
      ],
      [
        103.8298776,
        1.3061146
      ],
      [
        103.8299021,
        1.3061021
      ],
      [
        103.8299134,
        1.3060961
      ],
      [
        103.8300615,
        1.3060184
      ],
      [
        103.8301117,
        1.3059917
      ],
      [
        103.8301448,
        1.3059744
      ],
      [
        103.8302704,
        1.3059088
      ],
      [
        103.8304767,
        1.3057956
      ],
      [
        103.8306181,
        1.3057207
      ],
      [
        103.8308001,
        1.3056286
      ],
      [
        103.8309188,
        1.3055705
      ],
      [
        103.8310837,
        1.3054851
      ],
      [
        103.831418,
        1.305295
      ],
      [
        103.8315945,
        1.305198
      ],
      [
        103.8317012,
        1.3051295
      ],
      [
        103.8318399,
        1.3050396
      ],
      [
        103.8322644,
        1.3047968
      ],
      [
        103.8322866,
        1.3047841
      ],
      [
        103.8323264,
        1.3047617
      ],
      [
        103.8324948,
        1.3046666
      ],
      [
        103.8325992,
        1.304608
      ],
      [
        103.8329914,
        1.3043877
      ],
      [
        103.8332644,
        1.3042467
      ],
      [
        103.8337941,
        1.3039729
      ],
      [
        103.8341395,
        1.3037979
      ],
      [
        103.8342408,
        1.3037465
      ],
      [
        103.8343481,
        1.3036921
      ],
      [
        103.8343779,
        1.303677
      ],
      [
        103.8346182,
        1.3035484
      ],
      [
        103.8347183,
        1.3034936
      ],
      [
        103.8351571,
        1.3032537
      ],
      [
        103.8357661,
        1.3029095
      ],
      [
        103.8358887,
        1.3028412
      ],
      [
        103.8359878,
        1.302781
      ],
      [
        103.8359941,
        1.3027776
      ],
      [
        103.8361317,
        1.3027055
      ],
      [
        103.8361674,
        1.3026855
      ],
      [
        103.836584,
        1.3024526
      ],
      [
        103.8373803,
        1.3020054
      ],
      [
        103.8374798,
        1.3019496
      ],
      [
        103.8375571,
        1.3019062
      ],
      [
        103.8377859,
        1.3017933
      ],
      [
        103.8379684,
        1.3017149
      ],
      [
        103.8381377,
        1.3016407
      ],
      [
        103.8387816,
        1.3013408
      ],
      [
        103.8388956,
        1.3012973
      ],
      [
        103.8389486,
        1.3012785
      ],
      [
        103.8395454,
        1.3010774
      ],
      [
        103.8398974,
        1.3009661
      ],
      [
        103.8400133,
        1.3009327
      ],
      [
        103.8405638,
        1.3007732
      ],
      [
        103.8406704,
        1.3007427
      ],
      [
        103.841123,
        1.3005966
      ],
      [
        103.8412588,
        1.3005494
      ],
      [
        103.8419492,
        1.3003426
      ],
      [
        103.8428421,
        1.3000755
      ],
      [
        103.8428649,
        1.3000691
      ],
      [
        103.8429499,
        1.3000417
      ],
      [
        103.8431335,
        1.2999773
      ],
      [
        103.8435446,
        1.2998446
      ],
      [
        103.8436685,
        1.2998015
      ],
      [
        103.8438222,
        1.299748
      ],
      [
        103.8439846,
        1.2996931
      ],
      [
        103.8442578,
        1.2996008
      ],
      [
        103.844592,
        1.2994879
      ],
      [
        103.8448857,
        1.29939
      ],
      [
        103.845461,
        1.299203
      ],
      [
        103.8457049,
        1.2991257
      ],
      [
        103.8457167,
        1.299122
      ],
      [
        103.845733,
        1.2991169
      ],
      [
        103.8457575,
        1.2991091
      ],
      [
        103.8458124,
        1.2990917
      ],
      [
        103.8463783,
        1.298908
      ],
      [
        103.8465819,
        1.2988347
      ],
      [
        103.8467733,
        1.2987639
      ],
      [
        103.8469449,
        1.2987223
      ],
      [
        103.8471133,
        1.2986962
      ],
      [
        103.8473037,
        1.2986888
      ],
      [
        103.8473514,
        1.2986907
      ],
      [
        103.8474666,
        1.2986928
      ],
      [
        103.8475317,
        1.2986942
      ],
      [
        103.8480493,
        1.2987257
      ],
      [
        103.848166,
        1.2987297
      ],
      [
        103.8483779,
        1.2987243
      ],
      [
        103.8485388,
        1.2986801
      ],
      [
        103.8485558,
        1.2986733
      ],
      [
        103.848595,
        1.2986574
      ],
      [
        103.8486566,
        1.2986176
      ],
      [
        103.8487115,
        1.2985833
      ],
      [
        103.8487849,
        1.2985263
      ],
      [
        103.849494,
        1.2979713
      ],
      [
        103.8495583,
        1.2979207
      ],
      [
        103.8495898,
        1.2978959
      ],
      [
        103.8496064,
        1.2978828
      ],
      [
        103.8497208,
        1.2977928
      ],
      [
        103.8499544,
        1.2976056
      ],
      [
        103.850139,
        1.2974549
      ],
      [
        103.8502759,
        1.2973461
      ],
      [
        103.8503328,
        1.2973008
      ],
      [
        103.8506353,
        1.2970604
      ],
      [
        103.8506786,
        1.297026
      ],
      [
        103.8508325,
        1.2969036
      ],
      [
        103.8508556,
        1.2968853
      ],
      [
        103.8510876,
        1.2967008
      ],
      [
        103.8511117,
        1.2966816
      ],
      [
        103.8518683,
        1.2960619
      ],
      [
        103.8519011,
        1.2960284
      ],
      [
        103.8520195,
        1.2959364
      ],
      [
        103.8520509,
        1.2959104
      ],
      [
        103.8523784,
        1.2956728
      ],
      [
        103.8525329,
        1.2955563
      ],
      [
        103.8528475,
        1.2953191
      ],
      [
        103.8530449,
        1.2951699
      ],
      [
        103.8531036,
        1.2951261
      ],
      [
        103.8532241,
        1.2950321
      ],
      [
        103.8534533,
        1.2948623
      ],
      [
        103.8538919,
        1.2945341
      ],
      [
        103.8540128,
        1.294437
      ],
      [
        103.8541121,
        1.2943592
      ],
      [
        103.8542348,
        1.294267
      ],
      [
        103.8545651,
        1.2940015
      ],
      [
        103.8546543,
        1.2939345
      ],
      [
        103.8547866,
        1.2938316
      ],
      [
        103.8553292,
        1.2934669
      ],
      [
        103.8557229,
        1.2932314
      ],
      [
        103.8558226,
        1.293172
      ],
      [
        103.8559769,
        1.2930831
      ],
      [
        103.8562154,
        1.2929484
      ],
      [
        103.856514,
        1.2927809
      ],
      [
        103.8568682,
        1.2925727
      ],
      [
        103.8569856,
        1.2925027
      ],
      [
        103.8570723,
        1.2924516
      ],
      [
        103.857176,
        1.2923891
      ],
      [
        103.8572319,
        1.2923557
      ],
      [
        103.8573318,
        1.2923828
      ],
      [
        103.8573936,
        1.2924033
      ],
      [
        103.8574398,
        1.2924234
      ],
      [
        103.8574874,
        1.2924496
      ],
      [
        103.8575247,
        1.292484
      ],
      [
        103.8576639,
        1.2927167
      ],
      [
        103.8577737,
        1.2928992
      ],
      [
        103.8580556,
        1.2933924
      ],
      [
        103.8582405,
        1.2937113
      ],
      [
        103.858378,
        1.2939486
      ],
      [
        103.8585234,
        1.2941993
      ],
      [
        103.8585949,
        1.2943162
      ],
      [
        103.8586093,
        1.2943574
      ],
      [
        103.8586146,
        1.294403
      ],
      [
        103.8586084,
        1.2944522
      ],
      [
        103.8585826,
        1.2945378
      ],
      [
        103.8585515,
        1.2945931
      ],
      [
        103.8585259,
        1.2946673
      ],
      [
        103.8585155,
        1.294745
      ],
      [
        103.8585207,
        1.2948233
      ],
      [
        103.8585357,
        1.2948837
      ],
      [
        103.8585601,
        1.2949409
      ],
      [
        103.8585931,
        1.2949936
      ],
      [
        103.858634,
        1.2950405
      ],
      [
        103.8586628,
        1.2950661
      ],
      [
        103.8587333,
        1.2951114
      ],
      [
        103.8588117,
        1.2951408
      ],
      [
        103.8588945,
        1.295153
      ],
      [
        103.8589781,
        1.2951475
      ],
      [
        103.8590445,
        1.2951299
      ],
      [
        103.8591068,
        1.2951011
      ],
      [
        103.8591632,
        1.295062
      ],
      [
        103.8592119,
        1.2950136
      ],
      [
        103.8592516,
        1.2949576
      ],
      [
        103.8592762,
        1.294908
      ],
      [
        103.8592965,
        1.2948429
      ],
      [
        103.8593052,
        1.2947752
      ],
      [
        103.859302,
        1.2947068
      ],
      [
        103.8592898,
        1.294648
      ],
      [
        103.8593411,
        1.2945805
      ],
      [
        103.8595942,
        1.2944337
      ],
      [
        103.8598415,
        1.2942903
      ],
      [
        103.8598839,
        1.2942657
      ],
      [
        103.8601112,
        1.2941242
      ],
      [
        103.8605153,
        1.2938794
      ],
      [
        103.8605813,
        1.2938426
      ],
      [
        103.8606524,
        1.2937867
      ],
      [
        103.8606844,
        1.2937562
      ],
      [
        103.8607259,
        1.2937071
      ],
      [
        103.8607869,
        1.2936014
      ],
      [
        103.8608285,
        1.2934982
      ],
      [
        103.8608601,
        1.2933929
      ],
      [
        103.8608853,
        1.2930274
      ],
      [
        103.860903,
        1.2926215
      ],
      [
        103.8609142,
        1.2921903
      ],
      [
        103.8609193,
        1.2920199
      ],
      [
        103.8609199,
        1.2918804
      ],
      [
        103.8609258,
        1.2916996
      ],
      [
        103.8609969,
        1.2916094
      ],
      [
        103.8610258,
        1.2915619
      ],
      [
        103.8610785,
        1.2914595
      ],
      [
        103.86111,
        1.2914148
      ],
      [
        103.8611436,
        1.2913818
      ],
      [
        103.8612076,
        1.2913424
      ],
      [
        103.8615148,
        1.2913404
      ],
      [
        103.8616157,
        1.2913406
      ],
      [
        103.8620486,
        1.2913099
      ],
      [
        103.862347,
        1.2912552
      ],
      [
        103.862531,
        1.2913032
      ],
      [
        103.8626721,
        1.2913649
      ],
      [
        103.862765,
        1.2914334
      ],
      [
        103.8628065,
        1.2914723
      ],
      [
        103.8628486,
        1.2915327
      ],
      [
        103.8628898,
        1.2916159
      ],
      [
        103.8629054,
        1.2916981
      ],
      [
        103.8629088,
        1.2918067
      ],
      [
        103.8628983,
        1.2919464
      ],
      [
        103.8628904,
        1.292052
      ],
      [
        103.8628207,
        1.2924838
      ],
      [
        103.8627941,
        1.292604
      ],
      [
        103.8627184,
        1.2928397
      ],
      [
        103.8625264,
        1.2933616
      ],
      [
        103.8624291,
        1.2935764
      ],
      [
        103.8623795,
        1.2937185
      ],
      [
        103.8623658,
        1.2937976
      ],
      [
        103.862354,
        1.293866
      ],
      [
        103.862346,
        1.2940148
      ],
      [
        103.8623708,
        1.2943413
      ],
      [
        103.8623818,
        1.2944856
      ],
      [
        103.8623862,
        1.2945431
      ],
      [
        103.8624556,
        1.2951265
      ],
      [
        103.8624814,
        1.2953435
      ],
      [
        103.8624882,
        1.2955205
      ],
      [
        103.8625016,
        1.295672
      ],
      [
        103.8625204,
        1.2958323
      ],
      [
        103.862529,
        1.295918
      ],
      [
        103.8626601,
        1.2967229
      ],
      [
        103.8626155,
        1.2968367
      ],
      [
        103.8625826,
        1.2968906
      ],
      [
        103.8625542,
        1.2968996
      ],
      [
        103.8624366,
        1.2968887
      ],
      [
        103.8623329,
        1.2968761
      ],
      [
        103.8618205,
        1.2962695
      ],
      [
        103.8616314,
        1.2960948
      ],
      [
        103.8613771,
        1.2958526
      ],
      [
        103.861328,
        1.2957998
      ],
      [
        103.8612958,
        1.2957609
      ],
      [
        103.8612522,
        1.2957077
      ],
      [
        103.8611895,
        1.2956126
      ],
      [
        103.8611825,
        1.2955809
      ],
      [
        103.8611822,
        1.2955469
      ],
      [
        103.8611951,
        1.295461
      ],
      [
        103.8612671,
        1.2954212
      ],
      [
        103.8613517,
        1.295325
      ],
      [
        103.8614262,
        1.2951925
      ],
      [
        103.8615133,
        1.2950236
      ],
      [
        103.8615922,
        1.2949252
      ],
      [
        103.8617108,
        1.2948049
      ],
      [
        103.861941,
        1.2945094
      ],
      [
        103.8621514,
        1.2943309
      ],
      [
        103.8624034,
        1.2941905
      ],
      [
        103.8626746,
        1.2940826
      ],
      [
        103.8629892,
        1.2940183
      ],
      [
        103.8633201,
        1.2940016
      ],
      [
        103.8643111,
        1.294069
      ],
      [
        103.8646503,
        1.2941163
      ],
      [
        103.865951,
        1.29429
      ],
      [
        103.8703345,
        1.2951941
      ],
      [
        103.870672,
        1.2952552
      ],
      [
        103.8712598,
        1.2953497
      ],
      [
        103.8717608,
        1.2953888
      ],
      [
        103.872149,
        1.2954026
      ],
      [
        103.8734579,
        1.2954258
      ],
      [
        103.8740035,
        1.2954445
      ],
      [
        103.8743846,
        1.2954434
      ],
      [
        103.8753851,
        1.2954797
      ],
      [
        103.8758719,
        1.2955012
      ],
      [
        103.8761562,
        1.2955186
      ],
      [
        103.8763994,
        1.2955205
      ],
      [
        103.8772157,
        1.2955615
      ],
      [
        103.8779815,
        1.2955711
      ],
      [
        103.879289,
        1.2956074
      ],
      [
        103.8796015,
        1.2956245
      ],
      [
        103.8798657,
        1.2956724
      ],
      [
        103.8809966,
        1.2957184
      ],
      [
        103.8820682,
        1.2957577
      ],
      [
        103.8837396,
        1.2958232
      ],
      [
        103.8845899,
        1.2958545
      ],
      [
        103.8852695,
        1.2958768
      ],
      [
        103.8859722,
        1.2959009
      ],
      [
        103.886609,
        1.2958784
      ],
      [
        103.8895663,
        1.2957608
      ],
      [
        103.8897243,
        1.2957577
      ],
      [
        103.8913109,
        1.2956639
      ],
      [
        103.8920564,
        1.2956528
      ],
      [
        103.8926966,
        1.2956823
      ],
      [
        103.89302,
        1.2957196
      ],
      [
        103.8933709,
        1.2957774
      ],
      [
        103.8937479,
        1.2958484
      ],
      [
        103.8940818,
        1.2959294
      ],
      [
        103.8943498,
        1.2960163
      ],
      [
        103.8945798,
        1.2960901
      ],
      [
        103.8950713,
        1.2962635
      ],
      [
        103.8960845,
        1.2966495
      ],
      [
        103.8963935,
        1.2967816
      ],
      [
        103.897131,
        1.2970575
      ],
      [
        103.8972196,
        1.2971463
      ],
      [
        103.8972688,
        1.2971827
      ],
      [
        103.8975272,
        1.2973139
      ],
      [
        103.8977013,
        1.2974066
      ],
      [
        103.8978237,
        1.2974899
      ],
      [
        103.8979036,
        1.297572
      ],
      [
        103.8979699,
        1.2976976
      ],
      [
        103.8979939,
        1.2978388
      ],
      [
        103.8979837,
        1.2979416
      ],
      [
        103.8978451,
        1.2984974
      ],
      [
        103.8977713,
        1.2987423
      ],
      [
        103.8977409,
        1.2990576
      ],
      [
        103.8977225,
        1.2992875
      ],
      [
        103.8977135,
        1.2993357
      ],
      [
        103.8976823,
        1.2994434
      ],
      [
        103.8975778,
        1.2998106
      ],
      [
        103.8975425,
        1.2999681
      ],
      [
        103.8975262,
        1.3000711
      ],
      [
        103.8974948,
        1.300313
      ],
      [
        103.8974655,
        1.3005698
      ],
      [
        103.8974411,
        1.3007613
      ],
      [
        103.8974155,
        1.3009018
      ],
      [
        103.8973612,
        1.3010912
      ],
      [
        103.8972108,
        1.3015169
      ],
      [
        103.8970967,
        1.3018802
      ],
      [
        103.8970817,
        1.3019275
      ],
      [
        103.8970567,
        1.3020179
      ],
      [
        103.8971599,
        1.3020424
      ],
      [
        103.8972366,
        1.3020648
      ],
      [
        103.8975631,
        1.3021406
      ],
      [
        103.8982278,
        1.3023025
      ],
      [
        103.8985261,
        1.302374
      ],
      [
        103.8987607,
        1.3024558
      ],
      [
        103.8996285,
        1.3028098
      ],
      [
        103.8998068,
        1.3028882
      ],
      [
        103.9001622,
        1.3030444
      ],
      [
        103.900373,
        1.3031381
      ],
      [
        103.9003922,
        1.3031466
      ],
      [
        103.9004716,
        1.3031802
      ],
      [
        103.9005215,
        1.3032038
      ],
      [
        103.900556,
        1.303121
      ],
      [
        103.9005719,
        1.303082
      ],
      [
        103.9006263,
        1.3029393
      ],
      [
        103.9006424,
        1.302898
      ],
      [
        103.9006931,
        1.30276
      ],
      [
        103.9008193,
        1.3024255
      ],
      [
        103.9008581,
        1.302327
      ],
      [
        103.9009286,
        1.3021479
      ],
      [
        103.9009625,
        1.3020619
      ],
      [
        103.9010052,
        1.3019751
      ],
      [
        103.9012141,
        1.301544
      ],
      [
        103.90131,
        1.3013638
      ],
      [
        103.9013174,
        1.3013507
      ],
      [
        103.9013242,
        1.3013388
      ],
      [
        103.9014484,
        1.3011046
      ],
      [
        103.901545,
        1.3009544
      ],
      [
        103.9016334,
        1.3008599
      ],
      [
        103.9018234,
        1.3007147
      ],
      [
        103.90193,
        1.3007341
      ],
      [
        103.9020373,
        1.3007183
      ],
      [
        103.9021337,
        1.3006689
      ],
      [
        103.9021979,
        1.300693
      ],
      [
        103.9022711,
        1.3007205
      ],
      [
        103.9023717,
        1.3007728
      ],
      [
        103.9026521,
        1.3009764
      ],
      [
        103.9028317,
        1.3011048
      ],
      [
        103.9033705,
        1.3015282
      ],
      [
        103.903468,
        1.3016048
      ],
      [
        103.9035465,
        1.3016585
      ],
      [
        103.9038309,
        1.3018606
      ],
      [
        103.904042,
        1.3020017
      ],
      [
        103.9046536,
        1.3023825
      ],
      [
        103.9049543,
        1.3025698
      ],
      [
        103.9053435,
        1.3028086
      ],
      [
        103.9053929,
        1.3028409
      ],
      [
        103.9055144,
        1.3029205
      ],
      [
        103.9055688,
        1.3029559
      ],
      [
        103.9060652,
        1.3032975
      ],
      [
        103.9064042,
        1.303578
      ],
      [
        103.9065518,
        1.3036818
      ],
      [
        103.906574,
        1.3036998
      ],
      [
        103.9066354,
        1.3037482
      ],
      [
        103.9067068,
        1.3038001
      ],
      [
        103.9068487,
        1.3038616
      ],
      [
        103.9070074,
        1.303975
      ],
      [
        103.9072901,
        1.3041647
      ],
      [
        103.9075188,
        1.304289
      ],
      [
        103.9077281,
        1.3044065
      ],
      [
        103.9078712,
        1.3044855
      ],
      [
        103.908002,
        1.3045639
      ],
      [
        103.908199,
        1.304652
      ],
      [
        103.9082653,
        1.3046852
      ],
      [
        103.9084121,
        1.3047612
      ],
      [
        103.9084902,
        1.304802
      ],
      [
        103.9085547,
        1.3048338
      ],
      [
        103.9086395,
        1.3048783
      ],
      [
        103.9091173,
        1.3051121
      ],
      [
        103.9092189,
        1.3051618
      ],
      [
        103.9094617,
        1.3052747
      ],
      [
        103.9096823,
        1.3053772
      ],
      [
        103.9098149,
        1.3054415
      ],
      [
        103.9099218,
        1.3054888
      ],
      [
        103.9100368,
        1.3055397
      ],
      [
        103.910132,
        1.3055611
      ],
      [
        103.9104015,
        1.3056728
      ],
      [
        103.9107762,
        1.3057893
      ],
      [
        103.9110559,
        1.3058628
      ],
      [
        103.9114362,
        1.3059497
      ],
      [
        103.9119476,
        1.3060694
      ],
      [
        103.9122487,
        1.3061448
      ],
      [
        103.9126383,
        1.3062366
      ],
      [
        103.9132507,
        1.3063806
      ],
      [
        103.9133551,
        1.3063974
      ],
      [
        103.9134691,
        1.3064283
      ],
      [
        103.9135246,
        1.3064442
      ],
      [
        103.9146271,
        1.3066938
      ],
      [
        103.9148363,
        1.3067448
      ],
      [
        103.9152977,
        1.306856
      ],
      [
        103.91546,
        1.3069016
      ],
      [
        103.9167447,
        1.3072234
      ],
      [
        103.9168681,
        1.3072462
      ],
      [
        103.9169513,
        1.3072663
      ],
      [
        103.9170746,
        1.3072918
      ],
      [
        103.9172168,
        1.3073106
      ],
      [
        103.9173283,
        1.3073311
      ],
      [
        103.918147,
        1.3074863
      ],
      [
        103.9184373,
        1.3075428
      ],
      [
        103.9187743,
        1.3075959
      ],
      [
        103.9198482,
        1.3077708
      ],
      [
        103.9203804,
        1.3078632
      ],
      [
        103.9217322,
        1.3081683
      ],
      [
        103.9224402,
        1.3083164
      ],
      [
        103.9227065,
        1.3083721
      ],
      [
        103.9231078,
        1.3084429
      ],
      [
        103.9233962,
        1.3084849
      ],
      [
        103.9237512,
        1.3085258
      ],
      [
        103.9240043,
        1.3085533
      ],
      [
        103.9245043,
        1.3086077
      ],
      [
        103.9245776,
        1.3086212
      ],
      [
        103.9246522,
        1.30864
      ],
      [
        103.9247348,
        1.3086639
      ],
      [
        103.925018,
        1.3087525
      ],
      [
        103.9252856,
        1.308837
      ],
      [
        103.9255815,
        1.308933
      ],
      [
        103.9258038,
        1.309007
      ],
      [
        103.9258892,
        1.3090378
      ],
      [
        103.9259834,
        1.3090716
      ],
      [
        103.9260163,
        1.3089606
      ],
      [
        103.9260277,
        1.3089103
      ],
      [
        103.926073,
        1.3087143
      ],
      [
        103.926113,
        1.3085138
      ],
      [
        103.9261028,
        1.3082578
      ],
      [
        103.9262826,
        1.3073963
      ],
      [
        103.9263325,
        1.3071238
      ],
      [
        103.9264098,
        1.306969
      ],
      [
        103.9264423,
        1.3068892
      ],
      [
        103.9264683,
        1.3068477
      ],
      [
        103.9264921,
        1.3068186
      ],
      [
        103.926526,
        1.3067879
      ],
      [
        103.9265754,
        1.3067553
      ],
      [
        103.9266451,
        1.3067201
      ],
      [
        103.9267071,
        1.3067117
      ],
      [
        103.9268537,
        1.3067107
      ],
      [
        103.9283931,
        1.3075517
      ],
      [
        103.928521,
        1.3076121
      ],
      [
        103.9287951,
        1.307703
      ],
      [
        103.9289567,
        1.3077514
      ],
      [
        103.9291208,
        1.3077897
      ],
      [
        103.9292016,
        1.3078107
      ],
      [
        103.9292857,
        1.3078225
      ],
      [
        103.9293876,
        1.3078257
      ],
      [
        103.9294999,
        1.3078219
      ],
      [
        103.9297749,
        1.3078227
      ],
      [
        103.9302797,
        1.3078764
      ],
      [
        103.9320642,
        1.3083831
      ],
      [
        103.9325723,
        1.308528
      ],
      [
        103.9345023,
        1.3090589
      ],
      [
        103.9350147,
        1.3091995
      ],
      [
        103.9373429,
        1.3098758
      ],
      [
        103.9374088,
        1.3098945
      ],
      [
        103.9379913,
        1.3100587
      ],
      [
        103.9389145,
        1.3103004
      ],
      [
        103.9393491,
        1.3104268
      ],
      [
        103.9433249,
        1.3115655
      ],
      [
        103.9438451,
        1.3116722
      ],
      [
        103.9442649,
        1.3117405
      ],
      [
        103.9447308,
        1.3117841
      ],
      [
        103.9455701,
        1.3118135
      ],
      [
        103.9468434,
        1.3118584
      ],
      [
        103.9475989,
        1.3118851
      ],
      [
        103.9497055,
        1.3119403
      ],
      [
        103.9501293,
        1.3119738
      ],
      [
        103.9507914,
        1.3120814
      ],
      [
        103.9512705,
        1.3122082
      ],
      [
        103.9517491,
        1.3123765
      ],
      [
        103.9518122,
        1.3124
      ],
      [
        103.9522565,
        1.3125656
      ],
      [
        103.9530571,
        1.3128963
      ],
      [
        103.9542587,
        1.3133927
      ],
      [
        103.9621901,
        1.3166407
      ],
      [
        103.9626413,
        1.3168197
      ],
      [
        103.9656481,
        1.3180604
      ],
      [
        103.9664852,
        1.3184598
      ],
      [
        103.9670527,
        1.3188129
      ],
      [
        103.9676868,
        1.3192966
      ],
      [
        103.968246,
        1.3198651
      ],
      [
        103.9686995,
        1.3204144
      ],
      [
        103.9700054,
        1.3222184
      ],
      [
        103.9701582,
        1.3224235
      ],
      [
        103.9702927,
        1.3226203
      ],
      [
        103.9710779,
        1.3237864
      ],
      [
        103.9712705,
        1.3240724
      ],
      [
        103.9715331,
        1.3244832
      ],
      [
        103.9724436,
        1.3258686
      ],
      [
        103.9726939,
        1.3262306
      ],
      [
        103.9742818,
        1.3284985
      ],
      [
        103.9754277,
        1.3301435
      ],
      [
        103.9757107,
        1.3305568
      ],
      [
        103.9777532,
        1.3336237
      ],
      [
        103.978143,
        1.3341905
      ],
      [
        103.9784834,
        1.3346775
      ],
      [
        103.9790225,
        1.3354731
      ],
      [
        103.9791987,
        1.3357684
      ],
      [
        103.9793434,
        1.336025
      ],
      [
        103.9795142,
        1.33636
      ],
      [
        103.979678,
        1.3366828
      ],
      [
        103.9798927,
        1.3371657
      ],
      [
        103.9805947,
        1.3387612
      ],
      [
        103.9808868,
        1.3394883
      ],
      [
        103.9810118,
        1.339789
      ],
      [
        103.9816423,
        1.341325
      ],
      [
        103.9825058,
        1.3433997
      ],
      [
        103.9830779,
        1.3447708
      ],
      [
        103.9833071,
        1.345301
      ],
      [
        103.9835087,
        1.3457672
      ],
      [
        103.9836896,
        1.3461857
      ],
      [
        103.9838875,
        1.3466434
      ],
      [
        103.9841235,
        1.3471893
      ],
      [
        103.9843717,
        1.3477702
      ],
      [
        103.9844805,
        1.3480252
      ],
      [
        103.9845715,
        1.3484084
      ],
      [
        103.9846273,
        1.348557
      ],
      [
        103.9846598,
        1.3486634
      ],
      [
        103.9846784,
        1.348734
      ],
      [
        103.9846908,
        1.3487956
      ],
      [
        103.984695,
        1.3488582
      ],
      [
        103.9846911,
        1.3489198
      ],
      [
        103.9846501,
        1.3491101
      ],
      [
        103.9846177,
        1.349418
      ],
      [
        103.9846147,
        1.3495125
      ],
      [
        103.9846191,
        1.3495803
      ],
      [
        103.9846337,
        1.3496523
      ],
      [
        103.984649,
        1.3497023
      ],
      [
        103.9847137,
        1.3498462
      ],
      [
        103.9847111,
        1.3499698
      ],
      [
        103.9847133,
        1.3500088
      ],
      [
        103.9847073,
        1.3500516
      ],
      [
        103.9846944,
        1.3500828
      ],
      [
        103.9846754,
        1.3501076
      ],
      [
        103.9846432,
        1.3501276
      ],
      [
        103.9844874,
        1.3501941
      ],
      [
        103.9843922,
        1.3502332
      ],
      [
        103.9843264,
        1.3502866
      ],
      [
        103.9843074,
        1.3503162
      ],
      [
        103.9842905,
        1.350373
      ],
      [
        103.9842856,
        1.3504354
      ],
      [
        103.9842627,
        1.350486
      ],
      [
        103.9842257,
        1.350525
      ],
      [
        103.9840569,
        1.3506243
      ],
      [
        103.984042,
        1.3506564
      ],
      [
        103.9840465,
        1.3506938
      ],
      [
        103.9844626,
        1.3517279
      ],
      [
        103.9847865,
        1.3525357
      ],
      [
        103.9851493,
        1.3533725
      ],
      [
        103.9855389,
        1.3543894
      ],
      [
        103.9860309,
        1.3556967
      ],
      [
        103.9866814,
        1.3571691
      ],
      [
        103.9874211,
        1.3588296
      ],
      [
        103.9880004,
        1.3601652
      ],
      [
        103.9883239,
        1.3606952
      ],
      [
        103.9883552,
        1.3607622
      ],
      [
        103.9883959,
        1.3608416
      ],
      [
        103.9890465,
        1.3619994
      ],
      [
        103.9890549,
        1.362015
      ],
      [
        103.9890682,
        1.3620228
      ],
      [
        103.9890817,
        1.3620232
      ],
      [
        103.9890993,
        1.3620176
      ],
      [
        103.9896441,
        1.3617907
      ],
      [
        103.9897436,
        1.3617492
      ],
      [
        103.9898358,
        1.3617108
      ],
      [
        103.9899345,
        1.3616698
      ],
      [
        103.9900368,
        1.3616271
      ],
      [
        103.9901292,
        1.3615887
      ],
      [
        103.9902309,
        1.3615463
      ],
      [
        103.9915192,
        1.3609899
      ],
      [
        103.9915825,
        1.3609272
      ],
      [
        103.9916029,
        1.3608519
      ],
      [
        103.9916085,
        1.3607988
      ],
      [
        103.9915945,
        1.3607067
      ],
      [
        103.9911278,
        1.3595203
      ],
      [
        103.9909125,
        1.3589878
      ],
      [
        103.9908908,
        1.3589383
      ],
      [
        103.9907796,
        1.3586805
      ],
      [
        103.990648,
        1.358375
      ]
    ]
  }
}