{
  "type": "Feature",
  "properties": {
    "relation": 3460036,
    "direction": "1",
    "fee": "yes",
    "from": "Sengkang Interchange",
    "name": "Svc 371 (Sengkang Interchange ↺ Rivervale Crescent)",
    "name:en": "Svc 371 (Sengkang Interchange ↺ Rivervale Crescent)",
    "network": "Land Transport Authority",
    "network:short": "LTA",
    "network:wikidata": "Q3299279",
    "network:wikipedia": "en:Land Transport Authority",
    "operator": "SBS Transit",
    "operator:wikidata": "Q2661305",
    "operator:wikipedia": "en:SBS Transit",
    "public_transport:version": "2",
    "ref": "371",
    "roundtrip": "yes",
    "route": "bus",
    "to": "Sengkang Interchange",
    "type": "route",
    "website": "https://www.sbstransit.com.sg/"
  },
  "geometry": {
    "type": "LineString",
    "coordinates": [
      [
        103.8963687,
        1.3914621
      ],
      [
        103.8962871,
        1.3914387
      ],
      [
        103.8960398,
        1.3915269
      ],
      [
        103.8957387,
        1.3916343
      ],
      [
        103.8958771,
        1.3920223
      ],
      [
        103.8961876,
        1.3919116
      ],
      [
        103.8964955,
        1.3918018
      ],
      [
        103.896412,
        1.3914452
      ],
      [
        103.8965522,
        1.3913914
      ],
      [
        103.896634,
        1.3913598
      ],
      [
        103.8967205,
        1.3913296
      ],
      [
        103.896591,
        1.390943
      ],
      [
        103.8965308,
        1.3907631
      ],
      [
        103.8964402,
        1.3904928
      ],
      [
        103.8964489,
        1.3903556
      ],
      [
        103.8964518,
        1.3902834
      ],
      [
        103.8964703,
        1.3902303
      ],
      [
        103.8965129,
        1.3901672
      ],
      [
        103.8965883,
        1.390069
      ],
      [
        103.8967811,
        1.3899962
      ],
      [
        103.8970035,
        1.3899093
      ],
      [
        103.8971384,
        1.3899497
      ],
      [
        103.8971737,
        1.3899623
      ],
      [
        103.8972465,
        1.3899884
      ],
      [
        103.8973084,
        1.390029
      ],
      [
        103.8973468,
        1.3901389
      ],
      [
        103.8975594,
        1.3907775
      ],
      [
        103.8976096,
        1.3909185
      ],
      [
        103.8976302,
        1.3909736
      ],
      [
        103.8976913,
        1.3911643
      ],
      [
        103.8977807,
        1.391432
      ],
      [
        103.8978542,
        1.3916536
      ],
      [
        103.8978827,
        1.3917589
      ],
      [
        103.8978996,
        1.3918212
      ],
      [
        103.8979284,
        1.3919003
      ],
      [
        103.8979523,
        1.3919794
      ],
      [
        103.8979907,
        1.3921061
      ],
      [
        103.8980833,
        1.3923659
      ],
      [
        103.8981664,
        1.3925972
      ],
      [
        103.8983715,
        1.3931762
      ],
      [
        103.8984347,
        1.3933542
      ],
      [
        103.8986182,
        1.3938711
      ],
      [
        103.8986787,
        1.3940278
      ],
      [
        103.8987605,
        1.3942222
      ],
      [
        103.8989189,
        1.3946193
      ],
      [
        103.8989988,
        1.3948386
      ],
      [
        103.8990196,
        1.3948975
      ],
      [
        103.8990629,
        1.3950205
      ],
      [
        103.8991386,
        1.3950011
      ],
      [
        103.899193,
        1.3949871
      ],
      [
        103.8994258,
        1.3949275
      ],
      [
        103.900126,
        1.3946883
      ],
      [
        103.9002547,
        1.3946378
      ],
      [
        103.9006823,
        1.3944823
      ],
      [
        103.900848,
        1.3944239
      ],
      [
        103.901093,
        1.3943457
      ],
      [
        103.9013247,
        1.394249
      ],
      [
        103.9013754,
        1.3942221
      ],
      [
        103.9014832,
        1.3941835
      ],
      [
        103.9015701,
        1.3941511
      ],
      [
        103.9018913,
        1.3940017
      ],
      [
        103.9021228,
        1.3939156
      ],
      [
        103.9023332,
        1.3938454
      ],
      [
        103.9028895,
        1.3936582
      ],
      [
        103.9029478,
        1.3936365
      ],
      [
        103.9030945,
        1.3935841
      ],
      [
        103.9033673,
        1.3934681
      ],
      [
        103.9036194,
        1.3933438
      ],
      [
        103.903889,
        1.393202
      ],
      [
        103.9041506,
        1.3930644
      ],
      [
        103.9042539,
        1.3929997
      ],
      [
        103.904371,
        1.3929293
      ],
      [
        103.904485,
        1.3928491
      ],
      [
        103.9046193,
        1.3927536
      ],
      [
        103.9047411,
        1.3926541
      ],
      [
        103.9049189,
        1.3925275
      ],
      [
        103.9050955,
        1.3923941
      ],
      [
        103.9052381,
        1.3922808
      ],
      [
        103.9053359,
        1.3922059
      ],
      [
        103.9054033,
        1.3921459
      ],
      [
        103.9054746,
        1.3920763
      ],
      [
        103.9061462,
        1.3914062
      ],
      [
        103.9062542,
        1.3912985
      ],
      [
        103.9064665,
        1.3910648
      ],
      [
        103.906566,
        1.3909176
      ],
      [
        103.9067565,
        1.3905561
      ],
      [
        103.9068923,
        1.3901827
      ],
      [
        103.9068956,
        1.3899539
      ],
      [
        103.9068851,
        1.3898299
      ],
      [
        103.906806,
        1.38947
      ],
      [
        103.9067477,
        1.3893671
      ],
      [
        103.906717,
        1.3893131
      ],
      [
        103.9067711,
        1.389274
      ],
      [
        103.906958,
        1.389139
      ],
      [
        103.9075348,
        1.3887108
      ],
      [
        103.9075844,
        1.388674
      ],
      [
        103.9077256,
        1.3885951
      ],
      [
        103.9078638,
        1.3885497
      ],
      [
        103.9079886,
        1.3885341
      ],
      [
        103.9080623,
        1.3885249
      ],
      [
        103.9082528,
        1.3885396
      ],
      [
        103.9082679,
        1.3885432
      ],
      [
        103.9084392,
        1.3885845
      ],
      [
        103.9085743,
        1.3886524
      ],
      [
        103.9087026,
        1.3887161
      ],
      [
        103.9089383,
        1.3888678
      ],
      [
        103.9089991,
        1.388907
      ],
      [
        103.9090482,
        1.3889386
      ],
      [
        103.9091212,
        1.3890034
      ],
      [
        103.9091747,
        1.3890673
      ],
      [
        103.9092218,
        1.3891362
      ],
      [
        103.9092503,
        1.3891899
      ],
      [
        103.9092634,
        1.3892535
      ],
      [
        103.9092688,
        1.3893078
      ],
      [
        103.9092728,
        1.3893553
      ],
      [
        103.9092563,
        1.3894686
      ],
      [
        103.9092155,
        1.3895772
      ],
      [
        103.9091353,
        1.3897233
      ],
      [
        103.9090555,
        1.3898219
      ],
      [
        103.9089237,
        1.3899882
      ],
      [
        103.9087823,
        1.3901588
      ],
      [
        103.9086517,
        1.3903182
      ],
      [
        103.9086333,
        1.3903685
      ],
      [
        103.908604,
        1.3903999
      ],
      [
        103.908604,
        1.3903999
      ],
      [
        103.9085436,
        1.3904699
      ],
      [
        103.9085436,
        1.3904699
      ],
      [
        103.9082143,
        1.3908237
      ],
      [
        103.9079238,
        1.3911285
      ],
      [
        103.9077285,
        1.3913222
      ],
      [
        103.907425,
        1.3916237
      ],
      [
        103.9073467,
        1.3916982
      ],
      [
        103.9073014,
        1.3917187
      ],
      [
        103.9070241,
        1.3920261
      ],
      [
        103.9068122,
        1.39225
      ],
      [
        103.9067937,
        1.3922701
      ],
      [
        103.9066815,
        1.3924006
      ],
      [
        103.9066502,
        1.3924346
      ],
      [
        103.9065979,
        1.3924933
      ],
      [
        103.9065711,
        1.3925195
      ],
      [
        103.906435,
        1.3926468
      ],
      [
        103.9063632,
        1.3926877
      ],
      [
        103.9062935,
        1.3927078
      ],
      [
        103.9062238,
        1.3927159
      ],
      [
        103.9061379,
        1.3927145
      ],
      [
        103.9060823,
        1.3927018
      ],
      [
        103.9060125,
        1.3926723
      ],
      [
        103.9059401,
        1.392622
      ],
      [
        103.9058644,
        1.392555
      ],
      [
        103.9058315,
        1.3925295
      ],
      [
        103.9057898,
        1.3925142
      ],
      [
        103.905458,
        1.3921955
      ],
      [
        103.9056055,
        1.3923385
      ],
      [
        103.9057345,
        1.3924615
      ],
      [
        103.9057898,
        1.3925142
      ],
      [
        103.9054033,
        1.3921459
      ],
      [
        103.9052458,
        1.3921016
      ],
      [
        103.9051415,
        1.3921896
      ],
      [
        103.9050047,
        1.3923023
      ],
      [
        103.9048424,
        1.3924296
      ],
      [
        103.9047087,
        1.3925326
      ],
      [
        103.9046788,
        1.3925557
      ],
      [
        103.9045045,
        1.392687
      ],
      [
        103.904383,
        1.3927729
      ],
      [
        103.9043072,
        1.3928265
      ],
      [
        103.9040592,
        1.392974
      ],
      [
        103.9038214,
        1.3931024
      ],
      [
        103.9034822,
        1.3932806
      ],
      [
        103.9033588,
        1.3933448
      ],
      [
        103.9032113,
        1.3934093
      ],
      [
        103.9030607,
        1.393482
      ],
      [
        103.9022706,
        1.3937661
      ],
      [
        103.9022049,
        1.3937897
      ],
      [
        103.9020971,
        1.3938298
      ],
      [
        103.9017276,
        1.3939802
      ],
      [
        103.9015259,
        1.3940505
      ],
      [
        103.9014472,
        1.3940845
      ],
      [
        103.9013277,
        1.3941232
      ],
      [
        103.9012738,
        1.3941404
      ],
      [
        103.9010627,
        1.3942271
      ],
      [
        103.9009543,
        1.3942662
      ],
      [
        103.9006381,
        1.3943804
      ],
      [
        103.9001821,
        1.39454
      ],
      [
        103.8998275,
        1.3946529
      ],
      [
        103.899409,
        1.3947905
      ],
      [
        103.8992372,
        1.3947748
      ],
      [
        103.8991647,
        1.3947559
      ],
      [
        103.8991059,
        1.3947267
      ],
      [
        103.8990243,
        1.3946476
      ],
      [
        103.8988745,
        1.3942141
      ],
      [
        103.8987438,
        1.3938538
      ],
      [
        103.8985544,
        1.3933072
      ],
      [
        103.8983019,
        1.3925784
      ],
      [
        103.8982603,
        1.3924645
      ],
      [
        103.8981165,
        1.3921396
      ],
      [
        103.8980508,
        1.3919435
      ],
      [
        103.8980218,
        1.3918661
      ],
      [
        103.8979928,
        1.3917845
      ],
      [
        103.8978996,
        1.3918212
      ],
      [
        103.8978408,
        1.3918406
      ],
      [
        103.8976604,
        1.3919
      ],
      [
        103.89752,
        1.391947
      ],
      [
        103.8972887,
        1.3920372
      ],
      [
        103.8971481,
        1.392022
      ],
      [
        103.897044,
        1.3919863
      ],
      [
        103.8969653,
        1.3919435
      ],
      [
        103.8968933,
        1.3918488
      ],
      [
        103.8968539,
        1.3917469
      ],
      [
        103.8968118,
        1.3916199
      ],
      [
        103.8967514,
        1.3914281
      ],
      [
        103.8967205,
        1.3913296
      ],
      [
        103.8967205,
        1.3913296
      ],
      [
        103.8965522,
        1.3913914
      ],
      [
        103.896634,
        1.3913598
      ],
      [
        103.896412,
        1.3914452
      ],
      [
        103.8963687,
        1.3914621
      ]
    ]
  }
}