{
  "type": "Feature",
  "properties": {
    "relation": 5855829,
    "direction": "1",
    "fee": "yes",
    "from": "Punggol Interchange",
    "name": "Svc 382W (Punggol Interchange ↺ Sumang Walk)",
    "name:en": "Svc 382W (Punggol Interchange ↺ Sumang Walk)",
    "network": "Land Transport Authority",
    "network:short": "LTA",
    "network:wikidata": "Q3299279",
    "network:wikipedia": "en:Land Transport Authority",
    "operator": "Go-Ahead Singapore",
    "operator:wikidata": "Q24698874",
    "operator:wikipedia": "en:Go-Ahead Singapore",
    "public_transport:version": "2",
    "ref": "382W",
    "roundtrip": "yes",
    "route": "bus",
    "to": "Punggol Interchange",
    "type": "route",
    "via": "Sumang Walk",
    "website": "https://go-aheadsingapore.com/bus-services/"
  },
  "geometry": {
    "type": "LineString",
    "coordinates": [
      [
        103.9026277,
        1.4033195
      ],
      [
        103.9024746,
        1.4034101
      ],
      [
        103.9023181,
        1.4034969
      ],
      [
        103.9022789,
        1.4035419
      ],
      [
        103.9022574,
        1.4035923
      ],
      [
        103.9022324,
        1.4036635
      ],
      [
        103.9022109,
        1.4037547
      ],
      [
        103.9022109,
        1.403819
      ],
      [
        103.9024009,
        1.4041775
      ],
      [
        103.9026193,
        1.4045984
      ],
      [
        103.9026671,
        1.4046228
      ],
      [
        103.9028788,
        1.4044948
      ],
      [
        103.9030541,
        1.4043904
      ],
      [
        103.9032301,
        1.4042818
      ],
      [
        103.9032565,
        1.4041477
      ],
      [
        103.9028245,
        1.4033906
      ],
      [
        103.9027784,
        1.403318
      ],
      [
        103.9029504,
        1.4032212
      ],
      [
        103.9030205,
        1.4031773
      ],
      [
        103.9030673,
        1.4032543
      ],
      [
        103.9033552,
        1.4037387
      ],
      [
        103.9034688,
        1.4039509
      ],
      [
        103.9035771,
        1.4041735
      ],
      [
        103.903607,
        1.4043057
      ],
      [
        103.9036257,
        1.404364
      ],
      [
        103.903782,
        1.4047135
      ],
      [
        103.9038179,
        1.404802
      ],
      [
        103.90389,
        1.4048705
      ],
      [
        103.9039679,
        1.4049747
      ],
      [
        103.9040548,
        1.4051171
      ],
      [
        103.9041054,
        1.4051825
      ],
      [
        103.9041255,
        1.4052112
      ],
      [
        103.9042856,
        1.4054542
      ],
      [
        103.904767,
        1.4061971
      ],
      [
        103.9048333,
        1.4063226
      ],
      [
        103.9049386,
        1.406508
      ],
      [
        103.905117,
        1.4068305
      ],
      [
        103.9051907,
        1.4069657
      ],
      [
        103.9053081,
        1.4071754
      ],
      [
        103.9053337,
        1.4072355
      ],
      [
        103.9053915,
        1.4073627
      ],
      [
        103.90541,
        1.4074119
      ],
      [
        103.9055053,
        1.4076498
      ],
      [
        103.9058277,
        1.4084072
      ],
      [
        103.9059056,
        1.4086046
      ],
      [
        103.905955,
        1.4087872
      ],
      [
        103.9059707,
        1.4089517
      ],
      [
        103.9059532,
        1.4090819
      ],
      [
        103.9059317,
        1.4092014
      ],
      [
        103.9058867,
        1.4093375
      ],
      [
        103.9058106,
        1.4094795
      ],
      [
        103.9056508,
        1.4096691
      ],
      [
        103.9055454,
        1.4097527
      ],
      [
        103.9054379,
        1.4098268
      ],
      [
        103.9052188,
        1.4099366
      ],
      [
        103.905158,
        1.4099688
      ],
      [
        103.9050682,
        1.4100132
      ],
      [
        103.9049223,
        1.4100881
      ],
      [
        103.9041427,
        1.4105082
      ],
      [
        103.9039617,
        1.4106006
      ],
      [
        103.90387,
        1.4106374
      ],
      [
        103.9037656,
        1.4106692
      ],
      [
        103.9036599,
        1.4106831
      ],
      [
        103.903504,
        1.4106818
      ],
      [
        103.9033965,
        1.4106698
      ],
      [
        103.9032596,
        1.4106368
      ],
      [
        103.9031205,
        1.4105747
      ],
      [
        103.9030249,
        1.410519
      ],
      [
        103.9029164,
        1.4104387
      ],
      [
        103.9028108,
        1.4103302
      ],
      [
        103.9027892,
        1.4102999
      ],
      [
        103.9027186,
        1.4101889
      ],
      [
        103.9024261,
        1.4095743
      ],
      [
        103.9022834,
        1.4092715
      ],
      [
        103.9022653,
        1.4092301
      ],
      [
        103.9022198,
        1.4091294
      ],
      [
        103.9021464,
        1.4091768
      ],
      [
        103.9021,
        1.4092054
      ],
      [
        103.9019195,
        1.4093231
      ],
      [
        103.9011139,
        1.4098257
      ],
      [
        103.9004772,
        1.4102234
      ],
      [
        103.9001697,
        1.4104262
      ],
      [
        103.899896,
        1.4105927
      ],
      [
        103.8998302,
        1.4106317
      ],
      [
        103.8996556,
        1.4107265
      ],
      [
        103.8995932,
        1.4107558
      ],
      [
        103.8993986,
        1.4108386
      ],
      [
        103.8989702,
        1.4110314
      ],
      [
        103.8986117,
        1.4111915
      ],
      [
        103.898378,
        1.4112871
      ],
      [
        103.8982223,
        1.4113012
      ],
      [
        103.898149,
        1.4112833
      ],
      [
        103.8981056,
        1.4112686
      ],
      [
        103.8980614,
        1.4112373
      ],
      [
        103.8979755,
        1.4111767
      ],
      [
        103.8978677,
        1.4109603
      ],
      [
        103.897415,
        1.4103131
      ],
      [
        103.8973011,
        1.4101517
      ],
      [
        103.8972377,
        1.4100461
      ],
      [
        103.8970259,
        1.4097553
      ],
      [
        103.8963806,
        1.4088551
      ],
      [
        103.8962685,
        1.4086899
      ],
      [
        103.8961808,
        1.4085585
      ],
      [
        103.8959887,
        1.4082852
      ],
      [
        103.8958086,
        1.4080205
      ],
      [
        103.8956461,
        1.4077775
      ],
      [
        103.8955527,
        1.4075858
      ],
      [
        103.8954967,
        1.407432
      ],
      [
        103.895431,
        1.4071911
      ],
      [
        103.8953998,
        1.4069681
      ],
      [
        103.895337,
        1.4067143
      ],
      [
        103.8953234,
        1.4066368
      ],
      [
        103.8952973,
        1.4065158
      ],
      [
        103.8952862,
        1.406438
      ],
      [
        103.8952338,
        1.4062027
      ],
      [
        103.8951676,
        1.4058315
      ],
      [
        103.8950763,
        1.4052509
      ],
      [
        103.8950589,
        1.4051505
      ],
      [
        103.895046,
        1.4050761
      ],
      [
        103.8949665,
        1.4045737
      ],
      [
        103.8949411,
        1.4044531
      ],
      [
        103.8949009,
        1.4042332
      ],
      [
        103.8948543,
        1.4039893
      ],
      [
        103.8948227,
        1.4037708
      ],
      [
        103.8948129,
        1.4037034
      ],
      [
        103.8948033,
        1.4036221
      ],
      [
        103.894797,
        1.4035689
      ],
      [
        103.8947772,
        1.4034013
      ],
      [
        103.8946802,
        1.4027908
      ],
      [
        103.8946738,
        1.4026136
      ],
      [
        103.8946403,
        1.4023921
      ],
      [
        103.8946124,
        1.4022366
      ],
      [
        103.8946044,
        1.4021921
      ],
      [
        103.894597,
        1.4021508
      ],
      [
        103.8945052,
        1.4021633
      ],
      [
        103.8944504,
        1.4021724
      ],
      [
        103.8933465,
        1.4023254
      ],
      [
        103.8929213,
        1.4023845
      ],
      [
        103.8926368,
        1.4024428
      ],
      [
        103.8922077,
        1.4025071
      ],
      [
        103.8917982,
        1.4025663
      ],
      [
        103.891682,
        1.4025864
      ],
      [
        103.8913489,
        1.4026386
      ],
      [
        103.89109,
        1.402677
      ],
      [
        103.891056,
        1.402682
      ],
      [
        103.8909773,
        1.4026944
      ],
      [
        103.8909821,
        1.4027356
      ],
      [
        103.8909872,
        1.4027818
      ],
      [
        103.8910102,
        1.4029211
      ],
      [
        103.8910406,
        1.4031564
      ],
      [
        103.8910825,
        1.4033438
      ],
      [
        103.8911244,
        1.4036242
      ],
      [
        103.8911948,
        1.404096
      ],
      [
        103.8912033,
        1.4041525
      ],
      [
        103.8912167,
        1.4042424
      ],
      [
        103.8912871,
        1.4042345
      ],
      [
        103.8913447,
        1.4042282
      ],
      [
        103.8915186,
        1.4042087
      ],
      [
        103.8922117,
        1.4040853
      ],
      [
        103.8928333,
        1.4039909
      ],
      [
        103.8929284,
        1.4039775
      ],
      [
        103.8936375,
        1.4038733
      ],
      [
        103.894182,
        1.4037897
      ],
      [
        103.8943405,
        1.4037729
      ],
      [
        103.8944191,
        1.4037632
      ],
      [
        103.8946761,
        1.4037241
      ],
      [
        103.8947367,
        1.4037149
      ],
      [
        103.8948129,
        1.4037034
      ],
      [
        103.8948806,
        1.4036931
      ],
      [
        103.8950336,
        1.4036698
      ],
      [
        103.8953757,
        1.4036167
      ],
      [
        103.8956623,
        1.403562
      ],
      [
        103.8960676,
        1.4034757
      ],
      [
        103.8964226,
        1.4034109
      ],
      [
        103.8966432,
        1.403381
      ],
      [
        103.8967296,
        1.4033713
      ],
      [
        103.8968719,
        1.4033553
      ],
      [
        103.8969695,
        1.4033443
      ],
      [
        103.897208,
        1.4033126
      ],
      [
        103.8976461,
        1.403243
      ],
      [
        103.8982233,
        1.4030627
      ],
      [
        103.8982906,
        1.4030371
      ],
      [
        103.898615,
        1.4029259
      ],
      [
        103.8988618,
        1.4028402
      ],
      [
        103.8991207,
        1.4027527
      ],
      [
        103.8993809,
        1.4026579
      ],
      [
        103.8994288,
        1.4026409
      ],
      [
        103.8995087,
        1.4026105
      ],
      [
        103.8995752,
        1.4025862
      ],
      [
        103.8998082,
        1.4024975
      ],
      [
        103.8998621,
        1.4024768
      ],
      [
        103.9003002,
        1.4023087
      ],
      [
        103.9003685,
        1.4022825
      ],
      [
        103.9010121,
        1.4020164
      ],
      [
        103.9012375,
        1.4019232
      ],
      [
        103.9014741,
        1.4018208
      ],
      [
        103.9018035,
        1.4016806
      ],
      [
        103.9019146,
        1.4016712
      ],
      [
        103.9019726,
        1.4016866
      ],
      [
        103.9019856,
        1.40169
      ],
      [
        103.9020715,
        1.4017316
      ],
      [
        103.9021965,
        1.4018214
      ],
      [
        103.9025131,
        1.4023438
      ],
      [
        103.9029219,
        1.4030205
      ],
      [
        103.9029701,
        1.4031003
      ],
      [
        103.9029022,
        1.4031373
      ],
      [
        103.902696,
        1.4032531
      ],
      [
        103.9026277,
        1.4033195
      ]
    ]
  }
}