{
  "type": "Feature",
  "properties": {
    "relation": 1149305,
    "direction": "1",
    "fee": "yes",
    "from": "Tampines Interchange",
    "name": "Svc 38 (Tampines Interchange → Bedok Interchange)",
    "name:en": "Svc 38 (Tampines Interchange → Bedok Interchange)",
    "network": "Land Transport Authority",
    "network:short": "LTA",
    "network:wikidata": "Q3299279",
    "network:wikipedia": "en:Land Transport Authority",
    "operator": "Go-Ahead Singapore",
    "operator:wikidata": "Q24698874",
    "operator:wikipedia": "en:Go-Ahead Singapore",
    "public_transport:version": "2",
    "ref": "38",
    "route": "bus",
    "to": "Bedok Interchange",
    "type": "route",
    "website": "https://go-aheadsingapore.com/bus-services/"
  },
  "geometry": {
    "type": "LineString",
    "coordinates": [
      [
        103.9434895,
        1.3548843
      ],
      [
        103.9435506,
        1.3547662
      ],
      [
        103.9436213,
        1.3546287
      ],
      [
        103.9436472,
        1.354583
      ],
      [
        103.943647,
        1.3545493
      ],
      [
        103.9436302,
        1.3545253
      ],
      [
        103.9434061,
        1.3543026
      ],
      [
        103.9431003,
        1.3539963
      ],
      [
        103.9430264,
        1.3540247
      ],
      [
        103.9430019,
        1.3540914
      ],
      [
        103.9429956,
        1.3542446
      ],
      [
        103.9429853,
        1.3544914
      ],
      [
        103.9430158,
        1.3546427
      ],
      [
        103.9430903,
        1.3547532
      ],
      [
        103.9431709,
        1.354833
      ],
      [
        103.9432027,
        1.3548645
      ],
      [
        103.942933,
        1.355131
      ],
      [
        103.9428826,
        1.3551813
      ],
      [
        103.9428309,
        1.355241
      ],
      [
        103.9428883,
        1.3552961
      ],
      [
        103.9429256,
        1.355328
      ],
      [
        103.9430585,
        1.3554419
      ],
      [
        103.943125,
        1.3554858
      ],
      [
        103.9432223,
        1.3555186
      ],
      [
        103.9433207,
        1.355541
      ],
      [
        103.9435892,
        1.3555457
      ],
      [
        103.9437787,
        1.3555505
      ],
      [
        103.9440337,
        1.3555602
      ],
      [
        103.9440352,
        1.3556192
      ],
      [
        103.9440432,
        1.355973
      ],
      [
        103.9440548,
        1.3565917
      ],
      [
        103.9440589,
        1.3566557
      ],
      [
        103.9440631,
        1.3567752
      ],
      [
        103.9441334,
        1.3567737
      ],
      [
        103.9451045,
        1.3567929
      ],
      [
        103.9455045,
        1.3568008
      ],
      [
        103.9460439,
        1.3567971
      ],
      [
        103.9461144,
        1.3567961
      ],
      [
        103.946241,
        1.3567963
      ],
      [
        103.9463231,
        1.3567952
      ],
      [
        103.9464113,
        1.3567952
      ],
      [
        103.9465265,
        1.3567953
      ],
      [
        103.9472669,
        1.3567955
      ],
      [
        103.9474286,
        1.3567961
      ],
      [
        103.9488575,
        1.3567926
      ],
      [
        103.949204,
        1.3567961
      ],
      [
        103.9495045,
        1.3567936
      ],
      [
        103.9499076,
        1.3567768
      ],
      [
        103.9500015,
        1.3567729
      ],
      [
        103.9501436,
        1.3567649
      ],
      [
        103.9502447,
        1.356756
      ],
      [
        103.9503435,
        1.3567457
      ],
      [
        103.9505306,
        1.3567296
      ],
      [
        103.9508128,
        1.3566934
      ],
      [
        103.9511398,
        1.3566394
      ],
      [
        103.9514584,
        1.3565891
      ],
      [
        103.951544,
        1.3565703
      ],
      [
        103.9518107,
        1.3565167
      ],
      [
        103.9519228,
        1.3564953
      ],
      [
        103.9519874,
        1.3564852
      ],
      [
        103.9520111,
        1.3564815
      ],
      [
        103.9526821,
        1.356377
      ],
      [
        103.9531473,
        1.3563436
      ],
      [
        103.9533713,
        1.3563298
      ],
      [
        103.9537127,
        1.3563064
      ],
      [
        103.9540629,
        1.3562951
      ],
      [
        103.9547119,
        1.3562963
      ],
      [
        103.9550037,
        1.3562998
      ],
      [
        103.9553399,
        1.3563144
      ],
      [
        103.9554027,
        1.3563141
      ],
      [
        103.955507,
        1.3563137
      ],
      [
        103.955509,
        1.356214
      ],
      [
        103.9555076,
        1.3561273
      ],
      [
        103.9555039,
        1.355811
      ],
      [
        103.9554903,
        1.3548533
      ],
      [
        103.9554842,
        1.3547541
      ],
      [
        103.9554648,
        1.3544885
      ],
      [
        103.9554281,
        1.3542847
      ],
      [
        103.9553853,
        1.3541313
      ],
      [
        103.9553591,
        1.3540514
      ],
      [
        103.9553039,
        1.3538754
      ],
      [
        103.9552763,
        1.353785
      ],
      [
        103.9552458,
        1.3536993
      ],
      [
        103.9551434,
        1.3534127
      ],
      [
        103.9550534,
        1.3531559
      ],
      [
        103.9549971,
        1.3530218
      ],
      [
        103.9549045,
        1.3528046
      ],
      [
        103.9547838,
        1.3525741
      ],
      [
        103.9547691,
        1.3524882
      ],
      [
        103.9547671,
        1.3524272
      ],
      [
        103.95477,
        1.3523909
      ],
      [
        103.9548207,
        1.3522947
      ],
      [
        103.9548863,
        1.3521719
      ],
      [
        103.9552803,
        1.3518944
      ],
      [
        103.9553712,
        1.3518152
      ],
      [
        103.9554496,
        1.3517334
      ],
      [
        103.955576,
        1.3515591
      ],
      [
        103.9557095,
        1.3513479
      ],
      [
        103.9558399,
        1.351114
      ],
      [
        103.9559545,
        1.3509079
      ],
      [
        103.956188,
        1.3504992
      ],
      [
        103.9563362,
        1.3502399
      ],
      [
        103.9566877,
        1.3496247
      ],
      [
        103.9571378,
        1.3488277
      ],
      [
        103.9573345,
        1.3484794
      ],
      [
        103.9573519,
        1.3484499
      ],
      [
        103.9576162,
        1.3480018
      ],
      [
        103.9577892,
        1.3477084
      ],
      [
        103.9578358,
        1.3476152
      ],
      [
        103.9578482,
        1.3475904
      ],
      [
        103.957934,
        1.3473625
      ],
      [
        103.9579622,
        1.3472353
      ],
      [
        103.9579743,
        1.3471534
      ],
      [
        103.9579849,
        1.3470783
      ],
      [
        103.9579944,
        1.3469054
      ],
      [
        103.9579877,
        1.346707
      ],
      [
        103.9579714,
        1.3463977
      ],
      [
        103.9579689,
        1.3463439
      ],
      [
        103.9579637,
        1.3462955
      ],
      [
        103.9578067,
        1.3463077
      ],
      [
        103.9577755,
        1.3463105
      ],
      [
        103.957275,
        1.3463573
      ],
      [
        103.9571204,
        1.3463767
      ],
      [
        103.9568563,
        1.3463963
      ],
      [
        103.9566219,
        1.3464191
      ],
      [
        103.9565041,
        1.3464325
      ],
      [
        103.9562918,
        1.3464598
      ],
      [
        103.956241,
        1.3464663
      ],
      [
        103.9557184,
        1.3464966
      ],
      [
        103.9556357,
        1.3464978
      ],
      [
        103.9556144,
        1.3464936
      ],
      [
        103.9555955,
        1.3464855
      ],
      [
        103.9555501,
        1.3464648
      ],
      [
        103.9555087,
        1.3464414
      ],
      [
        103.9554074,
        1.3463667
      ],
      [
        103.9552533,
        1.3462337
      ],
      [
        103.9549,
        1.3459286
      ],
      [
        103.9547445,
        1.3457944
      ],
      [
        103.9545803,
        1.3456559
      ],
      [
        103.9544007,
        1.3454985
      ],
      [
        103.9540868,
        1.3452323
      ],
      [
        103.9539021,
        1.3450762
      ],
      [
        103.953737,
        1.3449365
      ],
      [
        103.9534526,
        1.3446884
      ],
      [
        103.9530846,
        1.3443755
      ],
      [
        103.9528457,
        1.3441932
      ],
      [
        103.9528217,
        1.3441712
      ],
      [
        103.9527016,
        1.3440659
      ],
      [
        103.9526886,
        1.3440546
      ],
      [
        103.9525287,
        1.3439251
      ],
      [
        103.951988,
        1.3434547
      ],
      [
        103.951957,
        1.3434277
      ],
      [
        103.95193,
        1.3434054
      ],
      [
        103.951897,
        1.3433789
      ],
      [
        103.9517438,
        1.343256
      ],
      [
        103.9516633,
        1.3431914
      ],
      [
        103.9513031,
        1.3428494
      ],
      [
        103.9512431,
        1.3427544
      ],
      [
        103.9512227,
        1.3426899
      ],
      [
        103.951218,
        1.3426248
      ],
      [
        103.9512295,
        1.342551
      ],
      [
        103.9512601,
        1.3424912
      ],
      [
        103.9514373,
        1.3422777
      ],
      [
        103.9514918,
        1.3422121
      ],
      [
        103.9515817,
        1.3420928
      ],
      [
        103.9516198,
        1.3420461
      ],
      [
        103.9517731,
        1.3418592
      ],
      [
        103.9519009,
        1.3417037
      ],
      [
        103.9519351,
        1.3416621
      ],
      [
        103.9519574,
        1.341635
      ],
      [
        103.9520626,
        1.3415071
      ],
      [
        103.9522358,
        1.3412911
      ],
      [
        103.9522683,
        1.341257
      ],
      [
        103.9523054,
        1.3412871
      ],
      [
        103.9528071,
        1.3416786
      ],
      [
        103.9530919,
        1.3418917
      ],
      [
        103.9531242,
        1.3419159
      ],
      [
        103.9531624,
        1.341945
      ],
      [
        103.9531917,
        1.3419688
      ],
      [
        103.9536546,
        1.3423691
      ],
      [
        103.9537586,
        1.342456
      ],
      [
        103.9538839,
        1.3425627
      ],
      [
        103.9542152,
        1.3428457
      ],
      [
        103.9546731,
        1.3432458
      ],
      [
        103.9547627,
        1.3433222
      ],
      [
        103.9548401,
        1.3433765
      ],
      [
        103.9549064,
        1.3432913
      ],
      [
        103.9549372,
        1.3432494
      ],
      [
        103.9552118,
        1.3429106
      ],
      [
        103.9553702,
        1.3427257
      ],
      [
        103.9554403,
        1.3426428
      ],
      [
        103.9556026,
        1.3424486
      ],
      [
        103.9558098,
        1.3422008
      ],
      [
        103.9558966,
        1.3420914
      ],
      [
        103.9559674,
        1.3420061
      ],
      [
        103.9560609,
        1.3418969
      ],
      [
        103.9561772,
        1.341761
      ],
      [
        103.9562832,
        1.3416363
      ],
      [
        103.9563546,
        1.3415521
      ],
      [
        103.9564853,
        1.3413994
      ],
      [
        103.9566436,
        1.3412171
      ],
      [
        103.9567093,
        1.3411554
      ],
      [
        103.9567751,
        1.341134
      ],
      [
        103.9568552,
        1.3411479
      ],
      [
        103.9569279,
        1.341197
      ],
      [
        103.9569758,
        1.3412352
      ],
      [
        103.9572753,
        1.3414738
      ],
      [
        103.9573252,
        1.3415135
      ],
      [
        103.9574052,
        1.3415817
      ],
      [
        103.9574787,
        1.3416443
      ],
      [
        103.9576525,
        1.3417858
      ],
      [
        103.9576844,
        1.3418102
      ],
      [
        103.9577712,
        1.3418824
      ],
      [
        103.9580175,
        1.342092
      ],
      [
        103.9581237,
        1.3421824
      ],
      [
        103.9581829,
        1.3422311
      ],
      [
        103.9582419,
        1.3422848
      ],
      [
        103.9582968,
        1.3421998
      ],
      [
        103.958794,
        1.3414258
      ],
      [
        103.959059,
        1.3410656
      ],
      [
        103.9590751,
        1.3410437
      ],
      [
        103.9592347,
        1.340865
      ],
      [
        103.9593912,
        1.3407138
      ],
      [
        103.9594652,
        1.3406463
      ],
      [
        103.9595984,
        1.3405249
      ],
      [
        103.9597271,
        1.3404297
      ],
      [
        103.9598564,
        1.3403545
      ],
      [
        103.9600034,
        1.3402742
      ],
      [
        103.9601182,
        1.3402158
      ],
      [
        103.9603279,
        1.3401137
      ],
      [
        103.9605142,
        1.3400413
      ],
      [
        103.9608205,
        1.3399588
      ],
      [
        103.9608943,
        1.3399389
      ],
      [
        103.9610747,
        1.3398924
      ],
      [
        103.9610319,
        1.3397515
      ],
      [
        103.9610183,
        1.3397142
      ],
      [
        103.9609315,
        1.3394773
      ],
      [
        103.9608595,
        1.339344
      ],
      [
        103.9606985,
        1.339046
      ],
      [
        103.960155,
        1.3380403
      ],
      [
        103.960106,
        1.3379775
      ],
      [
        103.9600737,
        1.3379317
      ],
      [
        103.9600209,
        1.3378552
      ],
      [
        103.9597903,
        1.3375212
      ],
      [
        103.9596674,
        1.3373501
      ],
      [
        103.9596454,
        1.3373195
      ],
      [
        103.9595647,
        1.3372061
      ],
      [
        103.9595436,
        1.3371779
      ],
      [
        103.9594291,
        1.3370244
      ],
      [
        103.9592779,
        1.3368298
      ],
      [
        103.9589817,
        1.336436
      ],
      [
        103.9587644,
        1.3361399
      ],
      [
        103.958715,
        1.3360772
      ],
      [
        103.958678,
        1.3360246
      ],
      [
        103.958619,
        1.3359406
      ],
      [
        103.9584013,
        1.3356309
      ],
      [
        103.9583664,
        1.3355812
      ],
      [
        103.9578769,
        1.3348832
      ],
      [
        103.9578748,
        1.3348808
      ],
      [
        103.9578022,
        1.3347985
      ],
      [
        103.95744,
        1.334388
      ],
      [
        103.9574001,
        1.3343481
      ],
      [
        103.9573768,
        1.3343248
      ],
      [
        103.9573307,
        1.3342787
      ],
      [
        103.9572161,
        1.3341641
      ],
      [
        103.9570758,
        1.3340238
      ],
      [
        103.955751,
        1.3330197
      ],
      [
        103.9556333,
        1.3329301
      ],
      [
        103.9553969,
        1.3327493
      ],
      [
        103.9551833,
        1.332569
      ],
      [
        103.9550439,
        1.3324507
      ],
      [
        103.9549668,
        1.3323877
      ],
      [
        103.9548684,
        1.332301
      ],
      [
        103.9547872,
        1.3322385
      ],
      [
        103.9545958,
        1.3320733
      ],
      [
        103.9545205,
        1.3320185
      ],
      [
        103.9542876,
        1.3318409
      ],
      [
        103.9533086,
        1.33107
      ],
      [
        103.952976,
        1.3308219
      ],
      [
        103.9527185,
        1.3306248
      ],
      [
        103.9525866,
        1.330523
      ],
      [
        103.9523999,
        1.3303774
      ],
      [
        103.9523468,
        1.330336
      ],
      [
        103.9522299,
        1.3302425
      ],
      [
        103.9521009,
        1.3301445
      ],
      [
        103.9520591,
        1.3301118
      ],
      [
        103.9517459,
        1.3298532
      ],
      [
        103.9512093,
        1.3294235
      ],
      [
        103.9510071,
        1.3292563
      ],
      [
        103.9509282,
        1.3291829
      ],
      [
        103.9508041,
        1.3290193
      ],
      [
        103.9507243,
        1.328906
      ],
      [
        103.9506331,
        1.3287934
      ],
      [
        103.9505674,
        1.328723
      ],
      [
        103.950497,
        1.3286499
      ],
      [
        103.9503904,
        1.3285638
      ],
      [
        103.9500082,
        1.3283539
      ],
      [
        103.9499654,
        1.3283331
      ],
      [
        103.9498556,
        1.3282885
      ],
      [
        103.949782,
        1.3282549
      ],
      [
        103.9493911,
        1.3281032
      ],
      [
        103.9487918,
        1.3278562
      ],
      [
        103.9485584,
        1.3277614
      ],
      [
        103.9482478,
        1.3276357
      ],
      [
        103.94757,
        1.3273682
      ],
      [
        103.9468955,
        1.3271301
      ],
      [
        103.9464307,
        1.3269604
      ],
      [
        103.9459389,
        1.3267815
      ],
      [
        103.9457464,
        1.326719
      ],
      [
        103.945019,
        1.3265011
      ],
      [
        103.9448832,
        1.3264588
      ],
      [
        103.9446129,
        1.3263728
      ],
      [
        103.94447,
        1.3262802
      ],
      [
        103.9443803,
        1.3261735
      ],
      [
        103.9443523,
        1.3260884
      ],
      [
        103.9443625,
        1.3258565
      ],
      [
        103.9444098,
        1.3257336
      ],
      [
        103.9444644,
        1.3255342
      ],
      [
        103.9444824,
        1.3253978
      ],
      [
        103.9444943,
        1.3252795
      ],
      [
        103.9444962,
        1.3251754
      ],
      [
        103.9444926,
        1.3250708
      ],
      [
        103.9444749,
        1.324864
      ],
      [
        103.9444249,
        1.3245122
      ],
      [
        103.9443556,
        1.3241267
      ],
      [
        103.9442465,
        1.3234331
      ],
      [
        103.9441495,
        1.3229448
      ],
      [
        103.9440866,
        1.3225519
      ],
      [
        103.9440799,
        1.3225099
      ],
      [
        103.9440467,
        1.3220935
      ],
      [
        103.9440344,
        1.3219835
      ],
      [
        103.9440344,
        1.3218421
      ],
      [
        103.9440537,
        1.3214655
      ],
      [
        103.9440727,
        1.3212121
      ],
      [
        103.944092,
        1.3210481
      ],
      [
        103.9440978,
        1.3209989
      ],
      [
        103.9441102,
        1.3209231
      ],
      [
        103.9439884,
        1.3209037
      ],
      [
        103.9439536,
        1.3208997
      ],
      [
        103.9437831,
        1.32088
      ],
      [
        103.9436699,
        1.320866
      ],
      [
        103.9432972,
        1.32082
      ],
      [
        103.943156,
        1.3208045
      ],
      [
        103.9429833,
        1.3207855
      ],
      [
        103.9427406,
        1.3207589
      ],
      [
        103.9426893,
        1.320754
      ],
      [
        103.9426609,
        1.3207512
      ],
      [
        103.9424859,
        1.3207344
      ],
      [
        103.9423455,
        1.3207209
      ],
      [
        103.9421823,
        1.3207052
      ],
      [
        103.941818,
        1.3206748
      ],
      [
        103.9415445,
        1.3206521
      ],
      [
        103.9412532,
        1.3206296
      ],
      [
        103.9404335,
        1.3205589
      ],
      [
        103.9400263,
        1.3205257
      ],
      [
        103.9396121,
        1.3204865
      ],
      [
        103.9393376,
        1.3204597
      ],
      [
        103.9389841,
        1.3204228
      ],
      [
        103.9386806,
        1.320391
      ],
      [
        103.9385437,
        1.3203767
      ],
      [
        103.9378067,
        1.3202449
      ],
      [
        103.937726,
        1.3202276
      ],
      [
        103.9376304,
        1.3202034
      ],
      [
        103.9367367,
        1.3199742
      ],
      [
        103.9365038,
        1.3199132
      ],
      [
        103.9362281,
        1.3198274
      ],
      [
        103.9358594,
        1.3197119
      ],
      [
        103.9355036,
        1.3195947
      ],
      [
        103.9354907,
        1.3195905
      ],
      [
        103.9349473,
        1.319425
      ],
      [
        103.9349305,
        1.3194205
      ],
      [
        103.9348088,
        1.3193851
      ],
      [
        103.93386,
        1.3191102
      ],
      [
        103.9332806,
        1.3189289
      ],
      [
        103.9329518,
        1.3188357
      ],
      [
        103.9329141,
        1.318825
      ],
      [
        103.9327918,
        1.3187956
      ],
      [
        103.9326996,
        1.3187797
      ],
      [
        103.9323293,
        1.3187045
      ],
      [
        103.9320921,
        1.3186637
      ],
      [
        103.9312738,
        1.3185186
      ],
      [
        103.9306778,
        1.3184067
      ],
      [
        103.9304909,
        1.3183778
      ],
      [
        103.9303405,
        1.3183624
      ],
      [
        103.9301923,
        1.3183561
      ],
      [
        103.9300748,
        1.3183594
      ],
      [
        103.930041,
        1.3183613
      ],
      [
        103.9298691,
        1.3183813
      ],
      [
        103.9297044,
        1.3184114
      ],
      [
        103.9295473,
        1.3184528
      ],
      [
        103.9293731,
        1.3185054
      ],
      [
        103.9292064,
        1.3185729
      ],
      [
        103.9290527,
        1.3186519
      ],
      [
        103.9288941,
        1.3187434
      ],
      [
        103.9287227,
        1.3188615
      ],
      [
        103.9286293,
        1.3189387
      ],
      [
        103.9285385,
        1.3190203
      ],
      [
        103.9284531,
        1.3191072
      ],
      [
        103.9283708,
        1.3191942
      ],
      [
        103.9282708,
        1.3193175
      ],
      [
        103.9282368,
        1.3193668
      ],
      [
        103.9281737,
        1.319457
      ],
      [
        103.928158,
        1.319481
      ],
      [
        103.9281429,
        1.319505
      ],
      [
        103.9280843,
        1.319606
      ],
      [
        103.9280527,
        1.3196656
      ],
      [
        103.9280254,
        1.3197217
      ],
      [
        103.928,
        1.3197768
      ],
      [
        103.9279813,
        1.3198205
      ],
      [
        103.9279645,
        1.3198631
      ],
      [
        103.9279311,
        1.3199607
      ],
      [
        103.9279015,
        1.3200539
      ],
      [
        103.9278719,
        1.3201593
      ],
      [
        103.9278195,
        1.320435
      ],
      [
        103.9276385,
        1.3214126
      ],
      [
        103.9276046,
        1.3215968
      ],
      [
        103.9275472,
        1.3218863
      ],
      [
        103.927401,
        1.3226283
      ],
      [
        103.9273065,
        1.3230945
      ],
      [
        103.9272711,
        1.3233015
      ],
      [
        103.9272539,
        1.3233973
      ],
      [
        103.9272262,
        1.3236086
      ],
      [
        103.9272139,
        1.3237018
      ],
      [
        103.9271934,
        1.3238583
      ],
      [
        103.9270988,
        1.3245788
      ],
      [
        103.9270167,
        1.3251943
      ],
      [
        103.927008,
        1.3252704
      ],
      [
        103.9269974,
        1.3253553
      ],
      [
        103.9271353,
        1.3253656
      ],
      [
        103.9271946,
        1.3253698
      ],
      [
        103.9273465,
        1.3253795
      ],
      [
        103.9274482,
        1.3253853
      ],
      [
        103.9275428,
        1.3253862
      ],
      [
        103.9276252,
        1.3253822
      ],
      [
        103.9277196,
        1.3253771
      ],
      [
        103.9280581,
        1.3253459
      ],
      [
        103.9283411,
        1.325322
      ],
      [
        103.9284124,
        1.3253188
      ],
      [
        103.9284986,
        1.3253227
      ],
      [
        103.9286722,
        1.3253554
      ],
      [
        103.928857,
        1.3253939
      ],
      [
        103.9289667,
        1.3254191
      ],
      [
        103.9290742,
        1.3254496
      ],
      [
        103.9292107,
        1.3254998
      ],
      [
        103.9293081,
        1.3255439
      ],
      [
        103.929396,
        1.3255854
      ],
      [
        103.9295489,
        1.3256598
      ],
      [
        103.9295888,
        1.3255832
      ],
      [
        103.9296512,
        1.3254801
      ],
      [
        103.9297341,
        1.3252769
      ],
      [
        103.9298191,
        1.3249358
      ],
      [
        103.9298956,
        1.3246112
      ],
      [
        103.929609,
        1.3245425
      ],
      [
        103.9287434,
        1.3243349
      ]
    ]
  }
}