{
  "type": "Feature",
  "properties": {
    "relation": 1149306,
    "direction": "1",
    "distance": "26.7",
    "fee": "yes",
    "from": "Tampines Concourse Interchange",
    "name": "Svc 39 (Tampines Concourse Interchange → Yishun Interchange)",
    "name:en": "Svc 39 (Tampines Concourse Interchange → Yishun Interchange)",
    "network": "Land Transport Authority",
    "network:short": "LTA",
    "network:wikidata": "Q3299279",
    "network:wikipedia": "en:Land Transport Authority",
    "opening_hours": "Mo-Fr 05:25-23:30; Sa-Su 06:00-23:30",
    "operator": "Go-Ahead Singapore",
    "operator:wikidata": "Q24698874",
    "operator:wikipedia": "en:Go-Ahead Singapore",
    "public_transport:version": "2",
    "ref": "39",
    "route": "bus",
    "to": "Yishun Interchange",
    "type": "route",
    "website": "https://go-aheadsingapore.com/bus-services/"
  },
  "geometry": {
    "type": "LineString",
    "coordinates": [
      [
        103.941276,
        1.3573694
      ],
      [
        103.9412164,
        1.3574272
      ],
      [
        103.941242,
        1.3575093
      ],
      [
        103.9412984,
        1.3575763
      ],
      [
        103.9416712,
        1.3579759
      ],
      [
        103.9417329,
        1.3580328
      ],
      [
        103.9417919,
        1.3580617
      ],
      [
        103.9418489,
        1.3580503
      ],
      [
        103.9418992,
        1.3579417
      ],
      [
        103.9419669,
        1.3577708
      ],
      [
        103.9419072,
        1.3577117
      ],
      [
        103.9417964,
        1.3575878
      ],
      [
        103.9414807,
        1.3572324
      ],
      [
        103.9414459,
        1.3572291
      ],
      [
        103.9414213,
        1.3572347
      ],
      [
        103.9413163,
        1.357332
      ],
      [
        103.941276,
        1.3573694
      ],
      [
        103.9411101,
        1.3571991
      ],
      [
        103.9410492,
        1.35714
      ],
      [
        103.9409721,
        1.35707
      ],
      [
        103.9409347,
        1.3570412
      ],
      [
        103.9409021,
        1.3570132
      ],
      [
        103.9405238,
        1.3566489
      ],
      [
        103.9404769,
        1.3565989
      ],
      [
        103.9404259,
        1.3565387
      ],
      [
        103.9403864,
        1.3564675
      ],
      [
        103.9403554,
        1.356376
      ],
      [
        103.9403346,
        1.3562207
      ],
      [
        103.9403039,
        1.3559916
      ],
      [
        103.9403059,
        1.355948
      ],
      [
        103.9403254,
        1.3559091
      ],
      [
        103.9404313,
        1.3558334
      ],
      [
        103.9406676,
        1.3557565
      ],
      [
        103.9408678,
        1.3556579
      ],
      [
        103.9410112,
        1.3555616
      ],
      [
        103.9411467,
        1.3554438
      ],
      [
        103.9412702,
        1.3553007
      ],
      [
        103.9413674,
        1.3551529
      ],
      [
        103.9414553,
        1.3549631
      ],
      [
        103.9414924,
        1.3548261
      ],
      [
        103.9415177,
        1.3546497
      ],
      [
        103.9415222,
        1.3542123
      ],
      [
        103.9415231,
        1.3541292
      ],
      [
        103.9415239,
        1.3540478
      ],
      [
        103.9415246,
        1.3539771
      ],
      [
        103.9415302,
        1.3534294
      ],
      [
        103.9415421,
        1.3528238
      ],
      [
        103.9415391,
        1.3523903
      ],
      [
        103.9415416,
        1.3520443
      ],
      [
        103.9415496,
        1.351838
      ],
      [
        103.9415453,
        1.3517928
      ],
      [
        103.9415482,
        1.3516856
      ],
      [
        103.9415484,
        1.3516194
      ],
      [
        103.9415488,
        1.3514363
      ],
      [
        103.9415498,
        1.3511462
      ],
      [
        103.9415576,
        1.3508671
      ],
      [
        103.9416088,
        1.3503862
      ],
      [
        103.9416379,
        1.3502262
      ],
      [
        103.941698,
        1.3499131
      ],
      [
        103.9417115,
        1.349861
      ],
      [
        103.9417376,
        1.3497317
      ],
      [
        103.9420664,
        1.3484846
      ],
      [
        103.9421424,
        1.3481606
      ],
      [
        103.9421907,
        1.3479592
      ],
      [
        103.9422293,
        1.3477945
      ],
      [
        103.9422518,
        1.3477199
      ],
      [
        103.9422686,
        1.3476656
      ],
      [
        103.9423317,
        1.347498
      ],
      [
        103.9424193,
        1.3472606
      ],
      [
        103.9425231,
        1.3470585
      ],
      [
        103.9427155,
        1.3468688
      ],
      [
        103.9427995,
        1.3468163
      ],
      [
        103.9428992,
        1.3467822
      ],
      [
        103.942995,
        1.3467573
      ],
      [
        103.9430353,
        1.346756
      ],
      [
        103.9431197,
        1.3467534
      ],
      [
        103.9432162,
        1.3467746
      ],
      [
        103.9434183,
        1.3468644
      ],
      [
        103.9437903,
        1.3471375
      ],
      [
        103.9439692,
        1.3472688
      ],
      [
        103.9444507,
        1.3476004
      ],
      [
        103.9444863,
        1.3476197
      ],
      [
        103.9445489,
        1.3476536
      ],
      [
        103.9450125,
        1.3479043
      ],
      [
        103.9451855,
        1.3479861
      ],
      [
        103.9456957,
        1.3481909
      ],
      [
        103.9457327,
        1.348206
      ],
      [
        103.9457585,
        1.3482142
      ],
      [
        103.9474463,
        1.3487905
      ],
      [
        103.947678,
        1.3488699
      ],
      [
        103.9480843,
        1.349009
      ],
      [
        103.9482472,
        1.3490648
      ],
      [
        103.9483633,
        1.3491045
      ],
      [
        103.9485009,
        1.3491517
      ],
      [
        103.9486672,
        1.3492087
      ],
      [
        103.9493041,
        1.3494268
      ],
      [
        103.9495605,
        1.3495145
      ],
      [
        103.9497467,
        1.3495615
      ],
      [
        103.9499708,
        1.3496388
      ],
      [
        103.9507933,
        1.349925
      ],
      [
        103.9508965,
        1.349959
      ],
      [
        103.9515759,
        1.3501903
      ],
      [
        103.9519959,
        1.3503351
      ],
      [
        103.9522608,
        1.3504356
      ],
      [
        103.9525729,
        1.3505539
      ],
      [
        103.9530068,
        1.3507184
      ],
      [
        103.9532455,
        1.3508511
      ],
      [
        103.9534165,
        1.3509952
      ],
      [
        103.9538088,
        1.3514291
      ],
      [
        103.9539286,
        1.3515796
      ],
      [
        103.95401,
        1.3516838
      ],
      [
        103.954178,
        1.3518948
      ],
      [
        103.9543621,
        1.3521456
      ],
      [
        103.9544709,
        1.352294
      ],
      [
        103.9545022,
        1.3523366
      ],
      [
        103.9545506,
        1.3524091
      ],
      [
        103.9546725,
        1.3525982
      ],
      [
        103.9547961,
        1.352818
      ],
      [
        103.9548624,
        1.3529495
      ],
      [
        103.9549604,
        1.3531785
      ],
      [
        103.955026,
        1.3533527
      ],
      [
        103.9551291,
        1.3537004
      ],
      [
        103.955154,
        1.3537849
      ],
      [
        103.9551786,
        1.3538785
      ],
      [
        103.9552256,
        1.3540369
      ],
      [
        103.9552617,
        1.3541586
      ],
      [
        103.9552976,
        1.3543119
      ],
      [
        103.9553246,
        1.354458
      ],
      [
        103.9553306,
        1.3544904
      ],
      [
        103.9553618,
        1.3548654
      ],
      [
        103.9553818,
        1.3552416
      ],
      [
        103.9553836,
        1.3555177
      ],
      [
        103.9553873,
        1.3558324
      ],
      [
        103.9553988,
        1.3561251
      ],
      [
        103.9554046,
        1.3562134
      ],
      [
        103.9554027,
        1.3563141
      ],
      [
        103.955507,
        1.3563137
      ],
      [
        103.9555609,
        1.3563117
      ],
      [
        103.955869,
        1.3563001
      ],
      [
        103.9563155,
        1.3563026
      ],
      [
        103.9564418,
        1.3563053
      ],
      [
        103.9566537,
        1.3563251
      ],
      [
        103.9568226,
        1.3563559
      ],
      [
        103.9569974,
        1.3564069
      ],
      [
        103.9571264,
        1.3564553
      ],
      [
        103.9572339,
        1.3565081
      ],
      [
        103.9573701,
        1.3565825
      ],
      [
        103.9574768,
        1.3566524
      ],
      [
        103.9575664,
        1.3567205
      ],
      [
        103.9576694,
        1.3568074
      ],
      [
        103.9578177,
        1.3569406
      ],
      [
        103.9579593,
        1.3570819
      ],
      [
        103.9581836,
        1.3573057
      ],
      [
        103.9584037,
        1.3575307
      ],
      [
        103.9584666,
        1.3575996
      ],
      [
        103.9585264,
        1.3576631
      ],
      [
        103.9586756,
        1.3578232
      ],
      [
        103.9589748,
        1.3581139
      ],
      [
        103.9594679,
        1.3585917
      ],
      [
        103.9595549,
        1.3586761
      ],
      [
        103.9599373,
        1.3590326
      ],
      [
        103.960187,
        1.3592962
      ],
      [
        103.9604057,
        1.3595271
      ],
      [
        103.9604876,
        1.3596172
      ],
      [
        103.9608249,
        1.3599834
      ],
      [
        103.9609406,
        1.360109
      ],
      [
        103.9611106,
        1.3602828
      ],
      [
        103.9611525,
        1.3603249
      ],
      [
        103.9613723,
        1.3605353
      ],
      [
        103.9617726,
        1.3609413
      ],
      [
        103.9619896,
        1.3611614
      ],
      [
        103.9623079,
        1.361477
      ],
      [
        103.9624969,
        1.3616678
      ],
      [
        103.9631956,
        1.3623637
      ],
      [
        103.9636219,
        1.3627929
      ],
      [
        103.9640489,
        1.3632485
      ],
      [
        103.964077,
        1.3633348
      ],
      [
        103.9640713,
        1.3634009
      ],
      [
        103.9640567,
        1.3634606
      ],
      [
        103.9640169,
        1.3635288
      ],
      [
        103.9639508,
        1.3636365
      ],
      [
        103.9631615,
        1.3644469
      ],
      [
        103.9629624,
        1.3646484
      ],
      [
        103.9624013,
        1.3652138
      ],
      [
        103.9623731,
        1.3652428
      ],
      [
        103.9623094,
        1.3651789
      ],
      [
        103.9621606,
        1.3650261
      ],
      [
        103.9621206,
        1.3649876
      ],
      [
        103.9618619,
        1.3647391
      ],
      [
        103.9616484,
        1.3645332
      ],
      [
        103.961545,
        1.3644335
      ],
      [
        103.9614332,
        1.3643156
      ],
      [
        103.9612221,
        1.3640894
      ],
      [
        103.961139,
        1.3640004
      ],
      [
        103.960941,
        1.3638025
      ],
      [
        103.9608929,
        1.363765
      ],
      [
        103.9608438,
        1.3637359
      ],
      [
        103.9607958,
        1.363712
      ],
      [
        103.9607464,
        1.363694
      ],
      [
        103.9606538,
        1.3636659
      ],
      [
        103.960572,
        1.3636514
      ],
      [
        103.9604849,
        1.3636511
      ],
      [
        103.9603601,
        1.3636619
      ],
      [
        103.9601979,
        1.363708
      ],
      [
        103.9601418,
        1.36374
      ],
      [
        103.9600824,
        1.3637855
      ],
      [
        103.9599837,
        1.3638627
      ],
      [
        103.9596084,
        1.3641545
      ],
      [
        103.9591599,
        1.3644983
      ],
      [
        103.9590324,
        1.3645937
      ],
      [
        103.958863,
        1.3647133
      ],
      [
        103.9585852,
        1.3649095
      ],
      [
        103.9585208,
        1.364955
      ],
      [
        103.9580223,
        1.3652754
      ],
      [
        103.9579878,
        1.3652954
      ],
      [
        103.9579244,
        1.3653319
      ],
      [
        103.9578659,
        1.365363
      ],
      [
        103.9579024,
        1.3654284
      ],
      [
        103.9579345,
        1.3654832
      ],
      [
        103.9581474,
        1.3657795
      ],
      [
        103.9585674,
        1.3663761
      ],
      [
        103.9587454,
        1.3666289
      ],
      [
        103.9590175,
        1.3670096
      ],
      [
        103.9590995,
        1.3671276
      ],
      [
        103.9593997,
        1.3675707
      ],
      [
        103.959485,
        1.3677015
      ],
      [
        103.9595385,
        1.3677836
      ],
      [
        103.9594772,
        1.3678228
      ],
      [
        103.959261,
        1.3679611
      ],
      [
        103.9590411,
        1.3680818
      ],
      [
        103.9587796,
        1.3682224
      ],
      [
        103.9585807,
        1.3683079
      ],
      [
        103.95843,
        1.3683727
      ],
      [
        103.9581893,
        1.3684788
      ],
      [
        103.9580568,
        1.3685372
      ],
      [
        103.9577383,
        1.3686494
      ],
      [
        103.9576084,
        1.3686955
      ],
      [
        103.9575265,
        1.3687245
      ],
      [
        103.9574965,
        1.3687333
      ],
      [
        103.9570193,
        1.3688679
      ],
      [
        103.9569822,
        1.3688771
      ],
      [
        103.9568806,
        1.3689094
      ],
      [
        103.9568115,
        1.3689232
      ],
      [
        103.9566553,
        1.3689539
      ],
      [
        103.9562927,
        1.3690452
      ],
      [
        103.9559514,
        1.3691069
      ],
      [
        103.955602,
        1.369155
      ],
      [
        103.9552009,
        1.3692008
      ],
      [
        103.9548322,
        1.3692155
      ],
      [
        103.9546422,
        1.3691751
      ],
      [
        103.954447,
        1.3691127
      ],
      [
        103.9542942,
        1.3690853
      ],
      [
        103.9539486,
        1.3690827
      ],
      [
        103.9530339,
        1.3690857
      ],
      [
        103.9527563,
        1.3690976
      ],
      [
        103.9524029,
        1.3691515
      ],
      [
        103.9521982,
        1.3691811
      ],
      [
        103.9519615,
        1.3692275
      ],
      [
        103.9518292,
        1.3692674
      ],
      [
        103.9516841,
        1.3693082
      ],
      [
        103.951214,
        1.3694394
      ],
      [
        103.9510826,
        1.3694901
      ],
      [
        103.9508477,
        1.36957
      ],
      [
        103.9506387,
        1.3696584
      ],
      [
        103.9503687,
        1.369772
      ],
      [
        103.9501331,
        1.3698894
      ],
      [
        103.9499331,
        1.3700069
      ],
      [
        103.9497288,
        1.3701114
      ],
      [
        103.9495345,
        1.3702261
      ],
      [
        103.9492235,
        1.3704099
      ],
      [
        103.948993,
        1.3705257
      ],
      [
        103.9489205,
        1.3705546
      ],
      [
        103.9488462,
        1.3705975
      ],
      [
        103.9488921,
        1.3706778
      ],
      [
        103.9489507,
        1.370796
      ],
      [
        103.9489956,
        1.3710094
      ],
      [
        103.9490258,
        1.3712896
      ],
      [
        103.9490699,
        1.3714916
      ],
      [
        103.9490975,
        1.3715701
      ],
      [
        103.9491738,
        1.3717474
      ],
      [
        103.9492445,
        1.3719474
      ],
      [
        103.9492687,
        1.3720213
      ],
      [
        103.9492068,
        1.3720361
      ],
      [
        103.9489428,
        1.3721207
      ],
      [
        103.9489038,
        1.3721326
      ],
      [
        103.9487912,
        1.3721755
      ],
      [
        103.9486711,
        1.3722341
      ],
      [
        103.9485827,
        1.3722825
      ],
      [
        103.9482599,
        1.3724774
      ],
      [
        103.9478927,
        1.3727124
      ],
      [
        103.947858,
        1.3727104
      ],
      [
        103.9478029,
        1.3727001
      ],
      [
        103.9476935,
        1.3725978
      ],
      [
        103.9475542,
        1.3724961
      ],
      [
        103.9473769,
        1.372272
      ],
      [
        103.9473094,
        1.3721271
      ],
      [
        103.9472937,
        1.3720781
      ],
      [
        103.9472771,
        1.3720224
      ],
      [
        103.9471564,
        1.3720646
      ],
      [
        103.9470583,
        1.3720994
      ],
      [
        103.9470222,
        1.3721087
      ],
      [
        103.9466985,
        1.3722431
      ],
      [
        103.9457782,
        1.3726165
      ],
      [
        103.9455688,
        1.3727207
      ],
      [
        103.9454157,
        1.3727883
      ],
      [
        103.9451998,
        1.3728595
      ],
      [
        103.9450719,
        1.3729134
      ],
      [
        103.9450335,
        1.3729296
      ],
      [
        103.9449494,
        1.3729628
      ],
      [
        103.9448801,
        1.3729917
      ],
      [
        103.9447973,
        1.3730261
      ],
      [
        103.943947,
        1.3733553
      ],
      [
        103.9436755,
        1.3734652
      ],
      [
        103.9431436,
        1.3736808
      ],
      [
        103.9425441,
        1.3739212
      ],
      [
        103.9424084,
        1.3739756
      ],
      [
        103.9420971,
        1.3741156
      ],
      [
        103.9419358,
        1.3742086
      ],
      [
        103.9418494,
        1.3742646
      ],
      [
        103.9417615,
        1.3743226
      ],
      [
        103.941645,
        1.3744023
      ],
      [
        103.9413253,
        1.3746482
      ],
      [
        103.9411319,
        1.3748132
      ],
      [
        103.9410641,
        1.3748553
      ],
      [
        103.9409951,
        1.3748979
      ],
      [
        103.9409368,
        1.3749369
      ],
      [
        103.9407872,
        1.3750435
      ],
      [
        103.9406411,
        1.3751523
      ],
      [
        103.9402693,
        1.3754257
      ],
      [
        103.9399627,
        1.3756555
      ],
      [
        103.9398881,
        1.3757115
      ],
      [
        103.9396852,
        1.3758636
      ],
      [
        103.9389317,
        1.3764284
      ],
      [
        103.9377907,
        1.3772863
      ],
      [
        103.9370469,
        1.3778433
      ],
      [
        103.9369611,
        1.3779071
      ],
      [
        103.9368535,
        1.3779886
      ],
      [
        103.9362752,
        1.3784339
      ],
      [
        103.9360348,
        1.3786076
      ],
      [
        103.9357572,
        1.3788091
      ],
      [
        103.9355647,
        1.3789442
      ],
      [
        103.9355312,
        1.3789695
      ],
      [
        103.9353922,
        1.3790794
      ],
      [
        103.9351788,
        1.3792405
      ],
      [
        103.935016,
        1.3793674
      ],
      [
        103.9345937,
        1.3796869
      ],
      [
        103.9344064,
        1.3798211
      ],
      [
        103.9343472,
        1.3798614
      ],
      [
        103.9342421,
        1.3799314
      ],
      [
        103.9341666,
        1.3799817
      ],
      [
        103.9339849,
        1.3801097
      ],
      [
        103.9337959,
        1.3802492
      ],
      [
        103.9334615,
        1.3804962
      ],
      [
        103.9331311,
        1.3807583
      ],
      [
        103.9330783,
        1.3807916
      ],
      [
        103.9330186,
        1.3808296
      ],
      [
        103.9327987,
        1.3809689
      ],
      [
        103.9324764,
        1.3811395
      ],
      [
        103.932292,
        1.3812386
      ],
      [
        103.9321416,
        1.3813138
      ],
      [
        103.932009,
        1.3813801
      ],
      [
        103.9319792,
        1.3813935
      ],
      [
        103.9317942,
        1.3814614
      ],
      [
        103.9312886,
        1.3816796
      ],
      [
        103.9309868,
        1.3818156
      ],
      [
        103.9305714,
        1.3819927
      ],
      [
        103.9301233,
        1.3821935
      ],
      [
        103.9292024,
        1.3826335
      ],
      [
        103.9282698,
        1.3830362
      ],
      [
        103.9274551,
        1.3833768
      ],
      [
        103.9270259,
        1.3835724
      ],
      [
        103.9267699,
        1.3837107
      ],
      [
        103.9265055,
        1.3838687
      ],
      [
        103.926218,
        1.3840802
      ],
      [
        103.9259929,
        1.3842694
      ],
      [
        103.9257744,
        1.3844859
      ],
      [
        103.9255437,
        1.3847675
      ],
      [
        103.9254311,
        1.3849203
      ],
      [
        103.9253104,
        1.3851
      ],
      [
        103.9251548,
        1.3853493
      ],
      [
        103.9249617,
        1.385714
      ],
      [
        103.9246645,
        1.3862439
      ],
      [
        103.9245474,
        1.3864819
      ],
      [
        103.924269,
        1.3870602
      ],
      [
        103.9240148,
        1.3875883
      ],
      [
        103.9239216,
        1.387769
      ],
      [
        103.9239235,
        1.3878723
      ],
      [
        103.9238606,
        1.3880146
      ],
      [
        103.9238179,
        1.3881073
      ],
      [
        103.9237136,
        1.3883014
      ],
      [
        103.923667,
        1.3883892
      ],
      [
        103.9236091,
        1.3885097
      ],
      [
        103.92357,
        1.3885913
      ],
      [
        103.9232441,
        1.3892365
      ],
      [
        103.9231053,
        1.3895079
      ],
      [
        103.9228911,
        1.3899859
      ],
      [
        103.9226958,
        1.390421
      ],
      [
        103.9225247,
        1.3907183
      ],
      [
        103.922322,
        1.3909906
      ],
      [
        103.9220464,
        1.3913333
      ],
      [
        103.921648,
        1.3917649
      ],
      [
        103.9213016,
        1.3920539
      ],
      [
        103.9198783,
        1.3930958
      ],
      [
        103.9186343,
        1.3939661
      ],
      [
        103.9183058,
        1.3942026
      ],
      [
        103.917736,
        1.3945984
      ],
      [
        103.9174408,
        1.3947419
      ],
      [
        103.9172008,
        1.394941
      ],
      [
        103.9169969,
        1.3952136
      ],
      [
        103.9169556,
        1.3952777
      ],
      [
        103.9169117,
        1.3953385
      ],
      [
        103.9168191,
        1.3954951
      ],
      [
        103.9166421,
        1.3957797
      ],
      [
        103.9164173,
        1.3960358
      ],
      [
        103.9161724,
        1.3961926
      ],
      [
        103.9155418,
        1.3963788
      ],
      [
        103.9153515,
        1.3964351
      ],
      [
        103.9151659,
        1.396546
      ],
      [
        103.9149132,
        1.396723
      ],
      [
        103.9143477,
        1.3971375
      ],
      [
        103.9138013,
        1.3974184
      ],
      [
        103.9135175,
        1.3976194
      ],
      [
        103.9132109,
        1.3978237
      ],
      [
        103.9130093,
        1.3979801
      ],
      [
        103.9129379,
        1.3980309
      ],
      [
        103.9128445,
        1.3980923
      ],
      [
        103.9128072,
        1.3981168
      ],
      [
        103.912612,
        1.3982546
      ],
      [
        103.9110447,
        1.3993851
      ],
      [
        103.910597,
        1.3997045
      ],
      [
        103.9102403,
        1.3999723
      ],
      [
        103.9098166,
        1.4002906
      ],
      [
        103.9096852,
        1.4003773
      ],
      [
        103.9095672,
        1.4004617
      ],
      [
        103.90948,
        1.4005201
      ],
      [
        103.9092798,
        1.4006592
      ],
      [
        103.9090972,
        1.4007989
      ],
      [
        103.9090579,
        1.4008299
      ],
      [
        103.908953,
        1.4009033
      ],
      [
        103.9089148,
        1.4009306
      ],
      [
        103.9087462,
        1.4010518
      ],
      [
        103.9082113,
        1.4014434
      ],
      [
        103.9076905,
        1.4018223
      ],
      [
        103.9073659,
        1.4020244
      ],
      [
        103.9069848,
        1.4023043
      ],
      [
        103.9066905,
        1.4025138
      ],
      [
        103.9063737,
        1.4027457
      ],
      [
        103.9063242,
        1.4027819
      ],
      [
        103.9062096,
        1.4028509
      ],
      [
        103.9061309,
        1.4029033
      ],
      [
        103.9059567,
        1.4030193
      ],
      [
        103.9056054,
        1.4032395
      ],
      [
        103.9052554,
        1.403459
      ],
      [
        103.9048547,
        1.4037063
      ],
      [
        103.9046099,
        1.4038621
      ],
      [
        103.9045247,
        1.4039163
      ],
      [
        103.9044693,
        1.4039491
      ],
      [
        103.9040647,
        1.4041416
      ],
      [
        103.9037486,
        1.4043079
      ],
      [
        103.9037007,
        1.4043292
      ],
      [
        103.9036257,
        1.404364
      ],
      [
        103.903782,
        1.4047135
      ],
      [
        103.9038179,
        1.404802
      ],
      [
        103.903837,
        1.4049031
      ],
      [
        103.9038442,
        1.4049641
      ],
      [
        103.9038164,
        1.4050294
      ],
      [
        103.9037849,
        1.4050765
      ],
      [
        103.903725,
        1.405123
      ],
      [
        103.9036622,
        1.4051488
      ],
      [
        103.9035716,
        1.4051532
      ],
      [
        103.9032902,
        1.4049956
      ],
      [
        103.9030541,
        1.4048996
      ],
      [
        103.9028021,
        1.4049064
      ],
      [
        103.9025455,
        1.405022
      ],
      [
        103.9023278,
        1.4051435
      ],
      [
        103.9021238,
        1.4052057
      ],
      [
        103.9015282,
        1.4053436
      ],
      [
        103.9011864,
        1.4054458
      ],
      [
        103.9009121,
        1.4056372
      ],
      [
        103.900802,
        1.4057792
      ],
      [
        103.9007147,
        1.4058694
      ],
      [
        103.900652,
        1.4059475
      ],
      [
        103.9005933,
        1.4060067
      ],
      [
        103.9004046,
        1.4061368
      ],
      [
        103.9001713,
        1.4062017
      ],
      [
        103.8999808,
        1.4062452
      ],
      [
        103.8997105,
        1.4062796
      ],
      [
        103.899444,
        1.4062918
      ],
      [
        103.8992296,
        1.4062959
      ],
      [
        103.8990805,
        1.4063065
      ],
      [
        103.8990084,
        1.4063162
      ],
      [
        103.8988868,
        1.4063296
      ],
      [
        103.8985948,
        1.4063681
      ],
      [
        103.8984289,
        1.4063677
      ],
      [
        103.8983219,
        1.4063669
      ],
      [
        103.8980464,
        1.406355
      ],
      [
        103.8978872,
        1.4062909
      ],
      [
        103.8978056,
        1.4062494
      ],
      [
        103.8977709,
        1.4062261
      ],
      [
        103.8977245,
        1.4061768
      ],
      [
        103.897594,
        1.4060407
      ],
      [
        103.8974699,
        1.4056817
      ],
      [
        103.8971664,
        1.4046083
      ],
      [
        103.8970605,
        1.4042545
      ],
      [
        103.8970141,
        1.4040422
      ],
      [
        103.896967,
        1.4038162
      ],
      [
        103.8969294,
        1.4036326
      ],
      [
        103.896891,
        1.4034336
      ],
      [
        103.8968719,
        1.4033553
      ],
      [
        103.8968509,
        1.403267
      ],
      [
        103.8968347,
        1.4032003
      ],
      [
        103.8967898,
        1.4029922
      ],
      [
        103.8966328,
        1.4020675
      ],
      [
        103.8965874,
        1.4017879
      ],
      [
        103.8964918,
        1.4012468
      ],
      [
        103.8964498,
        1.4010544
      ],
      [
        103.896421,
        1.4009044
      ],
      [
        103.8962584,
        1.4005
      ],
      [
        103.8962338,
        1.4004388
      ],
      [
        103.8960573,
        1.3999934
      ],
      [
        103.8959023,
        1.39955
      ],
      [
        103.8958549,
        1.3994124
      ],
      [
        103.8957329,
        1.3994308
      ],
      [
        103.8956327,
        1.3994459
      ],
      [
        103.8952206,
        1.3995654
      ],
      [
        103.8949572,
        1.3996373
      ],
      [
        103.894281,
        1.3998364
      ],
      [
        103.892435,
        1.4003016
      ],
      [
        103.8921205,
        1.4003965
      ],
      [
        103.8907603,
        1.4006064
      ],
      [
        103.8887295,
        1.4008946
      ],
      [
        103.8876394,
        1.4010415
      ],
      [
        103.8864407,
        1.401145
      ],
      [
        103.8858461,
        1.4011964
      ],
      [
        103.8847794,
        1.4012562
      ],
      [
        103.8830305,
        1.4012793
      ],
      [
        103.8822846,
        1.4012599
      ],
      [
        103.8820929,
        1.4011928
      ],
      [
        103.8815729,
        1.401135
      ],
      [
        103.8804017,
        1.4009789
      ],
      [
        103.8770682,
        1.4009272
      ],
      [
        103.8759107,
        1.4008778
      ],
      [
        103.8747763,
        1.400882
      ],
      [
        103.8743239,
        1.4008474
      ],
      [
        103.8738173,
        1.4008023
      ],
      [
        103.8736045,
        1.4007606
      ],
      [
        103.8731649,
        1.4006844
      ],
      [
        103.8729397,
        1.400665
      ],
      [
        103.8727739,
        1.400646
      ],
      [
        103.8726031,
        1.4006386
      ],
      [
        103.872425,
        1.4006297
      ],
      [
        103.8723863,
        1.4006318
      ],
      [
        103.872238,
        1.4006451
      ],
      [
        103.872234,
        1.4008123
      ],
      [
        103.8722355,
        1.4014774
      ],
      [
        103.8722349,
        1.401583
      ],
      [
        103.8722315,
        1.4016554
      ],
      [
        103.8722195,
        1.4017337
      ],
      [
        103.8721876,
        1.4018411
      ],
      [
        103.8721413,
        1.4019254
      ],
      [
        103.8720643,
        1.4019756
      ],
      [
        103.8719753,
        1.4019908
      ],
      [
        103.8717207,
        1.4019594
      ],
      [
        103.8716598,
        1.4019519
      ],
      [
        103.8715843,
        1.4019631
      ],
      [
        103.8715195,
        1.4020085
      ],
      [
        103.8714957,
        1.4020561
      ],
      [
        103.8714771,
        1.4020934
      ],
      [
        103.8714487,
        1.4021784
      ],
      [
        103.8714449,
        1.4022597
      ],
      [
        103.8714602,
        1.4023383
      ],
      [
        103.8714888,
        1.4023686
      ],
      [
        103.8715558,
        1.402426
      ],
      [
        103.8716325,
        1.4024513
      ],
      [
        103.8716679,
        1.4024472
      ],
      [
        103.8717146,
        1.4024418
      ],
      [
        103.8717782,
        1.402417
      ],
      [
        103.8719773,
        1.402246
      ],
      [
        103.872094,
        1.4020921
      ],
      [
        103.8721967,
        1.4020435
      ],
      [
        103.8722796,
        1.4019897
      ],
      [
        103.8723395,
        1.4019117
      ],
      [
        103.8723583,
        1.4018551
      ],
      [
        103.8723587,
        1.4016548
      ],
      [
        103.8723587,
        1.4015877
      ],
      [
        103.8723622,
        1.401476
      ],
      [
        103.872385,
        1.4008164
      ],
      [
        103.8723863,
        1.4006318
      ],
      [
        103.872238,
        1.4006451
      ],
      [
        103.872178,
        1.4006509
      ],
      [
        103.8720501,
        1.4006632
      ],
      [
        103.8709924,
        1.4007461
      ],
      [
        103.870441,
        1.4007437
      ],
      [
        103.8697839,
        1.4006902
      ],
      [
        103.8694426,
        1.4006526
      ],
      [
        103.8692409,
        1.4006268
      ],
      [
        103.8690938,
        1.400608
      ],
      [
        103.8690136,
        1.4005977
      ],
      [
        103.8688766,
        1.4005802
      ],
      [
        103.8688005,
        1.4005704
      ],
      [
        103.8685585,
        1.4005525
      ],
      [
        103.8678818,
        1.4005292
      ],
      [
        103.8675745,
        1.4005247
      ],
      [
        103.8664703,
        1.4006273
      ],
      [
        103.865128,
        1.400689
      ],
      [
        103.8647532,
        1.4007062
      ],
      [
        103.8634936,
        1.4007703
      ],
      [
        103.8623712,
        1.4007432
      ],
      [
        103.8610434,
        1.4007382
      ],
      [
        103.8604561,
        1.4007364
      ],
      [
        103.8598665,
        1.4006967
      ],
      [
        103.8593467,
        1.4006344
      ],
      [
        103.8590116,
        1.4005748
      ],
      [
        103.8586307,
        1.4004877
      ],
      [
        103.857988,
        1.4003027
      ],
      [
        103.8572001,
        1.3999897
      ],
      [
        103.8569422,
        1.3998672
      ],
      [
        103.8566679,
        1.3997329
      ],
      [
        103.8564875,
        1.399648
      ],
      [
        103.8562652,
        1.3995274
      ],
      [
        103.8558686,
        1.3992939
      ],
      [
        103.8557543,
        1.3992133
      ],
      [
        103.8554442,
        1.3989904
      ],
      [
        103.8550867,
        1.3986809
      ],
      [
        103.8547958,
        1.3983957
      ],
      [
        103.8544805,
        1.3980813
      ],
      [
        103.854095,
        1.3977147
      ],
      [
        103.8539757,
        1.3975779
      ],
      [
        103.8538335,
        1.3974184
      ],
      [
        103.8535857,
        1.3971605
      ],
      [
        103.8532577,
        1.3968725
      ],
      [
        103.8528535,
        1.3966644
      ],
      [
        103.8524617,
        1.396504
      ],
      [
        103.8520798,
        1.3964283
      ],
      [
        103.8516949,
        1.39637
      ],
      [
        103.8502126,
        1.3962903
      ],
      [
        103.8495177,
        1.3962851
      ],
      [
        103.8489116,
        1.396328
      ],
      [
        103.8485411,
        1.3963569
      ],
      [
        103.8481724,
        1.3964187
      ],
      [
        103.8469872,
        1.3964856
      ],
      [
        103.8466464,
        1.3964966
      ],
      [
        103.8454794,
        1.3965124
      ],
      [
        103.8443778,
        1.3964631
      ],
      [
        103.8432771,
        1.3963676
      ],
      [
        103.8425274,
        1.3962836
      ],
      [
        103.8417778,
        1.3961479
      ],
      [
        103.8410006,
        1.3959943
      ],
      [
        103.8402249,
        1.3958174
      ],
      [
        103.8398896,
        1.3957317
      ],
      [
        103.8387061,
        1.3954127
      ],
      [
        103.8382083,
        1.3952974
      ],
      [
        103.837097,
        1.3950181
      ],
      [
        103.837006,
        1.3949351
      ],
      [
        103.8369376,
        1.3949036
      ],
      [
        103.8367109,
        1.3948295
      ],
      [
        103.8365805,
        1.394782
      ],
      [
        103.8358628,
        1.3945455
      ],
      [
        103.8355422,
        1.3944325
      ],
      [
        103.8352373,
        1.3942861
      ],
      [
        103.8349472,
        1.3941066
      ],
      [
        103.8345842,
        1.3938273
      ],
      [
        103.8343637,
        1.3936195
      ],
      [
        103.8340587,
        1.3934446
      ],
      [
        103.8339374,
        1.3933827
      ],
      [
        103.8338138,
        1.3933345
      ],
      [
        103.8336774,
        1.3932998
      ],
      [
        103.833558,
        1.3932888
      ],
      [
        103.8334363,
        1.3932874
      ],
      [
        103.8332759,
        1.3933071
      ],
      [
        103.8331091,
        1.3933514
      ],
      [
        103.8329643,
        1.3934034
      ],
      [
        103.8328303,
        1.3934724
      ],
      [
        103.8326887,
        1.3935524
      ],
      [
        103.832533,
        1.3936589
      ],
      [
        103.8324233,
        1.3937616
      ],
      [
        103.8320389,
        1.3943053
      ],
      [
        103.8319039,
        1.3944964
      ],
      [
        103.8317646,
        1.3946715
      ],
      [
        103.8316916,
        1.3947679
      ],
      [
        103.8316093,
        1.3948618
      ],
      [
        103.8314821,
        1.3949905
      ],
      [
        103.8313305,
        1.3951253
      ],
      [
        103.8311622,
        1.3952625
      ],
      [
        103.8309939,
        1.395391
      ],
      [
        103.8308134,
        1.3955314
      ],
      [
        103.8306646,
        1.3956538
      ],
      [
        103.8305132,
        1.395788
      ],
      [
        103.8302789,
        1.3960112
      ],
      [
        103.8301561,
        1.3961354
      ],
      [
        103.8300406,
        1.3962668
      ],
      [
        103.8299192,
        1.3964054
      ],
      [
        103.8298195,
        1.3965435
      ],
      [
        103.8297015,
        1.3967115
      ],
      [
        103.8295328,
        1.3969976
      ],
      [
        103.8294137,
        1.3971275
      ],
      [
        103.8293024,
        1.3972473
      ],
      [
        103.8290917,
        1.3975354
      ],
      [
        103.8289774,
        1.3976993
      ],
      [
        103.8288603,
        1.3978789
      ],
      [
        103.8287535,
        1.3980589
      ],
      [
        103.8286471,
        1.3982444
      ],
      [
        103.8283659,
        1.3987747
      ],
      [
        103.8282306,
        1.3990495
      ],
      [
        103.8281238,
        1.3992906
      ],
      [
        103.8280024,
        1.3995737
      ],
      [
        103.8278616,
        1.3999528
      ],
      [
        103.8278609,
        1.3999547
      ],
      [
        103.8278441,
        1.4000023
      ],
      [
        103.8276541,
        1.4006635
      ],
      [
        103.827598,
        1.4009088
      ],
      [
        103.8274822,
        1.4016359
      ],
      [
        103.8274092,
        1.4020476
      ],
      [
        103.8274003,
        1.4022623
      ],
      [
        103.8273746,
        1.4026415
      ],
      [
        103.8273689,
        1.4030955
      ],
      [
        103.8273698,
        1.4036876
      ],
      [
        103.8274849,
        1.4049479
      ],
      [
        103.8279124,
        1.4064097
      ],
      [
        103.828106,
        1.4070365
      ],
      [
        103.8281908,
        1.4071874
      ],
      [
        103.8288102,
        1.4084215
      ],
      [
        103.8291144,
        1.4090525
      ],
      [
        103.8292699,
        1.4094003
      ],
      [
        103.8294767,
        1.4098618
      ],
      [
        103.8295485,
        1.4100111
      ],
      [
        103.8296182,
        1.4101559
      ],
      [
        103.8296812,
        1.4102674
      ],
      [
        103.829753,
        1.4104112
      ],
      [
        103.8301188,
        1.4111338
      ],
      [
        103.8304448,
        1.4117533
      ],
      [
        103.8306422,
        1.4121137
      ],
      [
        103.8311615,
        1.4131266
      ],
      [
        103.8311862,
        1.4131748
      ],
      [
        103.8313094,
        1.4134326
      ],
      [
        103.8314878,
        1.4138058
      ],
      [
        103.8315738,
        1.4139673
      ],
      [
        103.8320444,
        1.4148946
      ],
      [
        103.8323012,
        1.4154148
      ],
      [
        103.832446,
        1.4156935
      ],
      [
        103.8326695,
        1.4161743
      ],
      [
        103.832791,
        1.4164214
      ],
      [
        103.832972,
        1.4167758
      ],
      [
        103.8331226,
        1.4170784
      ],
      [
        103.8331932,
        1.4172202
      ],
      [
        103.8332795,
        1.4173937
      ],
      [
        103.8333498,
        1.4175349
      ],
      [
        103.8336491,
        1.4181192
      ],
      [
        103.8336797,
        1.4181753
      ],
      [
        103.8337263,
        1.4182621
      ],
      [
        103.8337661,
        1.418343
      ],
      [
        103.8339516,
        1.4187248
      ],
      [
        103.8345783,
        1.4200567
      ],
      [
        103.8347244,
        1.4205195
      ],
      [
        103.8348158,
        1.4210334
      ],
      [
        103.8348431,
        1.4212505
      ],
      [
        103.8349194,
        1.4221662
      ],
      [
        103.8349292,
        1.4225336
      ],
      [
        103.8349293,
        1.4227833
      ],
      [
        103.8349336,
        1.4228355
      ],
      [
        103.8349407,
        1.4229603
      ],
      [
        103.8349452,
        1.4230272
      ],
      [
        103.8349595,
        1.42324
      ],
      [
        103.8350058,
        1.4237671
      ],
      [
        103.8350339,
        1.4240916
      ],
      [
        103.8350655,
        1.4247049
      ],
      [
        103.8350669,
        1.4247316
      ],
      [
        103.8350704,
        1.4248212
      ],
      [
        103.8350717,
        1.4248739
      ],
      [
        103.8351006,
        1.4260113
      ],
      [
        103.8351146,
        1.4262553
      ],
      [
        103.8351412,
        1.4267538
      ],
      [
        103.8351412,
        1.4267538
      ],
      [
        103.835413,
        1.4267375
      ],
      [
        103.8352648,
        1.426744
      ],
      [
        103.8354295,
        1.4267369
      ],
      [
        103.8356667,
        1.4281367
      ],
      [
        103.8358401,
        1.4281287
      ],
      [
        103.8360252,
        1.4281252
      ],
      [
        103.836179,
        1.428124
      ]
    ]
  }
}