{
  "type": "Feature",
  "properties": {
    "relation": 17646194,
    "direction": "2",
    "distance": "7.9",
    "fee": "yes",
    "from": "Blk 220C",
    "name": "Svc 39B (Blk 220C → Pasir Ris Station Exit B)",
    "name:en": "Svc 39B (Blk 220C → Pasir Ris Station Exit B)",
    "network": "Land Transport Authority",
    "network:short": "LTA",
    "network:wikidata": "Q3299279",
    "network:wikipedia": "en:Land Transport Authority",
    "operator": "Go-Ahead Singapore",
    "operator:wikidata": "Q24698874",
    "operator:wikipedia": "en:Go-Ahead Singapore",
    "public_transport:version": "2",
    "ref": "39B",
    "route": "bus",
    "to": "Pasir Ris Station Exit B",
    "type": "route",
    "website": "https://go-aheadsingapore.com/bus-services/"
  },
  "geometry": {
    "type": "LineString",
    "coordinates": [
      [
        103.8962737,
        1.400972
      ],
      [
        103.8963235,
        1.4011694
      ],
      [
        103.8964902,
        1.4021816
      ],
      [
        103.896548,
        1.4024816
      ],
      [
        103.8965953,
        1.4027301
      ],
      [
        103.8966505,
        1.4030304
      ],
      [
        103.8966969,
        1.4032199
      ],
      [
        103.8967114,
        1.4032876
      ],
      [
        103.8967296,
        1.4033713
      ],
      [
        103.8967443,
        1.4034403
      ],
      [
        103.8967707,
        1.4036016
      ],
      [
        103.8968366,
        1.4040333
      ],
      [
        103.8969883,
        1.4046381
      ],
      [
        103.8971499,
        1.4052562
      ],
      [
        103.8972228,
        1.4054989
      ],
      [
        103.8972826,
        1.4057066
      ],
      [
        103.8973378,
        1.4059007
      ],
      [
        103.8974554,
        1.4062814
      ],
      [
        103.8974777,
        1.4063536
      ],
      [
        103.8975245,
        1.4064733
      ],
      [
        103.8977348,
        1.4064775
      ],
      [
        103.89781,
        1.4064804
      ],
      [
        103.8981287,
        1.4064895
      ],
      [
        103.898603,
        1.4064403
      ],
      [
        103.8989603,
        1.4063878
      ],
      [
        103.8990288,
        1.4063818
      ],
      [
        103.8992139,
        1.4063629
      ],
      [
        103.8994252,
        1.4063601
      ],
      [
        103.8996362,
        1.4063517
      ],
      [
        103.8999473,
        1.4063406
      ],
      [
        103.9000943,
        1.4063195
      ],
      [
        103.9002389,
        1.4062819
      ],
      [
        103.9003529,
        1.4062525
      ],
      [
        103.9004375,
        1.406225
      ],
      [
        103.9006302,
        1.406106
      ],
      [
        103.9006764,
        1.406047
      ],
      [
        103.9007439,
        1.4059689
      ],
      [
        103.9008264,
        1.4058797
      ],
      [
        103.9009095,
        1.4057919
      ],
      [
        103.9010553,
        1.4056455
      ],
      [
        103.9011851,
        1.4055552
      ],
      [
        103.9012379,
        1.4055236
      ],
      [
        103.9012699,
        1.4055076
      ],
      [
        103.901484,
        1.4054403
      ],
      [
        103.9017381,
        1.405381
      ],
      [
        103.9017954,
        1.4053677
      ],
      [
        103.9021968,
        1.4052696
      ],
      [
        103.9023689,
        1.4052176
      ],
      [
        103.9024838,
        1.4051538
      ],
      [
        103.9028184,
        1.4049933
      ],
      [
        103.903,
        1.4049912
      ],
      [
        103.903186,
        1.4050417
      ],
      [
        103.9035565,
        1.4052544
      ],
      [
        103.9036562,
        1.4052901
      ],
      [
        103.9037625,
        1.4053064
      ],
      [
        103.9039172,
        1.4052672
      ],
      [
        103.9040447,
        1.4052158
      ],
      [
        103.9041054,
        1.4051825
      ],
      [
        103.9041757,
        1.4051389
      ],
      [
        103.9041299,
        1.4050732
      ],
      [
        103.9040113,
        1.4048963
      ],
      [
        103.9039263,
        1.4047832
      ],
      [
        103.9038565,
        1.4046759
      ],
      [
        103.9039153,
        1.4046405
      ],
      [
        103.9042177,
        1.4043294
      ],
      [
        103.9044553,
        1.404106
      ],
      [
        103.9045947,
        1.4039928
      ],
      [
        103.9048992,
        1.4038111
      ],
      [
        103.905179,
        1.4036215
      ],
      [
        103.9054338,
        1.4034671
      ],
      [
        103.9055952,
        1.4033781
      ],
      [
        103.9058865,
        1.4031907
      ],
      [
        103.9061751,
        1.4030206
      ],
      [
        103.9062514,
        1.4029677
      ],
      [
        103.9063671,
        1.4028932
      ],
      [
        103.9064201,
        1.4028613
      ],
      [
        103.9065893,
        1.4027593
      ],
      [
        103.9068528,
        1.4025747
      ],
      [
        103.9071187,
        1.4023885
      ],
      [
        103.9072405,
        1.4023032
      ],
      [
        103.9077716,
        1.40193
      ],
      [
        103.9083671,
        1.4014838
      ],
      [
        103.9085667,
        1.4013343
      ],
      [
        103.9088331,
        1.4011585
      ],
      [
        103.9089952,
        1.4010455
      ],
      [
        103.9090336,
        1.4010187
      ],
      [
        103.909135,
        1.4009476
      ],
      [
        103.909179,
        1.4009171
      ],
      [
        103.9093751,
        1.4007812
      ],
      [
        103.9098412,
        1.4004414
      ],
      [
        103.909965,
        1.4003511
      ],
      [
        103.9105697,
        1.3999102
      ],
      [
        103.9106753,
        1.3998332
      ],
      [
        103.9109904,
        1.3996086
      ],
      [
        103.9114342,
        1.3992919
      ],
      [
        103.9115393,
        1.3992137
      ],
      [
        103.9121032,
        1.398794
      ],
      [
        103.912406,
        1.3985878
      ],
      [
        103.9129057,
        1.3982444
      ],
      [
        103.9129423,
        1.3982171
      ],
      [
        103.913025,
        1.398153
      ],
      [
        103.9130814,
        1.3981119
      ],
      [
        103.9132785,
        1.397973
      ],
      [
        103.9136436,
        1.3977083
      ],
      [
        103.9138835,
        1.3975343
      ],
      [
        103.914429,
        1.3972102
      ],
      [
        103.9152295,
        1.396621
      ],
      [
        103.9154047,
        1.3965294
      ],
      [
        103.9156028,
        1.3964687
      ],
      [
        103.91574,
        1.3964326
      ],
      [
        103.9163162,
        1.3962658
      ],
      [
        103.916606,
        1.3961025
      ],
      [
        103.9167812,
        1.3959106
      ],
      [
        103.9169282,
        1.3956557
      ],
      [
        103.9169885,
        1.3955488
      ],
      [
        103.9170371,
        1.3954651
      ],
      [
        103.9170724,
        1.3953947
      ],
      [
        103.9171168,
        1.3953245
      ],
      [
        103.9171859,
        1.3952445
      ],
      [
        103.9172929,
        1.3951024
      ],
      [
        103.9174448,
        1.3949701
      ],
      [
        103.9181161,
        1.3945112
      ],
      [
        103.9183837,
        1.3943206
      ],
      [
        103.9187456,
        1.3940632
      ],
      [
        103.9199336,
        1.3932384
      ],
      [
        103.9212609,
        1.3922699
      ],
      [
        103.9216767,
        1.3919144
      ],
      [
        103.9220779,
        1.3914955
      ],
      [
        103.922388,
        1.3911462
      ],
      [
        103.9226395,
        1.3908008
      ],
      [
        103.9228296,
        1.3904354
      ],
      [
        103.9230312,
        1.3900105
      ],
      [
        103.9231959,
        1.3896463
      ],
      [
        103.9233148,
        1.389393
      ],
      [
        103.9233859,
        1.3892463
      ],
      [
        103.9234789,
        1.3890467
      ],
      [
        103.9236532,
        1.3887093
      ],
      [
        103.9236872,
        1.3886248
      ],
      [
        103.9237378,
        1.3884968
      ],
      [
        103.9237802,
        1.3883885
      ],
      [
        103.9239043,
        1.3881545
      ],
      [
        103.9239942,
        1.3879906
      ],
      [
        103.9240166,
        1.3879357
      ],
      [
        103.9241692,
        1.3876178
      ],
      [
        103.9243821,
        1.387188
      ],
      [
        103.9247391,
        1.3864675
      ],
      [
        103.9251961,
        1.3855438
      ],
      [
        103.9254069,
        1.3851777
      ],
      [
        103.9255357,
        1.384982
      ],
      [
        103.9256537,
        1.3848318
      ],
      [
        103.9258844,
        1.3845771
      ],
      [
        103.92615,
        1.3843079
      ],
      [
        103.9264323,
        1.3840826
      ],
      [
        103.9267121,
        1.38389
      ],
      [
        103.9271094,
        1.383672
      ],
      [
        103.927614,
        1.3834536
      ],
      [
        103.9283094,
        1.3831568
      ],
      [
        103.9292598,
        1.3827416
      ],
      [
        103.930074,
        1.3823665
      ],
      [
        103.9304383,
        1.3821758
      ],
      [
        103.9309658,
        1.3819492
      ],
      [
        103.9315492,
        1.3816851
      ],
      [
        103.9317769,
        1.381582
      ],
      [
        103.9320879,
        1.3814393
      ],
      [
        103.9321949,
        1.3813858
      ],
      [
        103.9323578,
        1.3813044
      ],
      [
        103.9324103,
        1.3812745
      ],
      [
        103.9325486,
        1.3811959
      ],
      [
        103.932858,
        1.3810347
      ],
      [
        103.9330608,
        1.3809136
      ],
      [
        103.9331291,
        1.3808676
      ],
      [
        103.9331607,
        1.3808472
      ],
      [
        103.9335359,
        1.3805807
      ],
      [
        103.9337014,
        1.3804563
      ],
      [
        103.933978,
        1.3802484
      ],
      [
        103.934252,
        1.3800539
      ],
      [
        103.9343023,
        1.3800171
      ],
      [
        103.9344029,
        1.3799428
      ],
      [
        103.9344613,
        1.3799011
      ],
      [
        103.9346372,
        1.3797762
      ],
      [
        103.9351694,
        1.3793626
      ],
      [
        103.9354276,
        1.3791815
      ],
      [
        103.9355262,
        1.3791058
      ],
      [
        103.9360983,
        1.3786792
      ],
      [
        103.9363007,
        1.3785324
      ],
      [
        103.9369216,
        1.3780841
      ],
      [
        103.9370039,
        1.3780247
      ],
      [
        103.9370742,
        1.3779731
      ],
      [
        103.937122,
        1.3779372
      ],
      [
        103.9378017,
        1.3774271
      ],
      [
        103.9386891,
        1.376761
      ],
      [
        103.9389601,
        1.3765566
      ],
      [
        103.9391979,
        1.376378
      ],
      [
        103.9401028,
        1.3756891
      ],
      [
        103.9404264,
        1.3754266
      ],
      [
        103.9405941,
        1.3753045
      ],
      [
        103.9409651,
        1.3750442
      ],
      [
        103.9410147,
        1.3750066
      ],
      [
        103.9410862,
        1.374951
      ],
      [
        103.9411423,
        1.3749091
      ],
      [
        103.9417077,
        1.37449
      ],
      [
        103.9418207,
        1.3744135
      ],
      [
        103.9419642,
        1.3743155
      ],
      [
        103.9421606,
        1.3742072
      ],
      [
        103.9424715,
        1.3740652
      ],
      [
        103.9425928,
        1.3740129
      ],
      [
        103.9431028,
        1.3738138
      ],
      [
        103.9431843,
        1.3737825
      ],
      [
        103.9441864,
        1.3733982
      ],
      [
        103.9446129,
        1.3732226
      ],
      [
        103.9449244,
        1.3730963
      ],
      [
        103.9449919,
        1.3730689
      ],
      [
        103.9450801,
        1.3730333
      ],
      [
        103.9451156,
        1.3730191
      ],
      [
        103.9453246,
        1.3729488
      ],
      [
        103.9454915,
        1.3728656
      ],
      [
        103.9457938,
        1.3726637
      ],
      [
        103.9464526,
        1.3724029
      ],
      [
        103.9468894,
        1.3722318
      ],
      [
        103.9470159,
        1.3721843
      ],
      [
        103.9470879,
        1.3721748
      ],
      [
        103.947161,
        1.3721949
      ],
      [
        103.9472285,
        1.3722333
      ],
      [
        103.9473487,
        1.3724356
      ],
      [
        103.9474721,
        1.372575
      ],
      [
        103.9476919,
        1.3727698
      ],
      [
        103.9477909,
        1.372796
      ],
      [
        103.9478931,
        1.3727901
      ],
      [
        103.9479325,
        1.3727737
      ],
      [
        103.948208,
        1.3725995
      ],
      [
        103.9486933,
        1.3723047
      ],
      [
        103.9489643,
        1.3722075
      ],
      [
        103.9491639,
        1.3721478
      ],
      [
        103.949238,
        1.3721228
      ],
      [
        103.9493,
        1.3721071
      ]
    ]
  }
}