{
  "type": "Feature",
  "properties": {
    "relation": 6623024,
    "direction": "2",
    "fee": "yes",
    "from": "Punggol Interchange",
    "name": "Svc 3 (Punggol Interchange → Tampines Interchange)",
    "name:en": "Svc 3 (Punggol Interchange → Tampines Interchange)",
    "network": "Land Transport Authority",
    "network:short": "LTA",
    "network:wikidata": "Q3299279",
    "network:wikipedia": "en:Land Transport Authority",
    "operator": "Go-Ahead Singapore",
    "operator:wikidata": "Q24698874",
    "operator:wikipedia": "en:Go-Ahead Singapore",
    "public_transport:version": "2",
    "ref": "3",
    "route": "bus",
    "to": "Tampines Interchange",
    "type": "route",
    "website": "https://go-aheadsingapore.com/bus-services/"
  },
  "geometry": {
    "type": "LineString",
    "coordinates": [
      [
        103.9026277,
        1.4033195
      ],
      [
        103.9024746,
        1.4034101
      ],
      [
        103.9023181,
        1.4034969
      ],
      [
        103.9022789,
        1.4035419
      ],
      [
        103.9022574,
        1.4035923
      ],
      [
        103.9022324,
        1.4036635
      ],
      [
        103.9022109,
        1.4037547
      ],
      [
        103.9022109,
        1.403819
      ],
      [
        103.9024009,
        1.4041775
      ],
      [
        103.9026193,
        1.4045984
      ],
      [
        103.9026671,
        1.4046228
      ],
      [
        103.9028788,
        1.4044948
      ],
      [
        103.9030541,
        1.4043904
      ],
      [
        103.9032301,
        1.4042818
      ],
      [
        103.9032565,
        1.4041477
      ],
      [
        103.9028245,
        1.4033906
      ],
      [
        103.9027784,
        1.403318
      ],
      [
        103.9029504,
        1.4032212
      ],
      [
        103.9030205,
        1.4031773
      ],
      [
        103.9030673,
        1.4032543
      ],
      [
        103.9033552,
        1.4037387
      ],
      [
        103.9034688,
        1.4039509
      ],
      [
        103.9035771,
        1.4041735
      ],
      [
        103.903607,
        1.4043057
      ],
      [
        103.9036257,
        1.404364
      ],
      [
        103.903782,
        1.4047135
      ],
      [
        103.9038565,
        1.4046759
      ],
      [
        103.9039153,
        1.4046405
      ],
      [
        103.9042177,
        1.4043294
      ],
      [
        103.9044553,
        1.404106
      ],
      [
        103.9045947,
        1.4039928
      ],
      [
        103.9048992,
        1.4038111
      ],
      [
        103.905179,
        1.4036215
      ],
      [
        103.9054338,
        1.4034671
      ],
      [
        103.9055952,
        1.4033781
      ],
      [
        103.9058865,
        1.4031907
      ],
      [
        103.9061751,
        1.4030206
      ],
      [
        103.9062514,
        1.4029677
      ],
      [
        103.9063671,
        1.4028932
      ],
      [
        103.9064201,
        1.4028613
      ],
      [
        103.9065893,
        1.4027593
      ],
      [
        103.9068528,
        1.4025747
      ],
      [
        103.9071187,
        1.4023885
      ],
      [
        103.9072405,
        1.4023032
      ],
      [
        103.9077716,
        1.40193
      ],
      [
        103.9083671,
        1.4014838
      ],
      [
        103.9085667,
        1.4013343
      ],
      [
        103.9088331,
        1.4011585
      ],
      [
        103.9089952,
        1.4010455
      ],
      [
        103.9090336,
        1.4010187
      ],
      [
        103.909135,
        1.4009476
      ],
      [
        103.909179,
        1.4009171
      ],
      [
        103.9093751,
        1.4007812
      ],
      [
        103.9098412,
        1.4004414
      ],
      [
        103.909965,
        1.4003511
      ],
      [
        103.9105697,
        1.3999102
      ],
      [
        103.9106753,
        1.3998332
      ],
      [
        103.9109904,
        1.3996086
      ],
      [
        103.9114342,
        1.3992919
      ],
      [
        103.9115393,
        1.3992137
      ],
      [
        103.9121032,
        1.398794
      ],
      [
        103.912406,
        1.3985878
      ],
      [
        103.9129057,
        1.3982444
      ],
      [
        103.9129423,
        1.3982171
      ],
      [
        103.913025,
        1.398153
      ],
      [
        103.9130814,
        1.3981119
      ],
      [
        103.9132785,
        1.397973
      ],
      [
        103.9136436,
        1.3977083
      ],
      [
        103.9138835,
        1.3975343
      ],
      [
        103.914429,
        1.3972102
      ],
      [
        103.9152295,
        1.396621
      ],
      [
        103.9154047,
        1.3965294
      ],
      [
        103.9156028,
        1.3964687
      ],
      [
        103.91574,
        1.3964326
      ],
      [
        103.9163162,
        1.3962658
      ],
      [
        103.916606,
        1.3961025
      ],
      [
        103.9167812,
        1.3959106
      ],
      [
        103.9169282,
        1.3956557
      ],
      [
        103.9169885,
        1.3955488
      ],
      [
        103.9170371,
        1.3954651
      ],
      [
        103.9169556,
        1.3952777
      ],
      [
        103.9169005,
        1.3951707
      ],
      [
        103.9167256,
        1.3949532
      ],
      [
        103.9166063,
        1.3948359
      ],
      [
        103.9163392,
        1.3945868
      ],
      [
        103.9160857,
        1.3942638
      ],
      [
        103.9158851,
        1.3940106
      ],
      [
        103.9156652,
        1.3937098
      ],
      [
        103.9155213,
        1.3935261
      ],
      [
        103.9153166,
        1.3932389
      ],
      [
        103.9152363,
        1.3931292
      ],
      [
        103.9150269,
        1.3928444
      ],
      [
        103.9149275,
        1.3927085
      ],
      [
        103.9147644,
        1.3924798
      ],
      [
        103.9146592,
        1.3923414
      ],
      [
        103.9146395,
        1.3923108
      ],
      [
        103.9145629,
        1.3922106
      ],
      [
        103.914456,
        1.392289
      ],
      [
        103.9143884,
        1.3923436
      ],
      [
        103.9142458,
        1.3924648
      ],
      [
        103.9138589,
        1.3928
      ],
      [
        103.91348,
        1.393085
      ],
      [
        103.9134577,
        1.3931018
      ],
      [
        103.9133432,
        1.3931923
      ],
      [
        103.9118152,
        1.3944473
      ],
      [
        103.9115131,
        1.3946928
      ],
      [
        103.9112259,
        1.3949263
      ],
      [
        103.9109597,
        1.3951605
      ],
      [
        103.9109232,
        1.3951908
      ],
      [
        103.9108526,
        1.3952463
      ],
      [
        103.9108219,
        1.3952724
      ],
      [
        103.9106172,
        1.3954307
      ],
      [
        103.9096382,
        1.3962145
      ],
      [
        103.9085799,
        1.3970694
      ],
      [
        103.9085066,
        1.3971286
      ],
      [
        103.9084619,
        1.3971647
      ],
      [
        103.9079136,
        1.3976289
      ],
      [
        103.9077352,
        1.3977763
      ],
      [
        103.9073965,
        1.3980253
      ],
      [
        103.9072214,
        1.3981925
      ],
      [
        103.9071799,
        1.3982322
      ],
      [
        103.907127,
        1.3982718
      ],
      [
        103.9070745,
        1.3983124
      ],
      [
        103.906943,
        1.3984143
      ],
      [
        103.9064168,
        1.3988554
      ],
      [
        103.9060467,
        1.3991345
      ],
      [
        103.9058912,
        1.3992605
      ],
      [
        103.9056954,
        1.3994
      ],
      [
        103.9053896,
        1.3996064
      ],
      [
        103.9052124,
        1.3996301
      ],
      [
        103.9051339,
        1.3996233
      ],
      [
        103.9050864,
        1.3996116
      ],
      [
        103.9050412,
        1.3995953
      ],
      [
        103.9049717,
        1.3995537
      ],
      [
        103.9046416,
        1.3988584
      ],
      [
        103.9044522,
        1.3984454
      ],
      [
        103.9042792,
        1.3980713
      ],
      [
        103.9041011,
        1.3977284
      ],
      [
        103.9040748,
        1.3975609
      ],
      [
        103.9040403,
        1.3974097
      ],
      [
        103.9040419,
        1.3973301
      ],
      [
        103.9040578,
        1.3972539
      ],
      [
        103.904107,
        1.3971487
      ],
      [
        103.9041423,
        1.397079
      ],
      [
        103.9041667,
        1.3970303
      ],
      [
        103.9042112,
        1.3969641
      ],
      [
        103.9043574,
        1.3968283
      ],
      [
        103.9045343,
        1.3966667
      ],
      [
        103.904897,
        1.396363
      ],
      [
        103.9053372,
        1.3959463
      ],
      [
        103.9059416,
        1.3953595
      ],
      [
        103.9060462,
        1.3951853
      ],
      [
        103.9064441,
        1.3948354
      ],
      [
        103.9069777,
        1.3943434
      ],
      [
        103.907186,
        1.3941345
      ],
      [
        103.9082255,
        1.393071
      ],
      [
        103.9088331,
        1.3923736
      ],
      [
        103.9095217,
        1.3915719
      ],
      [
        103.9097173,
        1.391345
      ],
      [
        103.9097619,
        1.3912943
      ],
      [
        103.9100165,
        1.391
      ],
      [
        103.9105877,
        1.3903421
      ],
      [
        103.9111708,
        1.3896819
      ],
      [
        103.9121552,
        1.3885384
      ],
      [
        103.9129309,
        1.3876257
      ],
      [
        103.9131814,
        1.3873309
      ],
      [
        103.9137876,
        1.3866261
      ],
      [
        103.9144594,
        1.3858453
      ],
      [
        103.9148964,
        1.3853374
      ],
      [
        103.9151807,
        1.3850111
      ],
      [
        103.9158047,
        1.3842662
      ],
      [
        103.9164311,
        1.38358
      ],
      [
        103.9168516,
        1.3831384
      ],
      [
        103.9174174,
        1.3825638
      ],
      [
        103.9178167,
        1.3821509
      ],
      [
        103.9181936,
        1.3818229
      ],
      [
        103.9184251,
        1.3815926
      ],
      [
        103.9188484,
        1.3811631
      ],
      [
        103.9195864,
        1.3805479
      ],
      [
        103.920098,
        1.3801797
      ],
      [
        103.9202763,
        1.3800685
      ],
      [
        103.9204621,
        1.3799573
      ],
      [
        103.9207032,
        1.3798298
      ],
      [
        103.921643,
        1.3793294
      ],
      [
        103.9221225,
        1.3791235
      ],
      [
        103.9230225,
        1.3787723
      ],
      [
        103.9235173,
        1.3786074
      ],
      [
        103.9240149,
        1.3784639
      ],
      [
        103.9255255,
        1.378103
      ],
      [
        103.9271998,
        1.3776671
      ],
      [
        103.9281991,
        1.3773868
      ],
      [
        103.9284515,
        1.3773129
      ],
      [
        103.9285183,
        1.3773265
      ],
      [
        103.9285322,
        1.3773294
      ],
      [
        103.9285487,
        1.3773274
      ],
      [
        103.928584,
        1.3773158
      ],
      [
        103.9286497,
        1.3772985
      ],
      [
        103.9289803,
        1.3772159
      ],
      [
        103.9292931,
        1.377128
      ],
      [
        103.9308066,
        1.3766507
      ],
      [
        103.9310569,
        1.3765779
      ],
      [
        103.9312733,
        1.3765232
      ],
      [
        103.9315867,
        1.3764531
      ],
      [
        103.9317034,
        1.3764407
      ],
      [
        103.9317536,
        1.3764353
      ],
      [
        103.9319432,
        1.3764763
      ],
      [
        103.9321221,
        1.3765808
      ],
      [
        103.9322219,
        1.3766803
      ],
      [
        103.9325454,
        1.3773731
      ],
      [
        103.9327555,
        1.3777422
      ],
      [
        103.9327889,
        1.3778008
      ],
      [
        103.9331015,
        1.378286
      ],
      [
        103.9337868,
        1.3792585
      ],
      [
        103.9338452,
        1.379347
      ],
      [
        103.9340782,
        1.3796943
      ],
      [
        103.9342066,
        1.3798804
      ],
      [
        103.9342421,
        1.3799314
      ],
      [
        103.9343023,
        1.3800171
      ],
      [
        103.9344029,
        1.3799428
      ],
      [
        103.9344613,
        1.3799011
      ],
      [
        103.9346372,
        1.3797762
      ],
      [
        103.9351694,
        1.3793626
      ],
      [
        103.9354276,
        1.3791815
      ],
      [
        103.9355262,
        1.3791058
      ],
      [
        103.9360983,
        1.3786792
      ],
      [
        103.9363007,
        1.3785324
      ],
      [
        103.9369216,
        1.3780841
      ],
      [
        103.9370039,
        1.3780247
      ],
      [
        103.9370742,
        1.3779731
      ],
      [
        103.9369611,
        1.3779071
      ],
      [
        103.9369139,
        1.377844
      ],
      [
        103.9369611,
        1.3779071
      ],
      [
        103.936308,
        1.377022
      ],
      [
        103.9364584,
        1.3772164
      ],
      [
        103.9365776,
        1.3773707
      ],
      [
        103.9360286,
        1.3766324
      ],
      [
        103.9362705,
        1.3769735
      ],
      [
        103.9360558,
        1.3764937
      ],
      [
        103.9359745,
        1.3765509
      ],
      [
        103.9366283,
        1.3761041
      ],
      [
        103.9370107,
        1.3758396
      ],
      [
        103.9370975,
        1.3757783
      ],
      [
        103.9372047,
        1.3757025
      ],
      [
        103.9373503,
        1.3756007
      ],
      [
        103.9378656,
        1.3752441
      ],
      [
        103.9379193,
        1.3751886
      ],
      [
        103.9385214,
        1.3745664
      ],
      [
        103.9384098,
        1.3747397
      ],
      [
        103.9382877,
        1.3748979
      ],
      [
        103.9381603,
        1.3750213
      ],
      [
        103.9379193,
        1.3751886
      ],
      [
        103.9388783,
        1.3740122
      ],
      [
        103.9394625,
        1.3734808
      ],
      [
        103.9393284,
        1.3735438
      ],
      [
        103.9391795,
        1.3736511
      ],
      [
        103.9390816,
        1.3737355
      ],
      [
        103.939031,
        1.3737977
      ],
      [
        103.9396825,
        1.3734325
      ],
      [
        103.9401883,
        1.3733593
      ],
      [
        103.9401604,
        1.3733632
      ],
      [
        103.9401502,
        1.3733646
      ],
      [
        103.9400746,
        1.3733749
      ],
      [
        103.9402684,
        1.3734478
      ],
      [
        103.9404906,
        1.3738353
      ],
      [
        103.9405325,
        1.3739068
      ],
      [
        103.9407806,
        1.3743325
      ],
      [
        103.9409291,
        1.3746827
      ],
      [
        103.9409727,
        1.3748022
      ],
      [
        103.9409951,
        1.3748979
      ],
      [
        103.9410147,
        1.3750066
      ],
      [
        103.9410862,
        1.374951
      ],
      [
        103.9411423,
        1.3749091
      ],
      [
        103.9417077,
        1.37449
      ],
      [
        103.9418207,
        1.3744135
      ],
      [
        103.9419642,
        1.3743155
      ],
      [
        103.9421606,
        1.3742072
      ],
      [
        103.9424715,
        1.3740652
      ],
      [
        103.9425928,
        1.3740129
      ],
      [
        103.9431028,
        1.3738138
      ],
      [
        103.9431843,
        1.3737825
      ],
      [
        103.9441864,
        1.3733982
      ],
      [
        103.9446129,
        1.3732226
      ],
      [
        103.9449244,
        1.3730963
      ],
      [
        103.9449919,
        1.3730689
      ],
      [
        103.9450801,
        1.3730333
      ],
      [
        103.9451156,
        1.3730191
      ],
      [
        103.9453246,
        1.3729488
      ],
      [
        103.9454915,
        1.3728656
      ],
      [
        103.9457938,
        1.3726637
      ],
      [
        103.9464526,
        1.3724029
      ],
      [
        103.9468894,
        1.3722318
      ],
      [
        103.9470159,
        1.3721843
      ],
      [
        103.9470879,
        1.3721748
      ],
      [
        103.947161,
        1.3721949
      ],
      [
        103.9472285,
        1.3722333
      ],
      [
        103.9473487,
        1.3724356
      ],
      [
        103.9474721,
        1.372575
      ],
      [
        103.9476919,
        1.3727698
      ],
      [
        103.9478152,
        1.3729886
      ],
      [
        103.947845,
        1.3730644
      ],
      [
        103.9478634,
        1.3731275
      ],
      [
        103.9478711,
        1.3732018
      ],
      [
        103.9478818,
        1.3733084
      ],
      [
        103.9478835,
        1.3733619
      ],
      [
        103.947887,
        1.3734726
      ],
      [
        103.947896,
        1.3736491
      ],
      [
        103.9478955,
        1.3737799
      ],
      [
        103.9478882,
        1.3739937
      ],
      [
        103.9478953,
        1.374215
      ],
      [
        103.9479123,
        1.3743001
      ],
      [
        103.94794,
        1.3744012
      ],
      [
        103.9479946,
        1.3745269
      ],
      [
        103.9481622,
        1.3748763
      ],
      [
        103.9483108,
        1.3751753
      ],
      [
        103.9483892,
        1.3753408
      ],
      [
        103.9484025,
        1.3753702
      ],
      [
        103.9484328,
        1.375427
      ],
      [
        103.9484777,
        1.3755243
      ],
      [
        103.9485552,
        1.3754944
      ],
      [
        103.9486286,
        1.3754654
      ],
      [
        103.9488444,
        1.3753796
      ],
      [
        103.9492402,
        1.3752152
      ],
      [
        103.949349,
        1.3751815
      ],
      [
        103.9493175,
        1.3750796
      ],
      [
        103.9492813,
        1.3749702
      ],
      [
        103.9492647,
        1.3749088
      ],
      [
        103.9492107,
        1.374734
      ],
      [
        103.948911,
        1.373622
      ],
      [
        103.9488692,
        1.3735524
      ],
      [
        103.9488217,
        1.3735233
      ],
      [
        103.9487375,
        1.3735015
      ],
      [
        103.9485976,
        1.3735437
      ],
      [
        103.9485175,
        1.3735669
      ],
      [
        103.9484386,
        1.3736764
      ],
      [
        103.9484088,
        1.3737805
      ],
      [
        103.9484229,
        1.3739023
      ],
      [
        103.9484646,
        1.3740787
      ],
      [
        103.9485192,
        1.3742512
      ],
      [
        103.9485761,
        1.3744308
      ],
      [
        103.9486404,
        1.3746339
      ],
      [
        103.9486862,
        1.3747786
      ],
      [
        103.9487038,
        1.3748343
      ],
      [
        103.9487311,
        1.3748618
      ],
      [
        103.9487827,
        1.3748628
      ],
      [
        103.9489614,
        1.374809
      ],
      [
        103.9492107,
        1.374734
      ],
      [
        103.9492107,
        1.374734
      ],
      [
        103.9492813,
        1.3749702
      ],
      [
        103.9492647,
        1.3749088
      ],
      [
        103.9493175,
        1.3750796
      ],
      [
        103.9497279,
        1.3750688
      ],
      [
        103.9498874,
        1.3750318
      ],
      [
        103.949945,
        1.375022
      ],
      [
        103.9501773,
        1.3749838
      ],
      [
        103.9505464,
        1.3749485
      ],
      [
        103.9510212,
        1.3749301
      ],
      [
        103.9511345,
        1.374929
      ],
      [
        103.9512397,
        1.3749286
      ],
      [
        103.951308,
        1.3749314
      ],
      [
        103.951636,
        1.3749591
      ],
      [
        103.9521098,
        1.3750272
      ],
      [
        103.9524404,
        1.375074
      ],
      [
        103.9524826,
        1.37508
      ],
      [
        103.9525104,
        1.3750846
      ],
      [
        103.9525853,
        1.3750945
      ],
      [
        103.9526076,
        1.3750985
      ],
      [
        103.9529046,
        1.3751402
      ],
      [
        103.9533163,
        1.3751923
      ],
      [
        103.9534092,
        1.3752015
      ],
      [
        103.9541549,
        1.3752684
      ],
      [
        103.9543404,
        1.375286
      ],
      [
        103.9547851,
        1.3753562
      ],
      [
        103.9552504,
        1.3754303
      ],
      [
        103.9553757,
        1.3754426
      ],
      [
        103.9554675,
        1.3754568
      ],
      [
        103.956017,
        1.3755297
      ],
      [
        103.9561145,
        1.3755424
      ],
      [
        103.95621,
        1.3755501
      ],
      [
        103.9562898,
        1.3755541
      ],
      [
        103.9565241,
        1.3755676
      ],
      [
        103.9566552,
        1.3755792
      ],
      [
        103.9571159,
        1.3756034
      ],
      [
        103.9575938,
        1.3756061
      ],
      [
        103.9585597,
        1.3755916
      ],
      [
        103.95879,
        1.3755819
      ],
      [
        103.9589911,
        1.3755717
      ],
      [
        103.9590806,
        1.3755658
      ],
      [
        103.9591579,
        1.3755577
      ],
      [
        103.9593324,
        1.3755333
      ],
      [
        103.9597406,
        1.375483
      ],
      [
        103.9604602,
        1.375335
      ],
      [
        103.9607196,
        1.3752883
      ],
      [
        103.9611352,
        1.375215
      ],
      [
        103.9612816,
        1.375185
      ],
      [
        103.9613897,
        1.3751661
      ],
      [
        103.9613631,
        1.375061
      ],
      [
        103.9613416,
        1.3749825
      ],
      [
        103.9612706,
        1.3746783
      ],
      [
        103.9611837,
        1.374348
      ],
      [
        103.9611571,
        1.3742243
      ],
      [
        103.9611299,
        1.3740882
      ],
      [
        103.9610631,
        1.3738295
      ],
      [
        103.9610197,
        1.3736403
      ],
      [
        103.9610179,
        1.373633
      ],
      [
        103.9609549,
        1.3733779
      ],
      [
        103.9609293,
        1.3732743
      ],
      [
        103.9609942,
        1.3732579
      ],
      [
        103.9609293,
        1.3732743
      ],
      [
        103.9619852,
        1.3729641
      ],
      [
        103.9620547,
        1.3728911
      ],
      [
        103.9621322,
        1.3727949
      ],
      [
        103.9621654,
        1.3726973
      ],
      [
        103.9622104,
        1.3725188
      ],
      [
        103.9621886,
        1.372235
      ],
      [
        103.962171,
        1.3720231
      ],
      [
        103.9621645,
        1.3719206
      ],
      [
        103.9621561,
        1.3718213
      ],
      [
        103.9621533,
        1.371784
      ],
      [
        103.9621505,
        1.3715855
      ],
      [
        103.9621713,
        1.3715514
      ],
      [
        103.9621639,
        1.3712919
      ],
      [
        103.9621445,
        1.3708965
      ],
      [
        103.9621378,
        1.3707764
      ],
      [
        103.9621163,
        1.370753
      ],
      [
        103.9621148,
        1.3707255
      ],
      [
        103.962109,
        1.3706162
      ],
      [
        103.9621078,
        1.370593
      ],
      [
        103.9621053,
        1.3705518
      ],
      [
        103.9620934,
        1.3703535
      ],
      [
        103.9620897,
        1.3702933
      ],
      [
        103.9620721,
        1.3700009
      ],
      [
        103.962054,
        1.3695765
      ],
      [
        103.9620405,
        1.369258
      ],
      [
        103.9620235,
        1.3689661
      ],
      [
        103.9620205,
        1.3689028
      ],
      [
        103.9620118,
        1.3687177
      ],
      [
        103.9620134,
        1.3686411
      ],
      [
        103.962015,
        1.3685837
      ],
      [
        103.9620185,
        1.3685666
      ],
      [
        103.9620459,
        1.3684852
      ],
      [
        103.9620986,
        1.3683841
      ],
      [
        103.9621059,
        1.3683734
      ],
      [
        103.9621132,
        1.3683628
      ],
      [
        103.9621661,
        1.3682854
      ],
      [
        103.9622645,
        1.3681801
      ],
      [
        103.9623078,
        1.3681376
      ],
      [
        103.9623663,
        1.3680801
      ],
      [
        103.9625032,
        1.3679495
      ],
      [
        103.9625775,
        1.3678709
      ],
      [
        103.962801,
        1.3676345
      ],
      [
        103.9630956,
        1.3673283
      ],
      [
        103.9631506,
        1.3672727
      ],
      [
        103.9633335,
        1.3670876
      ],
      [
        103.9636608,
        1.3667564
      ],
      [
        103.9636914,
        1.3667254
      ],
      [
        103.9637819,
        1.3666341
      ],
      [
        103.9637361,
        1.3665883
      ],
      [
        103.9630828,
        1.3659344
      ],
      [
        103.9624902,
        1.3653538
      ],
      [
        103.9624544,
        1.3653207
      ],
      [
        103.9624831,
        1.3652915
      ],
      [
        103.9631879,
        1.3645735
      ],
      [
        103.9636017,
        1.3641518
      ],
      [
        103.9637081,
        1.3640434
      ],
      [
        103.9641267,
        1.3636508
      ],
      [
        103.9642414,
        1.3635451
      ],
      [
        103.9642986,
        1.3634927
      ],
      [
        103.9643986,
        1.3633892
      ],
      [
        103.9643002,
        1.363294
      ],
      [
        103.9635775,
        1.3625448
      ],
      [
        103.9631852,
        1.3621381
      ],
      [
        103.9629217,
        1.361865
      ],
      [
        103.9627169,
        1.3616537
      ],
      [
        103.962548,
        1.3614747
      ],
      [
        103.9624379,
        1.3613799
      ],
      [
        103.9622429,
        1.3611937
      ],
      [
        103.9619561,
        1.3609199
      ],
      [
        103.9618505,
        1.3608191
      ],
      [
        103.9617055,
        1.3606806
      ],
      [
        103.9614403,
        1.3604271
      ],
      [
        103.9613737,
        1.3603653
      ],
      [
        103.9612315,
        1.3602273
      ],
      [
        103.9611848,
        1.3601857
      ],
      [
        103.9610296,
        1.3600246
      ],
      [
        103.9605067,
        1.3594665
      ],
      [
        103.9603758,
        1.3593305
      ],
      [
        103.9600287,
        1.3589789
      ],
      [
        103.9597889,
        1.358736
      ],
      [
        103.9596353,
        1.3585778
      ],
      [
        103.9591483,
        1.3581125
      ],
      [
        103.9589531,
        1.3579213
      ],
      [
        103.9586207,
        1.3575992
      ],
      [
        103.958549,
        1.3575335
      ],
      [
        103.9584879,
        1.3574728
      ],
      [
        103.9583606,
        1.3573536
      ],
      [
        103.9577498,
        1.3567461
      ],
      [
        103.9576228,
        1.3566399
      ],
      [
        103.9574168,
        1.3564911
      ],
      [
        103.9572582,
        1.3564013
      ],
      [
        103.9570512,
        1.3563163
      ],
      [
        103.9569554,
        1.3562888
      ],
      [
        103.9568341,
        1.3562497
      ],
      [
        103.9566622,
        1.356225
      ],
      [
        103.9564086,
        1.3562028
      ],
      [
        103.9560113,
        1.3562093
      ],
      [
        103.9558697,
        1.3561684
      ],
      [
        103.9558053,
        1.3561464
      ],
      [
        103.9557327,
        1.356117
      ],
      [
        103.9556716,
        1.356062
      ],
      [
        103.955641,
        1.3560295
      ],
      [
        103.9555919,
        1.3559621
      ],
      [
        103.9555422,
        1.3558823
      ],
      [
        103.9555039,
        1.355811
      ],
      [
        103.9554903,
        1.3548533
      ],
      [
        103.9554842,
        1.3547541
      ],
      [
        103.9554648,
        1.3544885
      ],
      [
        103.9554281,
        1.3542847
      ],
      [
        103.9553853,
        1.3541313
      ],
      [
        103.9553591,
        1.3540514
      ],
      [
        103.9553039,
        1.3538754
      ],
      [
        103.9552763,
        1.353785
      ],
      [
        103.9552112,
        1.3537849
      ],
      [
        103.955154,
        1.3537849
      ],
      [
        103.9550918,
        1.3537838
      ],
      [
        103.9547654,
        1.3537743
      ],
      [
        103.9547348,
        1.3537734
      ],
      [
        103.9543393,
        1.3537686
      ],
      [
        103.9542652,
        1.3537505
      ],
      [
        103.9539912,
        1.3537505
      ],
      [
        103.9539517,
        1.3537505
      ],
      [
        103.9537156,
        1.3537505
      ],
      [
        103.9533733,
        1.35375
      ],
      [
        103.9533354,
        1.3537633
      ],
      [
        103.9531029,
        1.3537696
      ],
      [
        103.9529393,
        1.3537737
      ],
      [
        103.9526776,
        1.3537811
      ],
      [
        103.9524781,
        1.3537825
      ],
      [
        103.9522638,
        1.3537841
      ],
      [
        103.951818,
        1.3537866
      ],
      [
        103.9517614,
        1.3537869
      ],
      [
        103.9517997,
        1.353517
      ],
      [
        103.9518291,
        1.3533359
      ],
      [
        103.9518478,
        1.3532082
      ],
      [
        103.9518595,
        1.3530721
      ],
      [
        103.9518509,
        1.3529389
      ],
      [
        103.9518297,
        1.352842
      ],
      [
        103.9518059,
        1.3527601
      ],
      [
        103.9517716,
        1.3526747
      ],
      [
        103.9517258,
        1.3525884
      ],
      [
        103.9516668,
        1.3525145
      ],
      [
        103.9516295,
        1.3524756
      ],
      [
        103.9516094,
        1.3524547
      ],
      [
        103.9515949,
        1.3524396
      ],
      [
        103.9515741,
        1.3524179
      ],
      [
        103.9514595,
        1.3523279
      ],
      [
        103.9511161,
        1.3520735
      ],
      [
        103.9510265,
        1.3520094
      ],
      [
        103.9509049,
        1.3519305
      ],
      [
        103.9507795,
        1.351858
      ],
      [
        103.9506505,
        1.351792
      ],
      [
        103.9505332,
        1.351736
      ],
      [
        103.9504037,
        1.3516903
      ],
      [
        103.9502786,
        1.3516515
      ],
      [
        103.9501448,
        1.3516286
      ],
      [
        103.9500012,
        1.351611
      ],
      [
        103.9497001,
        1.3516136
      ],
      [
        103.9496549,
        1.3516133
      ],
      [
        103.9493148,
        1.3516113
      ],
      [
        103.9489768,
        1.3516094
      ],
      [
        103.948823,
        1.3516089
      ],
      [
        103.9486232,
        1.3516074
      ],
      [
        103.9486201,
        1.3516074
      ],
      [
        103.9485079,
        1.3516068
      ],
      [
        103.9483926,
        1.351606
      ],
      [
        103.9482793,
        1.3516163
      ],
      [
        103.9481821,
        1.3516387
      ],
      [
        103.9481031,
        1.3516673
      ],
      [
        103.9480318,
        1.3517065
      ],
      [
        103.9479661,
        1.3517526
      ],
      [
        103.9479143,
        1.3518001
      ],
      [
        103.9478416,
        1.3518798
      ],
      [
        103.9478242,
        1.3519029
      ],
      [
        103.9477983,
        1.3519371
      ],
      [
        103.9477944,
        1.3519433
      ],
      [
        103.9476054,
        1.352245
      ],
      [
        103.9475526,
        1.3523375
      ],
      [
        103.9475182,
        1.3524158
      ],
      [
        103.9474953,
        1.3524845
      ],
      [
        103.9474769,
        1.3525764
      ],
      [
        103.9474707,
        1.3526527
      ],
      [
        103.9474625,
        1.3528162
      ],
      [
        103.9474698,
        1.3530215
      ],
      [
        103.9474821,
        1.3531192
      ],
      [
        103.9474951,
        1.3531787
      ],
      [
        103.9475085,
        1.3532274
      ],
      [
        103.9475699,
        1.3533917
      ],
      [
        103.9476014,
        1.3534789
      ],
      [
        103.9476064,
        1.3534928
      ],
      [
        103.9476335,
        1.353594
      ],
      [
        103.9476685,
        1.353703
      ],
      [
        103.9476799,
        1.3538149
      ],
      [
        103.9476921,
        1.353935
      ],
      [
        103.9477012,
        1.3540248
      ],
      [
        103.9476996,
        1.3541749
      ],
      [
        103.9476969,
        1.3544296
      ],
      [
        103.9476936,
        1.3547238
      ],
      [
        103.9476929,
        1.3547908
      ],
      [
        103.9476899,
        1.3549887
      ],
      [
        103.947689,
        1.3550469
      ],
      [
        103.9476874,
        1.3551537
      ],
      [
        103.9476856,
        1.355272
      ],
      [
        103.9476856,
        1.355272
      ],
      [
        103.9463885,
        1.3552832
      ],
      [
        103.9466702,
        1.3552823
      ],
      [
        103.9470497,
        1.3552813
      ],
      [
        103.9471409,
        1.355281
      ],
      [
        103.9463469,
        1.3548094
      ],
      [
        103.9463433,
        1.3544763
      ],
      [
        103.9463429,
        1.3544149
      ],
      [
        103.9463423,
        1.3543384
      ],
      [
        103.9463423,
        1.3540433
      ],
      [
        103.9463318,
        1.3538547
      ],
      [
        103.9463228,
        1.3537776
      ],
      [
        103.9463137,
        1.3536999
      ],
      [
        103.9462816,
        1.3534831
      ],
      [
        103.9461995,
        1.3531821
      ],
      [
        103.946162,
        1.3530979
      ],
      [
        103.9460837,
        1.3528995
      ],
      [
        103.946022,
        1.3527952
      ],
      [
        103.9458085,
        1.3525211
      ],
      [
        103.9456733,
        1.3523768
      ],
      [
        103.9456555,
        1.3523608
      ],
      [
        103.9455259,
        1.3522414
      ],
      [
        103.945252,
        1.3520341
      ],
      [
        103.944976,
        1.3518749
      ],
      [
        103.9447697,
        1.3517922
      ],
      [
        103.9445995,
        1.3517489
      ],
      [
        103.9445166,
        1.3517323
      ],
      [
        103.9444059,
        1.3517047
      ],
      [
        103.9443183,
        1.3516938
      ],
      [
        103.9442085,
        1.3516801
      ],
      [
        103.9438588,
        1.3516736
      ],
      [
        103.9433477,
        1.3516789
      ],
      [
        103.9432769,
        1.3516797
      ],
      [
        103.9432066,
        1.3516804
      ],
      [
        103.9425156,
        1.3516793
      ],
      [
        103.9422888,
        1.3516798
      ],
      [
        103.9419319,
        1.3516784
      ],
      [
        103.9415915,
        1.3516859
      ],
      [
        103.9415482,
        1.3516856
      ],
      [
        103.9413999,
        1.351688
      ],
      [
        103.9413955,
        1.3517953
      ],
      [
        103.9413899,
        1.3518487
      ],
      [
        103.9413941,
        1.3521573
      ],
      [
        103.9413996,
        1.3532377
      ],
      [
        103.9413964,
        1.3533438
      ],
      [
        103.9413982,
        1.3539777
      ],
      [
        103.9413983,
        1.3540467
      ],
      [
        103.9413986,
        1.3541282
      ],
      [
        103.9415231,
        1.3541292
      ],
      [
        103.9416368,
        1.3541305
      ],
      [
        103.9424057,
        1.3541317
      ],
      [
        103.9424718,
        1.3541323
      ],
      [
        103.942541,
        1.3541344
      ],
      [
        103.9425411,
        1.354065
      ],
      [
        103.9425514,
        1.3539838
      ],
      [
        103.9425802,
        1.3538841
      ],
      [
        103.9426248,
        1.3537917
      ],
      [
        103.9426965,
        1.3536961
      ],
      [
        103.9427915,
        1.3535947
      ],
      [
        103.9429077,
        1.3534833
      ],
      [
        103.9429735,
        1.3534169
      ],
      [
        103.9430151,
        1.353455
      ],
      [
        103.9431651,
        1.3535938
      ],
      [
        103.9431999,
        1.3536257
      ],
      [
        103.9432187,
        1.3536431
      ],
      [
        103.9432932,
        1.3537066
      ],
      [
        103.9433999,
        1.3538498
      ],
      [
        103.9438699,
        1.354325
      ],
      [
        103.9439222,
        1.3543452
      ],
      [
        103.9439772,
        1.3543552
      ],
      [
        103.9440411,
        1.3543499
      ],
      [
        103.944129,
        1.3542595
      ],
      [
        103.9441945,
        1.3541922
      ],
      [
        103.9442088,
        1.3541233
      ],
      [
        103.9442052,
        1.3540633
      ],
      [
        103.9441728,
        1.3540033
      ],
      [
        103.9439273,
        1.3537543
      ],
      [
        103.9438736,
        1.3537252
      ],
      [
        103.9438246,
        1.3537022
      ],
      [
        103.9435622,
        1.3537044
      ],
      [
        103.9432932,
        1.3537066
      ]
    ]
  }
}