{
  "type": "Feature",
  "properties": {
    "relation": 2352571,
    "direction": "1",
    "fee": "yes",
    "from": "Boon Lay Interchange",
    "name": "Svc 405 (Boon Lay Interchange ↺ Old Choa Chu Kang Road)",
    "name:en": "Svc 405 (Boon Lay Interchange ↺ Old Choa Chu Kang Road)",
    "network": "Land Transport Authority",
    "network:short": "LTA",
    "network:wikidata": "Q3299279",
    "network:wikipedia": "en:Land Transport Authority",
    "operator": "SMRT Buses",
    "operator:wikidata": "Q10852420",
    "operator:wikipedia": "en:SMRT Buses",
    "public_transport:version": "2",
    "ref": "405",
    "roundtrip": "yes",
    "route": "bus",
    "to": "Boon Lay Interchange",
    "type": "route",
    "via": "Old Choa Chu Kang Road",
    "website": "https://journey.smrt.com.sg/journey/bus_search/bus/405/"
  },
  "geometry": {
    "type": "LineString",
    "coordinates": [
      [
        103.7055558,
        1.340292
      ],
      [
        103.7055796,
        1.3402265
      ],
      [
        103.7056101,
        1.3401424
      ],
      [
        103.705696,
        1.3398822
      ],
      [
        103.7057212,
        1.3398057
      ],
      [
        103.7057629,
        1.3396795
      ],
      [
        103.7058153,
        1.3395208
      ],
      [
        103.705821,
        1.3394659
      ],
      [
        103.7058152,
        1.3394449
      ],
      [
        103.7057965,
        1.339427
      ],
      [
        103.7053904,
        1.3392791
      ],
      [
        103.7047704,
        1.3390533
      ],
      [
        103.7047322,
        1.3390454
      ],
      [
        103.7046939,
        1.3390461
      ],
      [
        103.7046745,
        1.3390568
      ],
      [
        103.7046621,
        1.3390677
      ],
      [
        103.7045954,
        1.3392562
      ],
      [
        103.7045394,
        1.3394125
      ],
      [
        103.7045451,
        1.3394436
      ],
      [
        103.7045625,
        1.3394703
      ],
      [
        103.7055021,
        1.3398079
      ],
      [
        103.7055872,
        1.3398497
      ],
      [
        103.7055977,
        1.3398652
      ],
      [
        103.7056021,
        1.3398758
      ],
      [
        103.7056031,
        1.3398872
      ],
      [
        103.705497,
        1.340199
      ],
      [
        103.7054751,
        1.3402633
      ],
      [
        103.7052326,
        1.3401663
      ],
      [
        103.7050505,
        1.3400936
      ],
      [
        103.7049991,
        1.340073
      ],
      [
        103.7049334,
        1.3400449
      ],
      [
        103.7047485,
        1.3399708
      ],
      [
        103.7043991,
        1.3398415
      ],
      [
        103.7042008,
        1.3397762
      ],
      [
        103.7041339,
        1.3397529
      ],
      [
        103.7039597,
        1.3396967
      ],
      [
        103.703933,
        1.3397852
      ],
      [
        103.703926,
        1.3398233
      ],
      [
        103.703878,
        1.3401014
      ],
      [
        103.7038484,
        1.3403238
      ],
      [
        103.7038361,
        1.3406064
      ],
      [
        103.703807,
        1.3409341
      ],
      [
        103.7038042,
        1.3409937
      ],
      [
        103.7037961,
        1.3410938
      ],
      [
        103.7039705,
        1.3411269
      ],
      [
        103.7040366,
        1.3411355
      ],
      [
        103.7042561,
        1.3411675
      ],
      [
        103.7047643,
        1.3412618
      ],
      [
        103.7047841,
        1.3412702
      ],
      [
        103.7048845,
        1.3413131
      ],
      [
        103.7049873,
        1.341389
      ],
      [
        103.7050535,
        1.3414636
      ],
      [
        103.7051084,
        1.3415654
      ],
      [
        103.7051293,
        1.3416256
      ],
      [
        103.7052566,
        1.3420185
      ],
      [
        103.7053428,
        1.3422651
      ],
      [
        103.7055208,
        1.3428243
      ],
      [
        103.705595,
        1.3429764
      ],
      [
        103.7056971,
        1.3431001
      ],
      [
        103.7058047,
        1.3431917
      ],
      [
        103.7061098,
        1.3434001
      ],
      [
        103.706446,
        1.3436334
      ],
      [
        103.7065473,
        1.343692
      ],
      [
        103.7068323,
        1.3438822
      ],
      [
        103.7068809,
        1.344001
      ],
      [
        103.7069127,
        1.3441071
      ],
      [
        103.7069172,
        1.3441922
      ],
      [
        103.7068826,
        1.3443477
      ],
      [
        103.7067461,
        1.3445465
      ],
      [
        103.7062266,
        1.3453122
      ],
      [
        103.7056296,
        1.3462035
      ],
      [
        103.7053995,
        1.3465627
      ],
      [
        103.7052265,
        1.3468118
      ],
      [
        103.7051552,
        1.3469289
      ],
      [
        103.7051172,
        1.3469911
      ],
      [
        103.7049959,
        1.3471975
      ],
      [
        103.7049531,
        1.3472718
      ],
      [
        103.7047813,
        1.3475603
      ],
      [
        103.7047453,
        1.3476372
      ],
      [
        103.7045726,
        1.3479621
      ],
      [
        103.7045341,
        1.348029
      ],
      [
        103.7042542,
        1.3485671
      ],
      [
        103.7037934,
        1.3494515
      ],
      [
        103.7037325,
        1.3495621
      ],
      [
        103.7036861,
        1.3496499
      ],
      [
        103.7035523,
        1.3499126
      ],
      [
        103.7034684,
        1.3500774
      ],
      [
        103.7033305,
        1.3503467
      ],
      [
        103.7031822,
        1.3506363
      ],
      [
        103.7031612,
        1.3506773
      ],
      [
        103.7031216,
        1.35077
      ],
      [
        103.7030815,
        1.3508348
      ],
      [
        103.7028797,
        1.3511356
      ],
      [
        103.7026702,
        1.3514257
      ],
      [
        103.7024358,
        1.351696
      ],
      [
        103.7021784,
        1.3519445
      ],
      [
        103.7019,
        1.3521693
      ],
      [
        103.7016027,
        1.3523684
      ],
      [
        103.7012617,
        1.3526011
      ],
      [
        103.7009355,
        1.3528234
      ],
      [
        103.7008789,
        1.3528635
      ],
      [
        103.6996001,
        1.3537698
      ],
      [
        103.6991664,
        1.3540642
      ],
      [
        103.6989521,
        1.3542071
      ],
      [
        103.6986322,
        1.354435
      ],
      [
        103.6984843,
        1.3545332
      ],
      [
        103.6984137,
        1.3545803
      ],
      [
        103.6983756,
        1.3546085
      ],
      [
        103.6980972,
        1.3547839
      ],
      [
        103.6979167,
        1.3549111
      ],
      [
        103.6978073,
        1.3549895
      ],
      [
        103.6977014,
        1.3550608
      ],
      [
        103.6975549,
        1.3551658
      ],
      [
        103.6971775,
        1.3554436
      ],
      [
        103.6966667,
        1.3557758
      ],
      [
        103.6961512,
        1.3561412
      ],
      [
        103.6957027,
        1.356502
      ],
      [
        103.6955662,
        1.3566251
      ],
      [
        103.6954097,
        1.3567768
      ],
      [
        103.6951579,
        1.357041
      ],
      [
        103.69498,
        1.3572844
      ],
      [
        103.6949176,
        1.3573752
      ],
      [
        103.6948903,
        1.357411
      ],
      [
        103.6947577,
        1.3575932
      ],
      [
        103.6946049,
        1.3578042
      ],
      [
        103.6942272,
        1.3583138
      ],
      [
        103.694123,
        1.3585088
      ],
      [
        103.6940466,
        1.3586853
      ],
      [
        103.6938932,
        1.35908
      ],
      [
        103.6937693,
        1.3595145
      ],
      [
        103.6936967,
        1.3597242
      ],
      [
        103.6935598,
        1.3600099
      ],
      [
        103.6933702,
        1.3603178
      ],
      [
        103.6931794,
        1.3605774
      ],
      [
        103.692878,
        1.3608909
      ],
      [
        103.6926036,
        1.3611386
      ],
      [
        103.6924147,
        1.3612775
      ],
      [
        103.6922943,
        1.3613536
      ],
      [
        103.6919765,
        1.3615296
      ],
      [
        103.6916595,
        1.3616604
      ],
      [
        103.6916148,
        1.3616782
      ],
      [
        103.6915354,
        1.3616995
      ],
      [
        103.6914109,
        1.3617406
      ],
      [
        103.6914501,
        1.3618648
      ],
      [
        103.6914751,
        1.3619449
      ],
      [
        103.6915853,
        1.3622987
      ],
      [
        103.6918549,
        1.363109
      ],
      [
        103.6919352,
        1.3633214
      ],
      [
        103.6920272,
        1.3635285
      ],
      [
        103.6928775,
        1.3650476
      ],
      [
        103.6929659,
        1.3652008
      ],
      [
        103.6934719,
        1.366117
      ],
      [
        103.693701,
        1.3665923
      ],
      [
        103.6938398,
        1.3670427
      ],
      [
        103.6939183,
        1.3674172
      ],
      [
        103.6939726,
        1.367808
      ],
      [
        103.6939883,
        1.36797
      ],
      [
        103.6940017,
        1.3685969
      ],
      [
        103.6940183,
        1.3690829
      ],
      [
        103.6940403,
        1.3698452
      ],
      [
        103.6940745,
        1.3703316
      ],
      [
        103.694104,
        1.3706209
      ],
      [
        103.6941394,
        1.3708961
      ],
      [
        103.694185,
        1.371156
      ],
      [
        103.694239,
        1.3713621
      ],
      [
        103.6945948,
        1.3725177
      ],
      [
        103.6946626,
        1.3727069
      ],
      [
        103.6947902,
        1.3730914
      ],
      [
        103.6948761,
        1.3733084
      ],
      [
        103.6948936,
        1.3734951
      ],
      [
        103.6948926,
        1.3735535
      ],
      [
        103.694874,
        1.3736074
      ],
      [
        103.6948315,
        1.3736691
      ],
      [
        103.6947912,
        1.373707
      ],
      [
        103.6946686,
        1.3738026
      ],
      [
        103.6942963,
        1.37395
      ],
      [
        103.6941524,
        1.3739674
      ],
      [
        103.6941208,
        1.3739713
      ],
      [
        103.6937146,
        1.3740149
      ],
      [
        103.6931958,
        1.3740651
      ],
      [
        103.6931709,
        1.3740662
      ],
      [
        103.6925986,
        1.3741188
      ],
      [
        103.6924704,
        1.3741205
      ],
      [
        103.6923937,
        1.3741092
      ],
      [
        103.6923293,
        1.374091
      ],
      [
        103.6922575,
        1.374056
      ],
      [
        103.6921831,
        1.3740101
      ],
      [
        103.6921258,
        1.3739544
      ],
      [
        103.6918889,
        1.3737152
      ],
      [
        103.6916588,
        1.3734793
      ],
      [
        103.6915347,
        1.3733286
      ],
      [
        103.6914524,
        1.3732126
      ],
      [
        103.6914137,
        1.3731562
      ],
      [
        103.6912009,
        1.3728331
      ],
      [
        103.6911713,
        1.3727882
      ],
      [
        103.6910312,
        1.3726047
      ],
      [
        103.6909112,
        1.3724751
      ],
      [
        103.6907464,
        1.3723358
      ],
      [
        103.6906109,
        1.3722493
      ],
      [
        103.6903754,
        1.3721376
      ],
      [
        103.6901755,
        1.3720429
      ],
      [
        103.689534,
        1.3717387
      ],
      [
        103.6894079,
        1.371665
      ],
      [
        103.6893337,
        1.3716061
      ],
      [
        103.6892929,
        1.3715664
      ],
      [
        103.6892162,
        1.3714916
      ],
      [
        103.6891606,
        1.37141
      ],
      [
        103.6890985,
        1.3713216
      ],
      [
        103.688971,
        1.3711455
      ],
      [
        103.6889209,
        1.3710803
      ],
      [
        103.6885551,
        1.370634
      ],
      [
        103.6884775,
        1.3705231
      ],
      [
        103.688395,
        1.3704474
      ],
      [
        103.688289,
        1.3703765
      ],
      [
        103.6881926,
        1.3703294
      ],
      [
        103.6878512,
        1.370189
      ],
      [
        103.6876495,
        1.3701002
      ],
      [
        103.6875199,
        1.3700432
      ],
      [
        103.6874445,
        1.37001
      ],
      [
        103.6872953,
        1.3699499
      ],
      [
        103.6871673,
        1.3698962
      ],
      [
        103.6870224,
        1.3698952
      ],
      [
        103.6868752,
        1.3699401
      ],
      [
        103.6867578,
        1.3699968
      ],
      [
        103.6867258,
        1.3700166
      ],
      [
        103.6863012,
        1.3703376
      ],
      [
        103.6861575,
        1.3704407
      ],
      [
        103.6860725,
        1.3705035
      ],
      [
        103.6858274,
        1.3706829
      ],
      [
        103.6856545,
        1.3708117
      ],
      [
        103.6855351,
        1.3709005
      ],
      [
        103.6854156,
        1.3709375
      ],
      [
        103.6854031,
        1.3709463
      ],
      [
        103.6850072,
        1.3712281
      ],
      [
        103.684904,
        1.3713038
      ],
      [
        103.6846398,
        1.3714976
      ],
      [
        103.6842297,
        1.371816
      ],
      [
        103.6840741,
        1.3719457
      ],
      [
        103.6836592,
        1.3722695
      ],
      [
        103.6835028,
        1.3723825
      ],
      [
        103.6834659,
        1.3724093
      ],
      [
        103.6835028,
        1.3723825
      ],
      [
        103.6834659,
        1.3724093
      ],
      [
        103.6836592,
        1.3722695
      ],
      [
        103.6842066,
        1.3718768
      ],
      [
        103.6842825,
        1.3718263
      ],
      [
        103.6844896,
        1.3716872
      ],
      [
        103.6847899,
        1.3714797
      ],
      [
        103.6849226,
        1.3713836
      ],
      [
        103.685027,
        1.3713079
      ],
      [
        103.6852671,
        1.3711339
      ],
      [
        103.6854046,
        1.3710215
      ],
      [
        103.6855351,
        1.3709005
      ],
      [
        103.6855351,
        1.3709005
      ],
      [
        103.6856545,
        1.3708117
      ],
      [
        103.6858274,
        1.3706829
      ],
      [
        103.6861575,
        1.3704407
      ],
      [
        103.6860725,
        1.3705035
      ],
      [
        103.6863012,
        1.3703376
      ],
      [
        103.6875199,
        1.3700432
      ],
      [
        103.6874445,
        1.37001
      ],
      [
        103.6872953,
        1.3699499
      ],
      [
        103.6871673,
        1.3698962
      ],
      [
        103.6870224,
        1.3698952
      ],
      [
        103.6868752,
        1.3699401
      ],
      [
        103.6867578,
        1.3699968
      ],
      [
        103.6867258,
        1.3700166
      ],
      [
        103.6876495,
        1.3701002
      ],
      [
        103.6881926,
        1.3703294
      ],
      [
        103.6878512,
        1.370189
      ],
      [
        103.6884775,
        1.3705231
      ],
      [
        103.688395,
        1.3704474
      ],
      [
        103.688289,
        1.3703765
      ],
      [
        103.6885551,
        1.370634
      ],
      [
        103.6891606,
        1.37141
      ],
      [
        103.6890985,
        1.3713216
      ],
      [
        103.688971,
        1.3711455
      ],
      [
        103.6889209,
        1.3710803
      ],
      [
        103.6892929,
        1.3715664
      ],
      [
        103.6892162,
        1.3714916
      ],
      [
        103.6893337,
        1.3716061
      ],
      [
        103.6894079,
        1.371665
      ],
      [
        103.6911713,
        1.3727882
      ],
      [
        103.6910312,
        1.3726047
      ],
      [
        103.6909112,
        1.3724751
      ],
      [
        103.6907464,
        1.3723358
      ],
      [
        103.6906109,
        1.3722493
      ],
      [
        103.6903754,
        1.3721376
      ],
      [
        103.6901755,
        1.3720429
      ],
      [
        103.689534,
        1.3717387
      ],
      [
        103.6914137,
        1.3731562
      ],
      [
        103.6912009,
        1.3728331
      ],
      [
        103.6916588,
        1.3734793
      ],
      [
        103.6915347,
        1.3733286
      ],
      [
        103.6914524,
        1.3732126
      ],
      [
        103.6921831,
        1.3740101
      ],
      [
        103.6921258,
        1.3739544
      ],
      [
        103.6918889,
        1.3737152
      ],
      [
        103.6924704,
        1.3741205
      ],
      [
        103.6923937,
        1.3741092
      ],
      [
        103.6923293,
        1.374091
      ],
      [
        103.6922575,
        1.374056
      ],
      [
        103.6925986,
        1.3741188
      ],
      [
        103.6931709,
        1.3740662
      ],
      [
        103.6937146,
        1.3740149
      ],
      [
        103.6931958,
        1.3740651
      ],
      [
        103.6941524,
        1.3739674
      ],
      [
        103.6941208,
        1.3739713
      ],
      [
        103.6946627,
        1.3739346
      ],
      [
        103.6949857,
        1.3739193
      ],
      [
        103.6950699,
        1.3739006
      ],
      [
        103.6951737,
        1.3738776
      ],
      [
        103.6951189,
        1.3736735
      ],
      [
        103.6951052,
        1.3736203
      ],
      [
        103.6950274,
        1.3733651
      ],
      [
        103.6948592,
        1.3728396
      ],
      [
        103.6947368,
        1.3724553
      ],
      [
        103.694414,
        1.3715001
      ],
      [
        103.6943597,
        1.3713266
      ],
      [
        103.694305,
        1.3711111
      ],
      [
        103.6942657,
        1.370876
      ],
      [
        103.6942351,
        1.3706131
      ],
      [
        103.6942057,
        1.3703261
      ],
      [
        103.6941641,
        1.3698368
      ],
      [
        103.6941437,
        1.3690747
      ],
      [
        103.6941314,
        1.3686546
      ],
      [
        103.6940951,
        1.3679687
      ],
      [
        103.694043,
        1.367515
      ],
      [
        103.6940039,
        1.367254
      ],
      [
        103.6939786,
        1.3671067
      ],
      [
        103.6939148,
        1.3668656
      ],
      [
        103.6938128,
        1.3665582
      ],
      [
        103.6937199,
        1.366343
      ],
      [
        103.6936646,
        1.3662288
      ],
      [
        103.6931094,
        1.365192
      ],
      [
        103.6929712,
        1.364964
      ],
      [
        103.6924013,
        1.3639035
      ],
      [
        103.6922539,
        1.3636752
      ],
      [
        103.6921447,
        1.3634701
      ],
      [
        103.6920577,
        1.3632692
      ],
      [
        103.6919699,
        1.3630515
      ],
      [
        103.6919011,
        1.3628339
      ],
      [
        103.6917779,
        1.3624019
      ],
      [
        103.6917749,
        1.3621904
      ],
      [
        103.6917534,
        1.3621169
      ],
      [
        103.6917533,
        1.362042
      ],
      [
        103.6917677,
        1.3619823
      ],
      [
        103.6917822,
        1.3619369
      ],
      [
        103.6918256,
        1.3618586
      ],
      [
        103.6918677,
        1.361802
      ],
      [
        103.6920078,
        1.3616762
      ],
      [
        103.6922552,
        1.3615464
      ],
      [
        103.6924841,
        1.3614139
      ],
      [
        103.6927072,
        1.3612648
      ],
      [
        103.692961,
        1.3610687
      ],
      [
        103.6931656,
        1.3608839
      ],
      [
        103.6934278,
        1.3606059
      ],
      [
        103.6936947,
        1.3602366
      ],
      [
        103.6938869,
        1.3599239
      ],
      [
        103.6940748,
        1.3595397
      ],
      [
        103.6943674,
        1.3588078
      ],
      [
        103.6945069,
        1.3584392
      ],
      [
        103.6946578,
        1.3580877
      ],
      [
        103.694772,
        1.3578579
      ],
      [
        103.6948524,
        1.3577329
      ],
      [
        103.6949236,
        1.3576115
      ],
      [
        103.6950039,
        1.3574817
      ],
      [
        103.6950257,
        1.3574481
      ],
      [
        103.6950944,
        1.357358
      ],
      [
        103.6954279,
        1.3569491
      ],
      [
        103.6955483,
        1.3568172
      ],
      [
        103.6957655,
        1.3565981
      ],
      [
        103.6962249,
        1.3562442
      ],
      [
        103.6966458,
        1.3559643
      ],
      [
        103.6969431,
        1.3557636
      ],
      [
        103.6973286,
        1.3555002
      ],
      [
        103.6977649,
        1.3551466
      ],
      [
        103.6978786,
        1.3550706
      ],
      [
        103.6979936,
        1.3549959
      ],
      [
        103.6981221,
        1.3549123
      ],
      [
        103.6986184,
        1.3545835
      ],
      [
        103.6993894,
        1.3540507
      ],
      [
        103.6996415,
        1.3538782
      ],
      [
        103.6997366,
        1.3538035
      ],
      [
        103.7002942,
        1.3533986
      ],
      [
        103.7003707,
        1.3533465
      ],
      [
        103.7004244,
        1.353309
      ],
      [
        103.700833,
        1.3530006
      ],
      [
        103.7009359,
        1.3529257
      ],
      [
        103.701003,
        1.3528774
      ],
      [
        103.7011047,
        1.3528079
      ],
      [
        103.7016441,
        1.3524313
      ],
      [
        103.7019638,
        1.3522057
      ],
      [
        103.7022042,
        1.3520163
      ],
      [
        103.7024272,
        1.3518151
      ],
      [
        103.7026603,
        1.3515608
      ],
      [
        103.7028573,
        1.3513352
      ],
      [
        103.7029904,
        1.351147
      ],
      [
        103.7031553,
        1.3508761
      ],
      [
        103.7032009,
        1.3508017
      ],
      [
        103.7032486,
        1.3507252
      ],
      [
        103.7032735,
        1.3506793
      ],
      [
        103.7033625,
        1.3505371
      ],
      [
        103.7037462,
        1.3497386
      ],
      [
        103.7038119,
        1.349604
      ],
      [
        103.7038732,
        1.349483
      ],
      [
        103.7039689,
        1.34929
      ],
      [
        103.7042224,
        1.3488025
      ],
      [
        103.7043312,
        1.3485933
      ],
      [
        103.7045126,
        1.3482673
      ],
      [
        103.7047198,
        1.347908
      ],
      [
        103.7048169,
        1.3477433
      ],
      [
        103.7050478,
        1.3473413
      ],
      [
        103.7050883,
        1.3472792
      ],
      [
        103.7052161,
        1.3470572
      ],
      [
        103.7052603,
        1.3469881
      ],
      [
        103.7054201,
        1.3467597
      ],
      [
        103.7055419,
        1.3465847
      ],
      [
        103.7056024,
        1.3464932
      ],
      [
        103.7062356,
        1.3455354
      ],
      [
        103.7064722,
        1.3451841
      ],
      [
        103.7066956,
        1.3448434
      ],
      [
        103.7068471,
        1.3446289
      ],
      [
        103.706944,
        1.3444985
      ],
      [
        103.7071382,
        1.3441977
      ],
      [
        103.7071803,
        1.3441324
      ],
      [
        103.7072274,
        1.3440668
      ],
      [
        103.7071265,
        1.343993
      ],
      [
        103.7070616,
        1.3439493
      ],
      [
        103.7068559,
        1.3438106
      ],
      [
        103.7068431,
        1.3438025
      ],
      [
        103.7064496,
        1.3435515
      ],
      [
        103.7062809,
        1.3434344
      ],
      [
        103.7059418,
        1.3431861
      ],
      [
        103.7057976,
        1.3430804
      ],
      [
        103.705747,
        1.3430331
      ],
      [
        103.7057021,
        1.3429778
      ],
      [
        103.7055821,
        1.3427593
      ],
      [
        103.7054107,
        1.3422414
      ],
      [
        103.7053406,
        1.3420377
      ],
      [
        103.7053147,
        1.3419533
      ],
      [
        103.7052716,
        1.3418269
      ],
      [
        103.7052146,
        1.34166
      ],
      [
        103.7051695,
        1.3415278
      ],
      [
        103.7051397,
        1.3414688
      ],
      [
        103.7051187,
        1.3414272
      ],
      [
        103.7050496,
        1.3413419
      ],
      [
        103.7050187,
        1.3413183
      ],
      [
        103.704915,
        1.3412389
      ],
      [
        103.7048593,
        1.3412182
      ],
      [
        103.7047749,
        1.3411867
      ],
      [
        103.7047697,
        1.3411846
      ],
      [
        103.7045671,
        1.3411397
      ],
      [
        103.7044667,
        1.3411188
      ],
      [
        103.7042824,
        1.3410871
      ],
      [
        103.704179,
        1.3409994
      ],
      [
        103.7040979,
        1.3409388
      ],
      [
        103.7040461,
        1.3408685
      ],
      [
        103.704009,
        1.3408045
      ],
      [
        103.7040296,
        1.3404985
      ],
      [
        103.7040526,
        1.3402848
      ],
      [
        103.7041126,
        1.3401582
      ],
      [
        103.7041408,
        1.3400858
      ],
      [
        103.7042066,
        1.3400347
      ],
      [
        103.704296,
        1.3399857
      ],
      [
        103.7043943,
        1.3399522
      ],
      [
        103.704447,
        1.3399704
      ],
      [
        103.7046431,
        1.3400383
      ],
      [
        103.7047057,
        1.3400624
      ],
      [
        103.7047585,
        1.3400827
      ],
      [
        103.7048322,
        1.34011
      ],
      [
        103.7052737,
        1.3402782
      ],
      [
        103.7054385,
        1.340341
      ],
      [
        103.7055251,
        1.3403729
      ],
      [
        103.7055558,
        1.340292
      ]
    ]
  }
}