{
  "type": "Feature",
  "properties": {
    "relation": 19702229,
    "direction": "2",
    "fee": "yes",
    "from": "Airport Police Station",
    "name": "Svc 44 (Airport Police Station → Punggol Coast Interchange)",
    "name:en": "Svc 44 (Airport Police Station → Punggol Coast Interchange)",
    "network": "Land Transport Authority",
    "network:short": "LTA",
    "network:wikidata": "Q3299279",
    "network:wikipedia": "en:Land Transport Authority",
    "operator": "Go-Ahead Singapore",
    "operator:wikidata": "Q24698874",
    "operator:wikipedia": "en:Go-Ahead Singapore",
    "public_transport:version": "2",
    "ref": "44",
    "route": "bus",
    "to": "Punggol Coast Interchange",
    "type": "route",
    "website": "https://go-aheadsingapore.com/bus-services/"
  },
  "geometry": {
    "type": "LineString",
    "coordinates": [
      [
        103.9816423,
        1.341325
      ],
      [
        103.9825058,
        1.3433997
      ],
      [
        103.9830779,
        1.3447708
      ],
      [
        103.9833071,
        1.345301
      ],
      [
        103.9835087,
        1.3457672
      ],
      [
        103.9836896,
        1.3461857
      ],
      [
        103.9838875,
        1.3466434
      ],
      [
        103.9841235,
        1.3471893
      ],
      [
        103.9843717,
        1.3477702
      ],
      [
        103.9844805,
        1.3480252
      ],
      [
        103.9845715,
        1.3484084
      ],
      [
        103.9846273,
        1.348557
      ],
      [
        103.9846598,
        1.3486634
      ],
      [
        103.9846784,
        1.348734
      ],
      [
        103.9846908,
        1.3487956
      ],
      [
        103.984695,
        1.3488582
      ],
      [
        103.9846911,
        1.3489198
      ],
      [
        103.9846501,
        1.3491101
      ],
      [
        103.9846177,
        1.349418
      ],
      [
        103.9846147,
        1.3495125
      ],
      [
        103.9846191,
        1.3495803
      ],
      [
        103.9846337,
        1.3496523
      ],
      [
        103.984649,
        1.3497023
      ],
      [
        103.9847137,
        1.3498462
      ],
      [
        103.9847111,
        1.3499698
      ],
      [
        103.9847133,
        1.3500088
      ],
      [
        103.9847073,
        1.3500516
      ],
      [
        103.9846944,
        1.3500828
      ],
      [
        103.9846754,
        1.3501076
      ],
      [
        103.9846432,
        1.3501276
      ],
      [
        103.9844874,
        1.3501941
      ],
      [
        103.9843922,
        1.3502332
      ],
      [
        103.9843264,
        1.3502866
      ],
      [
        103.9843074,
        1.3503162
      ],
      [
        103.9842905,
        1.350373
      ],
      [
        103.9842856,
        1.3504354
      ],
      [
        103.9842627,
        1.350486
      ],
      [
        103.9842257,
        1.350525
      ],
      [
        103.9840569,
        1.3506243
      ],
      [
        103.984042,
        1.3506564
      ],
      [
        103.9840465,
        1.3506938
      ],
      [
        103.9844626,
        1.3517279
      ],
      [
        103.9847865,
        1.3525357
      ],
      [
        103.9851493,
        1.3533725
      ],
      [
        103.9855389,
        1.3543894
      ],
      [
        103.9860309,
        1.3556967
      ],
      [
        103.9866814,
        1.3571691
      ],
      [
        103.9874211,
        1.3588296
      ],
      [
        103.9880004,
        1.3601652
      ],
      [
        103.9883239,
        1.3606952
      ],
      [
        103.9883552,
        1.3607622
      ],
      [
        103.9883959,
        1.3608416
      ],
      [
        103.9890465,
        1.3619994
      ],
      [
        103.9890549,
        1.362015
      ],
      [
        103.9890682,
        1.3620228
      ],
      [
        103.9890817,
        1.3620232
      ],
      [
        103.9890993,
        1.3620176
      ],
      [
        103.9896441,
        1.3617907
      ],
      [
        103.9897436,
        1.3617492
      ],
      [
        103.9898358,
        1.3617108
      ],
      [
        103.9899345,
        1.3616698
      ],
      [
        103.9900368,
        1.3616271
      ],
      [
        103.9901292,
        1.3615887
      ],
      [
        103.9902309,
        1.3615463
      ],
      [
        103.9915192,
        1.3609899
      ],
      [
        103.9915825,
        1.3609272
      ],
      [
        103.9916029,
        1.3608519
      ],
      [
        103.9916085,
        1.3607988
      ],
      [
        103.9915945,
        1.3607067
      ],
      [
        103.9911278,
        1.3595203
      ],
      [
        103.9909125,
        1.3589878
      ],
      [
        103.9908908,
        1.3589383
      ],
      [
        103.9907796,
        1.3586805
      ],
      [
        103.990648,
        1.358375
      ],
      [
        103.9900256,
        1.3569366
      ],
      [
        103.9897002,
        1.3561908
      ],
      [
        103.9884758,
        1.3533123
      ],
      [
        103.9876919,
        1.3513695
      ],
      [
        103.9875825,
        1.3512851
      ],
      [
        103.9873976,
        1.3511412
      ],
      [
        103.9873105,
        1.3509761
      ],
      [
        103.9872273,
        1.3507784
      ],
      [
        103.9871762,
        1.3506461
      ],
      [
        103.9871118,
        1.3505629
      ],
      [
        103.9871039,
        1.3505566
      ],
      [
        103.9870615,
        1.3505227
      ],
      [
        103.9869925,
        1.3504992
      ],
      [
        103.9869066,
        1.3505026
      ],
      [
        103.9867302,
        1.3505725
      ],
      [
        103.9865291,
        1.35069
      ],
      [
        103.9864081,
        1.3507094
      ],
      [
        103.9863069,
        1.3506941
      ],
      [
        103.9862425,
        1.3506371
      ],
      [
        103.9859632,
        1.3499676
      ],
      [
        103.9859352,
        1.3499068
      ],
      [
        103.9858925,
        1.3498349
      ],
      [
        103.985846,
        1.3497718
      ],
      [
        103.9857823,
        1.3496843
      ],
      [
        103.985715,
        1.3496298
      ],
      [
        103.985638,
        1.3495713
      ],
      [
        103.9855757,
        1.3495257
      ],
      [
        103.985517,
        1.349481
      ],
      [
        103.9854629,
        1.3494399
      ],
      [
        103.9854141,
        1.3493956
      ],
      [
        103.9853489,
        1.3493268
      ],
      [
        103.9853007,
        1.3492584
      ],
      [
        103.985243,
        1.3491565
      ],
      [
        103.9851584,
        1.3489324
      ],
      [
        103.9851401,
        1.3487755
      ],
      [
        103.9850608,
        1.3485258
      ],
      [
        103.9849399,
        1.3482766
      ],
      [
        103.9849242,
        1.3482258
      ],
      [
        103.9849153,
        1.3481878
      ],
      [
        103.9848463,
        1.3477158
      ],
      [
        103.9847828,
        1.3475581
      ],
      [
        103.9847303,
        1.3474907
      ],
      [
        103.9846516,
        1.3473524
      ],
      [
        103.9845523,
        1.3472118
      ],
      [
        103.9845335,
        1.3471737
      ],
      [
        103.9845123,
        1.3471203
      ],
      [
        103.984491,
        1.3470505
      ],
      [
        103.9844714,
        1.3469893
      ],
      [
        103.9844458,
        1.3469194
      ],
      [
        103.9843385,
        1.3466727
      ],
      [
        103.9842423,
        1.3464691
      ],
      [
        103.9840572,
        1.3460244
      ],
      [
        103.9838887,
        1.3456114
      ],
      [
        103.9836969,
        1.3451415
      ],
      [
        103.9836782,
        1.3450957
      ],
      [
        103.9835371,
        1.3446949
      ],
      [
        103.9835069,
        1.344579
      ],
      [
        103.9834925,
        1.3444996
      ],
      [
        103.9834832,
        1.3444194
      ],
      [
        103.9834814,
        1.3443279
      ],
      [
        103.9834838,
        1.3442321
      ],
      [
        103.9834951,
        1.3439749
      ],
      [
        103.9835049,
        1.3438914
      ],
      [
        103.9835083,
        1.3438009
      ],
      [
        103.9835018,
        1.3437324
      ],
      [
        103.9834935,
        1.3436177
      ],
      [
        103.9834795,
        1.343534
      ],
      [
        103.9834429,
        1.3434183
      ],
      [
        103.9834225,
        1.3433524
      ],
      [
        103.9833883,
        1.3432788
      ],
      [
        103.9833386,
        1.3431891
      ],
      [
        103.9832581,
        1.3430421
      ],
      [
        103.9832262,
        1.3429567
      ],
      [
        103.9831602,
        1.3427335
      ],
      [
        103.9829753,
        1.3422286
      ],
      [
        103.9828322,
        1.3418825
      ],
      [
        103.9826638,
        1.3414743
      ],
      [
        103.9825548,
        1.3412638
      ],
      [
        103.982477,
        1.3411036
      ],
      [
        103.9823971,
        1.3409841
      ],
      [
        103.9823309,
        1.3408662
      ],
      [
        103.9822545,
        1.3406996
      ],
      [
        103.982206,
        1.3405871
      ],
      [
        103.9821837,
        1.3405111
      ],
      [
        103.9821709,
        1.340442
      ],
      [
        103.9821667,
        1.3403742
      ],
      [
        103.982175,
        1.3402996
      ],
      [
        103.9821924,
        1.3402274
      ],
      [
        103.9822273,
        1.3401498
      ],
      [
        103.9822665,
        1.3400881
      ],
      [
        103.9823149,
        1.3400306
      ],
      [
        103.9823995,
        1.3399705
      ],
      [
        103.9825393,
        1.3398926
      ],
      [
        103.9826663,
        1.3398248
      ],
      [
        103.9829557,
        1.339696
      ],
      [
        103.9829989,
        1.3396748
      ],
      [
        103.9830269,
        1.3396481
      ],
      [
        103.9830443,
        1.3396084
      ],
      [
        103.9830476,
        1.3395675
      ],
      [
        103.9830379,
        1.3395236
      ],
      [
        103.9829484,
        1.3392927
      ],
      [
        103.9826547,
        1.3385674
      ],
      [
        103.9823688,
        1.3379014
      ],
      [
        103.9822671,
        1.3376619
      ],
      [
        103.9822523,
        1.3376296
      ],
      [
        103.9822353,
        1.3376018
      ],
      [
        103.9822043,
        1.3375745
      ],
      [
        103.9821683,
        1.3375557
      ],
      [
        103.9821305,
        1.3375484
      ],
      [
        103.9820962,
        1.337547
      ],
      [
        103.9820583,
        1.3375619
      ],
      [
        103.9820207,
        1.3375958
      ],
      [
        103.9818976,
        1.3377428
      ],
      [
        103.9817553,
        1.3380916
      ],
      [
        103.9816741,
        1.3383101
      ],
      [
        103.981646,
        1.3385158
      ],
      [
        103.9816179,
        1.3386046
      ],
      [
        103.9815948,
        1.3386825
      ],
      [
        103.9815807,
        1.3387536
      ],
      [
        103.9815757,
        1.3387971
      ],
      [
        103.9815943,
        1.338924
      ],
      [
        103.981632,
        1.3389555
      ],
      [
        103.9816712,
        1.3389742
      ],
      [
        103.9817205,
        1.3389848
      ],
      [
        103.9817847,
        1.338989
      ],
      [
        103.9818523,
        1.3389696
      ],
      [
        103.9824628,
        1.3387
      ],
      [
        103.9825132,
        1.3386778
      ],
      [
        103.982566,
        1.3386545
      ],
      [
        103.9826024,
        1.3386385
      ],
      [
        103.9826292,
        1.3386116
      ],
      [
        103.9826547,
        1.3385674
      ],
      [
        103.9823688,
        1.3379014
      ],
      [
        103.9822671,
        1.3376619
      ],
      [
        103.9822523,
        1.3376296
      ],
      [
        103.9822353,
        1.3376018
      ],
      [
        103.9822043,
        1.3375745
      ],
      [
        103.9821683,
        1.3375557
      ],
      [
        103.9821305,
        1.3375484
      ],
      [
        103.9820962,
        1.337547
      ],
      [
        103.9820583,
        1.3375619
      ],
      [
        103.9820207,
        1.3375958
      ],
      [
        103.9818976,
        1.3377428
      ],
      [
        103.9817553,
        1.3380916
      ],
      [
        103.9816741,
        1.3383101
      ],
      [
        103.98155,
        1.3385778
      ],
      [
        103.981532,
        1.3386213
      ],
      [
        103.9815085,
        1.3386625
      ],
      [
        103.9814808,
        1.3387045
      ],
      [
        103.9814392,
        1.3387542
      ],
      [
        103.9814026,
        1.3387876
      ],
      [
        103.9813494,
        1.3388322
      ],
      [
        103.9813164,
        1.3388657
      ],
      [
        103.981267,
        1.3389322
      ],
      [
        103.9812484,
        1.3389967
      ],
      [
        103.9812462,
        1.3390546
      ],
      [
        103.9812535,
        1.3391283
      ],
      [
        103.9812899,
        1.3392253
      ],
      [
        103.9814607,
        1.3396497
      ],
      [
        103.9820892,
        1.3410573
      ],
      [
        103.9821698,
        1.341263
      ],
      [
        103.9827443,
        1.3426802
      ],
      [
        103.982937,
        1.3431617
      ],
      [
        103.9830528,
        1.3434437
      ],
      [
        103.9831066,
        1.3435698
      ],
      [
        103.9831317,
        1.3436178
      ],
      [
        103.9831555,
        1.3436459
      ],
      [
        103.9831858,
        1.3436727
      ],
      [
        103.9832985,
        1.3437541
      ],
      [
        103.9833465,
        1.3437927
      ],
      [
        103.9833737,
        1.3438248
      ],
      [
        103.9833924,
        1.3438692
      ],
      [
        103.9834013,
        1.3439128
      ],
      [
        103.983398,
        1.3439552
      ],
      [
        103.9833858,
        1.343995
      ],
      [
        103.9833632,
        1.3440325
      ],
      [
        103.9833326,
        1.3440621
      ],
      [
        103.9832911,
        1.3440837
      ],
      [
        103.9832523,
        1.3440924
      ],
      [
        103.9832146,
        1.3440924
      ],
      [
        103.9831755,
        1.3440831
      ],
      [
        103.9831436,
        1.3440654
      ],
      [
        103.9831195,
        1.3440407
      ],
      [
        103.9831035,
        1.3440091
      ],
      [
        103.9830422,
        1.3438636
      ],
      [
        103.9828791,
        1.3436699
      ],
      [
        103.9818634,
        1.3412807
      ],
      [
        103.981651,
        1.3407815
      ],
      [
        103.9815076,
        1.3403593
      ],
      [
        103.9814412,
        1.3401956
      ],
      [
        103.9812062,
        1.3396035
      ],
      [
        103.9811001,
        1.3393068
      ],
      [
        103.9810509,
        1.3391364
      ],
      [
        103.9810152,
        1.3390218
      ],
      [
        103.9810018,
        1.338909
      ],
      [
        103.9809987,
        1.3387725
      ],
      [
        103.9810118,
        1.3386218
      ],
      [
        103.9810271,
        1.3385369
      ],
      [
        103.9810512,
        1.3384428
      ],
      [
        103.9810862,
        1.3383636
      ],
      [
        103.981129,
        1.338285
      ],
      [
        103.9811902,
        1.338192
      ],
      [
        103.9812505,
        1.3381142
      ],
      [
        103.98141,
        1.3379304
      ],
      [
        103.9814609,
        1.3378606
      ],
      [
        103.9815009,
        1.3377855
      ],
      [
        103.9815225,
        1.3377102
      ],
      [
        103.9815348,
        1.3376307
      ],
      [
        103.9815325,
        1.3375253
      ],
      [
        103.9815135,
        1.3374087
      ],
      [
        103.981488,
        1.337319
      ],
      [
        103.9814469,
        1.3372178
      ],
      [
        103.9813982,
        1.3371248
      ],
      [
        103.9813383,
        1.337047
      ],
      [
        103.9812772,
        1.3369768
      ],
      [
        103.9811855,
        1.3368981
      ],
      [
        103.9810808,
        1.3368354
      ],
      [
        103.9809693,
        1.3367835
      ],
      [
        103.9808663,
        1.3367434
      ],
      [
        103.9807538,
        1.336717
      ],
      [
        103.9806395,
        1.3366999
      ],
      [
        103.9805331,
        1.3366964
      ],
      [
        103.980406,
        1.3367042
      ],
      [
        103.9803062,
        1.3367248
      ],
      [
        103.9802249,
        1.3367502
      ],
      [
        103.9796563,
        1.3369959
      ],
      [
        103.978563,
        1.3374591
      ],
      [
        103.977859,
        1.3377574
      ],
      [
        103.9774681,
        1.337923
      ],
      [
        103.9771803,
        1.3380449
      ],
      [
        103.9767763,
        1.3381941
      ],
      [
        103.9760811,
        1.3384805
      ],
      [
        103.9752577,
        1.3388441
      ],
      [
        103.9748247,
        1.3390272
      ],
      [
        103.973531,
        1.3395852
      ],
      [
        103.973006,
        1.3397823
      ],
      [
        103.9723253,
        1.3401095
      ],
      [
        103.9718691,
        1.340372
      ],
      [
        103.9713226,
        1.3407414
      ],
      [
        103.9708626,
        1.3411388
      ],
      [
        103.9703651,
        1.3416564
      ],
      [
        103.9699403,
        1.3422465
      ],
      [
        103.969532,
        1.3428858
      ],
      [
        103.968426,
        1.3446173
      ],
      [
        103.9680759,
        1.3451653
      ],
      [
        103.9680272,
        1.345198
      ],
      [
        103.9679883,
        1.3452396
      ],
      [
        103.9679582,
        1.3452711
      ],
      [
        103.9679254,
        1.3453121
      ],
      [
        103.9674754,
        1.3459349
      ],
      [
        103.9668815,
        1.3467811
      ],
      [
        103.9665637,
        1.3472533
      ],
      [
        103.9663419,
        1.3475451
      ],
      [
        103.96599,
        1.3479686
      ],
      [
        103.9657729,
        1.3482388
      ],
      [
        103.9655636,
        1.3485086
      ],
      [
        103.9653289,
        1.3488795
      ],
      [
        103.9651492,
        1.3492718
      ],
      [
        103.9650118,
        1.3496407
      ],
      [
        103.964883,
        1.3500826
      ],
      [
        103.9646482,
        1.3509747
      ],
      [
        103.9644033,
        1.3517994
      ],
      [
        103.9636241,
        1.3543164
      ],
      [
        103.9632943,
        1.355173
      ],
      [
        103.963157,
        1.3556395
      ],
      [
        103.9629761,
        1.3562872
      ],
      [
        103.9628834,
        1.3566033
      ],
      [
        103.962777,
        1.356896
      ],
      [
        103.962619,
        1.3572954
      ],
      [
        103.9625356,
        1.3574308
      ],
      [
        103.9624437,
        1.3576709
      ],
      [
        103.962363,
        1.3578977
      ],
      [
        103.9621478,
        1.358383
      ],
      [
        103.9617802,
        1.3591236
      ],
      [
        103.9615219,
        1.3595449
      ],
      [
        103.9612142,
        1.3600156
      ],
      [
        103.9609385,
        1.3603973
      ],
      [
        103.960588,
        1.3608474
      ],
      [
        103.9600737,
        1.3614473
      ],
      [
        103.9595564,
        1.3619778
      ],
      [
        103.95911,
        1.3623961
      ],
      [
        103.9587298,
        1.3627417
      ],
      [
        103.9583615,
        1.363017
      ],
      [
        103.9580894,
        1.3632265
      ],
      [
        103.9580404,
        1.3632597
      ],
      [
        103.9576255,
        1.3635411
      ],
      [
        103.9568537,
        1.3640154
      ],
      [
        103.9562614,
        1.3643455
      ],
      [
        103.9556831,
        1.3646273
      ],
      [
        103.9549879,
        1.3649257
      ],
      [
        103.9542429,
        1.3651816
      ],
      [
        103.9538734,
        1.3652912
      ],
      [
        103.9534936,
        1.3653942
      ],
      [
        103.9529598,
        1.3655351
      ],
      [
        103.9517858,
        1.3657988
      ],
      [
        103.9502073,
        1.3661901
      ],
      [
        103.948175,
        1.3666216
      ],
      [
        103.9480761,
        1.3666476
      ],
      [
        103.9465362,
        1.367052
      ],
      [
        103.9459377,
        1.3672806
      ],
      [
        103.9454349,
        1.3674921
      ],
      [
        103.9449507,
        1.3677261
      ],
      [
        103.9442925,
        1.3681062
      ],
      [
        103.9439424,
        1.3683344
      ],
      [
        103.9433236,
        1.3688193
      ],
      [
        103.9429017,
        1.3691774
      ],
      [
        103.9422522,
        1.3698104
      ],
      [
        103.94178,
        1.3702583
      ],
      [
        103.9415043,
        1.3704809
      ],
      [
        103.9410444,
        1.3708321
      ],
      [
        103.9408408,
        1.3710007
      ],
      [
        103.9406533,
        1.3711586
      ],
      [
        103.9403083,
        1.3713821
      ],
      [
        103.9397304,
        1.3717208
      ],
      [
        103.938235,
        1.3725084
      ],
      [
        103.937761,
        1.372767
      ],
      [
        103.9369396,
        1.3732044
      ],
      [
        103.9367453,
        1.3733078
      ],
      [
        103.9364642,
        1.3734602
      ],
      [
        103.9353865,
        1.3739896
      ],
      [
        103.9351026,
        1.3741643
      ],
      [
        103.9344912,
        1.3744979
      ],
      [
        103.9339528,
        1.374746
      ],
      [
        103.9338083,
        1.3748125
      ],
      [
        103.932526,
        1.3754033
      ],
      [
        103.9312177,
        1.376016
      ],
      [
        103.9307181,
        1.3762316
      ],
      [
        103.9298126,
        1.3766222
      ],
      [
        103.9292057,
        1.3768854
      ],
      [
        103.9285152,
        1.3771378
      ],
      [
        103.9280103,
        1.3772976
      ],
      [
        103.9270692,
        1.3775292
      ],
      [
        103.9263805,
        1.3776969
      ],
      [
        103.9254981,
        1.3779036
      ],
      [
        103.9253205,
        1.377948
      ],
      [
        103.9239857,
        1.3782818
      ],
      [
        103.9234629,
        1.3784317
      ],
      [
        103.9229582,
        1.3785939
      ],
      [
        103.9221235,
        1.3789247
      ],
      [
        103.9211569,
        1.3793547
      ],
      [
        103.9207979,
        1.3795144
      ],
      [
        103.9207225,
        1.3795213
      ],
      [
        103.9206871,
        1.3795346
      ],
      [
        103.9202352,
        1.3797537
      ],
      [
        103.9200351,
        1.3798572
      ],
      [
        103.919619,
        1.3800723
      ],
      [
        103.9192112,
        1.3802977
      ],
      [
        103.918675,
        1.3805666
      ],
      [
        103.9179337,
        1.3808904
      ],
      [
        103.9177062,
        1.3809538
      ],
      [
        103.9174928,
        1.3809614
      ],
      [
        103.917289,
        1.3809192
      ],
      [
        103.9169601,
        1.3807639
      ],
      [
        103.9167252,
        1.3806345
      ],
      [
        103.916512,
        1.3805457
      ],
      [
        103.9163309,
        1.3804791
      ],
      [
        103.9161949,
        1.3804502
      ],
      [
        103.9160241,
        1.3804325
      ],
      [
        103.9158203,
        1.3804428
      ],
      [
        103.9156273,
        1.3804817
      ],
      [
        103.9154078,
        1.3805709
      ],
      [
        103.915215,
        1.3806785
      ],
      [
        103.9150584,
        1.3808064
      ],
      [
        103.9149513,
        1.3809219
      ],
      [
        103.9148292,
        1.3810792
      ],
      [
        103.9147443,
        1.3812218
      ],
      [
        103.9146859,
        1.3813539
      ],
      [
        103.9146299,
        1.3815634
      ],
      [
        103.9145998,
        1.3817722
      ],
      [
        103.914612,
        1.3820142
      ],
      [
        103.9146547,
        1.3821971
      ],
      [
        103.9147039,
        1.3823564
      ],
      [
        103.9147642,
        1.3825006
      ],
      [
        103.9148359,
        1.3826225
      ],
      [
        103.9149154,
        1.382743
      ],
      [
        103.9151113,
        1.382957
      ],
      [
        103.9153075,
        1.3831522
      ],
      [
        103.9157115,
        1.3834616
      ],
      [
        103.9163337,
        1.3839422
      ],
      [
        103.9168075,
        1.3842767
      ],
      [
        103.9170843,
        1.3844323
      ],
      [
        103.917305,
        1.3845403
      ],
      [
        103.9176877,
        1.3846987
      ],
      [
        103.9179013,
        1.3847758
      ],
      [
        103.9182166,
        1.3848667
      ],
      [
        103.9186274,
        1.3849441
      ],
      [
        103.919671,
        1.3851174
      ],
      [
        103.9199982,
        1.3852016
      ],
      [
        103.9201786,
        1.3852614
      ],
      [
        103.9204056,
        1.3853447
      ],
      [
        103.9205862,
        1.3854302
      ],
      [
        103.920654,
        1.3854643
      ],
      [
        103.9207682,
        1.3855216
      ],
      [
        103.9209775,
        1.3856231
      ],
      [
        103.9212527,
        1.3857975
      ],
      [
        103.921474,
        1.3859625
      ],
      [
        103.921787,
        1.386258
      ],
      [
        103.9221142,
        1.3865882
      ],
      [
        103.9223617,
        1.3868885
      ],
      [
        103.9225129,
        1.387079
      ],
      [
        103.9227515,
        1.3874234
      ],
      [
        103.9232465,
        1.3880656
      ],
      [
        103.9232539,
        1.3881786
      ],
      [
        103.9233149,
        1.3882964
      ],
      [
        103.9233686,
        1.3884152
      ],
      [
        103.9234131,
        1.3885173
      ],
      [
        103.9234329,
        1.3886083
      ],
      [
        103.923432,
        1.3886788
      ],
      [
        103.9234002,
        1.3887642
      ],
      [
        103.9232884,
        1.3890055
      ],
      [
        103.9232441,
        1.3892365
      ],
      [
        103.9231053,
        1.3895079
      ],
      [
        103.9228911,
        1.3899859
      ],
      [
        103.9226958,
        1.390421
      ],
      [
        103.9225247,
        1.3907183
      ],
      [
        103.922322,
        1.3909906
      ],
      [
        103.9220464,
        1.3913333
      ],
      [
        103.921648,
        1.3917649
      ],
      [
        103.9213016,
        1.3920539
      ],
      [
        103.9198783,
        1.3930958
      ],
      [
        103.9186343,
        1.3939661
      ],
      [
        103.9183058,
        1.3942026
      ],
      [
        103.917736,
        1.3945984
      ],
      [
        103.9174408,
        1.3947419
      ],
      [
        103.9172008,
        1.394941
      ],
      [
        103.9169969,
        1.3952136
      ],
      [
        103.9169556,
        1.3952777
      ],
      [
        103.9169117,
        1.3953385
      ],
      [
        103.9168191,
        1.3954951
      ],
      [
        103.9166421,
        1.3957797
      ],
      [
        103.9164173,
        1.3960358
      ],
      [
        103.9161724,
        1.3961926
      ],
      [
        103.9155418,
        1.3963788
      ],
      [
        103.9153515,
        1.3964351
      ],
      [
        103.9151659,
        1.396546
      ],
      [
        103.9149132,
        1.396723
      ],
      [
        103.9143477,
        1.3971375
      ],
      [
        103.9138013,
        1.3974184
      ],
      [
        103.9135175,
        1.3976194
      ],
      [
        103.9132109,
        1.3978237
      ],
      [
        103.9130093,
        1.3979801
      ],
      [
        103.9129379,
        1.3980309
      ],
      [
        103.9128445,
        1.3980923
      ],
      [
        103.9128072,
        1.3981168
      ],
      [
        103.912612,
        1.3982546
      ],
      [
        103.9110447,
        1.3993851
      ],
      [
        103.910597,
        1.3997045
      ],
      [
        103.9102403,
        1.3999723
      ],
      [
        103.9098166,
        1.4002906
      ],
      [
        103.9096852,
        1.4003773
      ],
      [
        103.9095672,
        1.4004617
      ],
      [
        103.90948,
        1.4005201
      ],
      [
        103.9092798,
        1.4006592
      ],
      [
        103.9090972,
        1.4007989
      ],
      [
        103.9090579,
        1.4008299
      ],
      [
        103.908953,
        1.4009033
      ],
      [
        103.9089148,
        1.4009306
      ],
      [
        103.9087462,
        1.4010518
      ],
      [
        103.9082113,
        1.4014434
      ],
      [
        103.9076905,
        1.4018223
      ],
      [
        103.9073659,
        1.4020244
      ],
      [
        103.9069848,
        1.4023043
      ],
      [
        103.9066905,
        1.4025138
      ],
      [
        103.9063737,
        1.4027457
      ],
      [
        103.9063242,
        1.4027819
      ],
      [
        103.9062096,
        1.4028509
      ],
      [
        103.9061309,
        1.4029033
      ],
      [
        103.9059567,
        1.4030193
      ],
      [
        103.9056054,
        1.4032395
      ],
      [
        103.9052554,
        1.403459
      ],
      [
        103.9048547,
        1.4037063
      ],
      [
        103.9046099,
        1.4038621
      ],
      [
        103.9045247,
        1.4039163
      ],
      [
        103.9044693,
        1.4039491
      ],
      [
        103.9040647,
        1.4041416
      ],
      [
        103.9037486,
        1.4043079
      ],
      [
        103.9037007,
        1.4043292
      ],
      [
        103.9036257,
        1.404364
      ],
      [
        103.903782,
        1.4047135
      ],
      [
        103.9038179,
        1.404802
      ],
      [
        103.903837,
        1.4049031
      ],
      [
        103.9038442,
        1.4049641
      ],
      [
        103.9038164,
        1.4050294
      ],
      [
        103.9037849,
        1.4050765
      ],
      [
        103.903725,
        1.405123
      ],
      [
        103.9036622,
        1.4051488
      ],
      [
        103.9035716,
        1.4051532
      ],
      [
        103.9032902,
        1.4049956
      ],
      [
        103.9030541,
        1.4048996
      ],
      [
        103.9028021,
        1.4049064
      ],
      [
        103.9025455,
        1.405022
      ],
      [
        103.9023278,
        1.4051435
      ],
      [
        103.9021238,
        1.4052057
      ],
      [
        103.9015282,
        1.4053436
      ],
      [
        103.9011864,
        1.4054458
      ],
      [
        103.9009121,
        1.4056372
      ],
      [
        103.900802,
        1.4057792
      ],
      [
        103.9007147,
        1.4058694
      ],
      [
        103.900652,
        1.4059475
      ],
      [
        103.9005933,
        1.4060067
      ],
      [
        103.9004046,
        1.4061368
      ],
      [
        103.9001713,
        1.4062017
      ],
      [
        103.8999808,
        1.4062452
      ],
      [
        103.8997105,
        1.4062796
      ],
      [
        103.899444,
        1.4062918
      ],
      [
        103.8992296,
        1.4062959
      ],
      [
        103.8990805,
        1.4063065
      ],
      [
        103.8990084,
        1.4063162
      ],
      [
        103.8988868,
        1.4063296
      ],
      [
        103.8985948,
        1.4063681
      ],
      [
        103.8984289,
        1.4063677
      ],
      [
        103.8983219,
        1.4063669
      ],
      [
        103.8980464,
        1.406355
      ],
      [
        103.8977642,
        1.4063553
      ],
      [
        103.8976929,
        1.4063554
      ],
      [
        103.8974777,
        1.4063536
      ],
      [
        103.8975245,
        1.4064733
      ],
      [
        103.8975521,
        1.4065613
      ],
      [
        103.8975633,
        1.4065847
      ],
      [
        103.897665,
        1.4068171
      ],
      [
        103.8979442,
        1.4074595
      ],
      [
        103.8981489,
        1.4078632
      ],
      [
        103.8983066,
        1.4081454
      ],
      [
        103.8985759,
        1.408648
      ],
      [
        103.898716,
        1.4089919
      ],
      [
        103.8990317,
        1.4095945
      ],
      [
        103.899253,
        1.4099994
      ],
      [
        103.8993694,
        1.4102128
      ],
      [
        103.8994801,
        1.4104325
      ],
      [
        103.8996191,
        1.4106648
      ],
      [
        103.8996556,
        1.4107265
      ],
      [
        103.8996971,
        1.4108128
      ],
      [
        103.8997215,
        1.4108558
      ],
      [
        103.8998682,
        1.4111178
      ],
      [
        103.9002076,
        1.4117478
      ],
      [
        103.9005569,
        1.4124125
      ],
      [
        103.9007424,
        1.4128243
      ],
      [
        103.9008674,
        1.4130775
      ],
      [
        103.9008914,
        1.4131572
      ],
      [
        103.9009283,
        1.4132799
      ],
      [
        103.9009493,
        1.4133491
      ],
      [
        103.9010157,
        1.4135697
      ],
      [
        103.9012643,
        1.4144266
      ],
      [
        103.9013536,
        1.4147078
      ],
      [
        103.9013852,
        1.4148064
      ],
      [
        103.9015437,
        1.4152475
      ],
      [
        103.9015662,
        1.4152833
      ],
      [
        103.9017027,
        1.4154877
      ],
      [
        103.9019525,
        1.4157839
      ],
      [
        103.9021283,
        1.4160006
      ],
      [
        103.9023119,
        1.4162159
      ],
      [
        103.9025279,
        1.4164264
      ],
      [
        103.902694,
        1.416552
      ],
      [
        103.9028838,
        1.4166767
      ],
      [
        103.9034244,
        1.4169897
      ],
      [
        103.9038289,
        1.4172856
      ],
      [
        103.9040688,
        1.4173901
      ],
      [
        103.9041342,
        1.4174115
      ],
      [
        103.9041927,
        1.4174334
      ],
      [
        103.904245,
        1.4174507
      ],
      [
        103.9044066,
        1.4174983
      ],
      [
        103.9046235,
        1.4175414
      ],
      [
        103.9048744,
        1.4175664
      ],
      [
        103.9050634,
        1.4175542
      ],
      [
        103.9052461,
        1.4175203
      ],
      [
        103.9055349,
        1.4174384
      ],
      [
        103.9057151,
        1.4173752
      ],
      [
        103.9057597,
        1.4173557
      ],
      [
        103.9060529,
        1.4172279
      ],
      [
        103.9061099,
        1.4172033
      ],
      [
        103.9061782,
        1.4171678
      ],
      [
        103.9062286,
        1.417142
      ],
      [
        103.906349,
        1.4170808
      ],
      [
        103.9068685,
        1.4168168
      ],
      [
        103.9069384,
        1.4167864
      ],
      [
        103.9071393,
        1.416699
      ],
      [
        103.9073012,
        1.4166359
      ],
      [
        103.9076902,
        1.4165647
      ],
      [
        103.9079486,
        1.4165259
      ],
      [
        103.9080101,
        1.4165167
      ],
      [
        103.9081329,
        1.4165054
      ],
      [
        103.9081108,
        1.416397
      ],
      [
        103.9081037,
        1.4163436
      ],
      [
        103.9080818,
        1.4161239
      ],
      [
        103.9080509,
        1.4159248
      ],
      [
        103.9079487,
        1.415494
      ],
      [
        103.9081108,
        1.4154452
      ],
      [
        103.9081283,
        1.4154426
      ],
      [
        103.9081665,
        1.4154479
      ],
      [
        103.9082071,
        1.4154675
      ],
      [
        103.9082542,
        1.415605
      ],
      [
        103.9083052,
        1.4156251
      ],
      [
        103.9084358,
        1.4156061
      ],
      [
        103.9085814,
        1.4155849
      ],
      [
        103.9086217,
        1.4155581
      ],
      [
        103.9086378,
        1.4155071
      ],
      [
        103.9085573,
        1.414885
      ],
      [
        103.9085447,
        1.4147847
      ],
      [
        103.9084843,
        1.4147058
      ],
      [
        103.908332,
        1.4147275
      ],
      [
        103.9081975,
        1.4147466
      ],
      [
        103.9081158,
        1.4148175
      ],
      [
        103.9081228,
        1.4149038
      ],
      [
        103.9081563,
        1.4151867
      ]
    ]
  }
}