{
  "type": "Feature",
  "properties": {
    "relation": 20328130,
    "direction": "1",
    "fee": "yes",
    "from": "Opposite Hougang Central Interchange",
    "name": "Svc 457 (Opposite Hougang Central Interchange → After Tai Seng Station)",
    "name:en": "Svc 457 (Opposite Hougang Central Interchange → After Tai Seng Station)",
    "network": "Land Transport Authority",
    "network:short": "LTA",
    "network:wikidata": "Q3299279",
    "network:wikipedia": "en:Land Transport Authority",
    "operator": "SBS Transit",
    "operator:wikidata": "Q2661305",
    "operator:wikipedia": "en:SBS Transit",
    "public_transport:version": "2",
    "ref": "457",
    "route": "bus",
    "to": "AfterTai Seng Station",
    "type": "route",
    "website": "https://www.sbstransit.com.sg/"
  },
  "geometry": {
    "type": "LineString",
    "coordinates": [
      [
        103.8915606,
        1.3712446
      ],
      [
        103.8915945,
        1.3712577
      ],
      [
        103.8917736,
        1.3713274
      ],
      [
        103.8920085,
        1.3713685
      ],
      [
        103.89258,
        1.3713712
      ],
      [
        103.8928736,
        1.371367
      ],
      [
        103.8930776,
        1.3713682
      ],
      [
        103.8931346,
        1.371362
      ],
      [
        103.893209,
        1.371334
      ],
      [
        103.8932828,
        1.3712895
      ],
      [
        103.8933002,
        1.371279
      ],
      [
        103.8937186,
        1.3708818
      ],
      [
        103.8938825,
        1.370715
      ],
      [
        103.8939912,
        1.3705587
      ],
      [
        103.8940235,
        1.3704521
      ],
      [
        103.8940333,
        1.3702747
      ],
      [
        103.8940411,
        1.3701954
      ],
      [
        103.8940439,
        1.3701487
      ],
      [
        103.8940512,
        1.3701026
      ],
      [
        103.8940892,
        1.3699867
      ],
      [
        103.8941503,
        1.3699074
      ],
      [
        103.8942188,
        1.3698111
      ],
      [
        103.8943827,
        1.3695999
      ],
      [
        103.8945671,
        1.369379
      ],
      [
        103.8946187,
        1.3693284
      ],
      [
        103.8947125,
        1.3692363
      ],
      [
        103.8947589,
        1.3691908
      ],
      [
        103.8949185,
        1.369027
      ],
      [
        103.8950375,
        1.3689008
      ],
      [
        103.8951369,
        1.3687952
      ],
      [
        103.8955186,
        1.3683801
      ],
      [
        103.8959878,
        1.3678436
      ],
      [
        103.8961074,
        1.3676937
      ],
      [
        103.8962077,
        1.3675613
      ],
      [
        103.8963035,
        1.3674349
      ],
      [
        103.8963534,
        1.3673691
      ],
      [
        103.8965262,
        1.367141
      ],
      [
        103.8968883,
        1.3667509
      ],
      [
        103.8970399,
        1.3665967
      ],
      [
        103.8971637,
        1.3664625
      ],
      [
        103.8972017,
        1.3664212
      ],
      [
        103.8974221,
        1.3661844
      ],
      [
        103.8975001,
        1.3661017
      ],
      [
        103.8977669,
        1.3658133
      ],
      [
        103.897866,
        1.3657065
      ],
      [
        103.8979024,
        1.3656673
      ],
      [
        103.8979653,
        1.3655994
      ],
      [
        103.8978912,
        1.365531
      ],
      [
        103.8973537,
        1.3650175
      ],
      [
        103.8968468,
        1.3645333
      ],
      [
        103.896529,
        1.3642273
      ],
      [
        103.8964324,
        1.3641365
      ],
      [
        103.8962612,
        1.3639756
      ],
      [
        103.8961696,
        1.3638894
      ],
      [
        103.8960855,
        1.3637942
      ],
      [
        103.8959465,
        1.3636366
      ],
      [
        103.8958107,
        1.3634433
      ],
      [
        103.8957149,
        1.363253
      ],
      [
        103.8956224,
        1.3630392
      ],
      [
        103.8955837,
        1.3629418
      ],
      [
        103.8954981,
        1.3626966
      ],
      [
        103.8954406,
        1.3624501
      ],
      [
        103.8954225,
        1.3621428
      ],
      [
        103.8954781,
        1.3620389
      ],
      [
        103.8955472,
        1.3619592
      ],
      [
        103.8956187,
        1.3619115
      ],
      [
        103.8957056,
        1.3618726
      ],
      [
        103.8958223,
        1.3618424
      ],
      [
        103.896259,
        1.3619064
      ],
      [
        103.8965116,
        1.3619261
      ],
      [
        103.8969684,
        1.361785
      ],
      [
        103.8972529,
        1.3617596
      ],
      [
        103.8979294,
        1.3618535
      ],
      [
        103.8986819,
        1.3619382
      ],
      [
        103.8990736,
        1.3619842
      ],
      [
        103.8994078,
        1.3620356
      ],
      [
        103.9000433,
        1.3621391
      ],
      [
        103.9005039,
        1.3621913
      ],
      [
        103.9007424,
        1.3622859
      ],
      [
        103.9010905,
        1.3623293
      ],
      [
        103.9013977,
        1.3623489
      ],
      [
        103.9017204,
        1.3624001
      ],
      [
        103.9018599,
        1.3624322
      ],
      [
        103.9022415,
        1.3625036
      ],
      [
        103.9026269,
        1.3626242
      ],
      [
        103.9029125,
        1.3628167
      ],
      [
        103.9030265,
        1.3628343
      ],
      [
        103.9032484,
        1.362866
      ],
      [
        103.9037032,
        1.3629308
      ],
      [
        103.9038032,
        1.3629451
      ],
      [
        103.9044152,
        1.3630318
      ],
      [
        103.9050114,
        1.3631151
      ],
      [
        103.9050842,
        1.3630807
      ],
      [
        103.9051576,
        1.3630371
      ],
      [
        103.9052326,
        1.3629797
      ],
      [
        103.9052803,
        1.3629386
      ],
      [
        103.905292,
        1.3629238
      ],
      [
        103.9053105,
        1.3628936
      ],
      [
        103.905336,
        1.3628373
      ],
      [
        103.9053565,
        1.362744
      ],
      [
        103.905352,
        1.3626596
      ],
      [
        103.9053433,
        1.3625973
      ],
      [
        103.9053252,
        1.3625243
      ],
      [
        103.9052947,
        1.3624345
      ],
      [
        103.9052678,
        1.362333
      ],
      [
        103.9048981,
        1.3617734
      ],
      [
        103.9042649,
        1.3607504
      ],
      [
        103.9041618,
        1.3605838
      ],
      [
        103.903732,
        1.3599548
      ],
      [
        103.903426,
        1.3595683
      ],
      [
        103.9033389,
        1.3594148
      ],
      [
        103.9032396,
        1.3592291
      ],
      [
        103.9029054,
        1.3585555
      ],
      [
        103.9020673,
        1.3570819
      ],
      [
        103.9003982,
        1.3535873
      ],
      [
        103.9000818,
        1.3529247
      ],
      [
        103.8987718,
        1.3494957
      ],
      [
        103.8985525,
        1.3487366
      ],
      [
        103.8984321,
        1.3480491
      ],
      [
        103.8985179,
        1.3473769
      ],
      [
        103.8986012,
        1.3469993
      ],
      [
        103.8988572,
        1.3458588
      ],
      [
        103.8989669,
        1.3454558
      ],
      [
        103.8990703,
        1.3450945
      ],
      [
        103.8991703,
        1.3445297
      ],
      [
        103.8991884,
        1.3440151
      ],
      [
        103.8992487,
        1.3435356
      ],
      [
        103.899232,
        1.3432043
      ],
      [
        103.8991725,
        1.3428291
      ],
      [
        103.899094,
        1.3425398
      ],
      [
        103.8989995,
        1.3422641
      ],
      [
        103.8989491,
        1.342117
      ],
      [
        103.8987134,
        1.3415843
      ],
      [
        103.8983941,
        1.3408898
      ],
      [
        103.898171,
        1.3405283
      ],
      [
        103.8981145,
        1.3404242
      ],
      [
        103.8979858,
        1.3401835
      ],
      [
        103.8979246,
        1.3401139
      ],
      [
        103.8978668,
        1.3400497
      ],
      [
        103.897766,
        1.3398576
      ],
      [
        103.8974407,
        1.3392778
      ],
      [
        103.8972543,
        1.3389456
      ],
      [
        103.8970225,
        1.3385875
      ],
      [
        103.8970064,
        1.338566
      ],
      [
        103.896895,
        1.3383971
      ],
      [
        103.896747,
        1.3382178
      ],
      [
        103.8963792,
        1.3378215
      ],
      [
        103.896315,
        1.3377523
      ],
      [
        103.8962049,
        1.3376284
      ],
      [
        103.8961451,
        1.3375641
      ],
      [
        103.8959143,
        1.337308
      ],
      [
        103.8954786,
        1.336858
      ],
      [
        103.8948566,
        1.3362838
      ],
      [
        103.8944167,
        1.3359623
      ],
      [
        103.8941555,
        1.3357776
      ],
      [
        103.8940613,
        1.3357153
      ],
      [
        103.8939909,
        1.3356703
      ],
      [
        103.8939118,
        1.3356192
      ],
      [
        103.8938469,
        1.3355798
      ],
      [
        103.8937054,
        1.3354886
      ],
      [
        103.8935247,
        1.3353742
      ],
      [
        103.8933732,
        1.3352779
      ],
      [
        103.8925787,
        1.3348374
      ],
      [
        103.8918244,
        1.3344611
      ],
      [
        103.8909151,
        1.3341094
      ],
      [
        103.8905045,
        1.3339606
      ],
      [
        103.8901469,
        1.3338277
      ],
      [
        103.8898608,
        1.3337379
      ],
      [
        103.8896093,
        1.3336634
      ],
      [
        103.8891419,
        1.3335298
      ],
      [
        103.8890498,
        1.333507
      ],
      [
        103.8888993,
        1.3334729
      ],
      [
        103.8888697,
        1.3336093
      ],
      [
        103.888853,
        1.333686
      ],
      [
        103.8888012,
        1.3338866
      ],
      [
        103.8887084,
        1.3339715
      ],
      [
        103.8885884,
        1.3340551
      ],
      [
        103.8885499,
        1.3340949
      ],
      [
        103.8884443,
        1.3344682
      ],
      [
        103.8883684,
        1.3346717
      ],
      [
        103.8883271,
        1.334767
      ],
      [
        103.8882145,
        1.3349793
      ],
      [
        103.8880558,
        1.3353671
      ],
      [
        103.8879062,
        1.3357437
      ]
    ]
  }
}