{
  "type": "Feature",
  "properties": {
    "relation": 20412294,
    "direction": "2",
    "fee": "yes",
    "from": "After Tai Seng Station Exit C",
    "name": "Svc 459 (After Tai Seng Station Exit C → Punggol Station/Interchange)",
    "name:en": "Svc 459 (After Tai Seng Station Exit C → Punggol Station/Interchange)",
    "network": "Land Transport Authority",
    "network:short": "LTA",
    "network:wikidata": "Q3299279",
    "network:wikipedia": "en:Land Transport Authority",
    "operator": "Go-Ahead Singapore",
    "operator:wikidata": "Q24698874",
    "operator:wikipedia": "en:Go-Ahead Singapore",
    "public_transport:version": "2",
    "ref": "459",
    "route": "bus",
    "to": "Punggol Station/Interchange",
    "type": "route",
    "website": "https://go-aheadsingapore.com/bus-services/"
  },
  "geometry": {
    "type": "LineString",
    "coordinates": [
      [
        103.8882917,
        1.3356301
      ],
      [
        103.8886024,
        1.3349711
      ],
      [
        103.8886797,
        1.3347897
      ],
      [
        103.8887744,
        1.3345232
      ],
      [
        103.8888367,
        1.3343164
      ],
      [
        103.8888977,
        1.334102
      ],
      [
        103.8889637,
        1.3340356
      ],
      [
        103.8890196,
        1.3339851
      ],
      [
        103.8890792,
        1.3339313
      ],
      [
        103.8891436,
        1.3338833
      ],
      [
        103.8892123,
        1.3338417
      ],
      [
        103.8893061,
        1.3338023
      ],
      [
        103.8894064,
        1.3337841
      ],
      [
        103.8895099,
        1.3337838
      ],
      [
        103.8905776,
        1.3341211
      ],
      [
        103.8908536,
        1.3342157
      ],
      [
        103.891749,
        1.3346016
      ],
      [
        103.8927033,
        1.3350719
      ],
      [
        103.8931574,
        1.3353396
      ],
      [
        103.8935295,
        1.3355729
      ],
      [
        103.8935713,
        1.3355968
      ],
      [
        103.8937534,
        1.3357323
      ],
      [
        103.8938097,
        1.335774
      ],
      [
        103.893898,
        1.3358405
      ],
      [
        103.8939519,
        1.3358776
      ],
      [
        103.8940516,
        1.3359464
      ],
      [
        103.8941881,
        1.336038
      ],
      [
        103.8945307,
        1.3362774
      ],
      [
        103.8948445,
        1.3365295
      ],
      [
        103.8950457,
        1.3366877
      ],
      [
        103.8953193,
        1.3370095
      ],
      [
        103.8956688,
        1.3373551
      ],
      [
        103.8957224,
        1.3374341
      ],
      [
        103.8957789,
        1.3375124
      ],
      [
        103.8959685,
        1.3377359
      ],
      [
        103.8960216,
        1.3377962
      ],
      [
        103.8961297,
        1.3379495
      ],
      [
        103.8961776,
        1.3380191
      ],
      [
        103.896352,
        1.3382721
      ],
      [
        103.896977,
        1.3391937
      ],
      [
        103.8972723,
        1.3395975
      ],
      [
        103.8975404,
        1.3400244
      ],
      [
        103.8977129,
        1.3402788
      ],
      [
        103.897743,
        1.3403231
      ],
      [
        103.8978873,
        1.3405584
      ],
      [
        103.8979405,
        1.3406478
      ],
      [
        103.8980284,
        1.3407959
      ],
      [
        103.8981568,
        1.3410123
      ],
      [
        103.8983019,
        1.3412703
      ],
      [
        103.8985406,
        1.3418013
      ],
      [
        103.8987109,
        1.3422115
      ],
      [
        103.8988229,
        1.3425928
      ],
      [
        103.8988662,
        1.342764
      ],
      [
        103.8988932,
        1.3428704
      ],
      [
        103.8989601,
        1.3432082
      ],
      [
        103.8989967,
        1.343418
      ],
      [
        103.8989999,
        1.3436599
      ],
      [
        103.8990026,
        1.3438658
      ],
      [
        103.8990153,
        1.3440825
      ],
      [
        103.8990033,
        1.3442957
      ],
      [
        103.8989785,
        1.344531
      ],
      [
        103.8989604,
        1.3446356
      ],
      [
        103.8989322,
        1.3448032
      ],
      [
        103.8988799,
        1.3450619
      ],
      [
        103.8988138,
        1.345292
      ],
      [
        103.8986777,
        1.3458899
      ],
      [
        103.8985194,
        1.346527
      ],
      [
        103.89826,
        1.3473823
      ],
      [
        103.898189,
        1.3480759
      ],
      [
        103.898275,
        1.3488159
      ],
      [
        103.8984886,
        1.349569
      ],
      [
        103.899893,
        1.3529881
      ],
      [
        103.9019377,
        1.3571326
      ],
      [
        103.9021334,
        1.3574986
      ],
      [
        103.902635,
        1.3584545
      ],
      [
        103.902873,
        1.3588956
      ],
      [
        103.9030984,
        1.3593445
      ],
      [
        103.9033417,
        1.3598167
      ],
      [
        103.9034738,
        1.3600158
      ],
      [
        103.9035349,
        1.3601143
      ],
      [
        103.9036562,
        1.3603174
      ],
      [
        103.9041652,
        1.3612483
      ],
      [
        103.904765,
        1.3624042
      ],
      [
        103.9054279,
        1.3636672
      ],
      [
        103.906204,
        1.3651417
      ],
      [
        103.9062312,
        1.3652104
      ],
      [
        103.9063668,
        1.36555
      ],
      [
        103.906724,
        1.3666785
      ],
      [
        103.9070749,
        1.3677239
      ],
      [
        103.907235,
        1.3681866
      ],
      [
        103.9078813,
        1.3700609
      ],
      [
        103.908191,
        1.3710819
      ],
      [
        103.9085254,
        1.3721599
      ],
      [
        103.9087658,
        1.372861
      ],
      [
        103.9089682,
        1.3735217
      ],
      [
        103.9092028,
        1.3741811
      ],
      [
        103.9094679,
        1.3749071
      ],
      [
        103.909656,
        1.3753225
      ],
      [
        103.9098336,
        1.3756553
      ],
      [
        103.9101052,
        1.3760878
      ],
      [
        103.9103259,
        1.3763892
      ],
      [
        103.9105679,
        1.376666
      ],
      [
        103.9108581,
        1.3769548
      ],
      [
        103.9110265,
        1.3771008
      ],
      [
        103.9112268,
        1.3772576
      ],
      [
        103.9116641,
        1.3775726
      ],
      [
        103.911985,
        1.3777887
      ],
      [
        103.9122083,
        1.3779992
      ],
      [
        103.9125099,
        1.378199
      ],
      [
        103.9127642,
        1.378378
      ],
      [
        103.9129535,
        1.3785092
      ],
      [
        103.9134735,
        1.3788728
      ],
      [
        103.9136951,
        1.3790635
      ],
      [
        103.9138457,
        1.3792478
      ],
      [
        103.9139621,
        1.3794093
      ],
      [
        103.914041,
        1.3795353
      ],
      [
        103.9141951,
        1.3798554
      ],
      [
        103.9142694,
        1.3800732
      ],
      [
        103.9143268,
        1.380312
      ],
      [
        103.9143559,
        1.3805634
      ],
      [
        103.9143614,
        1.3807671
      ],
      [
        103.9143829,
        1.3813107
      ],
      [
        103.9143956,
        1.3815833
      ],
      [
        103.9144059,
        1.3817911
      ],
      [
        103.9145218,
        1.3820687
      ],
      [
        103.9145892,
        1.3822618
      ],
      [
        103.9147049,
        1.3825218
      ],
      [
        103.9148632,
        1.3827577
      ],
      [
        103.9149879,
        1.3829025
      ],
      [
        103.9153075,
        1.3831522
      ],
      [
        103.9157115,
        1.3834616
      ],
      [
        103.9163337,
        1.3839422
      ],
      [
        103.9168075,
        1.3842767
      ],
      [
        103.9170843,
        1.3844323
      ],
      [
        103.917305,
        1.3845403
      ],
      [
        103.9176877,
        1.3846987
      ],
      [
        103.9179013,
        1.3847758
      ],
      [
        103.9182166,
        1.3848667
      ],
      [
        103.9186274,
        1.3849441
      ],
      [
        103.919671,
        1.3851174
      ],
      [
        103.9199982,
        1.3852016
      ],
      [
        103.9201786,
        1.3852614
      ],
      [
        103.9204056,
        1.3853447
      ],
      [
        103.9205862,
        1.3854302
      ],
      [
        103.920654,
        1.3854643
      ],
      [
        103.9207682,
        1.3855216
      ],
      [
        103.9209775,
        1.3856231
      ],
      [
        103.9212527,
        1.3857975
      ],
      [
        103.921474,
        1.3859625
      ],
      [
        103.921787,
        1.386258
      ],
      [
        103.9221142,
        1.3865882
      ],
      [
        103.9223617,
        1.3868885
      ],
      [
        103.9225129,
        1.387079
      ],
      [
        103.9227515,
        1.3874234
      ],
      [
        103.9232465,
        1.3880656
      ],
      [
        103.9232539,
        1.3881786
      ],
      [
        103.9233149,
        1.3882964
      ],
      [
        103.9233686,
        1.3884152
      ],
      [
        103.9234131,
        1.3885173
      ],
      [
        103.9234329,
        1.3886083
      ],
      [
        103.923432,
        1.3886788
      ],
      [
        103.9234002,
        1.3887642
      ],
      [
        103.9232884,
        1.3890055
      ],
      [
        103.9232441,
        1.3892365
      ],
      [
        103.9231053,
        1.3895079
      ],
      [
        103.9228911,
        1.3899859
      ],
      [
        103.9226958,
        1.390421
      ],
      [
        103.9225247,
        1.3907183
      ],
      [
        103.922322,
        1.3909906
      ],
      [
        103.9220464,
        1.3913333
      ],
      [
        103.921648,
        1.3917649
      ],
      [
        103.9213016,
        1.3920539
      ],
      [
        103.9198783,
        1.3930958
      ],
      [
        103.9186343,
        1.3939661
      ],
      [
        103.9183058,
        1.3942026
      ],
      [
        103.917736,
        1.3945984
      ],
      [
        103.9174408,
        1.3947419
      ],
      [
        103.9172008,
        1.394941
      ],
      [
        103.9169969,
        1.3952136
      ],
      [
        103.9169556,
        1.3952777
      ],
      [
        103.9169117,
        1.3953385
      ],
      [
        103.9168191,
        1.3954951
      ],
      [
        103.9166421,
        1.3957797
      ],
      [
        103.9164173,
        1.3960358
      ],
      [
        103.9161724,
        1.3961926
      ],
      [
        103.9155418,
        1.3963788
      ],
      [
        103.9153515,
        1.3964351
      ],
      [
        103.9151659,
        1.396546
      ],
      [
        103.9149132,
        1.396723
      ],
      [
        103.9143477,
        1.3971375
      ],
      [
        103.9138013,
        1.3974184
      ],
      [
        103.9135175,
        1.3976194
      ],
      [
        103.9132109,
        1.3978237
      ],
      [
        103.9130093,
        1.3979801
      ],
      [
        103.9129379,
        1.3980309
      ],
      [
        103.9128445,
        1.3980923
      ],
      [
        103.9128072,
        1.3981168
      ],
      [
        103.912612,
        1.3982546
      ],
      [
        103.9110447,
        1.3993851
      ],
      [
        103.910597,
        1.3997045
      ],
      [
        103.9102403,
        1.3999723
      ],
      [
        103.9098166,
        1.4002906
      ],
      [
        103.9096852,
        1.4003773
      ],
      [
        103.9095672,
        1.4004617
      ],
      [
        103.90948,
        1.4005201
      ],
      [
        103.9092798,
        1.4006592
      ],
      [
        103.9090972,
        1.4007989
      ],
      [
        103.9090579,
        1.4008299
      ],
      [
        103.908953,
        1.4009033
      ],
      [
        103.9089148,
        1.4009306
      ],
      [
        103.9087462,
        1.4010518
      ],
      [
        103.9082113,
        1.4014434
      ],
      [
        103.9076905,
        1.4018223
      ],
      [
        103.9073659,
        1.4020244
      ],
      [
        103.9069848,
        1.4023043
      ],
      [
        103.9066905,
        1.4025138
      ],
      [
        103.9063737,
        1.4027457
      ],
      [
        103.9063242,
        1.4027819
      ],
      [
        103.9062096,
        1.4028509
      ],
      [
        103.9061309,
        1.4029033
      ],
      [
        103.9059567,
        1.4030193
      ],
      [
        103.9056054,
        1.4032395
      ],
      [
        103.9052554,
        1.403459
      ],
      [
        103.9048547,
        1.4037063
      ],
      [
        103.9046099,
        1.4038621
      ],
      [
        103.9045247,
        1.4039163
      ],
      [
        103.9044693,
        1.4039491
      ],
      [
        103.9040647,
        1.4041416
      ],
      [
        103.9037486,
        1.4043079
      ],
      [
        103.9037007,
        1.4043292
      ],
      [
        103.9036257,
        1.404364
      ],
      [
        103.903782,
        1.4047135
      ],
      [
        103.9038179,
        1.404802
      ],
      [
        103.903837,
        1.4049031
      ],
      [
        103.9038442,
        1.4049641
      ],
      [
        103.9038164,
        1.4050294
      ],
      [
        103.9037849,
        1.4050765
      ],
      [
        103.903725,
        1.405123
      ],
      [
        103.9036622,
        1.4051488
      ],
      [
        103.9035716,
        1.4051532
      ],
      [
        103.9032902,
        1.4049956
      ],
      [
        103.9030541,
        1.4048996
      ],
      [
        103.9028021,
        1.4049064
      ],
      [
        103.9025455,
        1.405022
      ],
      [
        103.9023278,
        1.4051435
      ],
      [
        103.9021238,
        1.4052057
      ],
      [
        103.9015282,
        1.4053436
      ],
      [
        103.9011864,
        1.4054458
      ]
    ]
  }
}