{
  "type": "Feature",
  "properties": {
    "relation": 6623048,
    "direction": "2",
    "fee": "yes",
    "from": "Punggol Interchange",
    "name": "Svc 50 (Punggol Interchange → Bishan Interchange)",
    "name:en": "Svc 50 (Punggol Interchange → Bishan Interchange)",
    "network": "Land Transport Authority",
    "network:short": "LTA",
    "network:wikidata": "Q3299279",
    "operator": "SBS Transit",
    "operator:wikidata": "Q2661305",
    "operator:wikipedia": "en:SBS Transit",
    "public_transport:version": "2",
    "ref": "50",
    "route": "bus",
    "to": "Bishan Interchange",
    "type": "route",
    "website": "https://www.sbstransit.com.sg/"
  },
  "geometry": {
    "type": "LineString",
    "coordinates": [
      [
        103.9027784,
        1.403318
      ],
      [
        103.9026277,
        1.4033195
      ],
      [
        103.9024746,
        1.4034101
      ],
      [
        103.9023181,
        1.4034969
      ],
      [
        103.9022789,
        1.4035419
      ],
      [
        103.9022574,
        1.4035923
      ],
      [
        103.9022324,
        1.4036635
      ],
      [
        103.9022109,
        1.4037547
      ],
      [
        103.9022109,
        1.403819
      ],
      [
        103.9024009,
        1.4041775
      ],
      [
        103.9026193,
        1.4045984
      ],
      [
        103.9026671,
        1.4046228
      ],
      [
        103.9028788,
        1.4044948
      ],
      [
        103.9030541,
        1.4043904
      ],
      [
        103.9032301,
        1.4042818
      ],
      [
        103.9032565,
        1.4041477
      ],
      [
        103.9028245,
        1.4033906
      ],
      [
        103.9027784,
        1.403318
      ],
      [
        103.9029504,
        1.4032212
      ],
      [
        103.9030205,
        1.4031773
      ],
      [
        103.9030673,
        1.4032543
      ],
      [
        103.9033552,
        1.4037387
      ],
      [
        103.9034688,
        1.4039509
      ],
      [
        103.9035771,
        1.4041735
      ],
      [
        103.903607,
        1.4043057
      ],
      [
        103.9036257,
        1.404364
      ],
      [
        103.903782,
        1.4047135
      ],
      [
        103.9038179,
        1.404802
      ],
      [
        103.90389,
        1.4048705
      ],
      [
        103.9039679,
        1.4049747
      ],
      [
        103.9040548,
        1.4051171
      ],
      [
        103.9041054,
        1.4051825
      ],
      [
        103.9041255,
        1.4052112
      ],
      [
        103.9042856,
        1.4054542
      ],
      [
        103.904767,
        1.4061971
      ],
      [
        103.9048333,
        1.4063226
      ],
      [
        103.9049386,
        1.406508
      ],
      [
        103.905117,
        1.4068305
      ],
      [
        103.9051907,
        1.4069657
      ],
      [
        103.9053081,
        1.4071754
      ],
      [
        103.9053337,
        1.4072355
      ],
      [
        103.9053915,
        1.4073627
      ],
      [
        103.9054709,
        1.407324
      ],
      [
        103.9055053,
        1.4073076
      ],
      [
        103.9058431,
        1.4071493
      ],
      [
        103.9062673,
        1.4069119
      ],
      [
        103.9067635,
        1.4066198
      ],
      [
        103.907007,
        1.4064674
      ],
      [
        103.9073543,
        1.4062428
      ],
      [
        103.9074401,
        1.4061852
      ],
      [
        103.9076252,
        1.4060546
      ],
      [
        103.9076932,
        1.4060066
      ],
      [
        103.9077909,
        1.4059376
      ],
      [
        103.9078574,
        1.4058891
      ],
      [
        103.9080313,
        1.4057624
      ],
      [
        103.9083362,
        1.4055475
      ],
      [
        103.9085195,
        1.4054188
      ],
      [
        103.9095539,
        1.4046557
      ],
      [
        103.9100482,
        1.4042987
      ],
      [
        103.9102726,
        1.4041782
      ],
      [
        103.9104575,
        1.4040353
      ],
      [
        103.9107273,
        1.4038478
      ],
      [
        103.9109047,
        1.4037198
      ],
      [
        103.9109694,
        1.4036731
      ],
      [
        103.9110472,
        1.4036122
      ],
      [
        103.9110726,
        1.4035924
      ],
      [
        103.9112883,
        1.4034314
      ],
      [
        103.9124868,
        1.4025692
      ],
      [
        103.9127741,
        1.4023626
      ],
      [
        103.9129543,
        1.4022332
      ],
      [
        103.9131466,
        1.4020805
      ],
      [
        103.9133826,
        1.4019124
      ],
      [
        103.9137808,
        1.4016286
      ],
      [
        103.9138894,
        1.4015496
      ],
      [
        103.9140821,
        1.4014102
      ],
      [
        103.9142648,
        1.4013013
      ],
      [
        103.914592,
        1.4010576
      ],
      [
        103.9148102,
        1.4008956
      ],
      [
        103.9148496,
        1.4008685
      ],
      [
        103.9149326,
        1.4008083
      ],
      [
        103.9149954,
        1.4007593
      ],
      [
        103.9151658,
        1.4006262
      ],
      [
        103.9165476,
        1.399652
      ],
      [
        103.916888,
        1.3994033
      ],
      [
        103.9174872,
        1.3989682
      ],
      [
        103.9179437,
        1.3985992
      ],
      [
        103.9184153,
        1.3982725
      ],
      [
        103.9185279,
        1.3981901
      ],
      [
        103.9186027,
        1.3981367
      ],
      [
        103.9186447,
        1.3981067
      ],
      [
        103.9187455,
        1.3980385
      ],
      [
        103.9186828,
        1.3979449
      ],
      [
        103.918516,
        1.3977089
      ],
      [
        103.9180738,
        1.3970913
      ],
      [
        103.9179393,
        1.3968885
      ],
      [
        103.9177727,
        1.3966372
      ],
      [
        103.9175476,
        1.3962742
      ],
      [
        103.9174091,
        1.3960253
      ],
      [
        103.9171509,
        1.3956737
      ],
      [
        103.9170972,
        1.3955899
      ],
      [
        103.9170371,
        1.3954651
      ],
      [
        103.9169556,
        1.3952777
      ],
      [
        103.9169005,
        1.3951707
      ],
      [
        103.9167256,
        1.3949532
      ],
      [
        103.9166063,
        1.3948359
      ],
      [
        103.9163392,
        1.3945868
      ],
      [
        103.9160857,
        1.3942638
      ],
      [
        103.9158851,
        1.3940106
      ],
      [
        103.9156652,
        1.3937098
      ],
      [
        103.9155213,
        1.3935261
      ],
      [
        103.9153166,
        1.3932389
      ],
      [
        103.9152363,
        1.3931292
      ],
      [
        103.9150269,
        1.3928444
      ],
      [
        103.9149275,
        1.3927085
      ],
      [
        103.9147644,
        1.3924798
      ],
      [
        103.9146592,
        1.3923414
      ],
      [
        103.9146395,
        1.3923108
      ],
      [
        103.9145629,
        1.3922106
      ],
      [
        103.9145336,
        1.3921729
      ],
      [
        103.914404,
        1.3919893
      ],
      [
        103.9140477,
        1.3915296
      ],
      [
        103.9136978,
        1.3910213
      ],
      [
        103.9136613,
        1.3909683
      ],
      [
        103.9136185,
        1.3909061
      ],
      [
        103.9135877,
        1.3908607
      ],
      [
        103.9135269,
        1.390773
      ],
      [
        103.9134581,
        1.3906727
      ],
      [
        103.9133944,
        1.3905812
      ],
      [
        103.9131688,
        1.3902956
      ],
      [
        103.9129365,
        1.3900379
      ],
      [
        103.9126516,
        1.3897347
      ],
      [
        103.9122712,
        1.3893783
      ],
      [
        103.9118556,
        1.3890294
      ],
      [
        103.911402,
        1.3886723
      ],
      [
        103.9109302,
        1.3883503
      ],
      [
        103.9104154,
        1.3880195
      ],
      [
        103.9101328,
        1.3878629
      ],
      [
        103.9085742,
        1.3869994
      ],
      [
        103.9082882,
        1.3868438
      ],
      [
        103.9080909,
        1.3867384
      ],
      [
        103.9078813,
        1.3866236
      ],
      [
        103.9076254,
        1.3864834
      ],
      [
        103.9075541,
        1.3864484
      ],
      [
        103.9074844,
        1.3864059
      ],
      [
        103.9074217,
        1.3865147
      ],
      [
        103.9073689,
        1.3866062
      ],
      [
        103.9073038,
        1.3867195
      ],
      [
        103.907264,
        1.3867915
      ],
      [
        103.9071779,
        1.3869471
      ],
      [
        103.9070655,
        1.3871322
      ],
      [
        103.9069608,
        1.3873026
      ],
      [
        103.9068431,
        1.3874899
      ],
      [
        103.9067308,
        1.3876547
      ],
      [
        103.9066033,
        1.3878333
      ],
      [
        103.9064913,
        1.3879666
      ],
      [
        103.9064408,
        1.388033
      ],
      [
        103.9061955,
        1.3883317
      ],
      [
        103.906085,
        1.3884457
      ],
      [
        103.9060275,
        1.3885107
      ],
      [
        103.9059487,
        1.3885956
      ],
      [
        103.9059254,
        1.388616
      ],
      [
        103.9057656,
        1.3887455
      ],
      [
        103.9056694,
        1.3888384
      ],
      [
        103.9054037,
        1.3890723
      ],
      [
        103.9052099,
        1.3892428
      ],
      [
        103.9050154,
        1.3893824
      ],
      [
        103.9044978,
        1.3897737
      ],
      [
        103.9043386,
        1.3898852
      ],
      [
        103.9042845,
        1.3899131
      ],
      [
        103.9040991,
        1.3900158
      ],
      [
        103.9032952,
        1.3905232
      ],
      [
        103.902848,
        1.3907252
      ],
      [
        103.9024911,
        1.3908682
      ],
      [
        103.9023859,
        1.3908845
      ],
      [
        103.9021549,
        1.390924
      ],
      [
        103.9019322,
        1.3909628
      ],
      [
        103.9016137,
        1.3909676
      ],
      [
        103.9015774,
        1.3909671
      ],
      [
        103.9014441,
        1.3909671
      ],
      [
        103.9014105,
        1.3909696
      ],
      [
        103.9011263,
        1.3909822
      ],
      [
        103.9005558,
        1.391004
      ],
      [
        103.9002714,
        1.3910301
      ],
      [
        103.9000508,
        1.3910686
      ],
      [
        103.8997988,
        1.3911395
      ],
      [
        103.8996553,
        1.3911799
      ],
      [
        103.8991238,
        1.3913786
      ],
      [
        103.8988719,
        1.3914697
      ],
      [
        103.8986775,
        1.3915406
      ],
      [
        103.8983017,
        1.3916799
      ],
      [
        103.8980891,
        1.3917488
      ],
      [
        103.8979928,
        1.3917845
      ],
      [
        103.8978996,
        1.3918212
      ],
      [
        103.8978408,
        1.3918406
      ],
      [
        103.8976604,
        1.3919
      ],
      [
        103.89752,
        1.391947
      ],
      [
        103.8972887,
        1.3920372
      ],
      [
        103.8966823,
        1.3922607
      ],
      [
        103.8961297,
        1.3924381
      ],
      [
        103.8955367,
        1.3926409
      ],
      [
        103.8954786,
        1.3926607
      ],
      [
        103.8954168,
        1.392682
      ],
      [
        103.8951649,
        1.3927684
      ],
      [
        103.8950718,
        1.3928003
      ],
      [
        103.8947519,
        1.3929146
      ],
      [
        103.8945345,
        1.3929952
      ],
      [
        103.8943537,
        1.3930584
      ],
      [
        103.8941311,
        1.3931317
      ],
      [
        103.8937658,
        1.3932541
      ],
      [
        103.8937054,
        1.3932743
      ],
      [
        103.893583,
        1.3933122
      ],
      [
        103.893505,
        1.3933394
      ],
      [
        103.893302,
        1.3934101
      ],
      [
        103.8927199,
        1.3935895
      ],
      [
        103.8923519,
        1.393715
      ],
      [
        103.8922643,
        1.3937478
      ],
      [
        103.8922337,
        1.3937593
      ],
      [
        103.891813,
        1.3939048
      ],
      [
        103.8913842,
        1.3940448
      ],
      [
        103.8911498,
        1.3940893
      ],
      [
        103.890893,
        1.3941188
      ],
      [
        103.8905934,
        1.3941503
      ],
      [
        103.8905587,
        1.3941538
      ],
      [
        103.8905062,
        1.3941593
      ],
      [
        103.8904711,
        1.3941629
      ],
      [
        103.8902506,
        1.394186
      ],
      [
        103.8882763,
        1.3943799
      ],
      [
        103.8880829,
        1.3943989
      ],
      [
        103.8878466,
        1.3944221
      ],
      [
        103.8877105,
        1.3943891
      ],
      [
        103.8875824,
        1.3943225
      ],
      [
        103.8875053,
        1.3942322
      ],
      [
        103.8874504,
        1.3941521
      ],
      [
        103.887396,
        1.3937167
      ],
      [
        103.8873479,
        1.3933613
      ],
      [
        103.8873189,
        1.3932103
      ],
      [
        103.8872452,
        1.3929648
      ],
      [
        103.8871238,
        1.3926791
      ],
      [
        103.8870302,
        1.39247
      ],
      [
        103.8869079,
        1.3922196
      ],
      [
        103.8868219,
        1.3920448
      ],
      [
        103.8866905,
        1.3918203
      ],
      [
        103.886666,
        1.3917784
      ],
      [
        103.8866297,
        1.3917225
      ],
      [
        103.8865973,
        1.3916656
      ],
      [
        103.886491,
        1.3914953
      ],
      [
        103.8860951,
        1.39092
      ],
      [
        103.8858446,
        1.3905055
      ],
      [
        103.8857227,
        1.3902905
      ],
      [
        103.8855282,
        1.3899594
      ],
      [
        103.8854503,
        1.3898152
      ],
      [
        103.8854257,
        1.3897552
      ],
      [
        103.8853503,
        1.3896114
      ],
      [
        103.885286,
        1.389656
      ],
      [
        103.8852224,
        1.3896977
      ],
      [
        103.8850633,
        1.3898019
      ],
      [
        103.8848358,
        1.389954
      ],
      [
        103.884331,
        1.3902822
      ],
      [
        103.8839212,
        1.3905545
      ],
      [
        103.8839084,
        1.3905632
      ],
      [
        103.8836445,
        1.390742
      ],
      [
        103.883619,
        1.3907593
      ],
      [
        103.8833794,
        1.3909093
      ],
      [
        103.8824335,
        1.3914856
      ],
      [
        103.8820273,
        1.3916944
      ],
      [
        103.8819275,
        1.3917378
      ],
      [
        103.8817354,
        1.3918118
      ],
      [
        103.8814077,
        1.3919249
      ],
      [
        103.8811216,
        1.3919985
      ],
      [
        103.8809485,
        1.3920294
      ],
      [
        103.8806812,
        1.3920554
      ],
      [
        103.8804842,
        1.3920595
      ],
      [
        103.880382,
        1.3920616
      ],
      [
        103.8800063,
        1.392053
      ],
      [
        103.8798651,
        1.3920433
      ],
      [
        103.8795671,
        1.3920108
      ],
      [
        103.8794231,
        1.3919712
      ],
      [
        103.8792272,
        1.3919213
      ],
      [
        103.8791937,
        1.3919131
      ],
      [
        103.879147,
        1.3919009
      ],
      [
        103.8790573,
        1.3918698
      ],
      [
        103.8790027,
        1.3918471
      ],
      [
        103.8787045,
        1.3917292
      ],
      [
        103.8776642,
        1.3913342
      ],
      [
        103.8774535,
        1.3912492
      ],
      [
        103.8765499,
        1.3908899
      ],
      [
        103.8761485,
        1.3907317
      ],
      [
        103.8760309,
        1.3906923
      ],
      [
        103.8758909,
        1.3906653
      ],
      [
        103.875748,
        1.3906342
      ],
      [
        103.8756797,
        1.3906264
      ],
      [
        103.8756339,
        1.3906212
      ],
      [
        103.8755232,
        1.3906254
      ],
      [
        103.8754867,
        1.3906293
      ],
      [
        103.8752028,
        1.3906551
      ],
      [
        103.8745697,
        1.3907269
      ],
      [
        103.8744302,
        1.3907363
      ],
      [
        103.8740593,
        1.3907698
      ],
      [
        103.8737204,
        1.3908117
      ],
      [
        103.8736868,
        1.3908158
      ],
      [
        103.8736298,
        1.3908228
      ],
      [
        103.8735907,
        1.3908277
      ],
      [
        103.8733743,
        1.3908544
      ],
      [
        103.8724628,
        1.3909289
      ],
      [
        103.8723488,
        1.3909408
      ],
      [
        103.8722006,
        1.3909584
      ],
      [
        103.8715063,
        1.3910303
      ],
      [
        103.8714002,
        1.3910465
      ],
      [
        103.8712464,
        1.3910592
      ],
      [
        103.8711841,
        1.3910653
      ],
      [
        103.8704456,
        1.391137
      ],
      [
        103.8701922,
        1.3911617
      ],
      [
        103.8700139,
        1.391179
      ],
      [
        103.8697148,
        1.3912151
      ],
      [
        103.8695331,
        1.3911403
      ],
      [
        103.8694002,
        1.3910904
      ],
      [
        103.8693679,
        1.3910772
      ],
      [
        103.8692864,
        1.3910261
      ],
      [
        103.8691992,
        1.3909262
      ],
      [
        103.869148,
        1.3904295
      ],
      [
        103.8691058,
        1.3899347
      ],
      [
        103.8690844,
        1.3897494
      ],
      [
        103.8690612,
        1.3895513
      ],
      [
        103.8690275,
        1.3892868
      ],
      [
        103.8689632,
        1.3887724
      ],
      [
        103.8689271,
        1.3883687
      ],
      [
        103.8689237,
        1.3883309
      ],
      [
        103.8689205,
        1.3882761
      ],
      [
        103.8689802,
        1.3882623
      ],
      [
        103.8692856,
        1.3881827
      ],
      [
        103.8696304,
        1.3880857
      ],
      [
        103.870658,
        1.3878511
      ],
      [
        103.8708754,
        1.3878014
      ],
      [
        103.8714246,
        1.3876963
      ],
      [
        103.871925,
        1.3875867
      ],
      [
        103.8724469,
        1.3874548
      ],
      [
        103.8727089,
        1.38739
      ],
      [
        103.8728636,
        1.3873485
      ],
      [
        103.8731164,
        1.3872544
      ],
      [
        103.8731878,
        1.3872261
      ],
      [
        103.8733295,
        1.3871687
      ],
      [
        103.8736063,
        1.387055
      ],
      [
        103.8738803,
        1.3868925
      ],
      [
        103.874063,
        1.3867841
      ],
      [
        103.8744577,
        1.3864748
      ],
      [
        103.8753508,
        1.3856951
      ],
      [
        103.8764051,
        1.3847202
      ],
      [
        103.8766164,
        1.3843858
      ],
      [
        103.8768308,
        1.3839361
      ],
      [
        103.8768872,
        1.3836778
      ],
      [
        103.8769566,
        1.3832782
      ],
      [
        103.8769711,
        1.3829517
      ],
      [
        103.8769669,
        1.3828926
      ],
      [
        103.8769573,
        1.3827349
      ],
      [
        103.8769063,
        1.382096
      ],
      [
        103.8768716,
        1.3814812
      ],
      [
        103.876864,
        1.3814125
      ],
      [
        103.8768523,
        1.3812423
      ],
      [
        103.8768215,
        1.380795
      ],
      [
        103.8767968,
        1.3804628
      ],
      [
        103.8767922,
        1.3804158
      ],
      [
        103.8767428,
        1.3799133
      ],
      [
        103.8767357,
        1.3797391
      ],
      [
        103.8767248,
        1.379537
      ],
      [
        103.8767155,
        1.3793111
      ],
      [
        103.8767017,
        1.3790685
      ],
      [
        103.8766988,
        1.3789933
      ],
      [
        103.8767091,
        1.3788711
      ],
      [
        103.8765777,
        1.3788659
      ],
      [
        103.8765116,
        1.3788611
      ],
      [
        103.8762429,
        1.3788445
      ],
      [
        103.8755944,
        1.3788085
      ],
      [
        103.875517,
        1.3788042
      ],
      [
        103.8752186,
        1.3787938
      ],
      [
        103.8745891,
        1.3787644
      ],
      [
        103.8741936,
        1.3787413
      ],
      [
        103.873729,
        1.3787282
      ],
      [
        103.8737094,
        1.3787276
      ],
      [
        103.8734851,
        1.378722
      ],
      [
        103.872846,
        1.3786849
      ],
      [
        103.8718599,
        1.3786269
      ],
      [
        103.8717852,
        1.378624
      ],
      [
        103.8717331,
        1.3786215
      ],
      [
        103.8715936,
        1.3786156
      ],
      [
        103.8699203,
        1.378531
      ],
      [
        103.8693824,
        1.3785132
      ],
      [
        103.8686004,
        1.3784901
      ],
      [
        103.8683322,
        1.3784822
      ],
      [
        103.8673754,
        1.3784426
      ],
      [
        103.867292,
        1.3784392
      ],
      [
        103.867138,
        1.3784282
      ],
      [
        103.8665729,
        1.3783879
      ],
      [
        103.8660894,
        1.3783534
      ],
      [
        103.8654461,
        1.3783347
      ],
      [
        103.8648857,
        1.3782221
      ],
      [
        103.8646278,
        1.3781708
      ],
      [
        103.8640425,
        1.3780174
      ],
      [
        103.8636017,
        1.3779211
      ],
      [
        103.8634954,
        1.377894
      ],
      [
        103.86338,
        1.3778633
      ],
      [
        103.8623536,
        1.3775672
      ],
      [
        103.8613078,
        1.3772625
      ],
      [
        103.8612208,
        1.3772391
      ],
      [
        103.8611765,
        1.3772275
      ],
      [
        103.8610607,
        1.3771938
      ],
      [
        103.8610125,
        1.3771855
      ],
      [
        103.8609214,
        1.3771605
      ],
      [
        103.8599347,
        1.376889
      ],
      [
        103.8597989,
        1.3768458
      ],
      [
        103.859689,
        1.3768122
      ],
      [
        103.8595358,
        1.3767654
      ],
      [
        103.8591323,
        1.376649
      ],
      [
        103.8589433,
        1.3765817
      ],
      [
        103.8581913,
        1.3763366
      ],
      [
        103.858128,
        1.3763211
      ],
      [
        103.857437,
        1.3761514
      ],
      [
        103.8567989,
        1.3759734
      ],
      [
        103.8566082,
        1.3759129
      ],
      [
        103.8562067,
        1.3758471
      ],
      [
        103.8559424,
        1.3758024
      ],
      [
        103.8558751,
        1.3757924
      ],
      [
        103.8556407,
        1.3757687
      ],
      [
        103.8552217,
        1.3757498
      ],
      [
        103.85485,
        1.3757652
      ],
      [
        103.8547364,
        1.3757714
      ],
      [
        103.8546678,
        1.3757812
      ],
      [
        103.8545977,
        1.3757895
      ],
      [
        103.8528123,
        1.3759787
      ],
      [
        103.8525777,
        1.375995
      ],
      [
        103.8520203,
        1.3760361
      ],
      [
        103.8509545,
        1.376148
      ],
      [
        103.8509004,
        1.3761527
      ],
      [
        103.8508192,
        1.3761609
      ],
      [
        103.850546,
        1.3761942
      ],
      [
        103.8497505,
        1.3762857
      ],
      [
        103.849253,
        1.3763508
      ],
      [
        103.848572,
        1.3764802
      ],
      [
        103.8482768,
        1.3765363
      ],
      [
        103.8480557,
        1.3764702
      ],
      [
        103.8480255,
        1.3764411
      ],
      [
        103.8479192,
        1.3763384
      ],
      [
        103.8478506,
        1.3761643
      ],
      [
        103.8479474,
        1.375326
      ],
      [
        103.8480217,
        1.3747717
      ],
      [
        103.8481343,
        1.3739235
      ],
      [
        103.848227,
        1.3732397
      ],
      [
        103.8482375,
        1.3731615
      ],
      [
        103.8482461,
        1.3730972
      ],
      [
        103.8482677,
        1.3729028
      ],
      [
        103.8482784,
        1.3727532
      ],
      [
        103.8482816,
        1.3727085
      ],
      [
        103.8482943,
        1.3725295
      ],
      [
        103.8483408,
        1.3720701
      ],
      [
        103.8484769,
        1.3715477
      ],
      [
        103.8489306,
        1.3705472
      ],
      [
        103.8491698,
        1.3701314
      ],
      [
        103.849201,
        1.370086
      ],
      [
        103.8497207,
        1.369151
      ],
      [
        103.8497652,
        1.3690664
      ],
      [
        103.8498257,
        1.3689692
      ],
      [
        103.8498681,
        1.3689114
      ],
      [
        103.8498834,
        1.3688854
      ],
      [
        103.8501091,
        1.368501
      ],
      [
        103.8506297,
        1.3676048
      ],
      [
        103.8509349,
        1.3670794
      ],
      [
        103.8513034,
        1.3663919
      ],
      [
        103.8513269,
        1.366344
      ],
      [
        103.8513635,
        1.3662709
      ],
      [
        103.8514136,
        1.3661905
      ],
      [
        103.8516488,
        1.3657931
      ],
      [
        103.8519014,
        1.3653317
      ],
      [
        103.8519607,
        1.3652316
      ],
      [
        103.8522331,
        1.3647601
      ],
      [
        103.8523114,
        1.3646272
      ],
      [
        103.8524329,
        1.3644134
      ],
      [
        103.8524531,
        1.3643776
      ],
      [
        103.8527152,
        1.3638653
      ],
      [
        103.8527751,
        1.3637235
      ],
      [
        103.8528212,
        1.3635975
      ],
      [
        103.8528642,
        1.36347
      ],
      [
        103.852929,
        1.3632458
      ],
      [
        103.8529492,
        1.363123
      ],
      [
        103.8529926,
        1.3627843
      ],
      [
        103.8530074,
        1.3624415
      ],
      [
        103.8530043,
        1.3622347
      ],
      [
        103.8529935,
        1.3620279
      ],
      [
        103.8529605,
        1.3618468
      ],
      [
        103.8529157,
        1.3616382
      ],
      [
        103.8528598,
        1.3614583
      ],
      [
        103.8528359,
        1.3614006
      ],
      [
        103.8527274,
        1.3611157
      ],
      [
        103.8526906,
        1.361019
      ],
      [
        103.8525135,
        1.3606107
      ],
      [
        103.8524254,
        1.3604166
      ],
      [
        103.8523961,
        1.3603622
      ],
      [
        103.8523252,
        1.3602283
      ],
      [
        103.8522919,
        1.360176
      ],
      [
        103.8520368,
        1.3597774
      ],
      [
        103.8520015,
        1.3597223
      ],
      [
        103.8517916,
        1.3593711
      ],
      [
        103.8516263,
        1.359109
      ],
      [
        103.8504968,
        1.3572314
      ],
      [
        103.850379,
        1.3570341
      ],
      [
        103.8503618,
        1.3570052
      ],
      [
        103.8503215,
        1.3569337
      ],
      [
        103.8502971,
        1.3568977
      ],
      [
        103.8496912,
        1.3558682
      ],
      [
        103.8495794,
        1.3556787
      ],
      [
        103.8489179,
        1.3546381
      ],
      [
        103.8488231,
        1.354486
      ],
      [
        103.8486875,
        1.3541883
      ],
      [
        103.8486051,
        1.3539811
      ],
      [
        103.8485081,
        1.3537403
      ],
      [
        103.8484882,
        1.3536752
      ],
      [
        103.8484632,
        1.3535696
      ],
      [
        103.848443,
        1.3534997
      ],
      [
        103.8483908,
        1.3532546
      ],
      [
        103.8482997,
        1.3528675
      ],
      [
        103.8480529,
        1.3517457
      ],
      [
        103.8479677,
        1.3513646
      ],
      [
        103.8478467,
        1.3508009
      ],
      [
        103.8475167,
        1.3492979
      ],
      [
        103.847406,
        1.3488239
      ],
      [
        103.8473696,
        1.3486135
      ],
      [
        103.8473598,
        1.3485704
      ],
      [
        103.8474403,
        1.3485512
      ],
      [
        103.8479861,
        1.348421
      ],
      [
        103.8482345,
        1.3483654
      ],
      [
        103.8482925,
        1.3483531
      ],
      [
        103.8488238,
        1.3482366
      ],
      [
        103.8488856,
        1.3482231
      ],
      [
        103.8491614,
        1.3481791
      ],
      [
        103.8497753,
        1.3480377
      ],
      [
        103.8498506,
        1.3480204
      ],
      [
        103.8498634,
        1.3480844
      ],
      [
        103.8500501,
        1.3489204
      ],
      [
        103.850091,
        1.3491006
      ],
      [
        103.8501503,
        1.3493874
      ],
      [
        103.8501978,
        1.3496258
      ],
      [
        103.8502264,
        1.3497564
      ],
      [
        103.8502289,
        1.3497682
      ],
      [
        103.8502373,
        1.3498062
      ],
      [
        103.8502695,
        1.3499468
      ],
      [
        103.8502902,
        1.3500375
      ],
      [
        103.8502423,
        1.3500481
      ],
      [
        103.8501507,
        1.3500686
      ],
      [
        103.8500076,
        1.3500992
      ],
      [
        103.849736,
        1.3501481
      ],
      [
        103.8495534,
        1.3501855
      ],
      [
        103.8495321,
        1.3501963
      ],
      [
        103.8495218,
        1.3502177
      ],
      [
        103.8495414,
        1.3503125
      ]
    ]
  }
}