{
  "type": "Feature",
  "properties": {
    "relation": 6623050,
    "direction": "2",
    "fee": "yes",
    "from": "Jurong East Interchange",
    "name": "Svc 51 (Jurong East Interchange → Hougang Central Interchange)",
    "name:en": "Svc 51 (Jurong East Interchange → Hougang Central Interchange)",
    "network": "Land Transport Authority",
    "network:short": "LTA",
    "network:wikidata": "Q3299279",
    "network:wikipedia": "en:Land Transport Authority",
    "operator": "SBS Transit",
    "operator:wikidata": "Q2661305",
    "operator:wikipedia": "en:SBS Transit",
    "public_transport:version": "2",
    "ref": "51",
    "route": "bus",
    "to": "Hougang Central Interchange",
    "type": "route",
    "website": "https://www.sbstransit.com.sg/"
  },
  "geometry": {
    "type": "LineString",
    "coordinates": [
      [
        103.7398261,
        1.3324421
      ],
      [
        103.7398885,
        1.3325276
      ],
      [
        103.7399851,
        1.3325458
      ],
      [
        103.740067,
        1.3325282
      ],
      [
        103.7401671,
        1.3324524
      ],
      [
        103.7406316,
        1.3321053
      ],
      [
        103.7406964,
        1.3320078
      ],
      [
        103.740683,
        1.3319375
      ],
      [
        103.7405996,
        1.33179
      ],
      [
        103.7405383,
        1.3316896
      ],
      [
        103.7409131,
        1.3326772
      ],
      [
        103.7408605,
        1.3326429
      ],
      [
        103.7408117,
        1.332571
      ],
      [
        103.7408,
        1.3324909
      ],
      [
        103.7408532,
        1.3323685
      ],
      [
        103.7411744,
        1.3319777
      ],
      [
        103.7411842,
        1.3318926
      ],
      [
        103.7411688,
        1.3318184
      ],
      [
        103.7410392,
        1.3316082
      ],
      [
        103.7409957,
        1.3315451
      ],
      [
        103.7409511,
        1.3315127
      ],
      [
        103.7408692,
        1.3315032
      ],
      [
        103.7408058,
        1.3315153
      ],
      [
        103.7405383,
        1.3316896
      ],
      [
        103.7409,
        1.3328756
      ],
      [
        103.7408097,
        1.333052
      ],
      [
        103.7407762,
        1.3331463
      ],
      [
        103.7407508,
        1.3332422
      ],
      [
        103.74074,
        1.3332831
      ],
      [
        103.7407075,
        1.3334225
      ],
      [
        103.7406807,
        1.3335606
      ],
      [
        103.7406301,
        1.3338228
      ],
      [
        103.7405543,
        1.3343023
      ],
      [
        103.7405202,
        1.3345232
      ],
      [
        103.7404952,
        1.334683
      ],
      [
        103.7404512,
        1.3348509
      ],
      [
        103.7403786,
        1.3349983
      ],
      [
        103.7403066,
        1.3351095
      ],
      [
        103.7402943,
        1.3351284
      ],
      [
        103.7402243,
        1.3351965
      ],
      [
        103.7401917,
        1.3352283
      ],
      [
        103.740126,
        1.3352772
      ],
      [
        103.7400943,
        1.3352986
      ],
      [
        103.7399536,
        1.3353582
      ],
      [
        103.739804,
        1.3353899
      ],
      [
        103.7396255,
        1.3353925
      ],
      [
        103.7394706,
        1.3353707
      ],
      [
        103.7391725,
        1.3353337
      ],
      [
        103.7390337,
        1.3352464
      ],
      [
        103.7389785,
        1.3351873
      ],
      [
        103.7389255,
        1.3351306
      ],
      [
        103.738885,
        1.3350754
      ],
      [
        103.7388688,
        1.3348975
      ],
      [
        103.7388432,
        1.3347548
      ],
      [
        103.7387924,
        1.3346196
      ],
      [
        103.7387143,
        1.3344829
      ],
      [
        103.7384301,
        1.334092
      ],
      [
        103.738292,
        1.3338976
      ],
      [
        103.7380535,
        1.3335683
      ],
      [
        103.7380461,
        1.3334308
      ],
      [
        103.7380518,
        1.3333273
      ],
      [
        103.7380694,
        1.3332581
      ],
      [
        103.738162,
        1.3330687
      ],
      [
        103.7382883,
        1.3329796
      ],
      [
        103.7386926,
        1.3327277
      ],
      [
        103.7391982,
        1.3323792
      ],
      [
        103.7392497,
        1.3323427
      ],
      [
        103.7393443,
        1.3322757
      ],
      [
        103.7395886,
        1.33211
      ],
      [
        103.7398602,
        1.3319
      ],
      [
        103.7400368,
        1.3317789
      ],
      [
        103.7401888,
        1.3316756
      ],
      [
        103.7402715,
        1.331618
      ],
      [
        103.7403489,
        1.3315642
      ],
      [
        103.7406956,
        1.3313333
      ],
      [
        103.7409651,
        1.3311564
      ],
      [
        103.7410334,
        1.3311099
      ],
      [
        103.7411089,
        1.3310618
      ],
      [
        103.7413077,
        1.3309269
      ],
      [
        103.741866,
        1.3305752
      ],
      [
        103.7422493,
        1.3303053
      ],
      [
        103.7426228,
        1.3300396
      ],
      [
        103.7427027,
        1.3299878
      ],
      [
        103.7433876,
        1.3295001
      ],
      [
        103.7438032,
        1.3291257
      ],
      [
        103.7443868,
        1.3285548
      ],
      [
        103.7444704,
        1.3284741
      ],
      [
        103.7445644,
        1.3283938
      ],
      [
        103.7447604,
        1.3281964
      ],
      [
        103.744956,
        1.3279715
      ],
      [
        103.745104,
        1.3277749
      ],
      [
        103.7452078,
        1.3276232
      ],
      [
        103.7452785,
        1.3274956
      ],
      [
        103.7454683,
        1.3270899
      ],
      [
        103.7455616,
        1.3267937
      ],
      [
        103.7456202,
        1.326512
      ],
      [
        103.7456917,
        1.326116
      ],
      [
        103.7457246,
        1.3259203
      ],
      [
        103.7457962,
        1.3247932
      ],
      [
        103.7458007,
        1.3246258
      ],
      [
        103.7458017,
        1.3244085
      ],
      [
        103.7458125,
        1.3238834
      ],
      [
        103.7458158,
        1.3237754
      ],
      [
        103.7458049,
        1.3228509
      ],
      [
        103.7458074,
        1.322787
      ],
      [
        103.7458134,
        1.3222959
      ],
      [
        103.7458157,
        1.3220782
      ],
      [
        103.7457227,
        1.3215278
      ],
      [
        103.7455774,
        1.3211166
      ],
      [
        103.7455503,
        1.3210538
      ],
      [
        103.7456309,
        1.3210312
      ],
      [
        103.7459955,
        1.3208094
      ],
      [
        103.7461407,
        1.3207434
      ],
      [
        103.7461861,
        1.3207269
      ],
      [
        103.7464629,
        1.3206569
      ],
      [
        103.7465364,
        1.3206413
      ],
      [
        103.7466551,
        1.3206162
      ],
      [
        103.7468177,
        1.3205836
      ],
      [
        103.7470646,
        1.3205326
      ],
      [
        103.7471346,
        1.3205182
      ],
      [
        103.7478366,
        1.320348
      ],
      [
        103.7481357,
        1.3202769
      ],
      [
        103.7483074,
        1.3202381
      ],
      [
        103.7485321,
        1.3201887
      ],
      [
        103.7486047,
        1.3201709
      ],
      [
        103.7486613,
        1.320157
      ],
      [
        103.7487428,
        1.3201403
      ],
      [
        103.7487276,
        1.3200779
      ],
      [
        103.7486703,
        1.3198732
      ],
      [
        103.7486558,
        1.3198212
      ],
      [
        103.748451,
        1.3192867
      ],
      [
        103.7484428,
        1.3192682
      ],
      [
        103.748403,
        1.3191442
      ],
      [
        103.748365,
        1.3190068
      ],
      [
        103.7483397,
        1.3189153
      ],
      [
        103.7483063,
        1.3187946
      ],
      [
        103.7482763,
        1.3186863
      ],
      [
        103.7482368,
        1.3185108
      ],
      [
        103.7481675,
        1.3181457
      ],
      [
        103.7481537,
        1.3180725
      ],
      [
        103.7481957,
        1.3180613
      ],
      [
        103.7494122,
        1.3177363
      ],
      [
        103.749462,
        1.317723
      ],
      [
        103.7501012,
        1.317502
      ],
      [
        103.7501362,
        1.3174908
      ],
      [
        103.750257,
        1.3174361
      ],
      [
        103.7503693,
        1.3173756
      ],
      [
        103.7504689,
        1.3173016
      ],
      [
        103.7506722,
        1.3171752
      ],
      [
        103.7510182,
        1.3168562
      ],
      [
        103.751158,
        1.3167161
      ],
      [
        103.7512048,
        1.3166696
      ],
      [
        103.7512196,
        1.3166549
      ],
      [
        103.7512888,
        1.3165794
      ],
      [
        103.7513547,
        1.3165074
      ],
      [
        103.7522262,
        1.3155157
      ],
      [
        103.7523811,
        1.3153428
      ],
      [
        103.7526338,
        1.3150843
      ],
      [
        103.7528806,
        1.3148376
      ],
      [
        103.7529466,
        1.3147717
      ],
      [
        103.7529903,
        1.3147229
      ],
      [
        103.7530317,
        1.3146741
      ],
      [
        103.7531096,
        1.3145847
      ],
      [
        103.7534629,
        1.3141794
      ],
      [
        103.7536973,
        1.3139143
      ],
      [
        103.7541237,
        1.3134499
      ],
      [
        103.7546373,
        1.3128696
      ],
      [
        103.7549064,
        1.312635
      ],
      [
        103.7551725,
        1.3122901
      ],
      [
        103.7554367,
        1.3119152
      ],
      [
        103.7556137,
        1.3116841
      ],
      [
        103.7556459,
        1.3116416
      ],
      [
        103.7559181,
        1.3112819
      ],
      [
        103.7562327,
        1.3108736
      ],
      [
        103.75636,
        1.3107597
      ],
      [
        103.7564758,
        1.3107134
      ],
      [
        103.756521,
        1.3106953
      ],
      [
        103.756588,
        1.3106846
      ],
      [
        103.7566837,
        1.3106995
      ],
      [
        103.7570352,
        1.3108906
      ],
      [
        103.7572166,
        1.3110005
      ],
      [
        103.7573817,
        1.3110756
      ],
      [
        103.7575623,
        1.3111317
      ],
      [
        103.7577067,
        1.3111622
      ],
      [
        103.7577936,
        1.3111533
      ],
      [
        103.7581123,
        1.3110946
      ],
      [
        103.7582024,
        1.3110642
      ],
      [
        103.7583099,
        1.3110002
      ],
      [
        103.7584694,
        1.3108973
      ],
      [
        103.7586151,
        1.3107818
      ],
      [
        103.7589974,
        1.3104527
      ],
      [
        103.7590701,
        1.3103944
      ],
      [
        103.7591437,
        1.3103355
      ],
      [
        103.7592014,
        1.3102856
      ],
      [
        103.7592367,
        1.3102551
      ],
      [
        103.7593044,
        1.3101965
      ],
      [
        103.7593782,
        1.3101315
      ],
      [
        103.7596763,
        1.3098586
      ],
      [
        103.7602126,
        1.3093784
      ],
      [
        103.7605185,
        1.3091015
      ],
      [
        103.7607748,
        1.3088731
      ],
      [
        103.7608246,
        1.3088288
      ],
      [
        103.7608584,
        1.3088
      ],
      [
        103.7611898,
        1.3085178
      ],
      [
        103.7613307,
        1.308394
      ],
      [
        103.7614688,
        1.3082772
      ],
      [
        103.7615045,
        1.3082453
      ],
      [
        103.7615393,
        1.3082142
      ],
      [
        103.7616523,
        1.3081131
      ],
      [
        103.7618368,
        1.3079482
      ],
      [
        103.7618614,
        1.307927
      ],
      [
        103.7621754,
        1.3076565
      ],
      [
        103.7622238,
        1.3076148
      ],
      [
        103.7623766,
        1.3074832
      ],
      [
        103.7624576,
        1.3074112
      ],
      [
        103.7627577,
        1.307153
      ],
      [
        103.7628841,
        1.3070308
      ],
      [
        103.7630322,
        1.3068901
      ],
      [
        103.763091,
        1.3068411
      ],
      [
        103.7631676,
        1.3067718
      ],
      [
        103.7633492,
        1.3066331
      ],
      [
        103.7633929,
        1.3065972
      ],
      [
        103.7634481,
        1.3065442
      ],
      [
        103.763504,
        1.3064852
      ],
      [
        103.7636216,
        1.3063613
      ],
      [
        103.7636817,
        1.3062956
      ],
      [
        103.7637102,
        1.306256
      ],
      [
        103.7637957,
        1.3061373
      ],
      [
        103.7638723,
        1.3060135
      ],
      [
        103.7639555,
        1.3058791
      ],
      [
        103.7640608,
        1.3057001
      ],
      [
        103.7641078,
        1.3056017
      ],
      [
        103.7642622,
        1.3052185
      ],
      [
        103.7643477,
        1.3050318
      ],
      [
        103.7644627,
        1.3047902
      ],
      [
        103.7645977,
        1.3045037
      ],
      [
        103.7646226,
        1.3044507
      ],
      [
        103.7646772,
        1.3043383
      ],
      [
        103.7648145,
        1.3040552
      ],
      [
        103.7648831,
        1.3039138
      ],
      [
        103.7649562,
        1.3037631
      ],
      [
        103.7650118,
        1.3036485
      ],
      [
        103.7651463,
        1.3033521
      ],
      [
        103.7651949,
        1.3032488
      ],
      [
        103.7653247,
        1.3029737
      ],
      [
        103.7653481,
        1.3029272
      ],
      [
        103.7654127,
        1.3027923
      ],
      [
        103.7654776,
        1.3026545
      ],
      [
        103.7655274,
        1.3025466
      ],
      [
        103.7655956,
        1.3023886
      ],
      [
        103.7656667,
        1.3022103
      ],
      [
        103.7657386,
        1.302028
      ],
      [
        103.7657892,
        1.3019138
      ],
      [
        103.7658187,
        1.3018456
      ],
      [
        103.7662446,
        1.3008548
      ],
      [
        103.7663962,
        1.3004727
      ],
      [
        103.7665306,
        1.300154
      ],
      [
        103.7665647,
        1.3000732
      ],
      [
        103.7665913,
        1.3000048
      ],
      [
        103.7666383,
        1.2999002
      ],
      [
        103.766666,
        1.2998385
      ],
      [
        103.7667431,
        1.2996443
      ],
      [
        103.7668629,
        1.2993719
      ],
      [
        103.7669051,
        1.2992811
      ],
      [
        103.7669764,
        1.2991188
      ],
      [
        103.7670381,
        1.2989725
      ],
      [
        103.7670914,
        1.2988437
      ],
      [
        103.7671031,
        1.2988096
      ],
      [
        103.767152,
        1.2986585
      ],
      [
        103.7671838,
        1.2985163
      ],
      [
        103.7672031,
        1.298371
      ],
      [
        103.7672141,
        1.2982164
      ],
      [
        103.7672056,
        1.2979859
      ],
      [
        103.7671845,
        1.2977232
      ],
      [
        103.7671626,
        1.2975137
      ],
      [
        103.7671287,
        1.2972154
      ],
      [
        103.7671249,
        1.2971436
      ],
      [
        103.7671199,
        1.2970897
      ],
      [
        103.7671185,
        1.2970452
      ],
      [
        103.7670348,
        1.296348
      ],
      [
        103.7669792,
        1.2958709
      ],
      [
        103.7669408,
        1.2955485
      ],
      [
        103.7669196,
        1.2953115
      ],
      [
        103.766918,
        1.2950869
      ],
      [
        103.7669178,
        1.2950603
      ],
      [
        103.7669319,
        1.294878
      ],
      [
        103.766942,
        1.2947611
      ],
      [
        103.7669758,
        1.2943727
      ],
      [
        103.7669971,
        1.2941593
      ],
      [
        103.7670328,
        1.2938006
      ],
      [
        103.7670612,
        1.2936431
      ],
      [
        103.7670845,
        1.2935669
      ],
      [
        103.7671323,
        1.2934613
      ],
      [
        103.7672085,
        1.2933251
      ],
      [
        103.7673498,
        1.2931697
      ],
      [
        103.7674076,
        1.2931102
      ],
      [
        103.7676563,
        1.2928821
      ],
      [
        103.7677885,
        1.2927609
      ],
      [
        103.7679542,
        1.292594
      ],
      [
        103.7679981,
        1.2925514
      ],
      [
        103.7681281,
        1.2924491
      ],
      [
        103.7681718,
        1.2924131
      ],
      [
        103.768271,
        1.2923315
      ],
      [
        103.768425,
        1.2922235
      ],
      [
        103.7684821,
        1.2921987
      ],
      [
        103.7686515,
        1.292127
      ],
      [
        103.7687896,
        1.2920705
      ],
      [
        103.7690696,
        1.2919693
      ],
      [
        103.7691853,
        1.2919275
      ],
      [
        103.7692137,
        1.2919172
      ],
      [
        103.7692338,
        1.2919113
      ],
      [
        103.7694553,
        1.2918462
      ],
      [
        103.7700669,
        1.2916683
      ],
      [
        103.7702163,
        1.2916288
      ],
      [
        103.7706043,
        1.2915228
      ],
      [
        103.7706811,
        1.2915018
      ],
      [
        103.7707649,
        1.2914789
      ],
      [
        103.7708218,
        1.2914633
      ],
      [
        103.7708872,
        1.2914514
      ],
      [
        103.7714005,
        1.2913038
      ],
      [
        103.7715378,
        1.2912731
      ],
      [
        103.7718813,
        1.2911819
      ],
      [
        103.7720475,
        1.2911462
      ],
      [
        103.7726068,
        1.2909868
      ],
      [
        103.7728821,
        1.2909052
      ],
      [
        103.7730841,
        1.2908465
      ],
      [
        103.7733906,
        1.290745
      ],
      [
        103.7734276,
        1.2907272
      ],
      [
        103.773463,
        1.2907089
      ],
      [
        103.7739268,
        1.2904779
      ],
      [
        103.7741795,
        1.290352
      ],
      [
        103.7743063,
        1.2902888
      ],
      [
        103.7744337,
        1.2902253
      ],
      [
        103.7747636,
        1.2900983
      ],
      [
        103.7752651,
        1.2899053
      ],
      [
        103.7753266,
        1.2898816
      ],
      [
        103.7754648,
        1.2898322
      ],
      [
        103.775565,
        1.289798
      ],
      [
        103.7759383,
        1.2896672
      ],
      [
        103.7762297,
        1.2895623
      ],
      [
        103.7763573,
        1.2895189
      ],
      [
        103.7765592,
        1.2894474
      ],
      [
        103.7767922,
        1.2893649
      ],
      [
        103.7768539,
        1.2893422
      ],
      [
        103.7772008,
        1.2892147
      ],
      [
        103.7774418,
        1.289128
      ],
      [
        103.7776118,
        1.2890669
      ],
      [
        103.7777219,
        1.2890238
      ],
      [
        103.777753,
        1.2890117
      ],
      [
        103.7778578,
        1.2889448
      ],
      [
        103.7779839,
        1.2888515
      ],
      [
        103.7780065,
        1.2888316
      ],
      [
        103.7780516,
        1.2887958
      ],
      [
        103.7780971,
        1.2887569
      ],
      [
        103.7781296,
        1.2887296
      ],
      [
        103.7781497,
        1.2887128
      ],
      [
        103.77823,
        1.2886159
      ],
      [
        103.7782575,
        1.2885833
      ],
      [
        103.7783771,
        1.2884418
      ],
      [
        103.7783824,
        1.2884355
      ],
      [
        103.7786335,
        1.2880542
      ],
      [
        103.7791152,
        1.28733
      ],
      [
        103.779249,
        1.2871359
      ],
      [
        103.7794285,
        1.286886
      ],
      [
        103.7795716,
        1.2867274
      ],
      [
        103.7797358,
        1.2865699
      ],
      [
        103.7797952,
        1.2865108
      ],
      [
        103.7805324,
        1.2857769
      ],
      [
        103.7805708,
        1.2857382
      ],
      [
        103.7806657,
        1.2856427
      ],
      [
        103.7808026,
        1.2854404
      ],
      [
        103.7809555,
        1.2851594
      ],
      [
        103.7810357,
        1.2850124
      ],
      [
        103.7810732,
        1.2848957
      ],
      [
        103.7810838,
        1.2848243
      ],
      [
        103.7810753,
        1.2847402
      ],
      [
        103.7810585,
        1.2847018
      ],
      [
        103.7809006,
        1.2844461
      ],
      [
        103.7808841,
        1.284413
      ],
      [
        103.7808714,
        1.2843628
      ],
      [
        103.7808748,
        1.2842883
      ],
      [
        103.7808929,
        1.284228
      ],
      [
        103.7809197,
        1.284171
      ],
      [
        103.7811739,
        1.2838234
      ],
      [
        103.7811904,
        1.2838008
      ],
      [
        103.7813039,
        1.2836488
      ],
      [
        103.7815887,
        1.2832802
      ],
      [
        103.7817741,
        1.2830712
      ],
      [
        103.7817868,
        1.2830546
      ],
      [
        103.7818124,
        1.283028
      ],
      [
        103.7820034,
        1.2828663
      ],
      [
        103.782168,
        1.2827322
      ],
      [
        103.7822976,
        1.2826267
      ],
      [
        103.7824218,
        1.2825512
      ],
      [
        103.782676,
        1.2823968
      ],
      [
        103.7827646,
        1.2823473
      ],
      [
        103.7828038,
        1.2822867
      ],
      [
        103.7828038,
        1.2822867
      ],
      [
        103.7830877,
        1.2821023
      ],
      [
        103.7832667,
        1.2819799
      ],
      [
        103.7833307,
        1.2819362
      ],
      [
        103.7836204,
        1.2817381
      ],
      [
        103.7834858,
        1.2818265
      ],
      [
        103.7837539,
        1.2816469
      ],
      [
        103.7839927,
        1.2814887
      ],
      [
        103.7841977,
        1.2813395
      ],
      [
        103.7843183,
        1.2812673
      ],
      [
        103.784368,
        1.2812348
      ],
      [
        103.784414,
        1.2812033
      ],
      [
        103.7845989,
        1.2810855
      ],
      [
        103.7849062,
        1.2808844
      ],
      [
        103.7847851,
        1.280964
      ],
      [
        103.7849701,
        1.2808284
      ],
      [
        103.7851925,
        1.2805394
      ],
      [
        103.7850779,
        1.2807262
      ],
      [
        103.7850339,
        1.2807717
      ],
      [
        103.7852609,
        1.2803808
      ],
      [
        103.7852893,
        1.2803
      ],
      [
        103.7853138,
        1.2802316
      ],
      [
        103.7853265,
        1.2801975
      ],
      [
        103.7855264,
        1.2797816
      ],
      [
        103.7855564,
        1.2797241
      ],
      [
        103.785567,
        1.2796968
      ],
      [
        103.7856893,
        1.2793369
      ],
      [
        103.7857687,
        1.2791078
      ],
      [
        103.7857851,
        1.2790583
      ],
      [
        103.7858042,
        1.2790065
      ],
      [
        103.7858264,
        1.2789467
      ],
      [
        103.7858331,
        1.2789252
      ],
      [
        103.7858444,
        1.2788891
      ],
      [
        103.7858494,
        1.2788513
      ],
      [
        103.7858905,
        1.2786953
      ],
      [
        103.785926,
        1.2786303
      ],
      [
        103.7859662,
        1.2785013
      ],
      [
        103.7859948,
        1.2784095
      ],
      [
        103.78611,
        1.278367
      ],
      [
        103.7861376,
        1.2783595
      ],
      [
        103.7863592,
        1.2782997
      ],
      [
        103.7865778,
        1.2782335
      ],
      [
        103.7867092,
        1.2781942
      ],
      [
        103.7869874,
        1.278105
      ],
      [
        103.7871332,
        1.2780549
      ],
      [
        103.7872441,
        1.2780168
      ],
      [
        103.7873784,
        1.2779706
      ],
      [
        103.7877384,
        1.2778488
      ],
      [
        103.7883346,
        1.277634
      ],
      [
        103.7885018,
        1.2775737
      ],
      [
        103.7887202,
        1.2774991
      ],
      [
        103.7888811,
        1.2774446
      ],
      [
        103.7895184,
        1.2772278
      ],
      [
        103.7897084,
        1.2771659
      ],
      [
        103.7898009,
        1.2771297
      ],
      [
        103.7899789,
        1.2770629
      ],
      [
        103.7903875,
        1.2769152
      ],
      [
        103.7905522,
        1.2768621
      ],
      [
        103.7906876,
        1.276812
      ],
      [
        103.7907493,
        1.2767892
      ],
      [
        103.7909423,
        1.2767184
      ],
      [
        103.7910656,
        1.2766755
      ],
      [
        103.7912578,
        1.2766073
      ],
      [
        103.7917662,
        1.2764431
      ],
      [
        103.7918399,
        1.2764193
      ],
      [
        103.7918918,
        1.2764025
      ],
      [
        103.792133,
        1.2763243
      ],
      [
        103.7924956,
        1.276207
      ],
      [
        103.792546,
        1.2761899
      ],
      [
        103.7927001,
        1.2761376
      ],
      [
        103.7927226,
        1.27613
      ],
      [
        103.7927654,
        1.2761155
      ],
      [
        103.7928585,
        1.2760839
      ],
      [
        103.7934688,
        1.2758737
      ],
      [
        103.7940853,
        1.275655
      ],
      [
        103.7941865,
        1.2756178
      ],
      [
        103.7943855,
        1.2755447
      ],
      [
        103.794401,
        1.2755396
      ],
      [
        103.79448,
        1.2755138
      ],
      [
        103.7951812,
        1.2752628
      ],
      [
        103.7953096,
        1.2752168
      ],
      [
        103.7955749,
        1.2751174
      ],
      [
        103.7956153,
        1.2751023
      ],
      [
        103.7957873,
        1.2750453
      ],
      [
        103.7961772,
        1.274916
      ],
      [
        103.7963071,
        1.2748729
      ],
      [
        103.7964061,
        1.2748388
      ],
      [
        103.796459,
        1.2748205
      ],
      [
        103.7968634,
        1.2746811
      ],
      [
        103.7969642,
        1.2746464
      ],
      [
        103.7975029,
        1.2744542
      ],
      [
        103.7975954,
        1.2744212
      ],
      [
        103.7979503,
        1.2742946
      ],
      [
        103.7992588,
        1.273853
      ],
      [
        103.7997351,
        1.2736748
      ],
      [
        103.8000015,
        1.2735464
      ],
      [
        103.8000798,
        1.2735087
      ],
      [
        103.8001461,
        1.2734844
      ],
      [
        103.8001692,
        1.2734759
      ],
      [
        103.8007901,
        1.2731824
      ],
      [
        103.8010079,
        1.273084
      ],
      [
        103.801458,
        1.272924
      ],
      [
        103.8016056,
        1.272877
      ],
      [
        103.8017684,
        1.2729123
      ],
      [
        103.8018907,
        1.2729406
      ],
      [
        103.8019368,
        1.2729686
      ],
      [
        103.8020058,
        1.2730423
      ],
      [
        103.802049,
        1.2731038
      ],
      [
        103.8020699,
        1.2731678
      ],
      [
        103.802083,
        1.273283
      ],
      [
        103.8020495,
        1.2735287
      ],
      [
        103.8020173,
        1.273778
      ],
      [
        103.802006,
        1.2738472
      ],
      [
        103.8019965,
        1.2739608
      ],
      [
        103.8019901,
        1.2740381
      ],
      [
        103.8019945,
        1.2741045
      ],
      [
        103.8019868,
        1.2742012
      ],
      [
        103.8019586,
        1.2745033
      ],
      [
        103.801929,
        1.2747922
      ],
      [
        103.8019259,
        1.2749133
      ],
      [
        103.8019389,
        1.2752908
      ],
      [
        103.8019465,
        1.2753896
      ],
      [
        103.801974,
        1.275568
      ],
      [
        103.802024,
        1.2757792
      ],
      [
        103.8020655,
        1.2759116
      ],
      [
        103.8020924,
        1.2760016
      ],
      [
        103.8021119,
        1.2760585
      ],
      [
        103.8022527,
        1.2764701
      ],
      [
        103.8022847,
        1.27656
      ],
      [
        103.8024409,
        1.2769925
      ],
      [
        103.8025228,
        1.2772139
      ],
      [
        103.8025484,
        1.2772883
      ],
      [
        103.8025677,
        1.2773413
      ],
      [
        103.802601,
        1.2774329
      ],
      [
        103.8026796,
        1.2776459
      ],
      [
        103.8028448,
        1.2781154
      ],
      [
        103.8029343,
        1.2783626
      ],
      [
        103.8030164,
        1.2785892
      ],
      [
        103.8030452,
        1.2788472
      ],
      [
        103.8030245,
        1.2791046
      ],
      [
        103.8028559,
        1.2795489
      ],
      [
        103.8027524,
        1.2797668
      ],
      [
        103.8027069,
        1.2798626
      ],
      [
        103.802567,
        1.2801101
      ],
      [
        103.8024588,
        1.2803103
      ],
      [
        103.8023541,
        1.2805329
      ],
      [
        103.8022345,
        1.2807889
      ],
      [
        103.8020146,
        1.2812448
      ],
      [
        103.8019801,
        1.2813145
      ],
      [
        103.8019519,
        1.2813635
      ],
      [
        103.8018442,
        1.281564
      ],
      [
        103.8016252,
        1.2819719
      ],
      [
        103.8013591,
        1.2824832
      ],
      [
        103.8012565,
        1.2826806
      ],
      [
        103.8011697,
        1.2829155
      ],
      [
        103.8011399,
        1.2830817
      ],
      [
        103.8011437,
        1.2833648
      ],
      [
        103.801167,
        1.2834741
      ],
      [
        103.8011918,
        1.283581
      ],
      [
        103.8013512,
        1.2839195
      ],
      [
        103.8016834,
        1.2845839
      ],
      [
        103.8017007,
        1.2846089
      ],
      [
        103.8017399,
        1.2846876
      ],
      [
        103.8017892,
        1.2847649
      ],
      [
        103.8018403,
        1.2848451
      ],
      [
        103.8019941,
        1.2850862
      ],
      [
        103.8020826,
        1.2852225
      ],
      [
        103.8021684,
        1.2853545
      ],
      [
        103.8023499,
        1.2856468
      ],
      [
        103.8027779,
        1.2864068
      ],
      [
        103.8028599,
        1.2865231
      ],
      [
        103.8029087,
        1.2865799
      ],
      [
        103.8030614,
        1.2867608
      ],
      [
        103.8032823,
        1.2869305
      ],
      [
        103.8034282,
        1.2870193
      ],
      [
        103.803484,
        1.2870517
      ],
      [
        103.8035528,
        1.2870962
      ],
      [
        103.8036249,
        1.287142
      ],
      [
        103.8039422,
        1.2873454
      ],
      [
        103.8040191,
        1.2874637
      ],
      [
        103.8040493,
        1.2875782
      ],
      [
        103.8040531,
        1.2875927
      ],
      [
        103.804053,
        1.2877422
      ],
      [
        103.8040046,
        1.2878719
      ],
      [
        103.8036893,
        1.2881927
      ],
      [
        103.8036546,
        1.2882271
      ],
      [
        103.8034128,
        1.2884669
      ],
      [
        103.8033544,
        1.2885248
      ],
      [
        103.803227,
        1.2886513
      ],
      [
        103.8030921,
        1.2887853
      ],
      [
        103.8028299,
        1.2890455
      ],
      [
        103.8019763,
        1.2898512
      ],
      [
        103.8015446,
        1.2902643
      ],
      [
        103.8014492,
        1.2903556
      ],
      [
        103.8013273,
        1.2904706
      ],
      [
        103.8012555,
        1.290539
      ],
      [
        103.8012277,
        1.2905658
      ],
      [
        103.8012191,
        1.2905758
      ],
      [
        103.8011828,
        1.2906118
      ],
      [
        103.8011445,
        1.2906498
      ],
      [
        103.80112,
        1.2906744
      ],
      [
        103.8010413,
        1.290752
      ],
      [
        103.8009877,
        1.2908049
      ],
      [
        103.8008022,
        1.2910002
      ],
      [
        103.8007348,
        1.2910711
      ],
      [
        103.8006667,
        1.2911423
      ],
      [
        103.8003063,
        1.2915192
      ],
      [
        103.8000407,
        1.2918368
      ],
      [
        103.7999853,
        1.2918976
      ],
      [
        103.7997949,
        1.2921337
      ],
      [
        103.7994887,
        1.2926446
      ],
      [
        103.7993574,
        1.2928672
      ],
      [
        103.7991612,
        1.2931391
      ],
      [
        103.7989391,
        1.2933827
      ],
      [
        103.7988997,
        1.2934635
      ],
      [
        103.7988736,
        1.2935639
      ],
      [
        103.7989644,
        1.2938985
      ],
      [
        103.7990845,
        1.2944696
      ],
      [
        103.7991922,
        1.294945
      ],
      [
        103.7992963,
        1.2953651
      ],
      [
        103.7994072,
        1.2957599
      ],
      [
        103.7994579,
        1.2958848
      ],
      [
        103.7995086,
        1.2960097
      ],
      [
        103.799574,
        1.2961708
      ],
      [
        103.79974,
        1.2965403
      ],
      [
        103.7999498,
        1.2969891
      ],
      [
        103.8000572,
        1.2973457
      ],
      [
        103.8001343,
        1.2975492
      ],
      [
        103.800225,
        1.2978467
      ],
      [
        103.8003093,
        1.2981772
      ],
      [
        103.8003689,
        1.2984429
      ],
      [
        103.8003969,
        1.2985675
      ],
      [
        103.8004132,
        1.2986442
      ],
      [
        103.8004905,
        1.2990084
      ],
      [
        103.8005467,
        1.2992954
      ],
      [
        103.800635,
        1.2997461
      ],
      [
        103.8007085,
        1.3000612
      ],
      [
        103.8007313,
        1.3001567
      ],
      [
        103.8007902,
        1.3004411
      ],
      [
        103.8010435,
        1.3002279
      ],
      [
        103.801092,
        1.3001888
      ],
      [
        103.8013246,
        1.300014
      ],
      [
        103.8021634,
        1.299334
      ],
      [
        103.8025657,
        1.2989402
      ],
      [
        103.8026285,
        1.2988788
      ],
      [
        103.8026858,
        1.2988256
      ],
      [
        103.8030795,
        1.2984602
      ],
      [
        103.8031713,
        1.2983767
      ],
      [
        103.8038776,
        1.2977521
      ],
      [
        103.8042985,
        1.2973681
      ],
      [
        103.80441,
        1.2972495
      ],
      [
        103.8045537,
        1.2970898
      ],
      [
        103.8046275,
        1.297004
      ],
      [
        103.8047373,
        1.2968684
      ],
      [
        103.8047752,
        1.296831
      ],
      [
        103.804852,
        1.2967156
      ],
      [
        103.8049543,
        1.2965793
      ],
      [
        103.8049856,
        1.2965333
      ],
      [
        103.8050173,
        1.2964823
      ],
      [
        103.8053053,
        1.2960641
      ],
      [
        103.8054288,
        1.2958709
      ],
      [
        103.8054814,
        1.295788
      ],
      [
        103.8055223,
        1.2957238
      ],
      [
        103.8058056,
        1.2952734
      ],
      [
        103.8059227,
        1.2950873
      ],
      [
        103.8060912,
        1.2948209
      ],
      [
        103.8061501,
        1.2947277
      ],
      [
        103.8062838,
        1.2945163
      ],
      [
        103.8064484,
        1.2942515
      ],
      [
        103.806685,
        1.293882
      ],
      [
        103.8066998,
        1.2938589
      ],
      [
        103.8068415,
        1.2936334
      ],
      [
        103.807047,
        1.2933455
      ],
      [
        103.8075842,
        1.2928089
      ],
      [
        103.8078588,
        1.2925686
      ],
      [
        103.8080885,
        1.29234
      ],
      [
        103.808252,
        1.2922941
      ],
      [
        103.8084103,
        1.2922766
      ],
      [
        103.8085357,
        1.2922797
      ],
      [
        103.808692,
        1.292307
      ],
      [
        103.8089473,
        1.2924469
      ],
      [
        103.808978,
        1.2924559
      ],
      [
        103.809193,
        1.2925187
      ],
      [
        103.80955,
        1.2925395
      ],
      [
        103.8099455,
        1.2924855
      ],
      [
        103.8101609,
        1.2924589
      ],
      [
        103.8103959,
        1.2924188
      ],
      [
        103.8106392,
        1.2923919
      ],
      [
        103.810923,
        1.2923442
      ],
      [
        103.8109879,
        1.2923343
      ],
      [
        103.812269,
        1.2921208
      ],
      [
        103.8123398,
        1.2921094
      ],
      [
        103.8127904,
        1.2920366
      ],
      [
        103.8130263,
        1.2919988
      ],
      [
        103.8137452,
        1.2918905
      ],
      [
        103.8139602,
        1.2918574
      ],
      [
        103.8140832,
        1.2918407
      ],
      [
        103.8142937,
        1.291802
      ],
      [
        103.8144989,
        1.2917685
      ],
      [
        103.8146888,
        1.2917375
      ],
      [
        103.8149849,
        1.2916856
      ],
      [
        103.8153101,
        1.291636
      ],
      [
        103.8153478,
        1.2916303
      ],
      [
        103.8154847,
        1.2916178
      ],
      [
        103.8155482,
        1.2916116
      ],
      [
        103.8159168,
        1.2915757
      ],
      [
        103.8162085,
        1.2915473
      ],
      [
        103.8164468,
        1.2915241
      ],
      [
        103.8165907,
        1.29151
      ],
      [
        103.8167319,
        1.2914976
      ],
      [
        103.8168574,
        1.2914857
      ],
      [
        103.8169143,
        1.2914816
      ],
      [
        103.8170779,
        1.2914641
      ],
      [
        103.8175639,
        1.2914182
      ],
      [
        103.8179901,
        1.2913754
      ],
      [
        103.8181156,
        1.2913628
      ],
      [
        103.818254,
        1.2913468
      ],
      [
        103.8187219,
        1.2913019
      ],
      [
        103.8189702,
        1.2912764
      ],
      [
        103.8192374,
        1.291254
      ],
      [
        103.8195258,
        1.2912206
      ],
      [
        103.819724,
        1.2911995
      ],
      [
        103.8204441,
        1.2911371
      ],
      [
        103.8208683,
        1.291104
      ],
      [
        103.8216525,
        1.2910487
      ],
      [
        103.8219981,
        1.2910107
      ],
      [
        103.822422,
        1.2909691
      ],
      [
        103.8226726,
        1.2909432
      ],
      [
        103.8230453,
        1.2909087
      ],
      [
        103.8231178,
        1.2909052
      ],
      [
        103.8232374,
        1.2908941
      ],
      [
        103.8233277,
        1.2908855
      ],
      [
        103.8237912,
        1.2908379
      ],
      [
        103.8240527,
        1.2908035
      ],
      [
        103.8248977,
        1.2907119
      ],
      [
        103.8252244,
        1.2906765
      ],
      [
        103.8254162,
        1.2906603
      ],
      [
        103.8257538,
        1.2906379
      ],
      [
        103.826071,
        1.2906223
      ],
      [
        103.8261364,
        1.2906229
      ],
      [
        103.8263149,
        1.2906191
      ],
      [
        103.8263709,
        1.2906176
      ],
      [
        103.8265863,
        1.2906035
      ],
      [
        103.8278825,
        1.2905692
      ],
      [
        103.8284075,
        1.2905622
      ],
      [
        103.8289439,
        1.2905449
      ],
      [
        103.8295538,
        1.2905188
      ],
      [
        103.8295812,
        1.2905188
      ],
      [
        103.8296338,
        1.2905189
      ],
      [
        103.8315409,
        1.290466
      ],
      [
        103.8317543,
        1.2904531
      ],
      [
        103.8321295,
        1.2904158
      ],
      [
        103.8323828,
        1.2903671
      ],
      [
        103.8325689,
        1.2903173
      ],
      [
        103.8331629,
        1.2900876
      ],
      [
        103.8332956,
        1.2900402
      ],
      [
        103.8335158,
        1.2899658
      ],
      [
        103.8335833,
        1.2899437
      ],
      [
        103.833791,
        1.2898644
      ],
      [
        103.8340777,
        1.2897554
      ],
      [
        103.834355,
        1.2896599
      ],
      [
        103.8345847,
        1.2895911
      ],
      [
        103.8347849,
        1.2895242
      ],
      [
        103.8350177,
        1.2894491
      ],
      [
        103.8350793,
        1.2894309
      ],
      [
        103.8353191,
        1.2893675
      ],
      [
        103.8358285,
        1.2892643
      ],
      [
        103.8359363,
        1.289242
      ],
      [
        103.8360613,
        1.2892162
      ],
      [
        103.8361436,
        1.2891975
      ],
      [
        103.836423,
        1.2891341
      ],
      [
        103.8368517,
        1.2890494
      ],
      [
        103.8370968,
        1.2890203
      ],
      [
        103.8371573,
        1.2890125
      ],
      [
        103.8373224,
        1.2889892
      ],
      [
        103.8373935,
        1.2889821
      ],
      [
        103.8375228,
        1.2889692
      ],
      [
        103.8378101,
        1.2889406
      ],
      [
        103.8379121,
        1.2889246
      ],
      [
        103.8381569,
        1.2888936
      ],
      [
        103.8383472,
        1.2888896
      ],
      [
        103.8385986,
        1.2889072
      ],
      [
        103.8387322,
        1.2889301
      ],
      [
        103.8388853,
        1.2889729
      ],
      [
        103.8390397,
        1.2890272
      ],
      [
        103.8393009,
        1.2891344
      ],
      [
        103.839493,
        1.2891902
      ],
      [
        103.8397032,
        1.2892369
      ],
      [
        103.8398876,
        1.2892526
      ],
      [
        103.8400105,
        1.2892452
      ],
      [
        103.8401418,
        1.2892216
      ],
      [
        103.8402872,
        1.2891559
      ],
      [
        103.8404426,
        1.2890724
      ],
      [
        103.840596,
        1.2889854
      ],
      [
        103.8409434,
        1.2887987
      ],
      [
        103.8412307,
        1.2886329
      ],
      [
        103.8412716,
        1.2886093
      ],
      [
        103.8413626,
        1.2885628
      ],
      [
        103.8414105,
        1.2885378
      ],
      [
        103.8416021,
        1.2884388
      ],
      [
        103.8416566,
        1.288406
      ],
      [
        103.8417699,
        1.2883365
      ],
      [
        103.8420881,
        1.2881484
      ],
      [
        103.8421646,
        1.2881122
      ],
      [
        103.8422638,
        1.2880747
      ],
      [
        103.8423754,
        1.2880378
      ],
      [
        103.8423979,
        1.2880304
      ],
      [
        103.8425428,
        1.2879969
      ],
      [
        103.8425669,
        1.2879921
      ],
      [
        103.8427363,
        1.2879584
      ],
      [
        103.8428217,
        1.2879366
      ],
      [
        103.8429062,
        1.2879151
      ],
      [
        103.8429853,
        1.2878843
      ],
      [
        103.843043,
        1.2878615
      ],
      [
        103.8431288,
        1.2878239
      ],
      [
        103.8432334,
        1.2877583
      ],
      [
        103.8434705,
        1.2876228
      ],
      [
        103.8435,
        1.287606
      ],
      [
        103.8435752,
        1.2875585
      ],
      [
        103.8435925,
        1.2875463
      ],
      [
        103.8438571,
        1.2873594
      ],
      [
        103.8442979,
        1.287114
      ],
      [
        103.844519,
        1.2869758
      ],
      [
        103.8448641,
        1.2867631
      ],
      [
        103.8449411,
        1.2867159
      ],
      [
        103.8451287,
        1.2865976
      ],
      [
        103.8452109,
        1.2865509
      ],
      [
        103.8453089,
        1.2866706
      ],
      [
        103.8454456,
        1.2868378
      ],
      [
        103.8455766,
        1.2869815
      ],
      [
        103.8455833,
        1.2869893
      ],
      [
        103.845675,
        1.2870953
      ],
      [
        103.845862,
        1.2873202
      ],
      [
        103.8459283,
        1.2873956
      ],
      [
        103.8459996,
        1.2874818
      ],
      [
        103.8463526,
        1.2878841
      ],
      [
        103.8465239,
        1.2880819
      ],
      [
        103.8466218,
        1.2881974
      ],
      [
        103.8467424,
        1.2883397
      ],
      [
        103.8469287,
        1.2885573
      ],
      [
        103.8474799,
        1.2892359
      ],
      [
        103.8476025,
        1.2893849
      ],
      [
        103.8479836,
        1.2898829
      ],
      [
        103.8481263,
        1.2900514
      ],
      [
        103.8481858,
        1.2901144
      ],
      [
        103.8482584,
        1.2902039
      ],
      [
        103.8483996,
        1.2903724
      ],
      [
        103.8484965,
        1.2904993
      ],
      [
        103.8485901,
        1.2906549
      ],
      [
        103.848755,
        1.2909524
      ],
      [
        103.8489047,
        1.2912404
      ],
      [
        103.8490446,
        1.2914925
      ],
      [
        103.8491756,
        1.291758
      ],
      [
        103.849286,
        1.2919657
      ],
      [
        103.8493692,
        1.2921494
      ],
      [
        103.8494378,
        1.2923308
      ],
      [
        103.8494696,
        1.2923913
      ],
      [
        103.8495306,
        1.2925377
      ],
      [
        103.8495696,
        1.2926289
      ],
      [
        103.8496622,
        1.292845
      ],
      [
        103.8496842,
        1.2928907
      ],
      [
        103.8498421,
        1.2932189
      ],
      [
        103.8500439,
        1.293586
      ],
      [
        103.8501234,
        1.2937429
      ],
      [
        103.8501887,
        1.2938717
      ],
      [
        103.8502345,
        1.2939612
      ],
      [
        103.8502957,
        1.2940826
      ],
      [
        103.8504705,
        1.2944135
      ],
      [
        103.850537,
        1.2945195
      ],
      [
        103.8506094,
        1.294611
      ],
      [
        103.8510631,
        1.2951378
      ],
      [
        103.8513344,
        1.2954281
      ],
      [
        103.8513962,
        1.2954858
      ],
      [
        103.8514153,
        1.295506
      ],
      [
        103.8515011,
        1.2955985
      ],
      [
        103.8516569,
        1.2957626
      ],
      [
        103.8517651,
        1.2958866
      ],
      [
        103.8518194,
        1.2959447
      ],
      [
        103.8519011,
        1.2960284
      ],
      [
        103.8519488,
        1.2960865
      ],
      [
        103.8520528,
        1.2962032
      ],
      [
        103.8522026,
        1.2963704
      ],
      [
        103.8523503,
        1.2965295
      ],
      [
        103.8526694,
        1.2968976
      ],
      [
        103.8527418,
        1.2969881
      ],
      [
        103.8527609,
        1.297012
      ],
      [
        103.8530862,
        1.2974185
      ],
      [
        103.853171,
        1.2975217
      ],
      [
        103.8532709,
        1.2976481
      ],
      [
        103.8534083,
        1.2978206
      ],
      [
        103.8534389,
        1.297859
      ],
      [
        103.8536667,
        1.298145
      ],
      [
        103.8538916,
        1.2984272
      ],
      [
        103.8539445,
        1.2984936
      ],
      [
        103.8540378,
        1.2986159
      ],
      [
        103.8540608,
        1.2986427
      ],
      [
        103.854281,
        1.2988992
      ],
      [
        103.8545356,
        1.2991957
      ],
      [
        103.8546626,
        1.2993436
      ],
      [
        103.8549017,
        1.299622
      ],
      [
        103.8549254,
        1.2996495
      ],
      [
        103.8552542,
        1.300045
      ],
      [
        103.8554415,
        1.3002602
      ],
      [
        103.8555723,
        1.3004179
      ],
      [
        103.8556766,
        1.3005381
      ],
      [
        103.8557189,
        1.3005869
      ],
      [
        103.8558114,
        1.3006936
      ],
      [
        103.855876,
        1.3007684
      ],
      [
        103.8561679,
        1.301106
      ],
      [
        103.8565286,
        1.301522
      ],
      [
        103.8567098,
        1.3017351
      ],
      [
        103.856839,
        1.3018849
      ],
      [
        103.8569413,
        1.3020055
      ],
      [
        103.8569904,
        1.3020677
      ],
      [
        103.8570161,
        1.3020949
      ],
      [
        103.8575065,
        1.3026523
      ],
      [
        103.8576065,
        1.3027713
      ],
      [
        103.8576525,
        1.3028261
      ],
      [
        103.8576992,
        1.302876
      ],
      [
        103.8581572,
        1.3033655
      ],
      [
        103.8581703,
        1.3033795
      ],
      [
        103.858186,
        1.3033953
      ],
      [
        103.8586933,
        1.3038658
      ],
      [
        103.8589478,
        1.3041095
      ],
      [
        103.8590774,
        1.3042298
      ],
      [
        103.8592057,
        1.3043283
      ],
      [
        103.8594245,
        1.304491
      ],
      [
        103.8597518,
        1.3047645
      ],
      [
        103.8600243,
        1.304986
      ],
      [
        103.8601125,
        1.3050625
      ],
      [
        103.8601962,
        1.305135
      ],
      [
        103.8603091,
        1.3052362
      ],
      [
        103.8605216,
        1.3054094
      ],
      [
        103.8609546,
        1.3057794
      ],
      [
        103.8615462,
        1.3063202
      ],
      [
        103.8617711,
        1.3065294
      ],
      [
        103.8624943,
        1.3072114
      ],
      [
        103.8627197,
        1.3074487
      ],
      [
        103.8628954,
        1.3076176
      ],
      [
        103.8630661,
        1.3077727
      ],
      [
        103.8630932,
        1.3078
      ],
      [
        103.8631318,
        1.3078396
      ],
      [
        103.8631638,
        1.307868
      ],
      [
        103.8633964,
        1.3080743
      ],
      [
        103.8637483,
        1.3083951
      ],
      [
        103.8638674,
        1.3085135
      ],
      [
        103.8640101,
        1.3086319
      ],
      [
        103.8641022,
        1.3087039
      ],
      [
        103.8642062,
        1.3087852
      ],
      [
        103.8643085,
        1.3088569
      ],
      [
        103.8643514,
        1.3088918
      ],
      [
        103.8649808,
        1.309071
      ],
      [
        103.8656935,
        1.3092427
      ],
      [
        103.8657886,
        1.3092651
      ],
      [
        103.8660028,
        1.3093156
      ],
      [
        103.8669107,
        1.3095236
      ],
      [
        103.867171,
        1.3095778
      ],
      [
        103.8676717,
        1.3097038
      ],
      [
        103.8682088,
        1.3098779
      ],
      [
        103.868521,
        1.3099841
      ],
      [
        103.8686208,
        1.3100181
      ],
      [
        103.8688595,
        1.3100895
      ],
      [
        103.8693263,
        1.3102152
      ],
      [
        103.8693709,
        1.3102269
      ],
      [
        103.8698522,
        1.3103528
      ],
      [
        103.8703859,
        1.3104975
      ],
      [
        103.8708133,
        1.3106306
      ],
      [
        103.8708826,
        1.3106634
      ],
      [
        103.8709088,
        1.310676
      ],
      [
        103.8709926,
        1.3107155
      ],
      [
        103.8712545,
        1.3108716
      ],
      [
        103.871397,
        1.3109897
      ],
      [
        103.87148,
        1.3110557
      ],
      [
        103.8715209,
        1.3110882
      ],
      [
        103.8718325,
        1.3113462
      ],
      [
        103.871888,
        1.3113931
      ],
      [
        103.8720588,
        1.311523
      ],
      [
        103.8721651,
        1.3116046
      ],
      [
        103.8722478,
        1.3116621
      ],
      [
        103.8723365,
        1.3117231
      ],
      [
        103.8725681,
        1.3119035
      ],
      [
        103.8732232,
        1.3123538
      ],
      [
        103.8732541,
        1.3123706
      ],
      [
        103.8734009,
        1.312467
      ],
      [
        103.873537,
        1.3125548
      ],
      [
        103.8739455,
        1.3127903
      ],
      [
        103.874033,
        1.3128319
      ],
      [
        103.8742319,
        1.3129134
      ],
      [
        103.8745663,
        1.3130445
      ],
      [
        103.8748082,
        1.313122
      ],
      [
        103.8749355,
        1.3131627
      ],
      [
        103.8750656,
        1.3132004
      ],
      [
        103.8751319,
        1.3132219
      ],
      [
        103.8754429,
        1.3133181
      ],
      [
        103.8755232,
        1.3133453
      ],
      [
        103.8755431,
        1.3133515
      ],
      [
        103.8755952,
        1.3133678
      ],
      [
        103.8756384,
        1.3133816
      ],
      [
        103.8759285,
        1.3134758
      ],
      [
        103.8760804,
        1.3135273
      ],
      [
        103.8761493,
        1.3135499
      ],
      [
        103.8762064,
        1.3135659
      ],
      [
        103.8762389,
        1.3135771
      ],
      [
        103.8763244,
        1.3136066
      ],
      [
        103.8767515,
        1.313754
      ],
      [
        103.8768522,
        1.3137918
      ],
      [
        103.8768864,
        1.3138049
      ],
      [
        103.8771773,
        1.3139095
      ],
      [
        103.8772923,
        1.3139509
      ],
      [
        103.8774729,
        1.3140079
      ],
      [
        103.8776436,
        1.314069
      ],
      [
        103.877749,
        1.3141044
      ],
      [
        103.8778177,
        1.3141261
      ],
      [
        103.8779843,
        1.3141788
      ],
      [
        103.8782955,
        1.3142549
      ],
      [
        103.8783211,
        1.3142626
      ],
      [
        103.8784318,
        1.3142958
      ],
      [
        103.8784719,
        1.3143045
      ],
      [
        103.8785348,
        1.314317
      ],
      [
        103.8786427,
        1.3143341
      ],
      [
        103.8789437,
        1.3143972
      ],
      [
        103.8790762,
        1.3144189
      ],
      [
        103.8791141,
        1.3144273
      ],
      [
        103.8798881,
        1.3145991
      ],
      [
        103.879921,
        1.3146058
      ],
      [
        103.8799539,
        1.3146126
      ],
      [
        103.8806006,
        1.3147276
      ],
      [
        103.8806492,
        1.3147403
      ],
      [
        103.8807294,
        1.3147598
      ],
      [
        103.8809402,
        1.3147956
      ],
      [
        103.8812694,
        1.3148479
      ],
      [
        103.8813076,
        1.314854
      ],
      [
        103.8814607,
        1.3148825
      ],
      [
        103.8817124,
        1.3149321
      ],
      [
        103.881782,
        1.3149443
      ],
      [
        103.8818731,
        1.3149631
      ],
      [
        103.8819331,
        1.3149736
      ],
      [
        103.8820044,
        1.3149871
      ],
      [
        103.8821659,
        1.3150116
      ],
      [
        103.8822281,
        1.3150234
      ],
      [
        103.8824014,
        1.3150563
      ],
      [
        103.8824453,
        1.3150668
      ],
      [
        103.8827367,
        1.3151199
      ],
      [
        103.8829924,
        1.3151686
      ],
      [
        103.8830831,
        1.3151856
      ],
      [
        103.8831212,
        1.3151941
      ],
      [
        103.8834214,
        1.3152452
      ],
      [
        103.8837261,
        1.3153076
      ],
      [
        103.8837575,
        1.3153145
      ],
      [
        103.8846884,
        1.3154902
      ],
      [
        103.8848023,
        1.3155146
      ],
      [
        103.8848941,
        1.3155304
      ],
      [
        103.8849448,
        1.3155404
      ],
      [
        103.8852241,
        1.3155991
      ],
      [
        103.8854989,
        1.315654
      ],
      [
        103.8858014,
        1.3157144
      ],
      [
        103.8860619,
        1.3157628
      ],
      [
        103.8861178,
        1.315773
      ],
      [
        103.8861675,
        1.3157827
      ],
      [
        103.8863888,
        1.3158257
      ],
      [
        103.8865486,
        1.3158585
      ],
      [
        103.8865744,
        1.3158642
      ],
      [
        103.8867122,
        1.3158928
      ],
      [
        103.886749,
        1.3158989
      ],
      [
        103.8869695,
        1.315937
      ],
      [
        103.8877715,
        1.316071
      ],
      [
        103.8878158,
        1.3160769
      ],
      [
        103.8879303,
        1.3160913
      ],
      [
        103.8880459,
        1.3161194
      ],
      [
        103.8881524,
        1.3161425
      ],
      [
        103.8882915,
        1.3161666
      ],
      [
        103.8883241,
        1.3161756
      ],
      [
        103.8885807,
        1.3162127
      ],
      [
        103.8888102,
        1.3162578
      ],
      [
        103.8893602,
        1.3163609
      ],
      [
        103.8894202,
        1.3163722
      ],
      [
        103.8895659,
        1.3163995
      ],
      [
        103.8898896,
        1.3164543
      ],
      [
        103.8899746,
        1.3164687
      ],
      [
        103.8900298,
        1.3164786
      ],
      [
        103.8901573,
        1.3165014
      ],
      [
        103.8902827,
        1.3165235
      ],
      [
        103.8904142,
        1.316547
      ],
      [
        103.8904882,
        1.3165617
      ],
      [
        103.8905983,
        1.3165816
      ],
      [
        103.8906448,
        1.31659
      ],
      [
        103.890649,
        1.3165908
      ],
      [
        103.890677,
        1.3165959
      ],
      [
        103.890837,
        1.3166248
      ],
      [
        103.8911591,
        1.3166831
      ],
      [
        103.8912152,
        1.3166933
      ],
      [
        103.8912419,
        1.3166984
      ],
      [
        103.8916486,
        1.3167763
      ],
      [
        103.8918585,
        1.3168202
      ],
      [
        103.892155,
        1.3168901
      ],
      [
        103.8922266,
        1.3169065
      ],
      [
        103.8923629,
        1.3169357
      ],
      [
        103.8924634,
        1.3169472
      ],
      [
        103.892712,
        1.3169828
      ],
      [
        103.8927954,
        1.316995
      ],
      [
        103.8928912,
        1.3170109
      ],
      [
        103.8931312,
        1.3170404
      ],
      [
        103.8933148,
        1.3170664
      ],
      [
        103.8933724,
        1.3170745
      ],
      [
        103.8935253,
        1.3170912
      ],
      [
        103.8936257,
        1.3171021
      ],
      [
        103.8936918,
        1.3171093
      ],
      [
        103.893709,
        1.3171129
      ],
      [
        103.8938035,
        1.3171273
      ],
      [
        103.8939496,
        1.3171442
      ],
      [
        103.8945848,
        1.3172481
      ],
      [
        103.8947655,
        1.3172769
      ],
      [
        103.8949655,
        1.3173059
      ],
      [
        103.8951993,
        1.3173399
      ],
      [
        103.8955131,
        1.3173866
      ],
      [
        103.8956038,
        1.3174008
      ],
      [
        103.8957052,
        1.3174166
      ],
      [
        103.8964048,
        1.317524
      ],
      [
        103.8965732,
        1.3175486
      ],
      [
        103.8966982,
        1.3175674
      ],
      [
        103.8967271,
        1.3175718
      ],
      [
        103.896764,
        1.317579
      ],
      [
        103.8967966,
        1.3175854
      ],
      [
        103.8971958,
        1.3176546
      ],
      [
        103.8972908,
        1.3176819
      ],
      [
        103.8973417,
        1.3176917
      ],
      [
        103.8975633,
        1.3177341
      ],
      [
        103.8975884,
        1.3177389
      ],
      [
        103.8979881,
        1.3178213
      ],
      [
        103.8980094,
        1.3178254
      ],
      [
        103.8980267,
        1.3178287
      ],
      [
        103.8980801,
        1.3178389
      ],
      [
        103.8982957,
        1.3178802
      ],
      [
        103.8986597,
        1.3179529
      ],
      [
        103.8989778,
        1.3180164
      ],
      [
        103.8991872,
        1.3180606
      ],
      [
        103.8997118,
        1.3181712
      ],
      [
        103.899828,
        1.3181937
      ],
      [
        103.8998752,
        1.3182028
      ],
      [
        103.9003472,
        1.3182941
      ],
      [
        103.9004189,
        1.3183097
      ],
      [
        103.9009343,
        1.3184173
      ],
      [
        103.9015672,
        1.3185502
      ],
      [
        103.9018232,
        1.3185961
      ],
      [
        103.9025805,
        1.3187318
      ],
      [
        103.9026342,
        1.3187414
      ],
      [
        103.9026633,
        1.3187475
      ],
      [
        103.9030701,
        1.3188325
      ],
      [
        103.9031467,
        1.3188486
      ],
      [
        103.9032653,
        1.3188732
      ],
      [
        103.9035721,
        1.3189382
      ],
      [
        103.9038358,
        1.3189961
      ],
      [
        103.9038836,
        1.3190068
      ],
      [
        103.9039559,
        1.3190231
      ],
      [
        103.9040711,
        1.319051
      ],
      [
        103.9043891,
        1.319128
      ],
      [
        103.9046841,
        1.3192039
      ],
      [
        103.9047557,
        1.3192938
      ],
      [
        103.9048271,
        1.319382
      ],
      [
        103.9048728,
        1.3194306
      ],
      [
        103.9049106,
        1.319521
      ],
      [
        103.9049394,
        1.3198309
      ],
      [
        103.9049789,
        1.3202557
      ],
      [
        103.9050499,
        1.3211034
      ],
      [
        103.9050812,
        1.3213293
      ],
      [
        103.9051052,
        1.3215193
      ],
      [
        103.9051143,
        1.3216149
      ],
      [
        103.9051265,
        1.3217344
      ],
      [
        103.9051818,
        1.3222157
      ],
      [
        103.9052545,
        1.3227202
      ],
      [
        103.9053134,
        1.3231446
      ],
      [
        103.905354,
        1.3234301
      ],
      [
        103.9054173,
        1.3238569
      ],
      [
        103.9054802,
        1.3243171
      ],
      [
        103.9054897,
        1.3243824
      ],
      [
        103.9055414,
        1.3247369
      ],
      [
        103.9056419,
        1.3254965
      ],
      [
        103.9056816,
        1.3257969
      ],
      [
        103.9057124,
        1.3260302
      ],
      [
        103.9057451,
        1.3262442
      ],
      [
        103.9057624,
        1.3265443
      ],
      [
        103.9057759,
        1.3267778
      ],
      [
        103.905767,
        1.3270933
      ],
      [
        103.9057269,
        1.3274063
      ],
      [
        103.9056387,
        1.3278766
      ],
      [
        103.9055426,
        1.3281588
      ],
      [
        103.9054917,
        1.328274
      ],
      [
        103.9054392,
        1.3283933
      ],
      [
        103.9053891,
        1.3284798
      ],
      [
        103.9052362,
        1.3287309
      ],
      [
        103.9049597,
        1.3291437
      ],
      [
        103.9047428,
        1.3293878
      ],
      [
        103.904688,
        1.3294477
      ],
      [
        103.9046391,
        1.3295016
      ],
      [
        103.9044189,
        1.3297121
      ],
      [
        103.9042334,
        1.3298913
      ],
      [
        103.9039089,
        1.3302049
      ],
      [
        103.903789,
        1.3303207
      ],
      [
        103.9034397,
        1.3306545
      ],
      [
        103.903211,
        1.3308731
      ],
      [
        103.9029873,
        1.3310869
      ],
      [
        103.9025746,
        1.3314965
      ],
      [
        103.9023308,
        1.3317476
      ],
      [
        103.9022997,
        1.3317793
      ],
      [
        103.9022246,
        1.3318465
      ],
      [
        103.9021703,
        1.3318992
      ],
      [
        103.901941,
        1.3321212
      ],
      [
        103.9012335,
        1.3328057
      ],
      [
        103.9009787,
        1.333051
      ],
      [
        103.9002585,
        1.3337407
      ],
      [
        103.8999651,
        1.3340184
      ],
      [
        103.8997824,
        1.3342046
      ],
      [
        103.899626,
        1.3343478
      ],
      [
        103.8994008,
        1.334572
      ],
      [
        103.8993296,
        1.3346426
      ],
      [
        103.8992596,
        1.3347118
      ],
      [
        103.8990104,
        1.3349575
      ],
      [
        103.8981799,
        1.3357487
      ],
      [
        103.8976741,
        1.3362426
      ],
      [
        103.8975692,
        1.3363418
      ],
      [
        103.8971955,
        1.3366957
      ],
      [
        103.8968368,
        1.3370345
      ],
      [
        103.8966924,
        1.3371711
      ],
      [
        103.8964451,
        1.3374016
      ],
      [
        103.8962619,
        1.3375749
      ],
      [
        103.8962049,
        1.3376284
      ],
      [
        103.8961221,
        1.3377034
      ],
      [
        103.8960216,
        1.3377962
      ],
      [
        103.8959478,
        1.3378741
      ],
      [
        103.8958013,
        1.3380288
      ],
      [
        103.8956537,
        1.3382149
      ],
      [
        103.8956034,
        1.3382685
      ],
      [
        103.8955558,
        1.3383152
      ],
      [
        103.8953564,
        1.338509
      ],
      [
        103.895183,
        1.3386498
      ],
      [
        103.8947795,
        1.3389146
      ],
      [
        103.8945593,
        1.3390549
      ],
      [
        103.8944556,
        1.3391144
      ],
      [
        103.8942368,
        1.3392186
      ],
      [
        103.8940275,
        1.3393114
      ],
      [
        103.8935932,
        1.3395011
      ],
      [
        103.8932353,
        1.3396779
      ],
      [
        103.8930964,
        1.3397367
      ],
      [
        103.8928207,
        1.3399091
      ],
      [
        103.8925513,
        1.3401115
      ],
      [
        103.8923984,
        1.3402557
      ],
      [
        103.8922768,
        1.340385
      ],
      [
        103.8920146,
        1.3407037
      ],
      [
        103.891993,
        1.340742
      ],
      [
        103.8918794,
        1.3409229
      ],
      [
        103.891654,
        1.3413722
      ],
      [
        103.8915463,
        1.3418477
      ],
      [
        103.8914796,
        1.3422342
      ],
      [
        103.8914388,
        1.3425662
      ],
      [
        103.8913708,
        1.3429592
      ],
      [
        103.8913574,
        1.3430642
      ],
      [
        103.8913019,
        1.34333
      ],
      [
        103.8912948,
        1.3433766
      ],
      [
        103.891202,
        1.3438338
      ],
      [
        103.8911303,
        1.3441895
      ],
      [
        103.8910519,
        1.3445842
      ],
      [
        103.8909072,
        1.3451943
      ],
      [
        103.8907982,
        1.3456586
      ],
      [
        103.8907648,
        1.3457946
      ],
      [
        103.890753,
        1.3458531
      ],
      [
        103.8907357,
        1.3459388
      ],
      [
        103.8906928,
        1.3460709
      ],
      [
        103.8906443,
        1.3462366
      ],
      [
        103.8905895,
        1.3464314
      ],
      [
        103.8904277,
        1.3468915
      ],
      [
        103.8901535,
        1.3474811
      ],
      [
        103.8898337,
        1.3481397
      ],
      [
        103.8897705,
        1.348249
      ],
      [
        103.889708,
        1.3484334
      ],
      [
        103.8896705,
        1.3485974
      ],
      [
        103.8896236,
        1.3489393
      ],
      [
        103.8896276,
        1.3491713
      ],
      [
        103.8896357,
        1.3493737
      ],
      [
        103.8896531,
        1.3495681
      ],
      [
        103.8896745,
        1.3497867
      ],
      [
        103.889749,
        1.3501782
      ],
      [
        103.8897881,
        1.3503285
      ],
      [
        103.8898846,
        1.3506455
      ],
      [
        103.8899806,
        1.3509359
      ],
      [
        103.8901547,
        1.3514291
      ],
      [
        103.8902746,
        1.3517255
      ],
      [
        103.8903303,
        1.3518631
      ],
      [
        103.8903831,
        1.3519842
      ],
      [
        103.8904539,
        1.3521489
      ],
      [
        103.8905096,
        1.3522754
      ],
      [
        103.8905266,
        1.352319
      ],
      [
        103.8905878,
        1.3524616
      ],
      [
        103.8906372,
        1.3525766
      ],
      [
        103.8917004,
        1.3550445
      ],
      [
        103.891906,
        1.355516
      ],
      [
        103.891954,
        1.3556405
      ],
      [
        103.8922099,
        1.3564516
      ],
      [
        103.8924898,
        1.3573282
      ],
      [
        103.8926129,
        1.3577251
      ],
      [
        103.8927167,
        1.3580662
      ],
      [
        103.8927348,
        1.3581209
      ],
      [
        103.8928434,
        1.3585007
      ],
      [
        103.8929352,
        1.3589663
      ],
      [
        103.8929605,
        1.3591031
      ],
      [
        103.8929943,
        1.3592771
      ],
      [
        103.8930049,
        1.3593674
      ],
      [
        103.8930213,
        1.3595068
      ],
      [
        103.8930424,
        1.3597327
      ],
      [
        103.8930626,
        1.3599777
      ],
      [
        103.8930355,
        1.3605559
      ],
      [
        103.8930112,
        1.3608169
      ],
      [
        103.8929841,
        1.3610684
      ],
      [
        103.8929575,
        1.3613208
      ],
      [
        103.8929514,
        1.3613763
      ],
      [
        103.8929389,
        1.3615059
      ],
      [
        103.8929316,
        1.3615761
      ],
      [
        103.8928194,
        1.3626523
      ],
      [
        103.8927918,
        1.3628953
      ],
      [
        103.8927817,
        1.3629435
      ],
      [
        103.8927305,
        1.3631494
      ],
      [
        103.8926577,
        1.3633512
      ],
      [
        103.8926076,
        1.3634899
      ],
      [
        103.8923614,
        1.363919
      ],
      [
        103.8921936,
        1.3641673
      ],
      [
        103.8918381,
        1.3645556
      ],
      [
        103.8915676,
        1.3648854
      ],
      [
        103.8913103,
        1.3651329
      ],
      [
        103.8911458,
        1.3653211
      ],
      [
        103.8909713,
        1.365511
      ],
      [
        103.8909255,
        1.3655549
      ],
      [
        103.8908415,
        1.3656405
      ],
      [
        103.8909289,
        1.3657275
      ],
      [
        103.8909715,
        1.3657733
      ],
      [
        103.8911916,
        1.3659836
      ],
      [
        103.891623,
        1.3663921
      ],
      [
        103.8917959,
        1.3665559
      ],
      [
        103.8919533,
        1.3667049
      ],
      [
        103.8921003,
        1.3668496
      ],
      [
        103.8921571,
        1.3669036
      ],
      [
        103.8922242,
        1.3669722
      ],
      [
        103.892269,
        1.3670157
      ],
      [
        103.8924221,
        1.3671664
      ],
      [
        103.8924654,
        1.3672152
      ],
      [
        103.8926906,
        1.3674342
      ],
      [
        103.8930379,
        1.3677722
      ],
      [
        103.8931296,
        1.3678638
      ],
      [
        103.8938266,
        1.3685528
      ],
      [
        103.8939672,
        1.3686939
      ],
      [
        103.8941612,
        1.3688847
      ],
      [
        103.8943202,
        1.3690349
      ],
      [
        103.8943612,
        1.3691551
      ],
      [
        103.8943814,
        1.3692271
      ],
      [
        103.8943933,
        1.3692938
      ],
      [
        103.8943963,
        1.3693706
      ],
      [
        103.8944001,
        1.3694531
      ],
      [
        103.8942536,
        1.3696266
      ],
      [
        103.8941726,
        1.3697283
      ],
      [
        103.8941015,
        1.3698162
      ],
      [
        103.8940353,
        1.3699199
      ],
      [
        103.8940045,
        1.3699932
      ],
      [
        103.8939898,
        1.3700583
      ],
      [
        103.8939753,
        1.3701408
      ],
      [
        103.89397,
        1.3702743
      ],
      [
        103.8939656,
        1.3704298
      ],
      [
        103.8939392,
        1.3705321
      ],
      [
        103.8938891,
        1.3706188
      ],
      [
        103.8938346,
        1.370677
      ],
      [
        103.8936726,
        1.3708303
      ],
      [
        103.8932667,
        1.3712026
      ],
      [
        103.8932283,
        1.3712241
      ],
      [
        103.8931472,
        1.3712696
      ],
      [
        103.8930199,
        1.3712817
      ],
      [
        103.8924891,
        1.3712872
      ],
      [
        103.8920166,
        1.3712872
      ],
      [
        103.8918,
        1.3712425
      ],
      [
        103.8916257,
        1.3711689
      ],
      [
        103.8915933,
        1.3711551
      ],
      [
        103.8916019,
        1.3711249
      ],
      [
        103.8916352,
        1.3709915
      ],
      [
        103.8916793,
        1.3709204
      ],
      [
        103.8917208,
        1.3708917
      ],
      [
        103.8917995,
        1.3708373
      ],
      [
        103.8920408,
        1.3708381
      ],
      [
        103.8925391,
        1.3710094
      ],
      [
        103.8928442,
        1.3710118
      ],
      [
        103.8928812,
        1.3710002
      ],
      [
        103.8928981,
        1.3709805
      ],
      [
        103.8929055,
        1.3709381
      ],
      [
        103.892904,
        1.3707869
      ],
      [
        103.8929028,
        1.3706501
      ],
      [
        103.8928884,
        1.3706247
      ],
      [
        103.8928621,
        1.3706079
      ],
      [
        103.8928155,
        1.3705961
      ],
      [
        103.8917973,
        1.3705948
      ],
      [
        103.8916485,
        1.3706126
      ],
      [
        103.8915955,
        1.3706672
      ],
      [
        103.8915925,
        1.3709755
      ],
      [
        103.891561,
        1.3711067
      ]
    ]
  }
}