{
  "type": "Feature",
  "properties": {
    "relation": 12980576,
    "direction": "1",
    "fee": "yes",
    "from": "Jurong East Interchange",
    "name": "Svc 51A (Jurong East Interchange → Blk 407)",
    "name:en": "Svc 51A (Jurong East Interchange → Blk 407)",
    "network": "Land Transport Authority",
    "network:short": "LTA",
    "network:wikidata": "Q3299279",
    "network:wikipedia": "en:Land Transport Authority",
    "operator": "SBS Transit",
    "operator:wikidata": "Q2661305",
    "operator:wikipedia": "en:SBS Transit",
    "public_transport:version": "2",
    "ref": "51A",
    "route": "bus",
    "to": "Blk 407",
    "type": "route",
    "website": "https://www.sbstransit.com.sg/"
  },
  "geometry": {
    "type": "LineString",
    "coordinates": [
      [
        103.7398261,
        1.3324421
      ],
      [
        103.7398885,
        1.3325276
      ],
      [
        103.7399851,
        1.3325458
      ],
      [
        103.740067,
        1.3325282
      ],
      [
        103.7401671,
        1.3324524
      ],
      [
        103.7406316,
        1.3321053
      ],
      [
        103.7406964,
        1.3320078
      ],
      [
        103.740683,
        1.3319375
      ],
      [
        103.7405996,
        1.33179
      ],
      [
        103.7405383,
        1.3316896
      ],
      [
        103.7409131,
        1.3326772
      ],
      [
        103.7408605,
        1.3326429
      ],
      [
        103.7408117,
        1.332571
      ],
      [
        103.7408,
        1.3324909
      ],
      [
        103.7408532,
        1.3323685
      ],
      [
        103.7411744,
        1.3319777
      ],
      [
        103.7411842,
        1.3318926
      ],
      [
        103.7411688,
        1.3318184
      ],
      [
        103.7410392,
        1.3316082
      ],
      [
        103.7409957,
        1.3315451
      ],
      [
        103.7409511,
        1.3315127
      ],
      [
        103.7408692,
        1.3315032
      ],
      [
        103.7408058,
        1.3315153
      ],
      [
        103.7405383,
        1.3316896
      ],
      [
        103.7409,
        1.3328756
      ],
      [
        103.7408097,
        1.333052
      ],
      [
        103.7407762,
        1.3331463
      ],
      [
        103.7407508,
        1.3332422
      ],
      [
        103.74074,
        1.3332831
      ],
      [
        103.7407075,
        1.3334225
      ],
      [
        103.7406807,
        1.3335606
      ],
      [
        103.7406301,
        1.3338228
      ],
      [
        103.7405543,
        1.3343023
      ],
      [
        103.7405202,
        1.3345232
      ],
      [
        103.7404952,
        1.334683
      ],
      [
        103.7404512,
        1.3348509
      ],
      [
        103.7403786,
        1.3349983
      ],
      [
        103.7403066,
        1.3351095
      ],
      [
        103.7402943,
        1.3351284
      ],
      [
        103.7402243,
        1.3351965
      ],
      [
        103.7401917,
        1.3352283
      ],
      [
        103.740126,
        1.3352772
      ],
      [
        103.7400943,
        1.3352986
      ],
      [
        103.7399536,
        1.3353582
      ],
      [
        103.739804,
        1.3353899
      ],
      [
        103.7396255,
        1.3353925
      ],
      [
        103.7394706,
        1.3353707
      ],
      [
        103.7391725,
        1.3353337
      ],
      [
        103.7390337,
        1.3352464
      ],
      [
        103.7389785,
        1.3351873
      ],
      [
        103.7389255,
        1.3351306
      ],
      [
        103.738885,
        1.3350754
      ],
      [
        103.7388688,
        1.3348975
      ],
      [
        103.7388432,
        1.3347548
      ],
      [
        103.7387924,
        1.3346196
      ],
      [
        103.7387143,
        1.3344829
      ],
      [
        103.7384301,
        1.334092
      ],
      [
        103.738292,
        1.3338976
      ],
      [
        103.7380535,
        1.3335683
      ],
      [
        103.7380461,
        1.3334308
      ],
      [
        103.7380518,
        1.3333273
      ],
      [
        103.7380694,
        1.3332581
      ],
      [
        103.738162,
        1.3330687
      ],
      [
        103.7382883,
        1.3329796
      ],
      [
        103.7386926,
        1.3327277
      ],
      [
        103.7391982,
        1.3323792
      ],
      [
        103.7392497,
        1.3323427
      ],
      [
        103.7393443,
        1.3322757
      ],
      [
        103.7395886,
        1.33211
      ],
      [
        103.7398602,
        1.3319
      ],
      [
        103.7400368,
        1.3317789
      ],
      [
        103.7401888,
        1.3316756
      ],
      [
        103.7402715,
        1.331618
      ],
      [
        103.7403489,
        1.3315642
      ],
      [
        103.7406956,
        1.3313333
      ],
      [
        103.7409651,
        1.3311564
      ],
      [
        103.7410334,
        1.3311099
      ],
      [
        103.7411089,
        1.3310618
      ],
      [
        103.7413077,
        1.3309269
      ],
      [
        103.741866,
        1.3305752
      ],
      [
        103.7422493,
        1.3303053
      ],
      [
        103.7426228,
        1.3300396
      ],
      [
        103.7427027,
        1.3299878
      ],
      [
        103.7433876,
        1.3295001
      ],
      [
        103.7438032,
        1.3291257
      ],
      [
        103.7443868,
        1.3285548
      ],
      [
        103.7444704,
        1.3284741
      ],
      [
        103.7445644,
        1.3283938
      ],
      [
        103.7447604,
        1.3281964
      ],
      [
        103.744956,
        1.3279715
      ],
      [
        103.745104,
        1.3277749
      ],
      [
        103.7452078,
        1.3276232
      ],
      [
        103.7452785,
        1.3274956
      ],
      [
        103.7454683,
        1.3270899
      ],
      [
        103.7455616,
        1.3267937
      ],
      [
        103.7456202,
        1.326512
      ],
      [
        103.7456917,
        1.326116
      ],
      [
        103.7457246,
        1.3259203
      ],
      [
        103.7457962,
        1.3247932
      ],
      [
        103.7458007,
        1.3246258
      ],
      [
        103.7458017,
        1.3244085
      ],
      [
        103.7458125,
        1.3238834
      ],
      [
        103.7458158,
        1.3237754
      ],
      [
        103.7458049,
        1.3228509
      ],
      [
        103.7458074,
        1.322787
      ],
      [
        103.7458134,
        1.3222959
      ],
      [
        103.7458157,
        1.3220782
      ],
      [
        103.7457227,
        1.3215278
      ],
      [
        103.7455774,
        1.3211166
      ],
      [
        103.7455503,
        1.3210538
      ],
      [
        103.7456309,
        1.3210312
      ],
      [
        103.7459955,
        1.3208094
      ],
      [
        103.7461407,
        1.3207434
      ],
      [
        103.7461861,
        1.3207269
      ],
      [
        103.7464629,
        1.3206569
      ],
      [
        103.7465364,
        1.3206413
      ],
      [
        103.7466551,
        1.3206162
      ],
      [
        103.7468177,
        1.3205836
      ],
      [
        103.7470646,
        1.3205326
      ],
      [
        103.7471346,
        1.3205182
      ],
      [
        103.7478366,
        1.320348
      ],
      [
        103.7481357,
        1.3202769
      ],
      [
        103.7483074,
        1.3202381
      ],
      [
        103.7485321,
        1.3201887
      ],
      [
        103.7486047,
        1.3201709
      ],
      [
        103.7486613,
        1.320157
      ],
      [
        103.7487428,
        1.3201403
      ],
      [
        103.7487276,
        1.3200779
      ],
      [
        103.7486703,
        1.3198732
      ],
      [
        103.7486558,
        1.3198212
      ],
      [
        103.748451,
        1.3192867
      ],
      [
        103.7484428,
        1.3192682
      ]
    ]
  }
}