{
  "type": "Feature",
  "properties": {
    "relation": 5704855,
    "direction": "2",
    "fee": "yes",
    "from": "Kovan Hub",
    "name": "Svc 53M (Kovan Hub ↺ Serangoon Central)",
    "name:en": "Svc 53M (Kovan Hub ↺ Serangoon Central)",
    "network": "Land Transport Authority",
    "network:short": "LTA",
    "network:wikidata": "Q3299279",
    "network:wikipedia": "en:Land Transport Authority",
    "operator": "SBS Transit",
    "operator:wikidata": "Q2661305",
    "operator:wikipedia": "en:SBS Transit",
    "public_transport:version": "2",
    "ref": "53M",
    "route": "bus",
    "to": "Kovan Hub",
    "type": "route",
    "via": "Serangoon Central",
    "website": "https://www.sbstransit.com.sg/"
  },
  "geometry": {
    "type": "LineString",
    "coordinates": [
      [
        103.8851875,
        1.3577691
      ],
      [
        103.8851712,
        1.3578071
      ],
      [
        103.8851177,
        1.3579393
      ],
      [
        103.8851111,
        1.3580031
      ],
      [
        103.8851316,
        1.358034
      ],
      [
        103.8859001,
        1.3587166
      ],
      [
        103.8859452,
        1.3587243
      ],
      [
        103.8860019,
        1.3586835
      ],
      [
        103.8860517,
        1.358625
      ],
      [
        103.8862162,
        1.3584122
      ],
      [
        103.8862579,
        1.3583387
      ],
      [
        103.8862821,
        1.3582969
      ],
      [
        103.8863797,
        1.358324
      ],
      [
        103.8864425,
        1.3583451
      ],
      [
        103.8867983,
        1.3585306
      ],
      [
        103.8870414,
        1.358647
      ],
      [
        103.8871381,
        1.3586667
      ],
      [
        103.8872685,
        1.35873
      ],
      [
        103.8872975,
        1.3587439
      ],
      [
        103.8873415,
        1.3587891
      ],
      [
        103.8874064,
        1.3588208
      ],
      [
        103.8879952,
        1.3591078
      ],
      [
        103.8882127,
        1.3592158
      ],
      [
        103.8883235,
        1.3592708
      ],
      [
        103.8886843,
        1.3594525
      ],
      [
        103.8887636,
        1.3594903
      ],
      [
        103.8888285,
        1.3595214
      ],
      [
        103.8888513,
        1.3594708
      ],
      [
        103.8888747,
        1.3594255
      ],
      [
        103.8889096,
        1.3593578
      ],
      [
        103.8892702,
        1.3586299
      ],
      [
        103.8894264,
        1.3582883
      ],
      [
        103.8895785,
        1.3579243
      ],
      [
        103.8896701,
        1.3576409
      ],
      [
        103.8897212,
        1.3574221
      ],
      [
        103.8897423,
        1.3573274
      ],
      [
        103.8897862,
        1.3570722
      ],
      [
        103.889854,
        1.3566891
      ],
      [
        103.8900185,
        1.3557681
      ],
      [
        103.8900345,
        1.3556989
      ],
      [
        103.8900426,
        1.3555814
      ],
      [
        103.8900472,
        1.3554611
      ],
      [
        103.8900342,
        1.3550461
      ],
      [
        103.8899753,
        1.3546592
      ],
      [
        103.8899299,
        1.3545288
      ],
      [
        103.8898969,
        1.3544338
      ],
      [
        103.8896523,
        1.3536421
      ],
      [
        103.8895246,
        1.3532287
      ],
      [
        103.8894063,
        1.3528762
      ],
      [
        103.8893329,
        1.3526397
      ],
      [
        103.8893136,
        1.3525748
      ],
      [
        103.8892832,
        1.3524833
      ],
      [
        103.8891971,
        1.3524915
      ],
      [
        103.8891229,
        1.3524953
      ],
      [
        103.8890035,
        1.3524952
      ],
      [
        103.8889063,
        1.3524943
      ],
      [
        103.8886381,
        1.3524883
      ],
      [
        103.8883722,
        1.3524645
      ],
      [
        103.8880719,
        1.3524114
      ],
      [
        103.888029,
        1.3524013
      ],
      [
        103.8879143,
        1.3523744
      ],
      [
        103.8875774,
        1.352287
      ],
      [
        103.8865384,
        1.352018
      ],
      [
        103.8865161,
        1.3520122
      ],
      [
        103.8863507,
        1.3519629
      ],
      [
        103.8858972,
        1.3517856
      ],
      [
        103.8851355,
        1.3514733
      ],
      [
        103.8850785,
        1.3514507
      ],
      [
        103.8848309,
        1.3513397
      ],
      [
        103.8848002,
        1.351326
      ],
      [
        103.8846138,
        1.3512614
      ],
      [
        103.8845518,
        1.3512458
      ],
      [
        103.8843617,
        1.3511957
      ],
      [
        103.8841724,
        1.3511604
      ],
      [
        103.8841196,
        1.3511508
      ],
      [
        103.8840702,
        1.351144
      ],
      [
        103.8838433,
        1.3511119
      ],
      [
        103.8835523,
        1.351077
      ],
      [
        103.8831902,
        1.3510261
      ],
      [
        103.882802,
        1.3509865
      ],
      [
        103.8818847,
        1.3508631
      ],
      [
        103.881832,
        1.3508643
      ],
      [
        103.881807,
        1.3508648
      ],
      [
        103.8813992,
        1.3508739
      ],
      [
        103.8812114,
        1.3509007
      ],
      [
        103.8810505,
        1.3509356
      ],
      [
        103.8809286,
        1.350958
      ],
      [
        103.8807876,
        1.3509839
      ],
      [
        103.8807751,
        1.3509856
      ],
      [
        103.880692,
        1.3510029
      ],
      [
        103.8804061,
        1.3510576
      ],
      [
        103.8801546,
        1.3510844
      ],
      [
        103.8800826,
        1.3510901
      ],
      [
        103.8799682,
        1.3510992
      ],
      [
        103.8798113,
        1.3510933
      ],
      [
        103.8795759,
        1.3510395
      ],
      [
        103.879444,
        1.3510077
      ],
      [
        103.8793533,
        1.3509859
      ],
      [
        103.879187,
        1.3509202
      ],
      [
        103.8791254,
        1.3510071
      ],
      [
        103.8788021,
        1.3513251
      ],
      [
        103.8785902,
        1.3514887
      ],
      [
        103.8784869,
        1.3515691
      ],
      [
        103.8782816,
        1.3516474
      ],
      [
        103.8779251,
        1.3517849
      ],
      [
        103.8777252,
        1.3518329
      ],
      [
        103.8775188,
        1.3518809
      ],
      [
        103.8773416,
        1.3519271
      ],
      [
        103.8771432,
        1.3519927
      ],
      [
        103.8768964,
        1.3521107
      ],
      [
        103.876683,
        1.352276
      ],
      [
        103.8766192,
        1.3523202
      ],
      [
        103.876361,
        1.3525576
      ],
      [
        103.8763025,
        1.3526268
      ],
      [
        103.8761599,
        1.3527826
      ],
      [
        103.8760183,
        1.3529433
      ],
      [
        103.8757297,
        1.3532699
      ],
      [
        103.8752879,
        1.3537657
      ],
      [
        103.8752126,
        1.3538502
      ],
      [
        103.8750482,
        1.3540347
      ],
      [
        103.8749025,
        1.3541891
      ],
      [
        103.8744055,
        1.354745
      ],
      [
        103.8742149,
        1.3549461
      ],
      [
        103.8741572,
        1.3550088
      ],
      [
        103.8740625,
        1.355111
      ],
      [
        103.8739059,
        1.3552293
      ],
      [
        103.8737534,
        1.3552422
      ],
      [
        103.8736349,
        1.3552582
      ],
      [
        103.873538,
        1.355252
      ],
      [
        103.8735303,
        1.3552515
      ],
      [
        103.8734284,
        1.355218
      ],
      [
        103.8733303,
        1.355146
      ],
      [
        103.873163,
        1.3547847
      ],
      [
        103.8731012,
        1.3545664
      ],
      [
        103.8730408,
        1.3542392
      ],
      [
        103.8729262,
        1.3538382
      ],
      [
        103.8728906,
        1.3537108
      ],
      [
        103.8728338,
        1.3534606
      ],
      [
        103.872732,
        1.3527019
      ],
      [
        103.8727231,
        1.3526348
      ],
      [
        103.8726964,
        1.3524035
      ],
      [
        103.8726811,
        1.3522707
      ],
      [
        103.8726648,
        1.3519173
      ],
      [
        103.8726814,
        1.3517302
      ],
      [
        103.8727079,
        1.3516249
      ],
      [
        103.872741,
        1.3515319
      ],
      [
        103.8728051,
        1.3514011
      ],
      [
        103.8728756,
        1.3512964
      ],
      [
        103.8729208,
        1.3512267
      ],
      [
        103.8729804,
        1.3511473
      ],
      [
        103.8731549,
        1.3509147
      ],
      [
        103.8732229,
        1.3508262
      ],
      [
        103.8735912,
        1.3503872
      ],
      [
        103.873709,
        1.3503118
      ],
      [
        103.8737945,
        1.35028
      ],
      [
        103.8738428,
        1.3502707
      ],
      [
        103.8738959,
        1.3502617
      ],
      [
        103.8739614,
        1.3502664
      ],
      [
        103.8740103,
        1.3502868
      ],
      [
        103.8746053,
        1.3508737
      ],
      [
        103.8747311,
        1.3509899
      ],
      [
        103.8749776,
        1.3512173
      ],
      [
        103.8752526,
        1.3514729
      ],
      [
        103.8754334,
        1.3516418
      ],
      [
        103.8756318,
        1.3518393
      ],
      [
        103.8759003,
        1.3520882
      ],
      [
        103.8760386,
        1.3522325
      ],
      [
        103.8760835,
        1.3522852
      ],
      [
        103.87626,
        1.3524537
      ],
      [
        103.876361,
        1.3525576
      ],
      [
        103.8764365,
        1.3526386
      ],
      [
        103.876717,
        1.3524061
      ],
      [
        103.8768007,
        1.3523648
      ],
      [
        103.8770561,
        1.3522228
      ],
      [
        103.8771783,
        1.352164
      ],
      [
        103.8773839,
        1.3520819
      ],
      [
        103.8777132,
        1.3519948
      ],
      [
        103.8779954,
        1.351909
      ],
      [
        103.8780471,
        1.3518942
      ],
      [
        103.8783215,
        1.3518158
      ],
      [
        103.878375,
        1.351791
      ],
      [
        103.8785721,
        1.3517132
      ],
      [
        103.8787572,
        1.3515804
      ],
      [
        103.8789476,
        1.3514317
      ],
      [
        103.8791307,
        1.3512782
      ],
      [
        103.8792098,
        1.3512272
      ],
      [
        103.8792795,
        1.3511923
      ],
      [
        103.8793815,
        1.3511669
      ],
      [
        103.8794753,
        1.3511548
      ],
      [
        103.8796785,
        1.3512024
      ],
      [
        103.8798086,
        1.3512171
      ],
      [
        103.879936,
        1.3512171
      ],
      [
        103.880018,
        1.3512151
      ],
      [
        103.8806991,
        1.3511608
      ],
      [
        103.8807958,
        1.3511449
      ],
      [
        103.88083,
        1.3511393
      ],
      [
        103.8809339,
        1.351121
      ],
      [
        103.8809589,
        1.3511166
      ],
      [
        103.881088,
        1.3510938
      ],
      [
        103.881249,
        1.3510643
      ],
      [
        103.881426,
        1.3510402
      ],
      [
        103.8817559,
        1.3510187
      ],
      [
        103.8827182,
        1.3511296
      ],
      [
        103.8827564,
        1.351134
      ],
      [
        103.8831211,
        1.3511742
      ],
      [
        103.8835154,
        1.3512413
      ],
      [
        103.8838131,
        1.3512788
      ],
      [
        103.8840177,
        1.3512996
      ],
      [
        103.8843335,
        1.3513619
      ],
      [
        103.8845776,
        1.351429
      ],
      [
        103.8847602,
        1.3514921
      ],
      [
        103.8848095,
        1.3515097
      ],
      [
        103.8849987,
        1.3515872
      ],
      [
        103.8852477,
        1.3516922
      ],
      [
        103.8853117,
        1.3517192
      ],
      [
        103.8856111,
        1.3518407
      ],
      [
        103.8857698,
        1.3519076
      ],
      [
        103.8859115,
        1.351964
      ],
      [
        103.886036,
        1.3520059
      ],
      [
        103.8861501,
        1.3520426
      ],
      [
        103.8863337,
        1.3520924
      ],
      [
        103.886499,
        1.3521318
      ],
      [
        103.8873948,
        1.3523413
      ],
      [
        103.8880155,
        1.3524869
      ],
      [
        103.8880673,
        1.3524991
      ],
      [
        103.8883515,
        1.3525568
      ],
      [
        103.8886401,
        1.3525881
      ],
      [
        103.8888756,
        1.3525985
      ],
      [
        103.8890159,
        1.3525943
      ],
      [
        103.8891415,
        1.3525929
      ],
      [
        103.8892253,
        1.3525843
      ],
      [
        103.8892479,
        1.3526601
      ],
      [
        103.8893315,
        1.3529094
      ],
      [
        103.8897351,
        1.3541265
      ],
      [
        103.8898395,
        1.3544412
      ],
      [
        103.8898761,
        1.3545471
      ],
      [
        103.88992,
        1.3546742
      ],
      [
        103.8899776,
        1.3550472
      ],
      [
        103.8899779,
        1.355461
      ],
      [
        103.8899753,
        1.35558
      ],
      [
        103.8899612,
        1.3556962
      ],
      [
        103.8899451,
        1.3557623
      ],
      [
        103.8897948,
        1.3566787
      ],
      [
        103.8897254,
        1.3570631
      ],
      [
        103.8897224,
        1.3570814
      ],
      [
        103.8896659,
        1.3573929
      ],
      [
        103.8895476,
        1.3578138
      ],
      [
        103.8895145,
        1.3578973
      ],
      [
        103.8893683,
        1.3582667
      ],
      [
        103.8892165,
        1.3585993
      ],
      [
        103.8888503,
        1.3593294
      ],
      [
        103.8888118,
        1.3593959
      ],
      [
        103.8887873,
        1.3594381
      ],
      [
        103.8887039,
        1.3593994
      ],
      [
        103.8882357,
        1.3591647
      ],
      [
        103.888023,
        1.3590581
      ],
      [
        103.8874264,
        1.3587766
      ],
      [
        103.88736,
        1.3587453
      ],
      [
        103.8872975,
        1.3587439
      ],
      [
        103.8872975,
        1.3587439
      ],
      [
        103.8872685,
        1.35873
      ],
      [
        103.8870703,
        1.3586013
      ],
      [
        103.8868299,
        1.3584753
      ],
      [
        103.8863996,
        1.3582689
      ],
      [
        103.8862495,
        1.3581839
      ],
      [
        103.885777,
        1.3579531
      ],
      [
        103.8856811,
        1.3579226
      ],
      [
        103.8855902,
        1.3578894
      ],
      [
        103.8854537,
        1.3578064
      ],
      [
        103.88533,
        1.3577405
      ],
      [
        103.8852666,
        1.3577388
      ],
      [
        103.8851875,
        1.3577691
      ]
    ]
  }
}