{
  "type": "Feature",
  "properties": {
    "relation": 1147167,
    "direction": "1",
    "fee": "yes",
    "from": "Pasir Ris Interchange",
    "name": "Svc 5 (Pasir Ris Interchange → Bukit Merah Interchange)",
    "name:en": "Svc 5 (Pasir Ris Interchange → Bukit Merah Interchange)",
    "network": "Land Transport Authority",
    "network:short": "LTA",
    "network:wikidata": "Q3299279",
    "network:wikipedia": "en:Land Transport Authority",
    "operator": "SBS Transit",
    "operator:wikidata": "Q2661305",
    "operator:wikipedia": "en:SBS Transit",
    "public_transport:version": "2",
    "ref": "5",
    "route": "bus",
    "to": "Bukit Merah Interchange",
    "type": "route",
    "website": "https://www.sbstransit.com.sg/"
  },
  "geometry": {
    "type": "LineString",
    "coordinates": [
      [
        103.9485976,
        1.3735437
      ],
      [
        103.9485175,
        1.3735669
      ],
      [
        103.9484386,
        1.3736764
      ],
      [
        103.9484088,
        1.3737805
      ],
      [
        103.9484229,
        1.3739023
      ],
      [
        103.9484646,
        1.3740787
      ],
      [
        103.9485192,
        1.3742512
      ],
      [
        103.9485761,
        1.3744308
      ],
      [
        103.9486404,
        1.3746339
      ],
      [
        103.9486862,
        1.3747786
      ],
      [
        103.9487038,
        1.3748343
      ],
      [
        103.9487311,
        1.3748618
      ],
      [
        103.9487827,
        1.3748628
      ],
      [
        103.9489614,
        1.374809
      ],
      [
        103.9492107,
        1.374734
      ],
      [
        103.9492107,
        1.374734
      ],
      [
        103.9492813,
        1.3749702
      ],
      [
        103.9492647,
        1.3749088
      ],
      [
        103.9493175,
        1.3750796
      ],
      [
        103.9497279,
        1.3750688
      ],
      [
        103.9498874,
        1.3750318
      ],
      [
        103.949945,
        1.375022
      ],
      [
        103.9501773,
        1.3749838
      ],
      [
        103.9505464,
        1.3749485
      ],
      [
        103.9510212,
        1.3749301
      ],
      [
        103.9511345,
        1.374929
      ],
      [
        103.9512397,
        1.3749286
      ],
      [
        103.951308,
        1.3749314
      ],
      [
        103.951636,
        1.3749591
      ],
      [
        103.9521098,
        1.3750272
      ],
      [
        103.9524404,
        1.375074
      ],
      [
        103.9524826,
        1.37508
      ],
      [
        103.9525104,
        1.3750846
      ],
      [
        103.9525853,
        1.3750945
      ],
      [
        103.9526076,
        1.3750985
      ],
      [
        103.9529046,
        1.3751402
      ],
      [
        103.9533163,
        1.3751923
      ],
      [
        103.9534092,
        1.3752015
      ],
      [
        103.9541549,
        1.3752684
      ],
      [
        103.9543404,
        1.375286
      ],
      [
        103.9547851,
        1.3753562
      ],
      [
        103.9552504,
        1.3754303
      ],
      [
        103.9553757,
        1.3754426
      ],
      [
        103.9554675,
        1.3754568
      ],
      [
        103.956017,
        1.3755297
      ],
      [
        103.9561145,
        1.3755424
      ],
      [
        103.95621,
        1.3755501
      ],
      [
        103.9562898,
        1.3755541
      ],
      [
        103.9565241,
        1.3755676
      ],
      [
        103.9566552,
        1.3755792
      ],
      [
        103.9571159,
        1.3756034
      ],
      [
        103.9575938,
        1.3756061
      ],
      [
        103.9585597,
        1.3755916
      ],
      [
        103.95879,
        1.3755819
      ],
      [
        103.9589911,
        1.3755717
      ],
      [
        103.9590806,
        1.3755658
      ],
      [
        103.9591579,
        1.3755577
      ],
      [
        103.9593324,
        1.3755333
      ],
      [
        103.9597406,
        1.375483
      ],
      [
        103.9604602,
        1.375335
      ],
      [
        103.9607196,
        1.3752883
      ],
      [
        103.9611352,
        1.375215
      ],
      [
        103.9612816,
        1.375185
      ],
      [
        103.9613897,
        1.3751661
      ],
      [
        103.961522,
        1.3751436
      ],
      [
        103.9621552,
        1.3750359
      ],
      [
        103.9624917,
        1.3749599
      ],
      [
        103.9627223,
        1.3748866
      ],
      [
        103.9629355,
        1.3747835
      ],
      [
        103.963263,
        1.374565
      ],
      [
        103.9634601,
        1.374399
      ],
      [
        103.9636177,
        1.3742197
      ],
      [
        103.9636938,
        1.3740986
      ],
      [
        103.9637428,
        1.3740011
      ],
      [
        103.963773,
        1.3739276
      ],
      [
        103.9638527,
        1.3737499
      ],
      [
        103.963897,
        1.3736103
      ],
      [
        103.9639391,
        1.3733758
      ],
      [
        103.9639454,
        1.3731584
      ],
      [
        103.9639278,
        1.3729705
      ],
      [
        103.9638799,
        1.3722499
      ],
      [
        103.9638304,
        1.3715061
      ],
      [
        103.9638341,
        1.3713847
      ],
      [
        103.963832,
        1.3712904
      ],
      [
        103.9637887,
        1.3706099
      ],
      [
        103.9637961,
        1.3704257
      ],
      [
        103.9638387,
        1.3701674
      ],
      [
        103.9639068,
        1.3699463
      ],
      [
        103.9640369,
        1.3696741
      ],
      [
        103.964667,
        1.3686265
      ],
      [
        103.9647335,
        1.3685046
      ],
      [
        103.9649051,
        1.3682324
      ],
      [
        103.9650371,
        1.3680181
      ],
      [
        103.9650883,
        1.3679303
      ],
      [
        103.9651402,
        1.3678483
      ],
      [
        103.9651783,
        1.3677867
      ],
      [
        103.9652537,
        1.3676402
      ],
      [
        103.9653307,
        1.367499
      ],
      [
        103.9655047,
        1.3672302
      ],
      [
        103.9655993,
        1.3670977
      ],
      [
        103.9657846,
        1.3668028
      ],
      [
        103.9660185,
        1.3664754
      ],
      [
        103.9661144,
        1.3663483
      ],
      [
        103.966315,
        1.3661348
      ],
      [
        103.9664603,
        1.3659752
      ],
      [
        103.9665403,
        1.3658959
      ],
      [
        103.9666186,
        1.3657946
      ],
      [
        103.9666659,
        1.3657518
      ],
      [
        103.9667315,
        1.3656892
      ],
      [
        103.9668633,
        1.3655634
      ],
      [
        103.9669244,
        1.3654434
      ],
      [
        103.9669244,
        1.3654434
      ],
      [
        103.9670242,
        1.3653312
      ],
      [
        103.9671508,
        1.3652017
      ],
      [
        103.9672601,
        1.3650924
      ],
      [
        103.9674965,
        1.3648952
      ],
      [
        103.9678015,
        1.3645769
      ],
      [
        103.9680768,
        1.3643315
      ],
      [
        103.968391,
        1.3640995
      ],
      [
        103.968551,
        1.3639945
      ],
      [
        103.9685743,
        1.3639793
      ],
      [
        103.9686408,
        1.3639332
      ],
      [
        103.9686714,
        1.3639147
      ],
      [
        103.9688062,
        1.3638335
      ],
      [
        103.9689065,
        1.3637819
      ],
      [
        103.9690123,
        1.3637423
      ],
      [
        103.9691797,
        1.3636976
      ],
      [
        103.9694253,
        1.3636496
      ],
      [
        103.9697224,
        1.3635761
      ],
      [
        103.9699759,
        1.3634815
      ],
      [
        103.9702917,
        1.3633488
      ],
      [
        103.9704975,
        1.3632328
      ],
      [
        103.970665,
        1.3631193
      ],
      [
        103.9706933,
        1.3631001
      ],
      [
        103.9707349,
        1.3630617
      ],
      [
        103.9707919,
        1.3630089
      ],
      [
        103.9709079,
        1.3628903
      ],
      [
        103.9713267,
        1.3623839
      ],
      [
        103.9716124,
        1.3620094
      ],
      [
        103.9716402,
        1.3619718
      ],
      [
        103.9716682,
        1.3619338
      ],
      [
        103.9717375,
        1.3618502
      ],
      [
        103.9717662,
        1.3618108
      ],
      [
        103.9718225,
        1.3617291
      ],
      [
        103.9717734,
        1.3616859
      ],
      [
        103.9717079,
        1.3616284
      ],
      [
        103.9716897,
        1.3616124
      ],
      [
        103.9715529,
        1.3614756
      ],
      [
        103.9714268,
        1.3613362
      ],
      [
        103.9712874,
        1.3611766
      ],
      [
        103.9706936,
        1.3605362
      ],
      [
        103.9703336,
        1.3601323
      ],
      [
        103.9702721,
        1.3600569
      ],
      [
        103.9702522,
        1.3600287
      ],
      [
        103.9702122,
        1.3599716
      ],
      [
        103.9701303,
        1.3598364
      ],
      [
        103.970052,
        1.3596416
      ],
      [
        103.9698746,
        1.3589821
      ],
      [
        103.9698599,
        1.3589275
      ],
      [
        103.9698599,
        1.3589275
      ],
      [
        103.9697005,
        1.3589645
      ],
      [
        103.9697391,
        1.3589568
      ],
      [
        103.9693993,
        1.3590244
      ],
      [
        103.969055,
        1.3591051
      ],
      [
        103.9684053,
        1.3592604
      ],
      [
        103.9687945,
        1.3591629
      ],
      [
        103.9682721,
        1.3592661
      ],
      [
        103.9681157,
        1.3592627
      ],
      [
        103.9677057,
        1.3592848
      ],
      [
        103.9679082,
        1.3592619
      ],
      [
        103.9680279,
        1.3592607
      ],
      [
        103.9673478,
        1.3593699
      ],
      [
        103.9672317,
        1.3593975
      ],
      [
        103.9669803,
        1.3594572
      ],
      [
        103.965683,
        1.3597633
      ],
      [
        103.9659053,
        1.3597127
      ],
      [
        103.9655186,
        1.3598064
      ],
      [
        103.9654446,
        1.3598258
      ],
      [
        103.9649885,
        1.3598064
      ],
      [
        103.964922,
        1.3595487
      ],
      [
        103.9648698,
        1.3593463
      ],
      [
        103.9648538,
        1.3592846
      ],
      [
        103.9647638,
        1.3589357
      ],
      [
        103.9647365,
        1.3587337
      ],
      [
        103.9647332,
        1.3585664
      ],
      [
        103.9647456,
        1.3582545
      ],
      [
        103.9647571,
        1.3581114
      ],
      [
        103.9647638,
        1.3580527
      ],
      [
        103.9647735,
        1.3580143
      ],
      [
        103.9648078,
        1.3578782
      ],
      [
        103.9649321,
        1.3575125
      ],
      [
        103.9649866,
        1.3573521
      ],
      [
        103.9651191,
        1.3570408
      ],
      [
        103.9651675,
        1.3569371
      ],
      [
        103.9652071,
        1.3568495
      ],
      [
        103.9656949,
        1.3558041
      ],
      [
        103.9657997,
        1.3555821
      ],
      [
        103.9658302,
        1.3555167
      ],
      [
        103.965885,
        1.3553994
      ],
      [
        103.9659803,
        1.3552432
      ],
      [
        103.9660773,
        1.3551469
      ],
      [
        103.9662243,
        1.3550419
      ],
      [
        103.9663798,
        1.3549763
      ],
      [
        103.9665727,
        1.3549031
      ],
      [
        103.9666689,
        1.3548665
      ],
      [
        103.9667224,
        1.3548462
      ],
      [
        103.9668754,
        1.3547779
      ],
      [
        103.966987,
        1.3547009
      ],
      [
        103.9671077,
        1.3545817
      ],
      [
        103.9671735,
        1.3544451
      ],
      [
        103.9673699,
        1.3537445
      ],
      [
        103.9673852,
        1.3536898
      ],
      [
        103.9673982,
        1.3536372
      ],
      [
        103.9673852,
        1.3536898
      ],
      [
        103.9672935,
        1.3535452
      ],
      [
        103.9669471,
        1.3534387
      ],
      [
        103.9664752,
        1.3532993
      ],
      [
        103.966445,
        1.3532902
      ],
      [
        103.9657585,
        1.353077
      ],
      [
        103.9656943,
        1.3530571
      ],
      [
        103.9651393,
        1.3529033
      ],
      [
        103.9649468,
        1.3528444
      ],
      [
        103.9647648,
        1.3527888
      ],
      [
        103.9646553,
        1.3527554
      ],
      [
        103.9645633,
        1.3526607
      ],
      [
        103.9644845,
        1.3525953
      ],
      [
        103.9644136,
        1.3525213
      ],
      [
        103.964408,
        1.35231
      ],
      [
        103.9644118,
        1.3521339
      ],
      [
        103.9643988,
        1.351893
      ],
      [
        103.9643764,
        1.3515869
      ],
      [
        103.9643665,
        1.3514351
      ],
      [
        103.9643471,
        1.3512426
      ],
      [
        103.9642566,
        1.3507898
      ],
      [
        103.964244,
        1.3506514
      ],
      [
        103.9642124,
        1.3505216
      ],
      [
        103.9640837,
        1.3501087
      ],
      [
        103.9638852,
        1.3494893
      ],
      [
        103.96365,
        1.3486768
      ],
      [
        103.9635885,
        1.3484805
      ],
      [
        103.9635574,
        1.3483813
      ],
      [
        103.9634471,
        1.3479884
      ],
      [
        103.9631737,
        1.3470666
      ],
      [
        103.9631537,
        1.3469993
      ],
      [
        103.9630862,
        1.3467689
      ],
      [
        103.9629775,
        1.3463904
      ],
      [
        103.9629677,
        1.3463587
      ],
      [
        103.9628103,
        1.3458489
      ],
      [
        103.9627539,
        1.3456528
      ],
      [
        103.9627356,
        1.3455891
      ],
      [
        103.9626722,
        1.3453947
      ],
      [
        103.9626504,
        1.3453302
      ],
      [
        103.9625763,
        1.3451109
      ],
      [
        103.9624781,
        1.3447695
      ],
      [
        103.9623825,
        1.344472
      ],
      [
        103.9623019,
        1.3442234
      ],
      [
        103.9622243,
        1.3439665
      ],
      [
        103.9622157,
        1.3439413
      ],
      [
        103.9621279,
        1.3436541
      ],
      [
        103.9619883,
        1.3431931
      ],
      [
        103.9619767,
        1.343152
      ],
      [
        103.9618379,
        1.3427081
      ],
      [
        103.9616959,
        1.3422303
      ],
      [
        103.9615971,
        1.3419021
      ],
      [
        103.9614783,
        1.3414794
      ],
      [
        103.9614577,
        1.3414044
      ],
      [
        103.9614282,
        1.3412848
      ],
      [
        103.9613505,
        1.3409884
      ],
      [
        103.9612257,
        1.3405249
      ],
      [
        103.9611405,
        1.3402101
      ],
      [
        103.96111,
        1.3400629
      ],
      [
        103.9610905,
        1.3399686
      ],
      [
        103.9610747,
        1.3398924
      ],
      [
        103.9610319,
        1.3397515
      ],
      [
        103.9608548,
        1.3398008
      ],
      [
        103.960775,
        1.3398248
      ],
      [
        103.9605956,
        1.3398787
      ],
      [
        103.960281,
        1.3400047
      ],
      [
        103.9600469,
        1.3401073
      ],
      [
        103.9597116,
        1.3402999
      ],
      [
        103.9595158,
        1.3404651
      ],
      [
        103.9591602,
        1.340799
      ],
      [
        103.9590005,
        1.3409895
      ],
      [
        103.9589843,
        1.3410134
      ],
      [
        103.9587355,
        1.34138
      ],
      [
        103.9582321,
        1.3421558
      ],
      [
        103.9582022,
        1.3422014
      ],
      [
        103.9581829,
        1.3422311
      ],
      [
        103.9581447,
        1.3422891
      ],
      [
        103.9580138,
        1.3424878
      ],
      [
        103.9578903,
        1.3427176
      ],
      [
        103.9577988,
        1.3429049
      ],
      [
        103.9577307,
        1.3430645
      ],
      [
        103.9576934,
        1.3432071
      ],
      [
        103.957641,
        1.3434205
      ],
      [
        103.9576214,
        1.3435809
      ],
      [
        103.9576109,
        1.3436837
      ],
      [
        103.9576089,
        1.3437661
      ],
      [
        103.9576189,
        1.343866
      ],
      [
        103.9576585,
        1.3442973
      ],
      [
        103.9576658,
        1.344377
      ],
      [
        103.9575957,
        1.3443829
      ],
      [
        103.956702,
        1.3444636
      ],
      [
        103.9566915,
        1.3444645
      ],
      [
        103.956493,
        1.3444592
      ],
      [
        103.9563603,
        1.344423
      ],
      [
        103.9561939,
        1.3443439
      ],
      [
        103.9561431,
        1.3443105
      ],
      [
        103.956037,
        1.3442406
      ],
      [
        103.9557794,
        1.3440208
      ],
      [
        103.9556984,
        1.3439517
      ],
      [
        103.9549497,
        1.3433275
      ],
      [
        103.9549382,
        1.3433179
      ],
      [
        103.9549064,
        1.3432913
      ],
      [
        103.9548456,
        1.3432424
      ],
      [
        103.9547697,
        1.3431855
      ],
      [
        103.9539433,
        1.3424841
      ],
      [
        103.9538008,
        1.3423603
      ],
      [
        103.9533167,
        1.3419474
      ],
      [
        103.9532132,
        1.3418634
      ],
      [
        103.9531575,
        1.3418208
      ],
      [
        103.953079,
        1.3417607
      ],
      [
        103.9529983,
        1.341699
      ],
      [
        103.952869,
        1.3416001
      ],
      [
        103.9523897,
        1.3411811
      ],
      [
        103.9523559,
        1.3411516
      ],
      [
        103.9523176,
        1.3411202
      ],
      [
        103.9522404,
        1.3410562
      ],
      [
        103.952079,
        1.3409224
      ],
      [
        103.9518432,
        1.340727
      ],
      [
        103.9515902,
        1.3405196
      ],
      [
        103.9514559,
        1.3404096
      ],
      [
        103.9512306,
        1.3402192
      ],
      [
        103.9510551,
        1.3400737
      ],
      [
        103.9510371,
        1.3400588
      ],
      [
        103.9509534,
        1.3399918
      ],
      [
        103.950813,
        1.3398794
      ],
      [
        103.9506357,
        1.3397316
      ],
      [
        103.9506005,
        1.3397007
      ],
      [
        103.9503063,
        1.3394706
      ],
      [
        103.9502486,
        1.3394255
      ],
      [
        103.9501349,
        1.3393326
      ],
      [
        103.9499969,
        1.3392124
      ],
      [
        103.9497817,
        1.3390405
      ],
      [
        103.9495237,
        1.3388303
      ],
      [
        103.9494195,
        1.3387401
      ],
      [
        103.9493657,
        1.3386935
      ],
      [
        103.9492633,
        1.338615
      ],
      [
        103.9491752,
        1.3387197
      ],
      [
        103.9491533,
        1.338745
      ],
      [
        103.9489973,
        1.3389256
      ],
      [
        103.9484766,
        1.3395671
      ],
      [
        103.9481718,
        1.3399441
      ],
      [
        103.9476686,
        1.3405337
      ],
      [
        103.9474131,
        1.340833
      ],
      [
        103.9470966,
        1.341218
      ],
      [
        103.9465478,
        1.3418541
      ],
      [
        103.9463711,
        1.3420815
      ],
      [
        103.9459347,
        1.3426428
      ],
      [
        103.9451908,
        1.3435252
      ],
      [
        103.9448013,
        1.3439539
      ],
      [
        103.9441559,
        1.3447354
      ],
      [
        103.9440015,
        1.3449223
      ],
      [
        103.9436325,
        1.3453729
      ],
      [
        103.9434759,
        1.3455641
      ],
      [
        103.9432648,
        1.3458192
      ],
      [
        103.9430652,
        1.3458987
      ],
      [
        103.9429221,
        1.3459305
      ],
      [
        103.9426881,
        1.3459196
      ],
      [
        103.9425827,
        1.3458973
      ],
      [
        103.9424996,
        1.3458722
      ],
      [
        103.942224,
        1.3456781
      ],
      [
        103.9419632,
        1.3455185
      ],
      [
        103.941379,
        1.3452177
      ],
      [
        103.9409479,
        1.3450234
      ],
      [
        103.940776,
        1.3449573
      ],
      [
        103.9407193,
        1.344941
      ],
      [
        103.9405303,
        1.3448868
      ],
      [
        103.940092,
        1.3447951
      ],
      [
        103.9396674,
        1.3447305
      ],
      [
        103.9394416,
        1.3447071
      ],
      [
        103.9392153,
        1.344694
      ],
      [
        103.9386141,
        1.3446718
      ],
      [
        103.9385326,
        1.3446298
      ],
      [
        103.9384982,
        1.3446051
      ],
      [
        103.938484,
        1.3445949
      ],
      [
        103.9384718,
        1.344579
      ],
      [
        103.9384624,
        1.3445607
      ],
      [
        103.9384518,
        1.3445403
      ],
      [
        103.9384225,
        1.344492
      ],
      [
        103.9383792,
        1.3441245
      ],
      [
        103.9383654,
        1.3440027
      ],
      [
        103.9383661,
        1.3438789
      ],
      [
        103.9383382,
        1.3437871
      ],
      [
        103.938294,
        1.343644
      ],
      [
        103.9381633,
        1.3433744
      ],
      [
        103.9380358,
        1.3431607
      ],
      [
        103.9380081,
        1.3431143
      ],
      [
        103.9379543,
        1.3430332
      ],
      [
        103.937932,
        1.3429926
      ],
      [
        103.9377935,
        1.3427416
      ],
      [
        103.937056,
        1.3413126
      ],
      [
        103.9368604,
        1.341032
      ],
      [
        103.9368344,
        1.3409828
      ],
      [
        103.9367846,
        1.3409002
      ],
      [
        103.9367349,
        1.3408188
      ],
      [
        103.9366253,
        1.3406241
      ],
      [
        103.9365659,
        1.3405368
      ],
      [
        103.9363303,
        1.3402433
      ],
      [
        103.9361726,
        1.3400528
      ],
      [
        103.9360722,
        1.3399475
      ],
      [
        103.9358149,
        1.3396474
      ],
      [
        103.9354041,
        1.3392167
      ],
      [
        103.9350791,
        1.3388786
      ],
      [
        103.9350029,
        1.3387938
      ],
      [
        103.9348428,
        1.3386457
      ],
      [
        103.9347242,
        1.3385611
      ],
      [
        103.9345891,
        1.3384774
      ],
      [
        103.934589,
        1.3384764
      ],
      [
        103.9345211,
        1.3384379
      ],
      [
        103.9344535,
        1.3384015
      ],
      [
        103.9343045,
        1.3383211
      ],
      [
        103.9340453,
        1.3382077
      ],
      [
        103.9338138,
        1.3381259
      ],
      [
        103.9335827,
        1.3380506
      ],
      [
        103.9333085,
        1.3379796
      ],
      [
        103.933108,
        1.3379382
      ],
      [
        103.9330487,
        1.3379257
      ],
      [
        103.9329526,
        1.3379069
      ],
      [
        103.9328974,
        1.337896
      ],
      [
        103.93273,
        1.337865
      ],
      [
        103.9323952,
        1.337808
      ],
      [
        103.9322415,
        1.3377931
      ],
      [
        103.9322119,
        1.3377902
      ],
      [
        103.9320666,
        1.3377869
      ],
      [
        103.9319154,
        1.3377978
      ],
      [
        103.9317253,
        1.3378299
      ],
      [
        103.9316364,
        1.3378541
      ],
      [
        103.931545,
        1.3378816
      ],
      [
        103.9311912,
        1.3379962
      ],
      [
        103.9310898,
        1.3380289
      ],
      [
        103.9310214,
        1.338053
      ],
      [
        103.9308493,
        1.338116
      ],
      [
        103.9306324,
        1.3381955
      ],
      [
        103.9300843,
        1.3383857
      ],
      [
        103.9294263,
        1.3386211
      ],
      [
        103.9284257,
        1.3389634
      ],
      [
        103.928337,
        1.3389911
      ],
      [
        103.9282538,
        1.3390129
      ],
      [
        103.9281672,
        1.3390315
      ],
      [
        103.9280908,
        1.339044
      ],
      [
        103.9280064,
        1.3390546
      ],
      [
        103.9279203,
        1.3390622
      ],
      [
        103.9278307,
        1.3390665
      ],
      [
        103.9277211,
        1.3390672
      ],
      [
        103.9276617,
        1.3390648
      ],
      [
        103.9275708,
        1.3390586
      ],
      [
        103.9274755,
        1.3390477
      ],
      [
        103.9273697,
        1.3390251
      ],
      [
        103.9272759,
        1.3389973
      ],
      [
        103.9271841,
        1.3389632
      ],
      [
        103.92697,
        1.3388685
      ],
      [
        103.9262676,
        1.3385368
      ],
      [
        103.9261121,
        1.3384705
      ],
      [
        103.9259549,
        1.3384088
      ],
      [
        103.9257631,
        1.3383449
      ],
      [
        103.9255933,
        1.3382964
      ],
      [
        103.9251807,
        1.3381967
      ],
      [
        103.9240499,
        1.3379543
      ],
      [
        103.9237703,
        1.3378942
      ],
      [
        103.9236094,
        1.3378532
      ],
      [
        103.9234544,
        1.3378108
      ],
      [
        103.9233226,
        1.3377695
      ],
      [
        103.9230654,
        1.3376848
      ],
      [
        103.9228534,
        1.3376106
      ],
      [
        103.9226534,
        1.3375384
      ],
      [
        103.9226016,
        1.3375177
      ],
      [
        103.9225505,
        1.3374947
      ],
      [
        103.9224512,
        1.3374447
      ],
      [
        103.9222859,
        1.3373456
      ],
      [
        103.9219218,
        1.3370988
      ],
      [
        103.9218288,
        1.3370457
      ],
      [
        103.9217317,
        1.3370037
      ],
      [
        103.9216645,
        1.3369819
      ],
      [
        103.9215858,
        1.3369624
      ],
      [
        103.9215052,
        1.3369509
      ],
      [
        103.9214232,
        1.3369426
      ],
      [
        103.9213412,
        1.3369387
      ],
      [
        103.9212573,
        1.3369386
      ],
      [
        103.9211327,
        1.3369477
      ],
      [
        103.9210469,
        1.3369589
      ],
      [
        103.9209618,
        1.3369742
      ],
      [
        103.920933,
        1.3369818
      ],
      [
        103.9208843,
        1.3369946
      ],
      [
        103.920825,
        1.3370163
      ],
      [
        103.9207849,
        1.3370329
      ],
      [
        103.9207517,
        1.3370467
      ],
      [
        103.9206783,
        1.3370788
      ],
      [
        103.920506,
        1.3371586
      ],
      [
        103.9202877,
        1.3372677
      ],
      [
        103.9200217,
        1.3374225
      ],
      [
        103.9198982,
        1.3374936
      ],
      [
        103.9198192,
        1.3375379
      ],
      [
        103.9196981,
        1.3376163
      ],
      [
        103.919646,
        1.3376538
      ],
      [
        103.9195399,
        1.3377419
      ],
      [
        103.9194668,
        1.3378084
      ],
      [
        103.9193832,
        1.3378845
      ],
      [
        103.9192914,
        1.3379627
      ],
      [
        103.9191958,
        1.3380417
      ],
      [
        103.9191484,
        1.3380756
      ],
      [
        103.9190969,
        1.3381094
      ],
      [
        103.9190078,
        1.3381606
      ],
      [
        103.9189262,
        1.3382028
      ],
      [
        103.9188013,
        1.3382578
      ],
      [
        103.9187535,
        1.3382739
      ],
      [
        103.9187084,
        1.3382856
      ],
      [
        103.9186678,
        1.3382934
      ],
      [
        103.918625,
        1.3382979
      ],
      [
        103.918579,
        1.3382981
      ],
      [
        103.9185312,
        1.3382966
      ],
      [
        103.918457,
        1.338289
      ],
      [
        103.9184029,
        1.3382799
      ],
      [
        103.9183457,
        1.3382674
      ],
      [
        103.9180711,
        1.3382007
      ],
      [
        103.9179845,
        1.3381811
      ],
      [
        103.9178688,
        1.3381572
      ],
      [
        103.9177787,
        1.3381384
      ],
      [
        103.9174649,
        1.3380772
      ],
      [
        103.9169379,
        1.3379876
      ],
      [
        103.9167484,
        1.3379542
      ],
      [
        103.9160819,
        1.3378248
      ],
      [
        103.916054,
        1.3378194
      ],
      [
        103.9158407,
        1.3377686
      ],
      [
        103.9155983,
        1.3377072
      ],
      [
        103.9153551,
        1.3376457
      ],
      [
        103.9151886,
        1.3375927
      ],
      [
        103.915119,
        1.3375691
      ],
      [
        103.9150466,
        1.3375416
      ],
      [
        103.9149578,
        1.3375034
      ],
      [
        103.9148689,
        1.3374613
      ],
      [
        103.9146052,
        1.3373324
      ],
      [
        103.9143408,
        1.3372166
      ],
      [
        103.91381,
        1.3369725
      ],
      [
        103.9135276,
        1.3368381
      ],
      [
        103.9134669,
        1.3368052
      ],
      [
        103.913377,
        1.3367655
      ],
      [
        103.9126721,
        1.3363958
      ],
      [
        103.9121742,
        1.3361547
      ],
      [
        103.9116084,
        1.3358865
      ],
      [
        103.9115791,
        1.3358733
      ],
      [
        103.9114414,
        1.335813
      ],
      [
        103.9111457,
        1.3356815
      ],
      [
        103.9109404,
        1.3356003
      ],
      [
        103.9106561,
        1.3355152
      ],
      [
        103.9103658,
        1.3354393
      ],
      [
        103.9100225,
        1.3353496
      ],
      [
        103.9095774,
        1.3352263
      ],
      [
        103.9091873,
        1.335136
      ],
      [
        103.9091001,
        1.335122
      ],
      [
        103.9089833,
        1.3350889
      ],
      [
        103.9081336,
        1.3348955
      ],
      [
        103.9081188,
        1.3348928
      ],
      [
        103.9072022,
        1.3347272
      ],
      [
        103.9068189,
        1.3346494
      ],
      [
        103.9064724,
        1.3345814
      ],
      [
        103.9058052,
        1.3343219
      ],
      [
        103.905705,
        1.3342782
      ],
      [
        103.9056131,
        1.3342324
      ],
      [
        103.904472,
        1.3336733
      ],
      [
        103.9041284,
        1.333491
      ],
      [
        103.9038551,
        1.3333249
      ],
      [
        103.903667,
        1.3331928
      ],
      [
        103.9035109,
        1.3330571
      ],
      [
        103.9030735,
        1.3326138
      ],
      [
        103.9028559,
        1.3323825
      ],
      [
        103.9025713,
        1.332076
      ],
      [
        103.902557,
        1.331951
      ],
      [
        103.90256,
        1.3318898
      ],
      [
        103.9025623,
        1.3318438
      ],
      [
        103.9026287,
        1.3316585
      ],
      [
        103.9031951,
        1.3310741
      ],
      [
        103.9035885,
        1.3307107
      ],
      [
        103.9036879,
        1.3306196
      ],
      [
        103.9039049,
        1.3304206
      ],
      [
        103.9042177,
        1.3301132
      ],
      [
        103.9043679,
        1.3299758
      ],
      [
        103.9045229,
        1.3298309
      ],
      [
        103.9047559,
        1.3296132
      ],
      [
        103.9048186,
        1.3295581
      ],
      [
        103.9048762,
        1.3294999
      ],
      [
        103.9050245,
        1.3293395
      ],
      [
        103.9052851,
        1.3290077
      ],
      [
        103.9054392,
        1.3287624
      ],
      [
        103.9055834,
        1.328444
      ],
      [
        103.9057215,
        1.3280706
      ],
      [
        103.9057949,
        1.3278657
      ],
      [
        103.9058693,
        1.3275955
      ],
      [
        103.9058888,
        1.327504
      ],
      [
        103.9059068,
        1.327363
      ],
      [
        103.9059286,
        1.3271445
      ],
      [
        103.905937,
        1.3270305
      ],
      [
        103.9059482,
        1.3267762
      ],
      [
        103.9059444,
        1.32658
      ],
      [
        103.9058951,
        1.3263781
      ],
      [
        103.9058442,
        1.3262812
      ],
      [
        103.9057921,
        1.3261819
      ],
      [
        103.9057124,
        1.3260302
      ],
      [
        103.9055823,
        1.325865
      ],
      [
        103.9055542,
        1.3258293
      ],
      [
        103.9053946,
        1.3256745
      ],
      [
        103.9052344,
        1.3255759
      ],
      [
        103.905054,
        1.3255156
      ],
      [
        103.9047931,
        1.3254613
      ],
      [
        103.9044106,
        1.3254263
      ],
      [
        103.9037524,
        1.325365
      ],
      [
        103.9028644,
        1.3252677
      ],
      [
        103.902572,
        1.3252477
      ],
      [
        103.9018891,
        1.3250964
      ],
      [
        103.9014947,
        1.3250176
      ],
      [
        103.9011766,
        1.324954
      ],
      [
        103.8997593,
        1.3246758
      ],
      [
        103.8978971,
        1.3243235
      ],
      [
        103.8958067,
        1.3239079
      ],
      [
        103.8946566,
        1.3236787
      ],
      [
        103.894153,
        1.3235865
      ],
      [
        103.8924428,
        1.3232151
      ],
      [
        103.8891295,
        1.3224315
      ],
      [
        103.8881085,
        1.322282
      ],
      [
        103.8876561,
        1.3222272
      ],
      [
        103.8871923,
        1.3221707
      ],
      [
        103.8863439,
        1.3221417
      ],
      [
        103.8861907,
        1.3221364
      ],
      [
        103.8861617,
        1.3221354
      ],
      [
        103.8861151,
        1.3221338
      ],
      [
        103.885974,
        1.322129
      ],
      [
        103.885638,
        1.3221241
      ],
      [
        103.8850709,
        1.3220645
      ],
      [
        103.88495,
        1.3220452
      ],
      [
        103.8848186,
        1.3220188
      ],
      [
        103.8845401,
        1.3219423
      ],
      [
        103.8834541,
        1.32152
      ],
      [
        103.8826228,
        1.3211833
      ],
      [
        103.8820848,
        1.3209666
      ],
      [
        103.8813982,
        1.3206877
      ],
      [
        103.8804665,
        1.3203052
      ],
      [
        103.879898,
        1.3200795
      ],
      [
        103.8796616,
        1.3199961
      ],
      [
        103.879518,
        1.3199555
      ],
      [
        103.8794097,
        1.3199324
      ],
      [
        103.8792932,
        1.3199076
      ],
      [
        103.8790584,
        1.3198667
      ],
      [
        103.8788233,
        1.3198212
      ],
      [
        103.8783922,
        1.3197692
      ],
      [
        103.8777435,
        1.3197933
      ],
      [
        103.8770212,
        1.3198116
      ],
      [
        103.8768209,
        1.3198317
      ],
      [
        103.8765691,
        1.3198805
      ],
      [
        103.8763136,
        1.3199483
      ],
      [
        103.876254,
        1.3199699
      ],
      [
        103.8761337,
        1.3200246
      ],
      [
        103.8759793,
        1.3201007
      ],
      [
        103.8755879,
        1.3202954
      ],
      [
        103.8754692,
        1.3203672
      ],
      [
        103.8753579,
        1.3204367
      ],
      [
        103.8752302,
        1.3205225
      ],
      [
        103.8750089,
        1.3206888
      ],
      [
        103.8749304,
        1.3207569
      ],
      [
        103.8746916,
        1.3209639
      ],
      [
        103.8744619,
        1.321222
      ],
      [
        103.8732649,
        1.3227929
      ],
      [
        103.8731271,
        1.3229474
      ],
      [
        103.8718905,
        1.3245788
      ],
      [
        103.8713716,
        1.3252961
      ],
      [
        103.8711791,
        1.3255622
      ],
      [
        103.8707583,
        1.3260784
      ],
      [
        103.8705419,
        1.3263043
      ],
      [
        103.8704824,
        1.3263615
      ],
      [
        103.8703194,
        1.3265358
      ],
      [
        103.8701819,
        1.3266722
      ],
      [
        103.8700589,
        1.3267895
      ],
      [
        103.8698773,
        1.3269596
      ],
      [
        103.8696104,
        1.3271829
      ],
      [
        103.8691006,
        1.3275633
      ],
      [
        103.8688305,
        1.3277436
      ],
      [
        103.8684958,
        1.3279477
      ],
      [
        103.8682198,
        1.328104
      ],
      [
        103.8679813,
        1.3282202
      ],
      [
        103.8677206,
        1.328341
      ],
      [
        103.867481,
        1.3284418
      ],
      [
        103.867193,
        1.3285513
      ],
      [
        103.8668093,
        1.3286788
      ],
      [
        103.8659358,
        1.3289324
      ],
      [
        103.8657637,
        1.3289814
      ],
      [
        103.8654597,
        1.3290722
      ],
      [
        103.8651525,
        1.3291648
      ],
      [
        103.8649388,
        1.329242
      ],
      [
        103.8647314,
        1.3293259
      ],
      [
        103.8642353,
        1.3295603
      ],
      [
        103.8640305,
        1.3296586
      ],
      [
        103.86376,
        1.3298027
      ],
      [
        103.8635881,
        1.3298869
      ],
      [
        103.8633671,
        1.3299961
      ],
      [
        103.8631039,
        1.3301192
      ],
      [
        103.8628378,
        1.3302306
      ],
      [
        103.862546,
        1.330325
      ],
      [
        103.8623616,
        1.3303676
      ],
      [
        103.8620404,
        1.3304208
      ],
      [
        103.8618386,
        1.3304521
      ],
      [
        103.8616196,
        1.3304767
      ],
      [
        103.8614462,
        1.3304777
      ],
      [
        103.8612575,
        1.3304603
      ],
      [
        103.8609747,
        1.3304169
      ],
      [
        103.8607499,
        1.3303559
      ],
      [
        103.8605395,
        1.3302939
      ],
      [
        103.8603813,
        1.3302397
      ],
      [
        103.8601909,
        1.3301712
      ],
      [
        103.859951,
        1.3300847
      ],
      [
        103.8592542,
        1.3298331
      ],
      [
        103.8590257,
        1.3297554
      ],
      [
        103.8588521,
        1.3296982
      ],
      [
        103.8583442,
        1.3295275
      ],
      [
        103.8574352,
        1.3292331
      ],
      [
        103.8569747,
        1.3290933
      ],
      [
        103.8567205,
        1.3290332
      ],
      [
        103.8564516,
        1.3290038
      ],
      [
        103.8560426,
        1.3289997
      ],
      [
        103.8559212,
        1.3290091
      ],
      [
        103.8556518,
        1.32903
      ],
      [
        103.8553434,
        1.3290539
      ],
      [
        103.8532337,
        1.3292093
      ],
      [
        103.8525014,
        1.3292633
      ],
      [
        103.8523475,
        1.3292766
      ],
      [
        103.8522256,
        1.3292871
      ],
      [
        103.8504186,
        1.3294434
      ],
      [
        103.8495139,
        1.3295306
      ],
      [
        103.8488327,
        1.329582
      ],
      [
        103.8487809,
        1.3295516
      ],
      [
        103.8487574,
        1.3295412
      ],
      [
        103.8487202,
        1.3295375
      ],
      [
        103.8485503,
        1.3295385
      ],
      [
        103.8485181,
        1.3295392
      ],
      [
        103.8484545,
        1.329541
      ],
      [
        103.8481567,
        1.3295434
      ],
      [
        103.8475311,
        1.3295756
      ],
      [
        103.8465177,
        1.3295892
      ],
      [
        103.8462686,
        1.3295765
      ],
      [
        103.8460568,
        1.329551
      ],
      [
        103.8458595,
        1.3295427
      ],
      [
        103.8450256,
        1.3295114
      ],
      [
        103.8445045,
        1.3294849
      ],
      [
        103.844377,
        1.3294764
      ],
      [
        103.8440511,
        1.3294598
      ],
      [
        103.8439948,
        1.3294555
      ],
      [
        103.8434579,
        1.3294202
      ],
      [
        103.8432567,
        1.3294056
      ],
      [
        103.8431345,
        1.3293683
      ],
      [
        103.8429182,
        1.3293339
      ],
      [
        103.8426981,
        1.3292856
      ],
      [
        103.8425881,
        1.3292524
      ],
      [
        103.8424675,
        1.3292159
      ],
      [
        103.8422475,
        1.3291408
      ],
      [
        103.8419462,
        1.3290304
      ],
      [
        103.8417207,
        1.3289905
      ],
      [
        103.8415396,
        1.3289476
      ],
      [
        103.8412511,
        1.3288244
      ],
      [
        103.8410459,
        1.3287292
      ],
      [
        103.8410114,
        1.3287155
      ],
      [
        103.8409878,
        1.3286858
      ],
      [
        103.8409693,
        1.3286532
      ],
      [
        103.8409523,
        1.3285976
      ],
      [
        103.8409784,
        1.3285191
      ],
      [
        103.8410501,
        1.3283154
      ],
      [
        103.8410988,
        1.3281977
      ],
      [
        103.8411574,
        1.328063
      ],
      [
        103.8411812,
        1.3280123
      ],
      [
        103.841286,
        1.3277893
      ],
      [
        103.8413546,
        1.3276068
      ],
      [
        103.841433,
        1.3274238
      ],
      [
        103.841449,
        1.3273898
      ],
      [
        103.8415785,
        1.3271336
      ],
      [
        103.8416346,
        1.3270367
      ],
      [
        103.8418386,
        1.3266844
      ],
      [
        103.841974,
        1.3264859
      ],
      [
        103.8420494,
        1.3263288
      ],
      [
        103.8420914,
        1.3261809
      ],
      [
        103.8421056,
        1.3261062
      ],
      [
        103.8421072,
        1.326076
      ],
      [
        103.8421434,
        1.3258092
      ],
      [
        103.8421579,
        1.3256532
      ],
      [
        103.8421604,
        1.3255211
      ],
      [
        103.8421287,
        1.3252244
      ],
      [
        103.8420943,
        1.3249651
      ],
      [
        103.8420422,
        1.3246308
      ],
      [
        103.8420176,
        1.3244976
      ],
      [
        103.8419834,
        1.3243625
      ],
      [
        103.8419064,
        1.323921
      ],
      [
        103.8418965,
        1.3238606
      ],
      [
        103.8418582,
        1.3236543
      ],
      [
        103.8418356,
        1.3235239
      ],
      [
        103.8418111,
        1.3233812
      ],
      [
        103.8418063,
        1.3233536
      ],
      [
        103.8417818,
        1.3231329
      ],
      [
        103.8417774,
        1.3230932
      ],
      [
        103.8417757,
        1.3230679
      ],
      [
        103.8417403,
        1.3226823
      ],
      [
        103.8417202,
        1.322354
      ],
      [
        103.8417148,
        1.3222327
      ],
      [
        103.8417118,
        1.3221955
      ],
      [
        103.8417163,
        1.3221722
      ],
      [
        103.841719,
        1.3221586
      ],
      [
        103.8417223,
        1.3221347
      ],
      [
        103.8417331,
        1.3220903
      ],
      [
        103.8417613,
        1.3219743
      ],
      [
        103.8418594,
        1.3216246
      ],
      [
        103.8418868,
        1.3215267
      ],
      [
        103.8419281,
        1.3214495
      ],
      [
        103.8420289,
        1.321261
      ],
      [
        103.8422848,
        1.3208991
      ],
      [
        103.8423534,
        1.3208057
      ],
      [
        103.842455,
        1.3206678
      ],
      [
        103.8425586,
        1.3205427
      ],
      [
        103.8427158,
        1.3203373
      ],
      [
        103.8430787,
        1.3199365
      ],
      [
        103.8432488,
        1.3197586
      ],
      [
        103.8435242,
        1.3193958
      ],
      [
        103.8435357,
        1.3193806
      ],
      [
        103.8435766,
        1.3193244
      ],
      [
        103.8436469,
        1.3192215
      ],
      [
        103.8434515,
        1.319162
      ],
      [
        103.8430915,
        1.3190729
      ],
      [
        103.8430143,
        1.3190483
      ],
      [
        103.8429327,
        1.3190222
      ],
      [
        103.8428551,
        1.3189919
      ],
      [
        103.8427918,
        1.3189561
      ],
      [
        103.8427222,
        1.318897
      ],
      [
        103.8426348,
        1.3188188
      ],
      [
        103.8423774,
        1.3185924
      ],
      [
        103.8421941,
        1.3184058
      ],
      [
        103.8420114,
        1.3182409
      ],
      [
        103.8419083,
        1.3181053
      ],
      [
        103.8418616,
        1.3180438
      ],
      [
        103.8417965,
        1.3179229
      ],
      [
        103.8417704,
        1.3178745
      ],
      [
        103.841662,
        1.3175669
      ],
      [
        103.8416441,
        1.3174983
      ],
      [
        103.8416353,
        1.3174665
      ],
      [
        103.8416017,
        1.3173458
      ],
      [
        103.8414277,
        1.3167015
      ],
      [
        103.8413802,
        1.3165002
      ],
      [
        103.841326,
        1.3162692
      ],
      [
        103.8411948,
        1.3157706
      ],
      [
        103.8411685,
        1.3156837
      ],
      [
        103.8411628,
        1.3156648
      ],
      [
        103.8411131,
        1.3154751
      ],
      [
        103.841096,
        1.3154114
      ],
      [
        103.8410377,
        1.3152103
      ],
      [
        103.84099,
        1.315046
      ],
      [
        103.8408684,
        1.3147977
      ],
      [
        103.8408378,
        1.3147352
      ],
      [
        103.8408159,
        1.3146904
      ],
      [
        103.8408084,
        1.3146751
      ],
      [
        103.8406455,
        1.314449
      ],
      [
        103.8403752,
        1.3141622
      ],
      [
        103.840142,
        1.3139608
      ],
      [
        103.8397822,
        1.3136492
      ],
      [
        103.8395794,
        1.3134759
      ],
      [
        103.8395341,
        1.3134124
      ],
      [
        103.8395288,
        1.3133638
      ],
      [
        103.8395387,
        1.3133266
      ],
      [
        103.8395876,
        1.313226
      ],
      [
        103.8396075,
        1.3131602
      ],
      [
        103.8396198,
        1.3130973
      ],
      [
        103.8396211,
        1.3130308
      ],
      [
        103.8396205,
        1.3130105
      ],
      [
        103.8395816,
        1.3129223
      ],
      [
        103.8395052,
        1.3128144
      ],
      [
        103.8393411,
        1.3126731
      ],
      [
        103.839239,
        1.3126126
      ],
      [
        103.8391799,
        1.3125898
      ],
      [
        103.8391022,
        1.3125787
      ],
      [
        103.8390029,
        1.3125737
      ],
      [
        103.8389211,
        1.3125965
      ],
      [
        103.8388551,
        1.3126266
      ],
      [
        103.8388059,
        1.31266
      ],
      [
        103.8387138,
        1.3126263
      ],
      [
        103.8386084,
        1.3125928
      ],
      [
        103.8384631,
        1.3125016
      ],
      [
        103.8379933,
        1.3121916
      ],
      [
        103.8377213,
        1.3120167
      ],
      [
        103.8372414,
        1.3116941
      ],
      [
        103.8370703,
        1.3115812
      ],
      [
        103.8365906,
        1.3112661
      ],
      [
        103.8365404,
        1.3112327
      ],
      [
        103.8362154,
        1.311016
      ],
      [
        103.8357473,
        1.310704
      ],
      [
        103.835604,
        1.3106084
      ],
      [
        103.8355211,
        1.3105624
      ],
      [
        103.8350818,
        1.3103058
      ],
      [
        103.834848,
        1.3101692
      ],
      [
        103.8344212,
        1.3099136
      ],
      [
        103.8342904,
        1.3098073
      ],
      [
        103.8339908,
        1.3094131
      ],
      [
        103.833931,
        1.309284
      ],
      [
        103.8338456,
        1.3090788
      ],
      [
        103.8337827,
        1.3089412
      ],
      [
        103.833654,
        1.3086384
      ],
      [
        103.8334183,
        1.3080989
      ],
      [
        103.8333922,
        1.308036
      ],
      [
        103.8333186,
        1.3078575
      ],
      [
        103.833056,
        1.3072314
      ],
      [
        103.8330161,
        1.3071363
      ],
      [
        103.8329732,
        1.307034
      ],
      [
        103.8329194,
        1.3069058
      ],
      [
        103.8326052,
        1.3061951
      ],
      [
        103.8324939,
        1.3059591
      ],
      [
        103.8324142,
        1.305792
      ],
      [
        103.8323845,
        1.3057342
      ],
      [
        103.8323388,
        1.3056564
      ],
      [
        103.8322287,
        1.3054926
      ],
      [
        103.8320475,
        1.3052641
      ],
      [
        103.8318399,
        1.3050396
      ],
      [
        103.8317163,
        1.3049007
      ],
      [
        103.8315844,
        1.304754
      ],
      [
        103.8315225,
        1.304684
      ],
      [
        103.8313137,
        1.304448
      ],
      [
        103.8312024,
        1.3043032
      ],
      [
        103.8309253,
        1.3039736
      ],
      [
        103.8308472,
        1.3038595
      ],
      [
        103.8307661,
        1.3037279
      ],
      [
        103.8306528,
        1.303524
      ],
      [
        103.8304669,
        1.3032869
      ],
      [
        103.8304051,
        1.3031836
      ],
      [
        103.8302861,
        1.3029974
      ],
      [
        103.8302017,
        1.3028531
      ],
      [
        103.830172,
        1.3028036
      ],
      [
        103.8301489,
        1.3027666
      ],
      [
        103.8300856,
        1.3026542
      ],
      [
        103.8297013,
        1.3019737
      ],
      [
        103.8296093,
        1.3018158
      ],
      [
        103.8295509,
        1.3016799
      ],
      [
        103.8295083,
        1.3015597
      ],
      [
        103.8294525,
        1.3013232
      ],
      [
        103.8294285,
        1.3011735
      ],
      [
        103.8294282,
        1.3011444
      ],
      [
        103.8294255,
        1.3008642
      ],
      [
        103.8294481,
        1.3007334
      ],
      [
        103.829517,
        1.3005153
      ],
      [
        103.8297073,
        1.3000805
      ],
      [
        103.8298153,
        1.2998521
      ],
      [
        103.8299323,
        1.2996047
      ],
      [
        103.8300147,
        1.2994291
      ],
      [
        103.8300464,
        1.2993613
      ],
      [
        103.8300868,
        1.2992759
      ],
      [
        103.8301392,
        1.299172
      ],
      [
        103.8301815,
        1.2990276
      ],
      [
        103.8302552,
        1.2988058
      ],
      [
        103.8303115,
        1.2985041
      ],
      [
        103.8304013,
        1.2980203
      ],
      [
        103.8304268,
        1.2978475
      ],
      [
        103.8304668,
        1.2976499
      ],
      [
        103.830497,
        1.2975096
      ],
      [
        103.8305376,
        1.2973609
      ],
      [
        103.8306271,
        1.2970912
      ],
      [
        103.8307337,
        1.2968524
      ],
      [
        103.8309003,
        1.296587
      ],
      [
        103.8310873,
        1.2963579
      ],
      [
        103.8311841,
        1.2962393
      ],
      [
        103.8312828,
        1.2961107
      ],
      [
        103.8313357,
        1.2960418
      ],
      [
        103.8313997,
        1.2959584
      ],
      [
        103.831447,
        1.2958969
      ],
      [
        103.831604,
        1.2956022
      ],
      [
        103.8318592,
        1.2951801
      ],
      [
        103.8319315,
        1.2950539
      ],
      [
        103.8321037,
        1.2947405
      ],
      [
        103.832153,
        1.2946506
      ],
      [
        103.8322775,
        1.294443
      ],
      [
        103.8325305,
        1.2939119
      ],
      [
        103.8325655,
        1.2938517
      ],
      [
        103.8326658,
        1.2936567
      ],
      [
        103.8327546,
        1.2934865
      ],
      [
        103.8327748,
        1.29345
      ],
      [
        103.8328497,
        1.2933051
      ],
      [
        103.832882,
        1.2932544
      ],
      [
        103.8329216,
        1.2931961
      ],
      [
        103.8329606,
        1.2931309
      ],
      [
        103.8330448,
        1.2930071
      ],
      [
        103.8330468,
        1.2929994
      ],
      [
        103.833329,
        1.2925452
      ],
      [
        103.8333821,
        1.292451
      ],
      [
        103.8334548,
        1.2923258
      ],
      [
        103.8335581,
        1.2921367
      ],
      [
        103.833705,
        1.2918707
      ],
      [
        103.8337311,
        1.2918197
      ],
      [
        103.8338671,
        1.2915618
      ],
      [
        103.8339679,
        1.2913723
      ],
      [
        103.8341274,
        1.2911064
      ],
      [
        103.8342088,
        1.2909589
      ],
      [
        103.83426,
        1.2908661
      ],
      [
        103.8343139,
        1.2907683
      ],
      [
        103.8343754,
        1.2906567
      ],
      [
        103.8345487,
        1.2903427
      ],
      [
        103.8348195,
        1.2898518
      ],
      [
        103.8348848,
        1.289708
      ],
      [
        103.8349699,
        1.2895896
      ],
      [
        103.8350177,
        1.2894491
      ],
      [
        103.8350506,
        1.2892871
      ],
      [
        103.8350606,
        1.2891776
      ],
      [
        103.8350639,
        1.289139
      ],
      [
        103.835069,
        1.2890535
      ],
      [
        103.8350717,
        1.2889604
      ],
      [
        103.8350724,
        1.2889108
      ],
      [
        103.8350734,
        1.2887792
      ],
      [
        103.8350712,
        1.288663
      ],
      [
        103.8350616,
        1.2885304
      ],
      [
        103.8350588,
        1.2884165
      ],
      [
        103.8350502,
        1.2882518
      ],
      [
        103.8350328,
        1.2879703
      ],
      [
        103.8350663,
        1.2874295
      ],
      [
        103.8350688,
        1.2873221
      ],
      [
        103.8350792,
        1.2872498
      ],
      [
        103.8350874,
        1.2871864
      ],
      [
        103.835042,
        1.2869789
      ],
      [
        103.8349893,
        1.2867507
      ],
      [
        103.8348802,
        1.2862528
      ],
      [
        103.8348655,
        1.2861052
      ],
      [
        103.834853,
        1.2858987
      ],
      [
        103.8348451,
        1.2857686
      ],
      [
        103.834867,
        1.2854622
      ],
      [
        103.8348684,
        1.2854324
      ],
      [
        103.8348712,
        1.2854109
      ],
      [
        103.8348949,
        1.2851485
      ],
      [
        103.8349917,
        1.2849139
      ],
      [
        103.8351071,
        1.2846319
      ],
      [
        103.8351582,
        1.2845059
      ],
      [
        103.8351835,
        1.2844481
      ],
      [
        103.8352559,
        1.2843095
      ],
      [
        103.8352336,
        1.2841926
      ],
      [
        103.8351837,
        1.284101
      ],
      [
        103.8351206,
        1.2840541
      ],
      [
        103.8350715,
        1.284043
      ],
      [
        103.8350235,
        1.2840428
      ],
      [
        103.8349675,
        1.2840591
      ],
      [
        103.8347989,
        1.2841165
      ],
      [
        103.8347006,
        1.2841522
      ],
      [
        103.8346106,
        1.2842117
      ],
      [
        103.834528,
        1.2842953
      ],
      [
        103.8343164,
        1.2845578
      ],
      [
        103.8340683,
        1.2848746
      ],
      [
        103.8336948,
        1.2853483
      ],
      [
        103.8336675,
        1.2853816
      ],
      [
        103.8336456,
        1.2854143
      ],
      [
        103.8335333,
        1.28553
      ],
      [
        103.8334301,
        1.2856372
      ],
      [
        103.8332662,
        1.2857472
      ],
      [
        103.8331252,
        1.2858363
      ],
      [
        103.8329323,
        1.2859042
      ],
      [
        103.8328261,
        1.2859331
      ],
      [
        103.8327545,
        1.2859497
      ],
      [
        103.8326366,
        1.2859553
      ],
      [
        103.8323879,
        1.2859509
      ],
      [
        103.8320239,
        1.285943
      ],
      [
        103.8319371,
        1.2859388
      ],
      [
        103.8314947,
        1.2859214
      ],
      [
        103.8310415,
        1.2859035
      ],
      [
        103.8306042,
        1.2858862
      ],
      [
        103.8302797,
        1.2858745
      ],
      [
        103.8301717,
        1.2858724
      ],
      [
        103.8301037,
        1.285869
      ],
      [
        103.8300497,
        1.2858651
      ],
      [
        103.8299164,
        1.2858611
      ],
      [
        103.8294625,
        1.2858422
      ],
      [
        103.8294107,
        1.2858403
      ],
      [
        103.8289144,
        1.2858198
      ],
      [
        103.828407,
        1.285795
      ],
      [
        103.8283618,
        1.2857945
      ],
      [
        103.8283139,
        1.2857937
      ],
      [
        103.8279925,
        1.2858099
      ],
      [
        103.827675,
        1.2858625
      ],
      [
        103.8274801,
        1.285899
      ],
      [
        103.8272492,
        1.2859312
      ],
      [
        103.8271775,
        1.2859419
      ],
      [
        103.8271007,
        1.2859541
      ],
      [
        103.8263959,
        1.2860635
      ],
      [
        103.826082,
        1.2861163
      ],
      [
        103.8260516,
        1.2861083
      ],
      [
        103.8257897,
        1.2860394
      ],
      [
        103.82557,
        1.2859844
      ],
      [
        103.8254869,
        1.2859467
      ],
      [
        103.8254102,
        1.285912
      ],
      [
        103.8253554,
        1.2858706
      ],
      [
        103.8253264,
        1.2858487
      ],
      [
        103.8252797,
        1.2854474
      ],
      [
        103.8252557,
        1.285241
      ],
      [
        103.8251965,
        1.284821
      ],
      [
        103.825174,
        1.284653
      ],
      [
        103.825076,
        1.2843789
      ],
      [
        103.8249446,
        1.2840002
      ],
      [
        103.8248206,
        1.2837038
      ],
      [
        103.8247135,
        1.2834849
      ],
      [
        103.8245984,
        1.2832526
      ],
      [
        103.8243172,
        1.2826767
      ],
      [
        103.8242451,
        1.282535
      ],
      [
        103.824193,
        1.2824326
      ],
      [
        103.8240992,
        1.2822673
      ],
      [
        103.8239891,
        1.2820126
      ],
      [
        103.8239474,
        1.2819041
      ],
      [
        103.823905,
        1.2817687
      ],
      [
        103.823755,
        1.2818302
      ],
      [
        103.8236875,
        1.2818584
      ],
      [
        103.8232647,
        1.282047
      ],
      [
        103.8232085,
        1.2820717
      ],
      [
        103.8228908,
        1.282213
      ],
      [
        103.8224627,
        1.2824034
      ],
      [
        103.8222316,
        1.2825051
      ],
      [
        103.8219571,
        1.282626
      ],
      [
        103.8217156,
        1.2827395
      ],
      [
        103.8214672,
        1.2828461
      ],
      [
        103.8211945,
        1.2829464
      ],
      [
        103.8210422,
        1.282991
      ],
      [
        103.820938,
        1.2830267
      ],
      [
        103.8207219,
        1.2831008
      ],
      [
        103.8205414,
        1.283098
      ],
      [
        103.8204438,
        1.2830738
      ],
      [
        103.8202804,
        1.2830126
      ],
      [
        103.8201827,
        1.2829655
      ],
      [
        103.8200639,
        1.2828871
      ],
      [
        103.8199902,
        1.2828481
      ],
      [
        103.8199169,
        1.2827523
      ],
      [
        103.8197432,
        1.282548
      ],
      [
        103.8196077,
        1.2824063
      ],
      [
        103.8191939,
        1.2819718
      ],
      [
        103.8191148,
        1.2818845
      ],
      [
        103.8191148,
        1.2818845
      ],
      [
        103.8186589,
        1.282261
      ],
      [
        103.818729,
        1.2822296
      ],
      [
        103.818974,
        1.2820216
      ],
      [
        103.8190205,
        1.2819775
      ],
      [
        103.818307,
        1.2823648
      ],
      [
        103.8178706,
        1.282487
      ],
      [
        103.8180596,
        1.2824327
      ],
      [
        103.817786,
        1.2825078
      ],
      [
        103.8174539,
        1.2826175
      ],
      [
        103.8172953,
        1.2826542
      ],
      [
        103.817127,
        1.2820726
      ],
      [
        103.8170791,
        1.2819092
      ],
      [
        103.8169997,
        1.2816264
      ],
      [
        103.8170876,
        1.2815611
      ],
      [
        103.8171419,
        1.2815535
      ],
      [
        103.8171903,
        1.2815864
      ],
      [
        103.8174539,
        1.282559
      ],
      [
        103.8174539,
        1.2826175
      ]
    ]
  }
}