{
  "type": "Feature",
  "properties": {
    "relation": 6623047,
    "direction": "2",
    "fee": "yes",
    "from": "Bukit Merah Interchange",
    "name": "Svc 5 (Bukit Merah Interchange → Pasir Ris Interchange)",
    "name:en": "Svc 5 (Bukit Merah Interchange → Pasir Ris Interchange)",
    "network": "Land Transport Authority",
    "network:short": "LTA",
    "network:wikidata": "Q3299279",
    "network:wikipedia": "en:Land Transport Authority",
    "operator": "SBS Transit",
    "operator:wikidata": "Q2661305",
    "operator:wikipedia": "en:SBS Transit",
    "public_transport:version": "2",
    "ref": "5",
    "route": "bus",
    "to": "Pasir Ris Interchange",
    "type": "route",
    "website": "https://www.sbstransit.com.sg/"
  },
  "geometry": {
    "type": "LineString",
    "coordinates": [
      [
        103.8172953,
        1.2826542
      ],
      [
        103.817127,
        1.2820726
      ],
      [
        103.8170791,
        1.2819092
      ],
      [
        103.8169997,
        1.2816264
      ],
      [
        103.8170876,
        1.2815611
      ],
      [
        103.8171419,
        1.2815535
      ],
      [
        103.8171903,
        1.2815864
      ],
      [
        103.8174539,
        1.282559
      ],
      [
        103.8174539,
        1.2826175
      ],
      [
        103.817786,
        1.2825078
      ],
      [
        103.8178706,
        1.282487
      ],
      [
        103.8180596,
        1.2824327
      ],
      [
        103.818307,
        1.2823648
      ],
      [
        103.8186589,
        1.282261
      ],
      [
        103.818729,
        1.2822296
      ],
      [
        103.818974,
        1.2820216
      ],
      [
        103.8190205,
        1.2819775
      ],
      [
        103.8191026,
        1.2820655
      ],
      [
        103.8196144,
        1.2826411
      ],
      [
        103.8197105,
        1.2827526
      ],
      [
        103.8197681,
        1.2828209
      ],
      [
        103.8198439,
        1.2829087
      ],
      [
        103.8199073,
        1.2829908
      ],
      [
        103.8200249,
        1.2831434
      ],
      [
        103.8201051,
        1.2832743
      ],
      [
        103.8201228,
        1.2833062
      ],
      [
        103.8201746,
        1.2834069
      ],
      [
        103.8202821,
        1.2833729
      ],
      [
        103.8203581,
        1.2833501
      ],
      [
        103.8207655,
        1.2832142
      ],
      [
        103.8210269,
        1.283112
      ],
      [
        103.8214727,
        1.2829355
      ],
      [
        103.8218364,
        1.282785
      ],
      [
        103.8220232,
        1.2827022
      ],
      [
        103.8227306,
        1.2824072
      ],
      [
        103.8230545,
        1.2822832
      ],
      [
        103.8232758,
        1.2822718
      ],
      [
        103.8234425,
        1.282267
      ],
      [
        103.8235661,
        1.2822721
      ],
      [
        103.8236704,
        1.2822963
      ],
      [
        103.8237055,
        1.2823147
      ],
      [
        103.823775,
        1.2823562
      ],
      [
        103.8238489,
        1.2824025
      ],
      [
        103.8239906,
        1.2825463
      ],
      [
        103.8240235,
        1.282611
      ],
      [
        103.8240968,
        1.2827582
      ],
      [
        103.8244019,
        1.2833359
      ],
      [
        103.8245024,
        1.283545
      ],
      [
        103.8245459,
        1.2836356
      ],
      [
        103.8245511,
        1.2836464
      ],
      [
        103.8246207,
        1.2837913
      ],
      [
        103.8247391,
        1.2840376
      ],
      [
        103.8248728,
        1.2843785
      ],
      [
        103.8249806,
        1.2847755
      ],
      [
        103.825095,
        1.2853556
      ],
      [
        103.8251266,
        1.2855896
      ],
      [
        103.8251665,
        1.2858915
      ],
      [
        103.8251707,
        1.285923
      ],
      [
        103.8252143,
        1.2862458
      ],
      [
        103.8252244,
        1.2863173
      ],
      [
        103.8252311,
        1.2863947
      ],
      [
        103.8253817,
        1.2863433
      ],
      [
        103.8254361,
        1.2863279
      ],
      [
        103.8256776,
        1.2862659
      ],
      [
        103.8258736,
        1.2862243
      ],
      [
        103.826475,
        1.2861252
      ],
      [
        103.8271207,
        1.2860159
      ],
      [
        103.8271932,
        1.2860058
      ],
      [
        103.8272293,
        1.2859995
      ],
      [
        103.8272614,
        1.2859955
      ],
      [
        103.8275523,
        1.2859431
      ],
      [
        103.8278041,
        1.2859041
      ],
      [
        103.8280578,
        1.2858791
      ],
      [
        103.8283124,
        1.2858682
      ],
      [
        103.8283606,
        1.2858681
      ],
      [
        103.8284057,
        1.2858689
      ],
      [
        103.828786,
        1.2858859
      ],
      [
        103.829404,
        1.285918
      ],
      [
        103.8294597,
        1.2859206
      ],
      [
        103.830047,
        1.2859486
      ],
      [
        103.8301033,
        1.2859482
      ],
      [
        103.8301671,
        1.2859489
      ],
      [
        103.8311931,
        1.2859799
      ],
      [
        103.8314307,
        1.2859871
      ],
      [
        103.8320239,
        1.2860051
      ],
      [
        103.8324049,
        1.2860149
      ],
      [
        103.8326367,
        1.2860101
      ],
      [
        103.8327255,
        1.286002
      ],
      [
        103.8328569,
        1.2859864
      ],
      [
        103.8331981,
        1.2859527
      ],
      [
        103.8332605,
        1.2859517
      ],
      [
        103.833318,
        1.2859613
      ],
      [
        103.8334101,
        1.285989
      ],
      [
        103.8335262,
        1.2860382
      ],
      [
        103.8336561,
        1.2861419
      ],
      [
        103.8336566,
        1.2861993
      ],
      [
        103.8336575,
        1.2862204
      ],
      [
        103.8336593,
        1.2863397
      ],
      [
        103.8336623,
        1.2866131
      ],
      [
        103.833682,
        1.2869908
      ],
      [
        103.8337015,
        1.2873785
      ],
      [
        103.8336897,
        1.2876543
      ],
      [
        103.833652,
        1.2880236
      ],
      [
        103.8336125,
        1.2883594
      ],
      [
        103.8335786,
        1.288587
      ],
      [
        103.8335396,
        1.2888797
      ],
      [
        103.8335236,
        1.2890416
      ],
      [
        103.8334887,
        1.2893326
      ],
      [
        103.833479,
        1.2894069
      ],
      [
        103.8334384,
        1.2896427
      ],
      [
        103.8333862,
        1.289791
      ],
      [
        103.8333541,
        1.2898931
      ],
      [
        103.8332956,
        1.2900402
      ],
      [
        103.8332723,
        1.2901141
      ],
      [
        103.8331202,
        1.2904425
      ],
      [
        103.8330853,
        1.2905022
      ],
      [
        103.8329694,
        1.2907005
      ],
      [
        103.8329073,
        1.2908019
      ],
      [
        103.8327635,
        1.2910368
      ],
      [
        103.8326362,
        1.2912067
      ],
      [
        103.8325,
        1.2913673
      ],
      [
        103.8324328,
        1.2914466
      ],
      [
        103.8319456,
        1.2920117
      ],
      [
        103.8316636,
        1.2923394
      ],
      [
        103.831633,
        1.2923749
      ],
      [
        103.8316191,
        1.2923953
      ],
      [
        103.8315487,
        1.2925124
      ],
      [
        103.8315192,
        1.2925682
      ],
      [
        103.8314153,
        1.2928151
      ],
      [
        103.8314002,
        1.2928546
      ],
      [
        103.8313216,
        1.2931283
      ],
      [
        103.831299,
        1.2931961
      ],
      [
        103.8312843,
        1.2932491
      ],
      [
        103.8311264,
        1.293687
      ],
      [
        103.831074,
        1.2938324
      ],
      [
        103.8310249,
        1.2939694
      ],
      [
        103.831014,
        1.2939997
      ],
      [
        103.8309207,
        1.2942239
      ],
      [
        103.8308522,
        1.2943884
      ],
      [
        103.8308064,
        1.2944997
      ],
      [
        103.8307549,
        1.2946255
      ],
      [
        103.8306762,
        1.2948164
      ],
      [
        103.8305978,
        1.2950068
      ],
      [
        103.8303917,
        1.2954891
      ],
      [
        103.8303526,
        1.295577
      ],
      [
        103.8303114,
        1.2956757
      ],
      [
        103.8302971,
        1.2957298
      ],
      [
        103.830277,
        1.2957854
      ],
      [
        103.8302502,
        1.2958893
      ],
      [
        103.8302355,
        1.2959593
      ],
      [
        103.8302181,
        1.2961018
      ],
      [
        103.8302113,
        1.2961461
      ],
      [
        103.8301592,
        1.2966413
      ],
      [
        103.8301174,
        1.2970149
      ],
      [
        103.8300866,
        1.2973568
      ],
      [
        103.8300678,
        1.2975391
      ],
      [
        103.8300571,
        1.2976464
      ],
      [
        103.8300464,
        1.2977751
      ],
      [
        103.8300329,
        1.2979306
      ],
      [
        103.8300303,
        1.2981335
      ],
      [
        103.8300249,
        1.2983087
      ],
      [
        103.8300216,
        1.2985609
      ],
      [
        103.8300055,
        1.298847
      ],
      [
        103.8299907,
        1.2989885
      ],
      [
        103.8299735,
        1.2990671
      ],
      [
        103.8299435,
        1.2991702
      ],
      [
        103.8298967,
        1.2992754
      ],
      [
        103.8298598,
        1.299358
      ],
      [
        103.8297286,
        1.2996531
      ],
      [
        103.8295365,
        1.3001177
      ],
      [
        103.8294132,
        1.3003962
      ],
      [
        103.8293315,
        1.3005801
      ],
      [
        103.829275,
        1.300717
      ],
      [
        103.8292435,
        1.3008465
      ],
      [
        103.8292383,
        1.3009819
      ],
      [
        103.8292507,
        1.3011034
      ],
      [
        103.8292807,
        1.3012606
      ],
      [
        103.8293008,
        1.3013586
      ],
      [
        103.8293312,
        1.3014524
      ],
      [
        103.8293833,
        1.3015932
      ],
      [
        103.8294486,
        1.3017223
      ],
      [
        103.8295135,
        1.3018491
      ],
      [
        103.8296322,
        1.3020603
      ],
      [
        103.8297766,
        1.3023233
      ],
      [
        103.8299957,
        1.3027225
      ],
      [
        103.830028,
        1.3027815
      ],
      [
        103.8300787,
        1.3028722
      ],
      [
        103.8302435,
        1.3031475
      ],
      [
        103.8303763,
        1.3033802
      ],
      [
        103.8306096,
        1.3038238
      ],
      [
        103.8306784,
        1.303956
      ],
      [
        103.8307378,
        1.3040638
      ],
      [
        103.8308503,
        1.3041998
      ],
      [
        103.8309549,
        1.3043023
      ],
      [
        103.8310959,
        1.3044295
      ],
      [
        103.8312483,
        1.3046057
      ],
      [
        103.8313704,
        1.3047469
      ],
      [
        103.8313982,
        1.3047791
      ],
      [
        103.8315677,
        1.3049751
      ],
      [
        103.8315878,
        1.3049984
      ],
      [
        103.8317012,
        1.3051295
      ],
      [
        103.8318494,
        1.3053009
      ],
      [
        103.8319142,
        1.3053759
      ],
      [
        103.8319347,
        1.3053996
      ],
      [
        103.831953,
        1.3054208
      ],
      [
        103.8320557,
        1.3055388
      ],
      [
        103.8321733,
        1.3057064
      ],
      [
        103.8322967,
        1.3059651
      ],
      [
        103.8323934,
        1.3061752
      ],
      [
        103.8324997,
        1.3064109
      ],
      [
        103.8327896,
        1.3070292
      ],
      [
        103.8328093,
        1.3070763
      ],
      [
        103.8328637,
        1.3072062
      ],
      [
        103.8329134,
        1.307325
      ],
      [
        103.8329959,
        1.3075221
      ],
      [
        103.8330152,
        1.3075703
      ],
      [
        103.8330796,
        1.3077474
      ],
      [
        103.8331442,
        1.307934
      ],
      [
        103.8332087,
        1.3081446
      ],
      [
        103.8332301,
        1.3082434
      ],
      [
        103.8334239,
        1.3088042
      ],
      [
        103.8334888,
        1.3089223
      ],
      [
        103.8335723,
        1.3090759
      ],
      [
        103.8336298,
        1.3091735
      ],
      [
        103.8337219,
        1.3093308
      ],
      [
        103.8337894,
        1.3094559
      ],
      [
        103.8338848,
        1.3096243
      ],
      [
        103.8339451,
        1.3096927
      ],
      [
        103.8342743,
        1.3099918
      ],
      [
        103.8344318,
        1.3101094
      ],
      [
        103.8348166,
        1.3103553
      ],
      [
        103.8350277,
        1.3104782
      ],
      [
        103.8352686,
        1.3106125
      ],
      [
        103.8355163,
        1.3107414
      ],
      [
        103.8356702,
        1.310831
      ],
      [
        103.8356999,
        1.3108483
      ],
      [
        103.8361602,
        1.3111011
      ],
      [
        103.8365326,
        1.3113531
      ],
      [
        103.8366719,
        1.3114474
      ],
      [
        103.8368585,
        1.3115736
      ],
      [
        103.8371225,
        1.3117499
      ],
      [
        103.8372471,
        1.3118367
      ],
      [
        103.8373525,
        1.31191
      ],
      [
        103.837473,
        1.3119944
      ],
      [
        103.8378862,
        1.3122838
      ],
      [
        103.8383647,
        1.3126219
      ],
      [
        103.8386853,
        1.3128436
      ],
      [
        103.8386836,
        1.3129264
      ],
      [
        103.8387115,
        1.3130024
      ],
      [
        103.8387579,
        1.3131029
      ],
      [
        103.8388932,
        1.3132225
      ],
      [
        103.8390863,
        1.3133587
      ],
      [
        103.8391787,
        1.313407
      ],
      [
        103.8392881,
        1.3134317
      ],
      [
        103.839495,
        1.313585
      ],
      [
        103.8396487,
        1.3136979
      ],
      [
        103.8398818,
        1.3138856
      ],
      [
        103.8400958,
        1.3140749
      ],
      [
        103.8403151,
        1.3142525
      ],
      [
        103.8406305,
        1.3146071
      ],
      [
        103.8408208,
        1.3149299
      ],
      [
        103.8409388,
        1.3151861
      ],
      [
        103.8410071,
        1.3154426
      ],
      [
        103.841024,
        1.3155063
      ],
      [
        103.8410372,
        1.3155517
      ],
      [
        103.8411008,
        1.3158022
      ],
      [
        103.8411398,
        1.3159551
      ],
      [
        103.8411547,
        1.3160134
      ],
      [
        103.8412219,
        1.3162878
      ],
      [
        103.8413181,
        1.3166461
      ],
      [
        103.8414643,
        1.3172265
      ],
      [
        103.841503,
        1.317374
      ],
      [
        103.8415395,
        1.3175133
      ],
      [
        103.8415713,
        1.3176299
      ],
      [
        103.8416082,
        1.3177428
      ],
      [
        103.8416563,
        1.3178614
      ],
      [
        103.8417544,
        1.3180493
      ],
      [
        103.8418314,
        1.3181638
      ],
      [
        103.8418792,
        1.3182181
      ],
      [
        103.8420115,
        1.3183576
      ],
      [
        103.842113,
        1.3184435
      ],
      [
        103.8421314,
        1.3184591
      ],
      [
        103.8421442,
        1.3184699
      ],
      [
        103.8421618,
        1.3184853
      ],
      [
        103.842233,
        1.3185478
      ],
      [
        103.8422749,
        1.3185907
      ],
      [
        103.8423718,
        1.3186789
      ],
      [
        103.8426715,
        1.3189543
      ],
      [
        103.8427394,
        1.3190106
      ],
      [
        103.8428081,
        1.3190598
      ],
      [
        103.8429133,
        1.3191135
      ],
      [
        103.843044,
        1.3191672
      ],
      [
        103.8432525,
        1.3192266
      ],
      [
        103.8433837,
        1.3192642
      ],
      [
        103.8433487,
        1.3193141
      ],
      [
        103.8431022,
        1.3196245
      ],
      [
        103.8428507,
        1.3199859
      ],
      [
        103.8426978,
        1.3201757
      ],
      [
        103.8425943,
        1.3202984
      ],
      [
        103.8424842,
        1.3204213
      ],
      [
        103.842416,
        1.3205041
      ],
      [
        103.8423355,
        1.3205961
      ],
      [
        103.8422009,
        1.3207852
      ],
      [
        103.8421316,
        1.3208747
      ],
      [
        103.8420697,
        1.3209628
      ],
      [
        103.8419822,
        1.3210653
      ],
      [
        103.8419167,
        1.3211463
      ],
      [
        103.841834,
        1.3212571
      ],
      [
        103.841788,
        1.3213584
      ],
      [
        103.8417479,
        1.3214751
      ],
      [
        103.8417317,
        1.3215312
      ],
      [
        103.8417186,
        1.3215699
      ],
      [
        103.8416706,
        1.3217115
      ],
      [
        103.841618,
        1.3218808
      ],
      [
        103.8415936,
        1.3219879
      ],
      [
        103.8415835,
        1.3220522
      ],
      [
        103.841579,
        1.3220804
      ],
      [
        103.8415741,
        1.3221404
      ],
      [
        103.8415713,
        1.3221741
      ],
      [
        103.8415654,
        1.3222205
      ],
      [
        103.8415701,
        1.3222537
      ],
      [
        103.8415818,
        1.3223586
      ],
      [
        103.8416055,
        1.322683
      ],
      [
        103.8416249,
        1.3229779
      ],
      [
        103.8416298,
        1.3230208
      ],
      [
        103.8416367,
        1.3231043
      ],
      [
        103.8416541,
        1.3232595
      ],
      [
        103.8416707,
        1.3233826
      ],
      [
        103.8416852,
        1.3234635
      ],
      [
        103.8417976,
        1.3240848
      ],
      [
        103.8418085,
        1.3241407
      ],
      [
        103.8418552,
        1.3243812
      ],
      [
        103.841888,
        1.3245227
      ],
      [
        103.8419117,
        1.3246481
      ],
      [
        103.8419491,
        1.3248373
      ],
      [
        103.8419921,
        1.3250442
      ],
      [
        103.8420094,
        1.3251149
      ],
      [
        103.842028,
        1.3252909
      ],
      [
        103.8420584,
        1.3254673
      ],
      [
        103.842061,
        1.3256083
      ],
      [
        103.8420531,
        1.3258053
      ],
      [
        103.8420165,
        1.3259252
      ],
      [
        103.8419899,
        1.3260287
      ],
      [
        103.84197,
        1.3260939
      ],
      [
        103.8419469,
        1.3261745
      ],
      [
        103.8419118,
        1.3263004
      ],
      [
        103.8418468,
        1.3264357
      ],
      [
        103.841629,
        1.326873
      ],
      [
        103.8414722,
        1.3272112
      ],
      [
        103.8413424,
        1.3274365
      ],
      [
        103.8411446,
        1.3275288
      ],
      [
        103.8410179,
        1.3275459
      ],
      [
        103.8408423,
        1.3275296
      ],
      [
        103.8407136,
        1.3274517
      ],
      [
        103.8405838,
        1.3273592
      ],
      [
        103.8404206,
        1.3272707
      ],
      [
        103.8403047,
        1.3272418
      ],
      [
        103.8401796,
        1.3272473
      ],
      [
        103.840009,
        1.3273093
      ],
      [
        103.8398856,
        1.3274349
      ],
      [
        103.8398254,
        1.3276058
      ],
      [
        103.8398383,
        1.3278509
      ],
      [
        103.8398981,
        1.3279527
      ],
      [
        103.8399792,
        1.3280394
      ],
      [
        103.8402261,
        1.3281885
      ],
      [
        103.8403025,
        1.3282303
      ],
      [
        103.8403706,
        1.3282899
      ],
      [
        103.8404044,
        1.3283429
      ],
      [
        103.8404292,
        1.3283952
      ],
      [
        103.8404406,
        1.3284692
      ],
      [
        103.8404252,
        1.3286386
      ],
      [
        103.8402743,
        1.328959
      ],
      [
        103.8402159,
        1.3291326
      ],
      [
        103.8401866,
        1.3292679
      ],
      [
        103.8401614,
        1.3294501
      ],
      [
        103.8400407,
        1.3295728
      ],
      [
        103.839959,
        1.3296089
      ],
      [
        103.839822,
        1.3296259
      ],
      [
        103.8396958,
        1.3296198
      ],
      [
        103.8396196,
        1.329598
      ],
      [
        103.8395068,
        1.3295433
      ],
      [
        103.8394556,
        1.3295005
      ],
      [
        103.8394073,
        1.3294361
      ],
      [
        103.8393724,
        1.3293619
      ],
      [
        103.8393402,
        1.3292559
      ],
      [
        103.8393375,
        1.3291809
      ],
      [
        103.8393469,
        1.3291084
      ],
      [
        103.8393804,
        1.329016
      ],
      [
        103.8394354,
        1.3289502
      ],
      [
        103.8394837,
        1.328902
      ],
      [
        103.8395414,
        1.3288644
      ],
      [
        103.8396178,
        1.3288363
      ],
      [
        103.8396956,
        1.3288215
      ],
      [
        103.8397693,
        1.3288256
      ],
      [
        103.8398552,
        1.328843
      ],
      [
        103.8399343,
        1.3288672
      ],
      [
        103.8400162,
        1.3289007
      ],
      [
        103.8402758,
        1.3290708
      ],
      [
        103.8405297,
        1.3292092
      ],
      [
        103.8405747,
        1.3292335
      ],
      [
        103.8408159,
        1.3293668
      ],
      [
        103.8411136,
        1.3295084
      ],
      [
        103.8416161,
        1.3296918
      ],
      [
        103.8420348,
        1.3297809
      ],
      [
        103.8424758,
        1.3298246
      ],
      [
        103.843847,
        1.3298279
      ],
      [
        103.8443647,
        1.3298437
      ],
      [
        103.8444784,
        1.3298471
      ],
      [
        103.8446988,
        1.3298604
      ],
      [
        103.8456873,
        1.3299001
      ],
      [
        103.8458735,
        1.3299069
      ],
      [
        103.8460185,
        1.3299122
      ],
      [
        103.8468413,
        1.3299421
      ],
      [
        103.8474196,
        1.3298966
      ],
      [
        103.8476418,
        1.3298741
      ],
      [
        103.8477847,
        1.3298181
      ],
      [
        103.8493855,
        1.3297066
      ],
      [
        103.8494952,
        1.3297016
      ],
      [
        103.8498225,
        1.3296847
      ],
      [
        103.8510901,
        1.3295812
      ],
      [
        103.852047,
        1.3295008
      ],
      [
        103.85223,
        1.3294898
      ],
      [
        103.8523765,
        1.329481
      ],
      [
        103.8528223,
        1.3294477
      ],
      [
        103.8532782,
        1.3294271
      ],
      [
        103.8535533,
        1.3293986
      ],
      [
        103.8555238,
        1.3291998
      ],
      [
        103.8557354,
        1.3291798
      ],
      [
        103.855975,
        1.3291688
      ],
      [
        103.8562107,
        1.3291677
      ],
      [
        103.8564639,
        1.3291849
      ],
      [
        103.8566275,
        1.3292079
      ],
      [
        103.8569867,
        1.3292856
      ],
      [
        103.8583619,
        1.3297274
      ],
      [
        103.8594346,
        1.3300601
      ],
      [
        103.8597927,
        1.3301857
      ],
      [
        103.8598922,
        1.3302247
      ],
      [
        103.860092,
        1.3303004
      ],
      [
        103.8603869,
        1.3304112
      ],
      [
        103.860596,
        1.3304793
      ],
      [
        103.8609193,
        1.3305612
      ],
      [
        103.8612341,
        1.3306117
      ],
      [
        103.8614819,
        1.330626
      ],
      [
        103.8618346,
        1.3306057
      ],
      [
        103.8620035,
        1.3305787
      ],
      [
        103.8623341,
        1.3305239
      ],
      [
        103.8626394,
        1.3304491
      ],
      [
        103.8629019,
        1.3303566
      ],
      [
        103.8632276,
        1.3302218
      ],
      [
        103.8634581,
        1.3301161
      ],
      [
        103.8636472,
        1.3300275
      ],
      [
        103.8640119,
        1.3298511
      ],
      [
        103.8644249,
        1.3296581
      ],
      [
        103.8648297,
        1.3294718
      ],
      [
        103.865241,
        1.3293194
      ],
      [
        103.8656061,
        1.3292035
      ],
      [
        103.8658133,
        1.3291382
      ],
      [
        103.8659419,
        1.329097
      ],
      [
        103.8660972,
        1.3290558
      ],
      [
        103.8664297,
        1.328986
      ],
      [
        103.8668646,
        1.3288521
      ],
      [
        103.8674545,
        1.3286524
      ],
      [
        103.8680734,
        1.3283825
      ],
      [
        103.8686238,
        1.328067
      ],
      [
        103.8692745,
        1.3276376
      ],
      [
        103.8700094,
        1.3270814
      ],
      [
        103.870616,
        1.3264997
      ],
      [
        103.8708684,
        1.3262442
      ],
      [
        103.8708988,
        1.3262073
      ],
      [
        103.8710461,
        1.3260289
      ],
      [
        103.871284,
        1.3257501
      ],
      [
        103.8733426,
        1.3229749
      ],
      [
        103.8734113,
        1.3228834
      ],
      [
        103.8744395,
        1.321513
      ],
      [
        103.8746489,
        1.3212493
      ],
      [
        103.8748814,
        1.3210246
      ],
      [
        103.8750273,
        1.3208836
      ],
      [
        103.8753384,
        1.3206483
      ],
      [
        103.8755121,
        1.3205436
      ],
      [
        103.8756857,
        1.3204389
      ],
      [
        103.8757368,
        1.3204108
      ],
      [
        103.8761183,
        1.3202248
      ],
      [
        103.8763609,
        1.3201325
      ],
      [
        103.8765637,
        1.3200747
      ],
      [
        103.8767704,
        1.320033
      ],
      [
        103.8769782,
        1.3200021
      ],
      [
        103.8771115,
        1.3199902
      ],
      [
        103.8772531,
        1.3199803
      ],
      [
        103.8778017,
        1.3199589
      ],
      [
        103.8783959,
        1.3199594
      ],
      [
        103.8788626,
        1.319988
      ],
      [
        103.8793028,
        1.3200856
      ],
      [
        103.8797273,
        1.3202218
      ],
      [
        103.8798319,
        1.3202586
      ],
      [
        103.8798702,
        1.3202721
      ],
      [
        103.8801403,
        1.3203926
      ],
      [
        103.8813338,
        1.3208807
      ],
      [
        103.8820043,
        1.321157
      ],
      [
        103.8833755,
        1.3217209
      ],
      [
        103.8842055,
        1.3220629
      ],
      [
        103.8845777,
        1.3221862
      ],
      [
        103.8847943,
        1.3222371
      ],
      [
        103.8849119,
        1.3222595
      ],
      [
        103.8849847,
        1.3222735
      ],
      [
        103.8850117,
        1.3222787
      ],
      [
        103.8851034,
        1.3222918
      ],
      [
        103.8853523,
        1.3223248
      ],
      [
        103.8856183,
        1.3223416
      ],
      [
        103.8859258,
        1.3223547
      ],
      [
        103.8861802,
        1.3223405
      ],
      [
        103.8863754,
        1.3223397
      ],
      [
        103.8874493,
        1.3223682
      ],
      [
        103.887919,
        1.3224184
      ],
      [
        103.8885099,
        1.3224893
      ],
      [
        103.8891228,
        1.3225865
      ],
      [
        103.8910818,
        1.3230143
      ],
      [
        103.892464,
        1.3233454
      ],
      [
        103.8934128,
        1.3235713
      ],
      [
        103.8948489,
        1.3238851
      ],
      [
        103.8952422,
        1.323972
      ],
      [
        103.8956208,
        1.3240631
      ],
      [
        103.8966284,
        1.3242527
      ],
      [
        103.8986026,
        1.3246434
      ],
      [
        103.9009243,
        1.3250973
      ],
      [
        103.9025149,
        1.325397
      ],
      [
        103.9027081,
        1.3254932
      ],
      [
        103.9027376,
        1.3255066
      ],
      [
        103.9028445,
        1.3255393
      ],
      [
        103.9029487,
        1.3255704
      ],
      [
        103.9034682,
        1.3257525
      ],
      [
        103.9038876,
        1.3259153
      ],
      [
        103.9043187,
        1.3261303
      ],
      [
        103.9048893,
        1.3264864
      ],
      [
        103.9050365,
        1.3265794
      ],
      [
        103.9051857,
        1.326676
      ],
      [
        103.9053325,
        1.3267891
      ],
      [
        103.9054623,
        1.3269214
      ],
      [
        103.9055578,
        1.327051
      ],
      [
        103.9055726,
        1.3270703
      ],
      [
        103.9056614,
        1.327233
      ],
      [
        103.9057269,
        1.3274063
      ],
      [
        103.9056387,
        1.3278766
      ],
      [
        103.9055426,
        1.3281588
      ],
      [
        103.9054917,
        1.328274
      ],
      [
        103.9054392,
        1.3283933
      ],
      [
        103.9053891,
        1.3284798
      ],
      [
        103.9052362,
        1.3287309
      ],
      [
        103.9049597,
        1.3291437
      ],
      [
        103.9047428,
        1.3293878
      ],
      [
        103.904688,
        1.3294477
      ],
      [
        103.9046391,
        1.3295016
      ],
      [
        103.9044189,
        1.3297121
      ],
      [
        103.9042334,
        1.3298913
      ],
      [
        103.9039089,
        1.3302049
      ],
      [
        103.903789,
        1.3303207
      ],
      [
        103.9034397,
        1.3306545
      ],
      [
        103.903211,
        1.3308731
      ],
      [
        103.9029873,
        1.3310869
      ],
      [
        103.9025746,
        1.3314965
      ],
      [
        103.9023308,
        1.3317476
      ],
      [
        103.9022997,
        1.3317793
      ],
      [
        103.9022246,
        1.3318465
      ],
      [
        103.9023263,
        1.3319602
      ],
      [
        103.9023864,
        1.3320215
      ],
      [
        103.9025166,
        1.3321524
      ],
      [
        103.9029748,
        1.3326153
      ],
      [
        103.9033415,
        1.3329955
      ],
      [
        103.9034056,
        1.3330529
      ],
      [
        103.9035771,
        1.3332109
      ],
      [
        103.9038076,
        1.3333933
      ],
      [
        103.9040891,
        1.3335641
      ],
      [
        103.9044316,
        1.3337421
      ],
      [
        103.9048646,
        1.3339669
      ],
      [
        103.9051463,
        1.3341131
      ],
      [
        103.9055524,
        1.3343359
      ],
      [
        103.9056484,
        1.3343883
      ],
      [
        103.9057436,
        1.3344269
      ],
      [
        103.9062372,
        1.3346337
      ],
      [
        103.9069292,
        1.3347731
      ],
      [
        103.9073325,
        1.3348323
      ],
      [
        103.9082978,
        1.3350071
      ],
      [
        103.9089663,
        1.3351654
      ],
      [
        103.9090817,
        1.3351941
      ],
      [
        103.9091691,
        1.3352172
      ],
      [
        103.9099507,
        1.3354033
      ],
      [
        103.9105508,
        1.3355507
      ],
      [
        103.9108734,
        1.335656
      ],
      [
        103.911566,
        1.3359492
      ],
      [
        103.912401,
        1.336347
      ],
      [
        103.9127222,
        1.3365048
      ],
      [
        103.9133471,
        1.3368435
      ],
      [
        103.9134356,
        1.3368836
      ],
      [
        103.9135007,
        1.3369139
      ],
      [
        103.9145737,
        1.3374001
      ],
      [
        103.9148966,
        1.3375608
      ],
      [
        103.9150084,
        1.3376107
      ],
      [
        103.9150843,
        1.3376391
      ],
      [
        103.9151629,
        1.3376662
      ],
      [
        103.9153261,
        1.3377144
      ],
      [
        103.9156024,
        1.3377839
      ],
      [
        103.9158284,
        1.337843
      ],
      [
        103.9160385,
        1.337894
      ],
      [
        103.9160574,
        1.3378976
      ],
      [
        103.9170536,
        1.3380854
      ],
      [
        103.9173896,
        1.3381468
      ],
      [
        103.9177523,
        1.3382179
      ],
      [
        103.9177653,
        1.3382201
      ],
      [
        103.9178583,
        1.3382383
      ],
      [
        103.9179765,
        1.3382639
      ],
      [
        103.9180617,
        1.3382845
      ],
      [
        103.9183538,
        1.3383544
      ],
      [
        103.9183979,
        1.338364
      ],
      [
        103.9184425,
        1.3383707
      ],
      [
        103.9184858,
        1.3383751
      ],
      [
        103.9185752,
        1.3383777
      ],
      [
        103.9186149,
        1.3383754
      ],
      [
        103.9186563,
        1.3383717
      ],
      [
        103.9186955,
        1.3383661
      ],
      [
        103.9187365,
        1.3383574
      ],
      [
        103.9187824,
        1.3383439
      ],
      [
        103.9188266,
        1.3383286
      ],
      [
        103.9189511,
        1.3382735
      ],
      [
        103.9190376,
        1.3382289
      ],
      [
        103.919093,
        1.338197
      ],
      [
        103.9191467,
        1.3381644
      ],
      [
        103.9191913,
        1.3381348
      ],
      [
        103.9192339,
        1.3381032
      ],
      [
        103.9193354,
        1.3380228
      ],
      [
        103.9194323,
        1.3379409
      ],
      [
        103.9195913,
        1.3377989
      ],
      [
        103.9196805,
        1.3377245
      ],
      [
        103.9197428,
        1.3376784
      ],
      [
        103.9198566,
        1.337605
      ],
      [
        103.919987,
        1.3375288
      ],
      [
        103.9200646,
        1.3374846
      ],
      [
        103.9203271,
        1.3373324
      ],
      [
        103.9205495,
        1.3372185
      ],
      [
        103.9207078,
        1.3371425
      ],
      [
        103.9207751,
        1.3371122
      ],
      [
        103.9208102,
        1.3370974
      ],
      [
        103.9208485,
        1.3370812
      ],
      [
        103.9209085,
        1.3370607
      ],
      [
        103.9209476,
        1.3370511
      ],
      [
        103.9209779,
        1.3370436
      ],
      [
        103.9210494,
        1.3370303
      ],
      [
        103.921118,
        1.3370214
      ],
      [
        103.9211877,
        1.337014
      ],
      [
        103.9212666,
        1.3370085
      ],
      [
        103.9213456,
        1.3370084
      ],
      [
        103.9214386,
        1.3370144
      ],
      [
        103.9215267,
        1.3370246
      ],
      [
        103.9216127,
        1.3370427
      ],
      [
        103.9216958,
        1.3370674
      ],
      [
        103.921788,
        1.337108
      ],
      [
        103.921881,
        1.337162
      ],
      [
        103.9222449,
        1.3374094
      ],
      [
        103.9224195,
        1.3375132
      ],
      [
        103.9225187,
        1.3375647
      ],
      [
        103.9225707,
        1.3375881
      ],
      [
        103.9226238,
        1.3376097
      ],
      [
        103.9228313,
        1.3376846
      ],
      [
        103.9230411,
        1.3377571
      ],
      [
        103.9233018,
        1.3378429
      ],
      [
        103.9234398,
        1.3378854
      ],
      [
        103.9235863,
        1.3379266
      ],
      [
        103.9237496,
        1.3379673
      ],
      [
        103.9242345,
        1.338074
      ],
      [
        103.9243273,
        1.3380936
      ],
      [
        103.9246031,
        1.3381515
      ],
      [
        103.9251659,
        1.3382695
      ],
      [
        103.9255628,
        1.3383672
      ],
      [
        103.9257382,
        1.3384166
      ],
      [
        103.9259326,
        1.3384812
      ],
      [
        103.9260865,
        1.3385414
      ],
      [
        103.9262426,
        1.3386098
      ],
      [
        103.9269458,
        1.3389401
      ],
      [
        103.9271521,
        1.3390312
      ],
      [
        103.9272507,
        1.3390694
      ],
      [
        103.9273536,
        1.3391012
      ],
      [
        103.9274253,
        1.3391185
      ],
      [
        103.9274907,
        1.3391318
      ],
      [
        103.9275516,
        1.3391414
      ],
      [
        103.9276057,
        1.339148
      ],
      [
        103.9276646,
        1.3391528
      ],
      [
        103.9277165,
        1.339155
      ],
      [
        103.9277751,
        1.339155
      ],
      [
        103.9278317,
        1.339153
      ],
      [
        103.927889,
        1.3391487
      ],
      [
        103.9279462,
        1.339143
      ],
      [
        103.9281152,
        1.3391184
      ],
      [
        103.9282631,
        1.3390893
      ],
      [
        103.9283549,
        1.3390656
      ],
      [
        103.9284503,
        1.3390365
      ],
      [
        103.9295984,
        1.3386367
      ],
      [
        103.9300189,
        1.3384903
      ],
      [
        103.9306568,
        1.3382682
      ],
      [
        103.9306922,
        1.3382551
      ],
      [
        103.9308718,
        1.33819
      ],
      [
        103.9310496,
        1.3381255
      ],
      [
        103.9312357,
        1.3380664
      ],
      [
        103.9314467,
        1.3379955
      ],
      [
        103.9316481,
        1.3379377
      ],
      [
        103.9318343,
        1.3379009
      ],
      [
        103.9319838,
        1.3378838
      ],
      [
        103.9320966,
        1.3378772
      ],
      [
        103.9322149,
        1.3378755
      ],
      [
        103.9324257,
        1.3378992
      ],
      [
        103.9327278,
        1.3379598
      ],
      [
        103.9328764,
        1.337993
      ],
      [
        103.9328913,
        1.3379963
      ],
      [
        103.9329337,
        1.3380044
      ],
      [
        103.9330272,
        1.3380233
      ],
      [
        103.9330867,
        1.3380363
      ],
      [
        103.933365,
        1.3380975
      ],
      [
        103.9335434,
        1.3381484
      ],
      [
        103.9338016,
        1.3382322
      ],
      [
        103.9340182,
        1.3383167
      ],
      [
        103.9342508,
        1.3384172
      ],
      [
        103.934392,
        1.3384933
      ],
      [
        103.9344598,
        1.3385299
      ],
      [
        103.9345266,
        1.338568
      ],
      [
        103.9346142,
        1.338627
      ],
      [
        103.9347366,
        1.3387079
      ],
      [
        103.9348677,
        1.3388239
      ],
      [
        103.9350135,
        1.3389697
      ],
      [
        103.9351238,
        1.3390827
      ],
      [
        103.9352734,
        1.3392358
      ],
      [
        103.9353265,
        1.33929
      ],
      [
        103.935667,
        1.3396335
      ],
      [
        103.9357457,
        1.3397072
      ],
      [
        103.93599,
        1.3400186
      ],
      [
        103.9361412,
        1.3401883
      ],
      [
        103.9362676,
        1.3403381
      ],
      [
        103.9364513,
        1.3406194
      ],
      [
        103.9366379,
        1.3409034
      ],
      [
        103.9366982,
        1.3409979
      ],
      [
        103.9367493,
        1.3410779
      ],
      [
        103.9367723,
        1.3411141
      ],
      [
        103.9368524,
        1.3412456
      ],
      [
        103.937376,
        1.3422762
      ],
      [
        103.9377918,
        1.3430671
      ],
      [
        103.9378144,
        1.34311
      ],
      [
        103.9378675,
        1.343196
      ],
      [
        103.9378863,
        1.3432324
      ],
      [
        103.9380147,
        1.3434812
      ],
      [
        103.9381084,
        1.343681
      ],
      [
        103.9381885,
        1.3438573
      ],
      [
        103.9382347,
        1.3439994
      ],
      [
        103.9382612,
        1.344097
      ],
      [
        103.9383058,
        1.3443468
      ],
      [
        103.9383214,
        1.3446294
      ],
      [
        103.9383227,
        1.3446522
      ],
      [
        103.9383241,
        1.3446783
      ],
      [
        103.9383309,
        1.3448481
      ],
      [
        103.9384379,
        1.3448475
      ],
      [
        103.9384806,
        1.3448479
      ],
      [
        103.9386503,
        1.3448499
      ],
      [
        103.9394127,
        1.3448587
      ],
      [
        103.9395261,
        1.3448662
      ],
      [
        103.9396354,
        1.3448783
      ],
      [
        103.939837,
        1.3449101
      ],
      [
        103.9401382,
        1.3449669
      ],
      [
        103.9406584,
        1.345099
      ],
      [
        103.9407102,
        1.3451122
      ],
      [
        103.9408918,
        1.3451814
      ],
      [
        103.9412333,
        1.3453368
      ],
      [
        103.9415584,
        1.3454965
      ],
      [
        103.9419944,
        1.3457477
      ],
      [
        103.9421432,
        1.3458436
      ],
      [
        103.9421903,
        1.3458772
      ],
      [
        103.9422983,
        1.3459592
      ],
      [
        103.9424252,
        1.3460531
      ],
      [
        103.9427679,
        1.3463146
      ],
      [
        103.9428212,
        1.3463552
      ],
      [
        103.9429736,
        1.3464741
      ],
      [
        103.9430816,
        1.3463479
      ],
      [
        103.9431128,
        1.3463097
      ],
      [
        103.9433711,
        1.3459937
      ],
      [
        103.943578,
        1.3457405
      ],
      [
        103.9437794,
        1.3454942
      ],
      [
        103.9438565,
        1.3453998
      ],
      [
        103.9443515,
        1.3448148
      ],
      [
        103.944955,
        1.3440535
      ],
      [
        103.9463952,
        1.3422891
      ],
      [
        103.9465521,
        1.3420968
      ],
      [
        103.9474058,
        1.3410743
      ],
      [
        103.9475603,
        1.3408933
      ],
      [
        103.9482501,
        1.340085
      ],
      [
        103.94867,
        1.3395915
      ],
      [
        103.9488555,
        1.3393317
      ],
      [
        103.9489447,
        1.3392216
      ],
      [
        103.9491283,
        1.3389991
      ],
      [
        103.9493126,
        1.3389396
      ],
      [
        103.9493568,
        1.3389384
      ],
      [
        103.9494168,
        1.3389432
      ],
      [
        103.9495021,
        1.3389826
      ],
      [
        103.9500603,
        1.3394256
      ],
      [
        103.9501688,
        1.3395155
      ],
      [
        103.9502296,
        1.3395672
      ],
      [
        103.9504628,
        1.3397653
      ],
      [
        103.9506641,
        1.339934
      ],
      [
        103.9508463,
        1.3401019
      ],
      [
        103.9508907,
        1.3401428
      ],
      [
        103.9509274,
        1.3401766
      ],
      [
        103.950959,
        1.3402012
      ],
      [
        103.9515075,
        1.3406228
      ],
      [
        103.9517653,
        1.3408293
      ],
      [
        103.9521526,
        1.3411631
      ],
      [
        103.9521889,
        1.3411951
      ],
      [
        103.9522276,
        1.341227
      ],
      [
        103.9522683,
        1.341257
      ],
      [
        103.9523054,
        1.3412871
      ],
      [
        103.9528071,
        1.3416786
      ],
      [
        103.9530919,
        1.3418917
      ],
      [
        103.9531242,
        1.3419159
      ],
      [
        103.9531624,
        1.341945
      ],
      [
        103.9531917,
        1.3419688
      ],
      [
        103.9536546,
        1.3423691
      ],
      [
        103.9537586,
        1.342456
      ],
      [
        103.9538839,
        1.3425627
      ],
      [
        103.9542152,
        1.3428457
      ],
      [
        103.9546731,
        1.3432458
      ],
      [
        103.9547627,
        1.3433222
      ],
      [
        103.9548401,
        1.3433765
      ],
      [
        103.954881,
        1.3434116
      ],
      [
        103.9556206,
        1.3440456
      ],
      [
        103.9557941,
        1.3441873
      ],
      [
        103.9560069,
        1.3443633
      ],
      [
        103.956141,
        1.3444464
      ],
      [
        103.956158,
        1.3444548
      ],
      [
        103.9562791,
        1.3445148
      ],
      [
        103.9564601,
        1.3445617
      ],
      [
        103.9566055,
        1.344564
      ],
      [
        103.956724,
        1.3445656
      ],
      [
        103.9569812,
        1.3445474
      ],
      [
        103.9576082,
        1.3445031
      ],
      [
        103.9576758,
        1.344497
      ],
      [
        103.9577818,
        1.344494
      ],
      [
        103.9577697,
        1.344368
      ],
      [
        103.9577614,
        1.3442865
      ],
      [
        103.9577094,
        1.3437748
      ],
      [
        103.9577123,
        1.3435942
      ],
      [
        103.9577308,
        1.3434442
      ],
      [
        103.9577764,
        1.343227
      ],
      [
        103.957814,
        1.3430876
      ],
      [
        103.9578623,
        1.3429509
      ],
      [
        103.9579588,
        1.3427578
      ],
      [
        103.9580795,
        1.3425406
      ],
      [
        103.9582127,
        1.3423308
      ],
      [
        103.9582419,
        1.3422848
      ],
      [
        103.9582968,
        1.3421998
      ],
      [
        103.958794,
        1.3414258
      ],
      [
        103.959059,
        1.3410656
      ],
      [
        103.9590751,
        1.3410437
      ],
      [
        103.9592347,
        1.340865
      ],
      [
        103.9593912,
        1.3407138
      ],
      [
        103.9594652,
        1.3406463
      ],
      [
        103.9595984,
        1.3405249
      ],
      [
        103.9597271,
        1.3404297
      ],
      [
        103.9598564,
        1.3403545
      ],
      [
        103.9600034,
        1.3402742
      ],
      [
        103.9601182,
        1.3402158
      ],
      [
        103.9603279,
        1.3401137
      ],
      [
        103.9605142,
        1.3400413
      ],
      [
        103.9606536,
        1.3400498
      ],
      [
        103.9607877,
        1.3400817
      ],
      [
        103.9608088,
        1.3400942
      ],
      [
        103.9608708,
        1.3401392
      ],
      [
        103.9609187,
        1.3401775
      ],
      [
        103.9609676,
        1.3402392
      ],
      [
        103.9610219,
        1.3404542
      ],
      [
        103.9610942,
        1.3407057
      ],
      [
        103.9611688,
        1.3409493
      ],
      [
        103.9612644,
        1.341287
      ],
      [
        103.9613227,
        1.3414727
      ],
      [
        103.9614049,
        1.3417436
      ],
      [
        103.9614786,
        1.3419945
      ],
      [
        103.9616181,
        1.342422
      ],
      [
        103.9616879,
        1.3426696
      ],
      [
        103.9617023,
        1.3427133
      ],
      [
        103.9618582,
        1.3432198
      ],
      [
        103.9620721,
        1.3439214
      ],
      [
        103.9620824,
        1.343953
      ],
      [
        103.9621836,
        1.3442636
      ],
      [
        103.9622591,
        1.344523
      ],
      [
        103.9623197,
        1.3447524
      ],
      [
        103.9623312,
        1.3447935
      ],
      [
        103.9623417,
        1.344826
      ],
      [
        103.9623986,
        1.3450003
      ],
      [
        103.9625172,
        1.3453489
      ],
      [
        103.9625886,
        1.3455731
      ],
      [
        103.9626305,
        1.3457045
      ],
      [
        103.9628832,
        1.3465336
      ],
      [
        103.9630759,
        1.3471575
      ],
      [
        103.9631506,
        1.3474177
      ],
      [
        103.9631742,
        1.3475058
      ],
      [
        103.9633346,
        1.3480303
      ],
      [
        103.9633678,
        1.3481391
      ],
      [
        103.9633763,
        1.3481679
      ],
      [
        103.9634271,
        1.3483662
      ],
      [
        103.9635422,
        1.3487524
      ],
      [
        103.963582,
        1.3488861
      ],
      [
        103.9636405,
        1.3490734
      ],
      [
        103.9637854,
        1.3495506
      ],
      [
        103.9639797,
        1.3501367
      ],
      [
        103.9640405,
        1.3509672
      ],
      [
        103.9640469,
        1.3512363
      ],
      [
        103.9640598,
        1.3516089
      ],
      [
        103.96406,
        1.3517377
      ],
      [
        103.96406,
        1.3518907
      ],
      [
        103.9640581,
        1.3520383
      ],
      [
        103.9640514,
        1.3521599
      ],
      [
        103.9639839,
        1.352511
      ],
      [
        103.9639641,
        1.3526307
      ],
      [
        103.9643861,
        1.3527685
      ],
      [
        103.9646567,
        1.3528475
      ],
      [
        103.9647936,
        1.3528874
      ],
      [
        103.9649006,
        1.3529186
      ],
      [
        103.9654306,
        1.3530733
      ],
      [
        103.9656678,
        1.3531497
      ],
      [
        103.9662647,
        1.3533406
      ],
      [
        103.9664572,
        1.3533969
      ],
      [
        103.9666648,
        1.353462
      ],
      [
        103.9668424,
        1.3535233
      ],
      [
        103.9670882,
        1.3535991
      ],
      [
        103.9672646,
        1.3536514
      ],
      [
        103.9673852,
        1.3536898
      ],
      [
        103.9671735,
        1.3544451
      ],
      [
        103.9673699,
        1.3537445
      ],
      [
        103.9673852,
        1.3536898
      ],
      [
        103.966987,
        1.3547009
      ],
      [
        103.9671077,
        1.3545817
      ],
      [
        103.9667224,
        1.3548462
      ],
      [
        103.9668754,
        1.3547779
      ],
      [
        103.9666689,
        1.3548665
      ],
      [
        103.965885,
        1.3553994
      ],
      [
        103.9659803,
        1.3552432
      ],
      [
        103.9660773,
        1.3551469
      ],
      [
        103.9662243,
        1.3550419
      ],
      [
        103.9663798,
        1.3549763
      ],
      [
        103.9665727,
        1.3549031
      ],
      [
        103.9658302,
        1.3555167
      ],
      [
        103.9657997,
        1.3555821
      ],
      [
        103.9656949,
        1.3558041
      ],
      [
        103.9652071,
        1.3568495
      ],
      [
        103.9648078,
        1.3578782
      ],
      [
        103.9649321,
        1.3575125
      ],
      [
        103.9649866,
        1.3573521
      ],
      [
        103.9651191,
        1.3570408
      ],
      [
        103.9651675,
        1.3569371
      ],
      [
        103.9647638,
        1.3580527
      ],
      [
        103.9647735,
        1.3580143
      ],
      [
        103.9647571,
        1.3581114
      ],
      [
        103.9647365,
        1.3587337
      ],
      [
        103.9647332,
        1.3585664
      ],
      [
        103.9647456,
        1.3582545
      ],
      [
        103.9647638,
        1.3589357
      ],
      [
        103.9648538,
        1.3592846
      ],
      [
        103.9648698,
        1.3593463
      ],
      [
        103.9649885,
        1.3598064
      ],
      [
        103.964922,
        1.3595487
      ],
      [
        103.9654446,
        1.3598258
      ],
      [
        103.9655186,
        1.3598064
      ],
      [
        103.965683,
        1.3597633
      ],
      [
        103.9659053,
        1.3597127
      ],
      [
        103.9669803,
        1.3594572
      ],
      [
        103.9672317,
        1.3593975
      ],
      [
        103.9673478,
        1.3593699
      ],
      [
        103.9677057,
        1.3592848
      ],
      [
        103.9679082,
        1.3592619
      ],
      [
        103.9680279,
        1.3592607
      ],
      [
        103.9681157,
        1.3592627
      ],
      [
        103.9682721,
        1.3592661
      ],
      [
        103.9684053,
        1.3592604
      ],
      [
        103.9687945,
        1.3591629
      ],
      [
        103.969055,
        1.3591051
      ],
      [
        103.9693993,
        1.3590244
      ],
      [
        103.9697005,
        1.3589645
      ],
      [
        103.9697391,
        1.3589568
      ],
      [
        103.9697543,
        1.3590113
      ],
      [
        103.9698893,
        1.3594931
      ],
      [
        103.9699456,
        1.3596701
      ],
      [
        103.9700198,
        1.3598549
      ],
      [
        103.9700735,
        1.3599497
      ],
      [
        103.9700896,
        1.3599781
      ],
      [
        103.9701676,
        1.3600939
      ],
      [
        103.970309,
        1.3602733
      ],
      [
        103.9706376,
        1.3606226
      ],
      [
        103.9706684,
        1.3606568
      ],
      [
        103.9711238,
        1.3611619
      ],
      [
        103.9715869,
        1.3616369
      ],
      [
        103.971614,
        1.3617193
      ],
      [
        103.9716173,
        1.3617292
      ],
      [
        103.9716368,
        1.3618097
      ],
      [
        103.9716442,
        1.3618733
      ],
      [
        103.9715702,
        1.3619769
      ],
      [
        103.9712852,
        1.3623446
      ],
      [
        103.9708727,
        1.3628559
      ],
      [
        103.9707032,
        1.3630156
      ],
      [
        103.9706598,
        1.3630565
      ],
      [
        103.9706322,
        1.3630758
      ],
      [
        103.9704693,
        1.3631895
      ],
      [
        103.9702635,
        1.3632999
      ],
      [
        103.9699589,
        1.3634322
      ],
      [
        103.9697009,
        1.3635318
      ],
      [
        103.9694022,
        1.3636084
      ],
      [
        103.9691729,
        1.3636507
      ],
      [
        103.9690468,
        1.3636791
      ],
      [
        103.9689345,
        1.3637121
      ],
      [
        103.9687519,
        1.3637824
      ],
      [
        103.9686339,
        1.3638502
      ],
      [
        103.9686037,
        1.3638676
      ],
      [
        103.9685378,
        1.3639146
      ],
      [
        103.9685143,
        1.3639325
      ],
      [
        103.9683602,
        1.3640504
      ],
      [
        103.9680506,
        1.3642834
      ],
      [
        103.9676372,
        1.3646555
      ],
      [
        103.9674495,
        1.3648557
      ],
      [
        103.9674391,
        1.3649139
      ],
      [
        103.9672601,
        1.3650924
      ],
      [
        103.9671508,
        1.3652017
      ],
      [
        103.9670242,
        1.3653312
      ],
      [
        103.9669244,
        1.3654434
      ],
      [
        103.966613,
        1.365689
      ],
      [
        103.9665627,
        1.3657424
      ],
      [
        103.9664706,
        1.36584
      ],
      [
        103.9663994,
        1.3659155
      ],
      [
        103.966206,
        1.3661205
      ],
      [
        103.9660991,
        1.3662626
      ],
      [
        103.9658878,
        1.3665218
      ],
      [
        103.9657684,
        1.3666823
      ],
      [
        103.9654837,
        1.3671276
      ],
      [
        103.9653298,
        1.3673575
      ],
      [
        103.9650792,
        1.3677241
      ],
      [
        103.9650374,
        1.3677936
      ],
      [
        103.9649842,
        1.3678745
      ],
      [
        103.9649368,
        1.367945
      ],
      [
        103.9648547,
        1.3680712
      ],
      [
        103.964712,
        1.3683137
      ],
      [
        103.9639371,
        1.369631
      ],
      [
        103.9637884,
        1.3699452
      ],
      [
        103.9637033,
        1.3702858
      ],
      [
        103.9636873,
        1.3706446
      ],
      [
        103.963724,
        1.3711564
      ],
      [
        103.9637335,
        1.3713273
      ],
      [
        103.9637426,
        1.3715054
      ],
      [
        103.9637518,
        1.3716854
      ],
      [
        103.9638247,
        1.3729693
      ],
      [
        103.9638293,
        1.3732231
      ],
      [
        103.9638234,
        1.3734007
      ],
      [
        103.9637586,
        1.373622
      ],
      [
        103.9636642,
        1.3738735
      ],
      [
        103.9636269,
        1.3739541
      ],
      [
        103.9635714,
        1.3740476
      ],
      [
        103.9633884,
        1.3742854
      ],
      [
        103.9631495,
        1.3745138
      ],
      [
        103.9628514,
        1.3746864
      ],
      [
        103.9627164,
        1.374744
      ],
      [
        103.9626255,
        1.3747828
      ],
      [
        103.9621519,
        1.374928
      ],
      [
        103.9619112,
        1.3749679
      ],
      [
        103.9618527,
        1.3749812
      ],
      [
        103.9614998,
        1.3750387
      ],
      [
        103.9613631,
        1.375061
      ],
      [
        103.961254,
        1.3750791
      ],
      [
        103.961113,
        1.3751075
      ],
      [
        103.9599789,
        1.375318
      ],
      [
        103.9597104,
        1.3753682
      ],
      [
        103.9591506,
        1.3754419
      ],
      [
        103.9590723,
        1.375447
      ],
      [
        103.9589871,
        1.375451
      ],
      [
        103.9587111,
        1.3754649
      ],
      [
        103.9577144,
        1.375484
      ],
      [
        103.9570113,
        1.3754687
      ],
      [
        103.9565421,
        1.3754415
      ],
      [
        103.9562995,
        1.3754274
      ],
      [
        103.9562206,
        1.3754241
      ],
      [
        103.9561376,
        1.3754176
      ],
      [
        103.9560443,
        1.3754067
      ],
      [
        103.9558663,
        1.3753881
      ],
      [
        103.9554423,
        1.3753436
      ],
      [
        103.9543768,
        1.3752075
      ],
      [
        103.954349,
        1.3752045
      ],
      [
        103.9534852,
        1.3751118
      ],
      [
        103.9533817,
        1.3751007
      ],
      [
        103.9532637,
        1.3750885
      ],
      [
        103.9529224,
        1.3750339
      ],
      [
        103.9526203,
        1.3749926
      ],
      [
        103.9525978,
        1.374989
      ],
      [
        103.952494,
        1.3749767
      ],
      [
        103.9524502,
        1.3749705
      ],
      [
        103.9524276,
        1.3749673
      ],
      [
        103.9521351,
        1.374926
      ],
      [
        103.9519254,
        1.3748977
      ],
      [
        103.9516278,
        1.3748575
      ],
      [
        103.9513023,
        1.3748181
      ],
      [
        103.951244,
        1.3748161
      ],
      [
        103.9511344,
        1.3748107
      ],
      [
        103.9510234,
        1.3748153
      ],
      [
        103.9505378,
        1.3748392
      ],
      [
        103.9501639,
        1.3748793
      ],
      [
        103.9499146,
        1.3749153
      ],
      [
        103.9498585,
        1.3749238
      ],
      [
        103.9496377,
        1.3749796
      ],
      [
        103.9493175,
        1.3750796
      ],
      [
        103.9492813,
        1.3749702
      ],
      [
        103.9492647,
        1.3749088
      ],
      [
        103.9492107,
        1.374734
      ],
      [
        103.948911,
        1.373622
      ],
      [
        103.9488692,
        1.3735524
      ],
      [
        103.9488217,
        1.3735233
      ],
      [
        103.9487375,
        1.3735015
      ],
      [
        103.9485976,
        1.3735437
      ]
    ]
  }
}