{
  "type": "Feature",
  "properties": {
    "relation": 2353843,
    "direction": "1",
    "fee": "yes",
    "from": "Eunos Interchange",
    "name": "Svc 63M (Eunos Interchange ↺ Circuit Road)",
    "name:en": "Svc 63M (Eunos Interchange ↺ Circuit Road)",
    "network": "Land Transport Authority",
    "network:short": "LTA",
    "network:wikidata": "Q3299279",
    "network:wikipedia": "en:Land Transport Authority",
    "operator": "SBS Transit",
    "operator:wikidata": "Q2661305",
    "operator:wikipedia": "en:SBS Transit",
    "public_transport:version": "2",
    "ref": "63M",
    "roundtrip": "yes",
    "route": "bus",
    "to": "Eunos Interchange",
    "type": "route",
    "website": "https://www.sbstransit.com.sg/"
  },
  "geometry": {
    "type": "LineString",
    "coordinates": [
      [
        103.9003948,
        1.3195093
      ],
      [
        103.9012983,
        1.3196935
      ],
      [
        103.9020756,
        1.319848
      ],
      [
        103.9021223,
        1.3198397
      ],
      [
        103.9021587,
        1.3198131
      ],
      [
        103.9021926,
        1.3197085
      ],
      [
        103.9022135,
        1.319602
      ],
      [
        103.9021849,
        1.3195632
      ],
      [
        103.9021377,
        1.3195418
      ],
      [
        103.9013363,
        1.3194386
      ],
      [
        103.9011682,
        1.319419
      ],
      [
        103.9004412,
        1.3192715
      ],
      [
        103.9001325,
        1.3192084
      ],
      [
        103.9001431,
        1.319162
      ],
      [
        103.900165,
        1.319067
      ],
      [
        103.9003269,
        1.3183878
      ],
      [
        103.9003472,
        1.3182941
      ],
      [
        103.9004189,
        1.3183097
      ],
      [
        103.9009343,
        1.3184173
      ],
      [
        103.9015672,
        1.3185502
      ],
      [
        103.9018232,
        1.3185961
      ],
      [
        103.9025805,
        1.3187318
      ],
      [
        103.9026342,
        1.3187414
      ],
      [
        103.9026633,
        1.3187475
      ],
      [
        103.9030701,
        1.3188325
      ],
      [
        103.9031467,
        1.3188486
      ],
      [
        103.9032653,
        1.3188732
      ],
      [
        103.9035721,
        1.3189382
      ],
      [
        103.9038358,
        1.3189961
      ],
      [
        103.9038836,
        1.3190068
      ],
      [
        103.9039559,
        1.3190231
      ],
      [
        103.9040711,
        1.319051
      ],
      [
        103.9043891,
        1.319128
      ],
      [
        103.9046841,
        1.3192039
      ],
      [
        103.9047557,
        1.3192938
      ],
      [
        103.9048271,
        1.319382
      ],
      [
        103.9048728,
        1.3194306
      ],
      [
        103.9049106,
        1.319521
      ],
      [
        103.9049394,
        1.3198309
      ],
      [
        103.9049789,
        1.3202557
      ],
      [
        103.9050499,
        1.3211034
      ],
      [
        103.9050812,
        1.3213293
      ],
      [
        103.9051052,
        1.3215193
      ],
      [
        103.9051143,
        1.3216149
      ],
      [
        103.9051265,
        1.3217344
      ],
      [
        103.9051818,
        1.3222157
      ],
      [
        103.9052545,
        1.3227202
      ],
      [
        103.9053134,
        1.3231446
      ],
      [
        103.905354,
        1.3234301
      ],
      [
        103.9054173,
        1.3238569
      ],
      [
        103.9054802,
        1.3243171
      ],
      [
        103.9054897,
        1.3243824
      ],
      [
        103.9055414,
        1.3247369
      ],
      [
        103.9056419,
        1.3254965
      ],
      [
        103.9056816,
        1.3257969
      ],
      [
        103.9057124,
        1.3260302
      ],
      [
        103.9057451,
        1.3262442
      ],
      [
        103.9057624,
        1.3265443
      ],
      [
        103.9057759,
        1.3267778
      ],
      [
        103.905767,
        1.3270933
      ],
      [
        103.9057269,
        1.3274063
      ],
      [
        103.9056387,
        1.3278766
      ],
      [
        103.9055426,
        1.3281588
      ],
      [
        103.9054917,
        1.328274
      ],
      [
        103.9054392,
        1.3283933
      ],
      [
        103.9053891,
        1.3284798
      ],
      [
        103.9052362,
        1.3287309
      ],
      [
        103.9049597,
        1.3291437
      ],
      [
        103.9047428,
        1.3293878
      ],
      [
        103.904688,
        1.3294477
      ],
      [
        103.9046391,
        1.3295016
      ],
      [
        103.9044189,
        1.3297121
      ],
      [
        103.9042334,
        1.3298913
      ],
      [
        103.9039089,
        1.3302049
      ],
      [
        103.903789,
        1.3303207
      ],
      [
        103.9034397,
        1.3306545
      ],
      [
        103.903211,
        1.3308731
      ],
      [
        103.9029873,
        1.3310869
      ],
      [
        103.9025746,
        1.3314965
      ],
      [
        103.9023746,
        1.3315702
      ],
      [
        103.9022692,
        1.331564
      ],
      [
        103.9021922,
        1.3315595
      ],
      [
        103.9020372,
        1.331516
      ],
      [
        103.9016618,
        1.3312114
      ],
      [
        103.9014358,
        1.3310419
      ],
      [
        103.9006428,
        1.3305183
      ],
      [
        103.9004702,
        1.3304067
      ],
      [
        103.900183,
        1.3302637
      ],
      [
        103.9002213,
        1.3301845
      ],
      [
        103.9003796,
        1.3298017
      ],
      [
        103.9004007,
        1.3297507
      ],
      [
        103.9005179,
        1.3294943
      ],
      [
        103.9006333,
        1.329226
      ],
      [
        103.9006995,
        1.3290868
      ],
      [
        103.9007436,
        1.3290413
      ],
      [
        103.9007974,
        1.3290165
      ],
      [
        103.9008608,
        1.3290013
      ],
      [
        103.9009283,
        1.3290027
      ],
      [
        103.9013475,
        1.329074
      ],
      [
        103.901768,
        1.3291447
      ],
      [
        103.9018135,
        1.3291502
      ],
      [
        103.9018535,
        1.3291447
      ],
      [
        103.9018949,
        1.329135
      ],
      [
        103.901936,
        1.3291127
      ],
      [
        103.9021101,
        1.3289296
      ],
      [
        103.9022872,
        1.3287455
      ],
      [
        103.9023581,
        1.3286721
      ],
      [
        103.9024583,
        1.3285695
      ],
      [
        103.9026527,
        1.328369
      ],
      [
        103.903003,
        1.3279972
      ],
      [
        103.9030299,
        1.3279642
      ],
      [
        103.9030423,
        1.327947
      ],
      [
        103.903053,
        1.3279304
      ],
      [
        103.903061,
        1.3279167
      ],
      [
        103.9030685,
        1.3279024
      ],
      [
        103.9030755,
        1.3278882
      ],
      [
        103.9030818,
        1.3278743
      ],
      [
        103.9030874,
        1.3278616
      ],
      [
        103.9030922,
        1.3278492
      ],
      [
        103.9030973,
        1.3278367
      ],
      [
        103.903102,
        1.3278236
      ],
      [
        103.9031068,
        1.3278081
      ],
      [
        103.9031112,
        1.3277907
      ],
      [
        103.9031139,
        1.3277771
      ],
      [
        103.9031146,
        1.3277738
      ],
      [
        103.9031183,
        1.3277408
      ],
      [
        103.9031167,
        1.3277564
      ],
      [
        103.9031146,
        1.3277738
      ],
      [
        103.9031196,
        1.3277013
      ],
      [
        103.9031187,
        1.3276784
      ],
      [
        103.9031165,
        1.3276553
      ],
      [
        103.9031118,
        1.32763
      ],
      [
        103.9031061,
        1.3276067
      ],
      [
        103.9031022,
        1.3275935
      ],
      [
        103.9030977,
        1.3275804
      ],
      [
        103.9030884,
        1.3275593
      ],
      [
        103.9030782,
        1.3275385
      ],
      [
        103.9030677,
        1.3275191
      ],
      [
        103.9030588,
        1.327504
      ],
      [
        103.9030499,
        1.3274901
      ],
      [
        103.9030408,
        1.3274775
      ],
      [
        103.9030318,
        1.327466
      ],
      [
        103.9030228,
        1.3274551
      ],
      [
        103.9030128,
        1.3274439
      ],
      [
        103.9030016,
        1.3274321
      ],
      [
        103.9029881,
        1.3274191
      ],
      [
        103.9029753,
        1.3274082
      ],
      [
        103.9029615,
        1.3273977
      ],
      [
        103.9029466,
        1.3273874
      ],
      [
        103.9029324,
        1.3273778
      ],
      [
        103.9029169,
        1.3273692
      ],
      [
        103.9029005,
        1.3273608
      ],
      [
        103.902883,
        1.327352
      ],
      [
        103.9028648,
        1.3273449
      ],
      [
        103.9026678,
        1.3272759
      ],
      [
        103.9023961,
        1.3272009
      ],
      [
        103.9021839,
        1.3271482
      ],
      [
        103.9017648,
        1.3270442
      ],
      [
        103.9016446,
        1.3270144
      ],
      [
        103.9014323,
        1.3269675
      ],
      [
        103.9012389,
        1.3269221
      ],
      [
        103.9009638,
        1.3268656
      ],
      [
        103.9004761,
        1.3267616
      ],
      [
        103.8991205,
        1.3264995
      ],
      [
        103.8988921,
        1.326444
      ],
      [
        103.898878,
        1.3264406
      ],
      [
        103.8988063,
        1.3264232
      ],
      [
        103.8987565,
        1.3264075
      ],
      [
        103.8985263,
        1.3263551
      ],
      [
        103.8980786,
        1.3262462
      ],
      [
        103.8976934,
        1.3261533
      ],
      [
        103.8974882,
        1.3261038
      ],
      [
        103.8958862,
        1.3256907
      ],
      [
        103.8957397,
        1.3256494
      ],
      [
        103.8955825,
        1.3256103
      ],
      [
        103.8948407,
        1.3254219
      ],
      [
        103.8947864,
        1.3254071
      ],
      [
        103.8944908,
        1.3253293
      ],
      [
        103.8944235,
        1.3253116
      ],
      [
        103.8941951,
        1.3252466
      ],
      [
        103.8941302,
        1.3252263
      ],
      [
        103.8940625,
        1.3252111
      ],
      [
        103.89384,
        1.3251491
      ],
      [
        103.8936989,
        1.3251098
      ],
      [
        103.8936493,
        1.325096
      ],
      [
        103.8936085,
        1.3252411
      ],
      [
        103.8936493,
        1.325096
      ],
      [
        103.893494,
        1.3255542
      ],
      [
        103.8933584,
        1.3259527
      ],
      [
        103.8933358,
        1.3260194
      ],
      [
        103.8931508,
        1.3266023
      ],
      [
        103.8931352,
        1.3266516
      ],
      [
        103.8930722,
        1.32685
      ],
      [
        103.8930168,
        1.3270036
      ],
      [
        103.8929137,
        1.3273098
      ],
      [
        103.8929828,
        1.3271045
      ],
      [
        103.8927902,
        1.3273473
      ],
      [
        103.8915494,
        1.3269294
      ],
      [
        103.8914054,
        1.3268818
      ],
      [
        103.8913001,
        1.3268494
      ],
      [
        103.8911391,
        1.3267955
      ],
      [
        103.8906839,
        1.3266275
      ],
      [
        103.8904583,
        1.3265512
      ],
      [
        103.8904187,
        1.3265397
      ],
      [
        103.890211,
        1.3264664
      ],
      [
        103.8901145,
        1.3264369
      ],
      [
        103.8899115,
        1.3263626
      ],
      [
        103.8894419,
        1.3261245
      ],
      [
        103.8891244,
        1.3259757
      ],
      [
        103.8889315,
        1.3259064
      ],
      [
        103.8886534,
        1.3258327
      ],
      [
        103.888516,
        1.3258009
      ],
      [
        103.8885503,
        1.3256757
      ],
      [
        103.8886302,
        1.3253173
      ],
      [
        103.8886838,
        1.325096
      ],
      [
        103.8886959,
        1.3250157
      ],
      [
        103.8887722,
        1.3246961
      ],
      [
        103.888845,
        1.3243699
      ],
      [
        103.8889558,
        1.3239152
      ],
      [
        103.8889691,
        1.3238677
      ],
      [
        103.8889743,
        1.323752
      ],
      [
        103.8889641,
        1.3236366
      ],
      [
        103.8889448,
        1.3235847
      ],
      [
        103.8889268,
        1.3235591
      ],
      [
        103.8888798,
        1.3234997
      ],
      [
        103.8886466,
        1.3234946
      ],
      [
        103.888438,
        1.3235074
      ],
      [
        103.8879888,
        1.3235605
      ],
      [
        103.8878325,
        1.3235832
      ],
      [
        103.8873766,
        1.3236464
      ],
      [
        103.8867975,
        1.323727
      ],
      [
        103.88637,
        1.3237832
      ],
      [
        103.8862793,
        1.3237962
      ],
      [
        103.8862563,
        1.3237995
      ],
      [
        103.886195,
        1.3238083
      ],
      [
        103.8861349,
        1.3238173
      ],
      [
        103.8860783,
        1.3238259
      ],
      [
        103.8860159,
        1.3238343
      ],
      [
        103.8859281,
        1.3238463
      ],
      [
        103.8858371,
        1.3238586
      ],
      [
        103.8856953,
        1.3238779
      ],
      [
        103.8856057,
        1.3238891
      ],
      [
        103.8855356,
        1.3238978
      ],
      [
        103.885297,
        1.3239276
      ],
      [
        103.8850524,
        1.3239615
      ],
      [
        103.885062,
        1.3240471
      ],
      [
        103.8850525,
        1.3241903
      ],
      [
        103.8850525,
        1.3243273
      ],
      [
        103.8850407,
        1.3245996
      ],
      [
        103.8850647,
        1.3247737
      ],
      [
        103.885083,
        1.3248878
      ],
      [
        103.885087,
        1.3249259
      ],
      [
        103.8851924,
        1.3256738
      ],
      [
        103.8851961,
        1.3257036
      ],
      [
        103.8852105,
        1.3257964
      ],
      [
        103.8852144,
        1.3258479
      ],
      [
        103.8852458,
        1.3261734
      ],
      [
        103.8853134,
        1.3265958
      ],
      [
        103.8853205,
        1.3266328
      ],
      [
        103.8853457,
        1.3268192
      ],
      [
        103.885387,
        1.3270023
      ],
      [
        103.8853891,
        1.3270181
      ],
      [
        103.8853919,
        1.3270352
      ],
      [
        103.8854254,
        1.327236
      ],
      [
        103.885428,
        1.3273089
      ],
      [
        103.8854428,
        1.3277309
      ],
      [
        103.8854562,
        1.3278587
      ],
      [
        103.8854954,
        1.3281432
      ],
      [
        103.885535,
        1.3283584
      ],
      [
        103.8855659,
        1.32846
      ],
      [
        103.8856017,
        1.3285348
      ],
      [
        103.8856606,
        1.3286273
      ],
      [
        103.8857218,
        1.3287102
      ],
      [
        103.8857999,
        1.3287738
      ],
      [
        103.8859149,
        1.3288609
      ],
      [
        103.8860335,
        1.3289224
      ],
      [
        103.8861653,
        1.3289648
      ],
      [
        103.886265,
        1.3289772
      ],
      [
        103.8863717,
        1.3289817
      ],
      [
        103.8864607,
        1.3289744
      ],
      [
        103.8866167,
        1.3289423
      ],
      [
        103.8867622,
        1.32887
      ],
      [
        103.8868723,
        1.3287928
      ],
      [
        103.8869563,
        1.3287063
      ],
      [
        103.8870222,
        1.3286268
      ],
      [
        103.8870534,
        1.3285764
      ],
      [
        103.8871117,
        1.3284932
      ],
      [
        103.8871862,
        1.3283698
      ],
      [
        103.8872191,
        1.3283153
      ],
      [
        103.8874155,
        1.3279811
      ],
      [
        103.8874882,
        1.3278845
      ],
      [
        103.8878807,
        1.3272615
      ],
      [
        103.8880898,
        1.3269051
      ],
      [
        103.8881384,
        1.3268179
      ],
      [
        103.888182,
        1.3267396
      ],
      [
        103.8882676,
        1.3265711
      ],
      [
        103.8883999,
        1.326177
      ],
      [
        103.8884302,
        1.3260611
      ],
      [
        103.8884468,
        1.3259974
      ],
      [
        103.8884979,
        1.325878
      ],
      [
        103.8886363,
        1.3259133
      ],
      [
        103.8888006,
        1.3259501
      ],
      [
        103.8890717,
        1.326035
      ],
      [
        103.8892912,
        1.326133
      ],
      [
        103.8895468,
        1.3262741
      ],
      [
        103.8898181,
        1.3264022
      ],
      [
        103.8898378,
        1.3264166
      ],
      [
        103.890073,
        1.3265083
      ],
      [
        103.8901015,
        1.32652
      ],
      [
        103.8901917,
        1.326557
      ],
      [
        103.8903998,
        1.3266416
      ],
      [
        103.8904411,
        1.3266565
      ],
      [
        103.890708,
        1.3267528
      ],
      [
        103.8910348,
        1.3268707
      ],
      [
        103.8913471,
        1.3269816
      ],
      [
        103.8915643,
        1.3270594
      ],
      [
        103.8923004,
        1.3273172
      ],
      [
        103.8927439,
        1.3274788
      ],
      [
        103.8928478,
        1.3275167
      ],
      [
        103.8928898,
        1.3273808
      ],
      [
        103.8929137,
        1.3273098
      ],
      [
        103.8929828,
        1.3271045
      ],
      [
        103.8930168,
        1.3270036
      ],
      [
        103.8930722,
        1.32685
      ],
      [
        103.8931352,
        1.3266516
      ],
      [
        103.8931508,
        1.3266023
      ],
      [
        103.8933358,
        1.3260194
      ],
      [
        103.8933584,
        1.3259527
      ],
      [
        103.893494,
        1.3255542
      ],
      [
        103.8936085,
        1.3252411
      ],
      [
        103.8936493,
        1.325096
      ],
      [
        103.8936493,
        1.325096
      ],
      [
        103.89384,
        1.3251491
      ],
      [
        103.8936989,
        1.3251098
      ],
      [
        103.8940625,
        1.3252111
      ],
      [
        103.8941951,
        1.3252466
      ],
      [
        103.8941302,
        1.3252263
      ],
      [
        103.8944235,
        1.3253116
      ],
      [
        103.8944908,
        1.3253293
      ],
      [
        103.8947864,
        1.3254071
      ],
      [
        103.8948407,
        1.3254219
      ],
      [
        103.8955825,
        1.3256103
      ],
      [
        103.8957397,
        1.3256494
      ],
      [
        103.8958862,
        1.3256907
      ],
      [
        103.8974882,
        1.3261038
      ],
      [
        103.8976934,
        1.3261533
      ],
      [
        103.8980786,
        1.3262462
      ],
      [
        103.8987565,
        1.3264075
      ],
      [
        103.8985263,
        1.3263551
      ],
      [
        103.8988921,
        1.326444
      ],
      [
        103.898878,
        1.3264406
      ],
      [
        103.8988063,
        1.3264232
      ],
      [
        103.8991205,
        1.3264995
      ],
      [
        103.9004761,
        1.3267616
      ],
      [
        103.9009638,
        1.3268656
      ],
      [
        103.9014323,
        1.3269675
      ],
      [
        103.9012389,
        1.3269221
      ],
      [
        103.9017648,
        1.3270442
      ],
      [
        103.9016446,
        1.3270144
      ],
      [
        103.9021839,
        1.3271482
      ],
      [
        103.9031196,
        1.3277013
      ],
      [
        103.9031187,
        1.3276784
      ],
      [
        103.9031165,
        1.3276553
      ],
      [
        103.9031118,
        1.32763
      ],
      [
        103.9031061,
        1.3276067
      ],
      [
        103.9031022,
        1.3275935
      ],
      [
        103.9030977,
        1.3275804
      ],
      [
        103.9030884,
        1.3275593
      ],
      [
        103.9030782,
        1.3275385
      ],
      [
        103.9030677,
        1.3275191
      ],
      [
        103.9030588,
        1.327504
      ],
      [
        103.9030499,
        1.3274901
      ],
      [
        103.9030408,
        1.3274775
      ],
      [
        103.9030318,
        1.327466
      ],
      [
        103.9030228,
        1.3274551
      ],
      [
        103.9030128,
        1.3274439
      ],
      [
        103.9030016,
        1.3274321
      ],
      [
        103.9029881,
        1.3274191
      ],
      [
        103.9029753,
        1.3274082
      ],
      [
        103.9029615,
        1.3273977
      ],
      [
        103.9029466,
        1.3273874
      ],
      [
        103.9029324,
        1.3273778
      ],
      [
        103.9029169,
        1.3273692
      ],
      [
        103.9029005,
        1.3273608
      ],
      [
        103.902883,
        1.327352
      ],
      [
        103.9028648,
        1.3273449
      ],
      [
        103.9026678,
        1.3272759
      ],
      [
        103.9023961,
        1.3272009
      ],
      [
        103.9031183,
        1.3277408
      ],
      [
        103.9031167,
        1.3277564
      ],
      [
        103.9031146,
        1.3277738
      ],
      [
        103.903003,
        1.3279972
      ],
      [
        103.9030299,
        1.3279642
      ],
      [
        103.9030423,
        1.327947
      ],
      [
        103.903053,
        1.3279304
      ],
      [
        103.903061,
        1.3279167
      ],
      [
        103.9030685,
        1.3279024
      ],
      [
        103.9030755,
        1.3278882
      ],
      [
        103.9030818,
        1.3278743
      ],
      [
        103.9030874,
        1.3278616
      ],
      [
        103.9030922,
        1.3278492
      ],
      [
        103.9030973,
        1.3278367
      ],
      [
        103.903102,
        1.3278236
      ],
      [
        103.9031068,
        1.3278081
      ],
      [
        103.9031112,
        1.3277907
      ],
      [
        103.9031139,
        1.3277771
      ],
      [
        103.9031146,
        1.3277738
      ],
      [
        103.9026527,
        1.328369
      ],
      [
        103.9023581,
        1.3286721
      ],
      [
        103.9024583,
        1.3285695
      ],
      [
        103.9022872,
        1.3287455
      ],
      [
        103.9013475,
        1.329074
      ],
      [
        103.901768,
        1.3291447
      ],
      [
        103.9018135,
        1.3291502
      ],
      [
        103.9018535,
        1.3291447
      ],
      [
        103.9018949,
        1.329135
      ],
      [
        103.901936,
        1.3291127
      ],
      [
        103.9021101,
        1.3289296
      ],
      [
        103.9007436,
        1.3290413
      ],
      [
        103.9007974,
        1.3290165
      ],
      [
        103.9008608,
        1.3290013
      ],
      [
        103.9009283,
        1.3290027
      ],
      [
        103.9006995,
        1.3290868
      ],
      [
        103.9006333,
        1.329226
      ],
      [
        103.9005179,
        1.3294943
      ],
      [
        103.9002213,
        1.3301845
      ],
      [
        103.9003796,
        1.3298017
      ],
      [
        103.9004007,
        1.3297507
      ],
      [
        103.900183,
        1.3302637
      ],
      [
        103.9005341,
        1.3305581
      ],
      [
        103.9011098,
        1.3309472
      ],
      [
        103.9014308,
        1.3311642
      ],
      [
        103.9019037,
        1.331523
      ],
      [
        103.9019507,
        1.3315704
      ],
      [
        103.902145,
        1.3317666
      ],
      [
        103.9022246,
        1.3318465
      ],
      [
        103.9023263,
        1.3319602
      ],
      [
        103.9024014,
        1.331893
      ],
      [
        103.9024321,
        1.3318617
      ],
      [
        103.9026287,
        1.3316585
      ],
      [
        103.9031951,
        1.3310741
      ],
      [
        103.9035885,
        1.3307107
      ],
      [
        103.9036879,
        1.3306196
      ],
      [
        103.9039049,
        1.3304206
      ],
      [
        103.9042177,
        1.3301132
      ],
      [
        103.9043679,
        1.3299758
      ],
      [
        103.9045229,
        1.3298309
      ],
      [
        103.9047559,
        1.3296132
      ],
      [
        103.9048186,
        1.3295581
      ],
      [
        103.9048762,
        1.3294999
      ],
      [
        103.9050245,
        1.3293395
      ],
      [
        103.9052851,
        1.3290077
      ],
      [
        103.9054392,
        1.3287624
      ],
      [
        103.9055834,
        1.328444
      ],
      [
        103.9057215,
        1.3280706
      ],
      [
        103.9057949,
        1.3278657
      ],
      [
        103.9058693,
        1.3275955
      ],
      [
        103.9058888,
        1.327504
      ],
      [
        103.9059068,
        1.327363
      ],
      [
        103.9059286,
        1.3271445
      ],
      [
        103.905937,
        1.3270305
      ],
      [
        103.9059482,
        1.3267762
      ],
      [
        103.9059444,
        1.32658
      ],
      [
        103.9059389,
        1.3263512
      ],
      [
        103.905926,
        1.326112
      ],
      [
        103.9058883,
        1.3258047
      ],
      [
        103.9058484,
        1.3254844
      ],
      [
        103.9057993,
        1.32508
      ],
      [
        103.9057423,
        1.3247216
      ],
      [
        103.9056954,
        1.3243606
      ],
      [
        103.9056314,
        1.3239636
      ],
      [
        103.9056036,
        1.3237708
      ],
      [
        103.9055538,
        1.323413
      ],
      [
        103.9055108,
        1.3231165
      ],
      [
        103.9055047,
        1.3230773
      ],
      [
        103.9054926,
        1.3229988
      ],
      [
        103.9054541,
        1.3227498
      ],
      [
        103.9054213,
        1.3225084
      ],
      [
        103.9053947,
        1.3223124
      ],
      [
        103.9053799,
        1.3222061
      ],
      [
        103.9053323,
        1.321816
      ],
      [
        103.9053093,
        1.3216228
      ],
      [
        103.9052938,
        1.3214984
      ],
      [
        103.9052236,
        1.3208761
      ],
      [
        103.905168,
        1.3203728
      ],
      [
        103.9051551,
        1.3202563
      ],
      [
        103.9051503,
        1.3202083
      ],
      [
        103.9051371,
        1.320099
      ],
      [
        103.9050978,
        1.3197569
      ],
      [
        103.9050669,
        1.3193774
      ],
      [
        103.905065,
        1.3192761
      ],
      [
        103.9050664,
        1.3191856
      ],
      [
        103.9050718,
        1.3190797
      ],
      [
        103.9050821,
        1.318734
      ],
      [
        103.9050972,
        1.3185273
      ],
      [
        103.9050998,
        1.318441
      ],
      [
        103.9051403,
        1.3180151
      ],
      [
        103.9051685,
        1.3177778
      ],
      [
        103.9051701,
        1.3177647
      ],
      [
        103.9051735,
        1.3177319
      ],
      [
        103.9051829,
        1.3176431
      ],
      [
        103.9050407,
        1.3176134
      ],
      [
        103.904962,
        1.3175957
      ],
      [
        103.904717,
        1.3175457
      ],
      [
        103.9044064,
        1.3174807
      ],
      [
        103.9042826,
        1.3174548
      ],
      [
        103.9042498,
        1.3174486
      ],
      [
        103.9041315,
        1.3174232
      ],
      [
        103.9040381,
        1.3174037
      ],
      [
        103.9037911,
        1.3173521
      ],
      [
        103.9036274,
        1.3173119
      ],
      [
        103.9032769,
        1.3172365
      ],
      [
        103.9032062,
        1.3172213
      ],
      [
        103.9028281,
        1.3171524
      ],
      [
        103.9025597,
        1.3170971
      ],
      [
        103.9024471,
        1.3170786
      ],
      [
        103.9023701,
        1.3170659
      ],
      [
        103.9022736,
        1.3170475
      ],
      [
        103.90213,
        1.3170224
      ],
      [
        103.9019665,
        1.3169939
      ],
      [
        103.9019162,
        1.3169855
      ],
      [
        103.9013243,
        1.3168755
      ],
      [
        103.9009374,
        1.3168027
      ],
      [
        103.9007228,
        1.3167649
      ],
      [
        103.900643,
        1.3167499
      ],
      [
        103.9001882,
        1.3166598
      ],
      [
        103.8999264,
        1.3166079
      ],
      [
        103.8998629,
        1.3165953
      ],
      [
        103.8995744,
        1.3165358
      ],
      [
        103.8994174,
        1.3165088
      ],
      [
        103.8993117,
        1.3165806
      ],
      [
        103.8992782,
        1.3166114
      ],
      [
        103.899242,
        1.3166864
      ],
      [
        103.8992034,
        1.3168784
      ],
      [
        103.8991485,
        1.317151
      ],
      [
        103.899122,
        1.3172858
      ],
      [
        103.8991114,
        1.3173406
      ],
      [
        103.8990954,
        1.3174228
      ],
      [
        103.8989964,
        1.3179226
      ],
      [
        103.8989778,
        1.3180164
      ],
      [
        103.8991872,
        1.3180606
      ],
      [
        103.8997118,
        1.3181712
      ],
      [
        103.899828,
        1.3181937
      ],
      [
        103.8998752,
        1.3182028
      ],
      [
        103.9003472,
        1.3182941
      ],
      [
        103.9003269,
        1.3183878
      ],
      [
        103.9003472,
        1.3182941
      ],
      [
        103.9001431,
        1.319162
      ],
      [
        103.900165,
        1.319067
      ],
      [
        103.9001325,
        1.3192084
      ],
      [
        103.9001714,
        1.3194638
      ],
      [
        103.9003948,
        1.3195093
      ]
    ]
  }
}