{
  "type": "Feature",
  "properties": {
    "relation": 2689298,
    "direction": "2",
    "fee": "yes",
    "from": "Blk 662B",
    "name": "Svc 646 (Hub Synergy Point → Blk 662B)",
    "name:en": "Svc 646 (Hub Synergy Point → Blk 662B)",
    "network": "Land Transport Authority",
    "network:short": "LTA",
    "network:wikidata": "Q3299279",
    "network:wikipedia": "en:Land Transport Authority",
    "operator": "Go-Ahead Singapore",
    "operator:wikidata": "Q24698874",
    "operator:wikipedia": "en:Go-Ahead Singapore",
    "public_transport:version": "2",
    "ref": "646",
    "route": "bus",
    "to": "Opposite Darul Ghufran Mosque",
    "type": "route",
    "website": "https://go-aheadsingapore.com/bus-services/"
  },
  "geometry": {
    "type": "LineString",
    "coordinates": [
      [
        103.8444977,
        1.2733936
      ],
      [
        103.8445737,
        1.273488
      ],
      [
        103.8447389,
        1.2736864
      ],
      [
        103.8450042,
        1.2740074
      ],
      [
        103.8451084,
        1.2741343
      ],
      [
        103.8451722,
        1.2742177
      ],
      [
        103.8453993,
        1.2745021
      ],
      [
        103.8455683,
        1.2746965
      ],
      [
        103.8455766,
        1.2747026
      ],
      [
        103.8456729,
        1.2748147
      ],
      [
        103.8457074,
        1.2748549
      ],
      [
        103.8457569,
        1.274913
      ],
      [
        103.8458088,
        1.2749743
      ],
      [
        103.845941,
        1.275142
      ],
      [
        103.8461507,
        1.2753973
      ],
      [
        103.8464492,
        1.275764
      ],
      [
        103.8464915,
        1.2758152
      ],
      [
        103.8466158,
        1.2759542
      ],
      [
        103.8467313,
        1.276088
      ],
      [
        103.8468201,
        1.2761893
      ],
      [
        103.8470551,
        1.2764618
      ],
      [
        103.8472225,
        1.2766075
      ],
      [
        103.8472472,
        1.276629
      ],
      [
        103.8473591,
        1.2767092
      ],
      [
        103.8473692,
        1.2767176
      ],
      [
        103.8474051,
        1.276748
      ],
      [
        103.847606,
        1.2769185
      ],
      [
        103.8478131,
        1.2771797
      ],
      [
        103.848052,
        1.2775832
      ],
      [
        103.8486161,
        1.2785002
      ],
      [
        103.8487939,
        1.2787901
      ],
      [
        103.8488095,
        1.2788159
      ],
      [
        103.8493545,
        1.2796985
      ],
      [
        103.8497724,
        1.2803753
      ],
      [
        103.8497996,
        1.2804169
      ],
      [
        103.8498296,
        1.2804625
      ],
      [
        103.8502824,
        1.2811508
      ],
      [
        103.8503193,
        1.281207
      ],
      [
        103.850353,
        1.2812427
      ],
      [
        103.8504915,
        1.281394
      ],
      [
        103.8505867,
        1.2815174
      ],
      [
        103.8508374,
        1.2818628
      ],
      [
        103.8509877,
        1.2821088
      ],
      [
        103.8510427,
        1.2822089
      ],
      [
        103.8511701,
        1.282406
      ],
      [
        103.8512053,
        1.282457
      ],
      [
        103.851221,
        1.2824797
      ],
      [
        103.851264,
        1.2825266
      ],
      [
        103.8513125,
        1.2825625
      ],
      [
        103.8517376,
        1.2823291
      ],
      [
        103.8518207,
        1.2822829
      ],
      [
        103.851904,
        1.2822371
      ],
      [
        103.85198,
        1.282188
      ],
      [
        103.8520704,
        1.2821298
      ],
      [
        103.8526833,
        1.2817345
      ],
      [
        103.8527331,
        1.2817024
      ],
      [
        103.8527756,
        1.281675
      ],
      [
        103.8528428,
        1.2816317
      ],
      [
        103.8532418,
        1.2813744
      ],
      [
        103.8533519,
        1.2813005
      ],
      [
        103.8533614,
        1.2812941
      ],
      [
        103.853373,
        1.2812864
      ],
      [
        103.8534449,
        1.2812433
      ],
      [
        103.853587,
        1.2811517
      ],
      [
        103.8537029,
        1.281077
      ],
      [
        103.8540735,
        1.280838
      ],
      [
        103.854166,
        1.2807783
      ],
      [
        103.8543972,
        1.2806292
      ],
      [
        103.8550657,
        1.2801981
      ],
      [
        103.8555371,
        1.2798941
      ],
      [
        103.8555963,
        1.2798559
      ],
      [
        103.8558831,
        1.279671
      ],
      [
        103.8570136,
        1.2789419
      ],
      [
        103.8570906,
        1.2788922
      ],
      [
        103.8572079,
        1.2788165
      ],
      [
        103.8572706,
        1.2787828
      ],
      [
        103.8576518,
        1.2785359
      ],
      [
        103.858285,
        1.2781256
      ],
      [
        103.8583813,
        1.2780633
      ],
      [
        103.8584744,
        1.2782104
      ],
      [
        103.8588566,
        1.2787923
      ],
      [
        103.8594446,
        1.2796877
      ],
      [
        103.8597788,
        1.2802299
      ],
      [
        103.8601729,
        1.2809083
      ],
      [
        103.8605211,
        1.2815796
      ],
      [
        103.8605368,
        1.2816189
      ],
      [
        103.8606237,
        1.281789
      ],
      [
        103.8606341,
        1.2818145
      ],
      [
        103.8607372,
        1.2820672
      ],
      [
        103.8608206,
        1.2822815
      ],
      [
        103.8609166,
        1.282575
      ],
      [
        103.8610688,
        1.2830525
      ],
      [
        103.8611895,
        1.2834546
      ],
      [
        103.8612694,
        1.2838251
      ],
      [
        103.8613385,
        1.2843618
      ],
      [
        103.8614244,
        1.2851322
      ],
      [
        103.8614523,
        1.2862579
      ],
      [
        103.8614708,
        1.2875907
      ],
      [
        103.8614741,
        1.28783
      ],
      [
        103.8614765,
        1.2880023
      ],
      [
        103.8614885,
        1.2884018
      ],
      [
        103.8615167,
        1.289266
      ],
      [
        103.8615414,
        1.2897153
      ],
      [
        103.8616221,
        1.2906233
      ],
      [
        103.8616495,
        1.2912127
      ],
      [
        103.8616768,
        1.291501
      ],
      [
        103.8617191,
        1.2917465
      ],
      [
        103.8617718,
        1.2919664
      ],
      [
        103.8618401,
        1.2921569
      ],
      [
        103.8618912,
        1.2923218
      ],
      [
        103.8619746,
        1.2925115
      ],
      [
        103.8620897,
        1.292718
      ],
      [
        103.862208,
        1.2928636
      ],
      [
        103.8623505,
        1.2930275
      ],
      [
        103.8624549,
        1.2931331
      ],
      [
        103.862559,
        1.2932335
      ],
      [
        103.8626746,
        1.29333
      ],
      [
        103.8629035,
        1.2934901
      ],
      [
        103.863154,
        1.2936243
      ],
      [
        103.8634011,
        1.2937288
      ],
      [
        103.863677,
        1.2938241
      ],
      [
        103.8640869,
        1.29391
      ],
      [
        103.865951,
        1.29429
      ],
      [
        103.8703345,
        1.2951941
      ],
      [
        103.870672,
        1.2952552
      ],
      [
        103.8712598,
        1.2953497
      ],
      [
        103.8717608,
        1.2953888
      ],
      [
        103.872149,
        1.2954026
      ],
      [
        103.8734579,
        1.2954258
      ],
      [
        103.8740035,
        1.2954445
      ],
      [
        103.8743846,
        1.2954434
      ],
      [
        103.8753851,
        1.2954797
      ],
      [
        103.8758719,
        1.2955012
      ],
      [
        103.8761562,
        1.2955186
      ],
      [
        103.8763994,
        1.2955205
      ],
      [
        103.8772157,
        1.2955615
      ],
      [
        103.8779815,
        1.2955711
      ],
      [
        103.879289,
        1.2956074
      ],
      [
        103.8796015,
        1.2956245
      ],
      [
        103.8798657,
        1.2956724
      ],
      [
        103.8809966,
        1.2957184
      ],
      [
        103.8820682,
        1.2957577
      ],
      [
        103.8837396,
        1.2958232
      ],
      [
        103.8845899,
        1.2958545
      ],
      [
        103.8852695,
        1.2958768
      ],
      [
        103.8859722,
        1.2959009
      ],
      [
        103.886609,
        1.2958784
      ],
      [
        103.8895663,
        1.2957608
      ],
      [
        103.8897243,
        1.2957577
      ],
      [
        103.8913109,
        1.2956639
      ],
      [
        103.8920564,
        1.2956528
      ],
      [
        103.8926966,
        1.2956823
      ],
      [
        103.89302,
        1.2957196
      ],
      [
        103.8933709,
        1.2957774
      ],
      [
        103.8937479,
        1.2958484
      ],
      [
        103.8940818,
        1.2959294
      ],
      [
        103.8943498,
        1.2960163
      ],
      [
        103.8945798,
        1.2960901
      ],
      [
        103.8950713,
        1.2962635
      ],
      [
        103.8960845,
        1.2966495
      ],
      [
        103.8963935,
        1.2967816
      ],
      [
        103.897131,
        1.2970575
      ],
      [
        103.8973995,
        1.2971559
      ],
      [
        103.8983814,
        1.2975188
      ],
      [
        103.9005553,
        1.298351
      ],
      [
        103.9041857,
        1.2996955
      ],
      [
        103.9049129,
        1.2999519
      ],
      [
        103.9053387,
        1.3000884
      ],
      [
        103.9068601,
        1.3005393
      ],
      [
        103.9082354,
        1.3009381
      ],
      [
        103.9084968,
        1.3010134
      ],
      [
        103.9098595,
        1.3013922
      ],
      [
        103.9102098,
        1.3014896
      ],
      [
        103.9104297,
        1.3015507
      ],
      [
        103.9134575,
        1.302435
      ],
      [
        103.9142554,
        1.3026418
      ],
      [
        103.9169984,
        1.3034165
      ],
      [
        103.9185578,
        1.3038569
      ],
      [
        103.9187861,
        1.3039234
      ],
      [
        103.9190606,
        1.3040033
      ],
      [
        103.9193219,
        1.3040766
      ],
      [
        103.9195667,
        1.3041457
      ],
      [
        103.9198172,
        1.3042107
      ],
      [
        103.9208423,
        1.3045125
      ],
      [
        103.9216572,
        1.3047524
      ],
      [
        103.9219874,
        1.3048467
      ],
      [
        103.9228427,
        1.3050715
      ],
      [
        103.9249792,
        1.305661
      ],
      [
        103.9258586,
        1.3059092
      ],
      [
        103.9261571,
        1.3060118
      ],
      [
        103.9263761,
        1.3060971
      ],
      [
        103.9269187,
        1.3063487
      ],
      [
        103.9276853,
        1.306773
      ],
      [
        103.9281616,
        1.3070317
      ],
      [
        103.9286305,
        1.3072767
      ],
      [
        103.9287892,
        1.3073561
      ],
      [
        103.9289097,
        1.3074089
      ],
      [
        103.9289924,
        1.3074473
      ],
      [
        103.9290897,
        1.3074894
      ],
      [
        103.9294745,
        1.3076404
      ],
      [
        103.9298996,
        1.3077664
      ],
      [
        103.9302797,
        1.3078764
      ],
      [
        103.9320642,
        1.3083831
      ],
      [
        103.9325723,
        1.308528
      ],
      [
        103.9345023,
        1.3090589
      ],
      [
        103.9350147,
        1.3091995
      ],
      [
        103.9373429,
        1.3098758
      ],
      [
        103.9374088,
        1.3098945
      ],
      [
        103.9379913,
        1.3100587
      ],
      [
        103.9389145,
        1.3103004
      ],
      [
        103.9393491,
        1.3104268
      ],
      [
        103.9433249,
        1.3115655
      ],
      [
        103.9438451,
        1.3116722
      ],
      [
        103.9442649,
        1.3117405
      ],
      [
        103.9447308,
        1.3117841
      ],
      [
        103.9455701,
        1.3118135
      ],
      [
        103.9468434,
        1.3118584
      ],
      [
        103.9475989,
        1.3118851
      ],
      [
        103.9497055,
        1.3119403
      ],
      [
        103.9501293,
        1.3119738
      ],
      [
        103.9507914,
        1.3120814
      ],
      [
        103.9512705,
        1.3122082
      ],
      [
        103.9517491,
        1.3123765
      ],
      [
        103.9518122,
        1.3124
      ],
      [
        103.9522565,
        1.3125656
      ],
      [
        103.9530571,
        1.3128963
      ],
      [
        103.9542587,
        1.3133927
      ],
      [
        103.9621901,
        1.3166407
      ],
      [
        103.9626413,
        1.3168197
      ],
      [
        103.9656481,
        1.3180604
      ],
      [
        103.9664852,
        1.3184598
      ],
      [
        103.9670527,
        1.3188129
      ],
      [
        103.9676868,
        1.3192966
      ],
      [
        103.968246,
        1.3198651
      ],
      [
        103.9686995,
        1.3204144
      ],
      [
        103.9700054,
        1.3222184
      ],
      [
        103.9701582,
        1.3224235
      ],
      [
        103.9702927,
        1.3226203
      ],
      [
        103.9703326,
        1.3227587
      ],
      [
        103.9703626,
        1.3228297
      ],
      [
        103.9705195,
        1.3231057
      ],
      [
        103.9706094,
        1.3232949
      ],
      [
        103.9706585,
        1.3234747
      ],
      [
        103.9707034,
        1.3238165
      ],
      [
        103.9706403,
        1.3242066
      ],
      [
        103.9705571,
        1.324523
      ],
      [
        103.9704935,
        1.3246854
      ],
      [
        103.9703968,
        1.3248379
      ],
      [
        103.9701783,
        1.3251142
      ],
      [
        103.970034,
        1.3253164
      ],
      [
        103.9689748,
        1.3261267
      ],
      [
        103.9687051,
        1.326333
      ],
      [
        103.9682211,
        1.3267168
      ],
      [
        103.9680667,
        1.3268372
      ],
      [
        103.967695,
        1.3271132
      ],
      [
        103.9675409,
        1.3272336
      ],
      [
        103.9670904,
        1.3275853
      ],
      [
        103.9667712,
        1.3278105
      ],
      [
        103.9664199,
        1.3280358
      ],
      [
        103.9657995,
        1.3284201
      ],
      [
        103.965737,
        1.3284556
      ],
      [
        103.9656466,
        1.3284767
      ],
      [
        103.9651099,
        1.3287269
      ],
      [
        103.964909,
        1.3288326
      ],
      [
        103.9647895,
        1.3288931
      ],
      [
        103.9647243,
        1.3289269
      ],
      [
        103.9644407,
        1.3290751
      ],
      [
        103.9642965,
        1.3291396
      ],
      [
        103.9639217,
        1.3292794
      ],
      [
        103.9633548,
        1.329441
      ],
      [
        103.9630142,
        1.3295616
      ],
      [
        103.9628857,
        1.3295954
      ],
      [
        103.9619654,
        1.3298378
      ],
      [
        103.9601799,
        1.3303244
      ],
      [
        103.9598322,
        1.3304336
      ],
      [
        103.9593557,
        1.3305717
      ],
      [
        103.9593302,
        1.3305791
      ],
      [
        103.9592594,
        1.3306013
      ],
      [
        103.9591839,
        1.3306247
      ],
      [
        103.957802,
        1.3310535
      ],
      [
        103.9568227,
        1.3313547
      ],
      [
        103.9564774,
        1.3314592
      ],
      [
        103.9561645,
        1.3315658
      ],
      [
        103.9556432,
        1.3317752
      ],
      [
        103.9553136,
        1.3319348
      ],
      [
        103.9551342,
        1.3320513
      ],
      [
        103.9549217,
        1.3322564
      ],
      [
        103.9548684,
        1.332301
      ],
      [
        103.9547087,
        1.3324012
      ],
      [
        103.9546372,
        1.3324557
      ],
      [
        103.9544874,
        1.3325668
      ],
      [
        103.9543699,
        1.3326746
      ],
      [
        103.9542702,
        1.3327915
      ],
      [
        103.9541776,
        1.332892
      ],
      [
        103.9540676,
        1.3330207
      ],
      [
        103.9538799,
        1.3332313
      ],
      [
        103.9536465,
        1.3335008
      ],
      [
        103.9530225,
        1.3342315
      ],
      [
        103.9529063,
        1.3343676
      ],
      [
        103.9527886,
        1.3345133
      ],
      [
        103.9524251,
        1.3349344
      ],
      [
        103.9523904,
        1.3349706
      ],
      [
        103.9522952,
        1.3350871
      ],
      [
        103.9522527,
        1.3351335
      ],
      [
        103.9518913,
        1.3355277
      ],
      [
        103.9516443,
        1.3358202
      ],
      [
        103.9507766,
        1.3368207
      ],
      [
        103.9498671,
        1.3378843
      ],
      [
        103.9495644,
        1.3382506
      ],
      [
        103.949343,
        1.3385211
      ],
      [
        103.9492633,
        1.338615
      ],
      [
        103.9491752,
        1.3387197
      ],
      [
        103.9491533,
        1.338745
      ],
      [
        103.9489973,
        1.3389256
      ],
      [
        103.9484766,
        1.3395671
      ],
      [
        103.9481718,
        1.3399441
      ],
      [
        103.9476686,
        1.3405337
      ],
      [
        103.9474131,
        1.340833
      ],
      [
        103.9470966,
        1.341218
      ],
      [
        103.9465478,
        1.3418541
      ],
      [
        103.9463711,
        1.3420815
      ],
      [
        103.9459347,
        1.3426428
      ],
      [
        103.9451908,
        1.3435252
      ],
      [
        103.9448013,
        1.3439539
      ],
      [
        103.9441559,
        1.3447354
      ],
      [
        103.9440015,
        1.3449223
      ],
      [
        103.9436325,
        1.3453729
      ],
      [
        103.9434759,
        1.3455641
      ],
      [
        103.9432648,
        1.3458192
      ],
      [
        103.9429632,
        1.3461832
      ],
      [
        103.9429306,
        1.3462242
      ],
      [
        103.9428815,
        1.3461841
      ],
      [
        103.9425343,
        1.3459005
      ],
      [
        103.9424996,
        1.3458722
      ],
      [
        103.942224,
        1.3456781
      ],
      [
        103.9419632,
        1.3455185
      ],
      [
        103.941379,
        1.3452177
      ],
      [
        103.9409479,
        1.3450234
      ],
      [
        103.940776,
        1.3449573
      ],
      [
        103.9407193,
        1.344941
      ],
      [
        103.9405303,
        1.3448868
      ],
      [
        103.940092,
        1.3447951
      ],
      [
        103.9396674,
        1.3447305
      ],
      [
        103.9394416,
        1.3447071
      ],
      [
        103.9392153,
        1.344694
      ],
      [
        103.9386141,
        1.3446718
      ],
      [
        103.93848,
        1.3446786
      ],
      [
        103.938436,
        1.3446785
      ],
      [
        103.9383241,
        1.3446783
      ],
      [
        103.9381714,
        1.3446788
      ],
      [
        103.9381457,
        1.344677
      ],
      [
        103.9379297,
        1.3446891
      ],
      [
        103.9377524,
        1.3447248
      ],
      [
        103.937617,
        1.3447499
      ],
      [
        103.9374984,
        1.3447898
      ],
      [
        103.9371162,
        1.3449518
      ],
      [
        103.9368132,
        1.3450802
      ],
      [
        103.9362206,
        1.3453314
      ],
      [
        103.9358943,
        1.3454608
      ],
      [
        103.9357669,
        1.3455072
      ],
      [
        103.9354324,
        1.3456478
      ],
      [
        103.9351006,
        1.3457826
      ],
      [
        103.9348293,
        1.3459079
      ],
      [
        103.9345517,
        1.3460213
      ],
      [
        103.933747,
        1.3463689
      ],
      [
        103.9336701,
        1.3464011
      ],
      [
        103.9330558,
        1.3466482
      ],
      [
        103.9326792,
        1.3467996
      ],
      [
        103.9319178,
        1.3471095
      ],
      [
        103.9316643,
        1.3472341
      ],
      [
        103.9310638,
        1.3475265
      ],
      [
        103.9305017,
        1.3478144
      ],
      [
        103.9302202,
        1.3479619
      ],
      [
        103.9301645,
        1.3479917
      ],
      [
        103.930074,
        1.348037
      ],
      [
        103.9300345,
        1.3480598
      ],
      [
        103.929908,
        1.3481247
      ],
      [
        103.9297781,
        1.3481925
      ],
      [
        103.9297559,
        1.348204
      ],
      [
        103.9293345,
        1.3484479
      ],
      [
        103.9291443,
        1.3485536
      ],
      [
        103.9290598,
        1.3486019
      ],
      [
        103.9289871,
        1.348639
      ],
      [
        103.9286485,
        1.3488288
      ],
      [
        103.9285803,
        1.3488675
      ],
      [
        103.9284967,
        1.3489145
      ],
      [
        103.9285503,
        1.3490293
      ],
      [
        103.9285933,
        1.3491211
      ],
      [
        103.928709,
        1.3493346
      ],
      [
        103.9289551,
        1.3498243
      ],
      [
        103.9289984,
        1.3499006
      ],
      [
        103.9290955,
        1.3500868
      ],
      [
        103.9291232,
        1.3501399
      ],
      [
        103.9291363,
        1.350165
      ],
      [
        103.9292518,
        1.3503753
      ],
      [
        103.9293492,
        1.3505526
      ],
      [
        103.9295979,
        1.3510054
      ],
      [
        103.9297792,
        1.3513158
      ],
      [
        103.9298414,
        1.3514295
      ],
      [
        103.9299695,
        1.351689
      ],
      [
        103.9300025,
        1.3517454
      ],
      [
        103.9300374,
        1.3518127
      ],
      [
        103.930133,
        1.3517636
      ],
      [
        103.9302132,
        1.3517191
      ],
      [
        103.9310802,
        1.351237
      ],
      [
        103.9312028,
        1.3511688
      ],
      [
        103.9312616,
        1.3511328
      ],
      [
        103.9313486,
        1.3510899
      ],
      [
        103.9315677,
        1.3509807
      ],
      [
        103.931652,
        1.3509387
      ],
      [
        103.9317098,
        1.3509089
      ],
      [
        103.9318182,
        1.350853
      ],
      [
        103.9318878,
        1.3508222
      ],
      [
        103.9322154,
        1.3506757
      ],
      [
        103.9324008,
        1.3505951
      ],
      [
        103.9325299,
        1.3505347
      ],
      [
        103.9325734,
        1.3505143
      ],
      [
        103.9331858,
        1.3502717
      ],
      [
        103.9332448,
        1.3502483
      ],
      [
        103.9332905,
        1.3503537
      ],
      [
        103.9333923,
        1.3505976
      ],
      [
        103.9334431,
        1.3507251
      ],
      [
        103.9335562,
        1.3510087
      ],
      [
        103.9336072,
        1.3511325
      ],
      [
        103.9336735,
        1.3512935
      ],
      [
        103.9337746,
        1.3515391
      ],
      [
        103.9337816,
        1.3515558
      ],
      [
        103.9338102,
        1.3516246
      ],
      [
        103.9338696,
        1.3517583
      ],
      [
        103.9339883,
        1.352053
      ],
      [
        103.9341418,
        1.3524286
      ],
      [
        103.934151,
        1.3524511
      ],
      [
        103.9343655,
        1.3529428
      ],
      [
        103.9344474,
        1.3531437
      ],
      [
        103.9345399,
        1.3533704
      ],
      [
        103.9346186,
        1.35358
      ],
      [
        103.9346649,
        1.3536934
      ],
      [
        103.9347269,
        1.3538448
      ],
      [
        103.9347404,
        1.3538786
      ],
      [
        103.9347779,
        1.3539798
      ],
      [
        103.9348161,
        1.3540844
      ],
      [
        103.9348305,
        1.3541831
      ],
      [
        103.9348322,
        1.354203
      ],
      [
        103.9348366,
        1.3545173
      ],
      [
        103.9348425,
        1.354993
      ],
      [
        103.9348374,
        1.3551307
      ],
      [
        103.9348218,
        1.3556387
      ],
      [
        103.9348213,
        1.3556728
      ],
      [
        103.9348208,
        1.3557245
      ],
      [
        103.9348191,
        1.3558543
      ],
      [
        103.9349321,
        1.3558547
      ],
      [
        103.9354701,
        1.3558564
      ],
      [
        103.935993,
        1.355858
      ],
      [
        103.9363373,
        1.3558592
      ],
      [
        103.9363825,
        1.3558594
      ],
      [
        103.9366236,
        1.3558601
      ],
      [
        103.9372425,
        1.3558621
      ],
      [
        103.9379033,
        1.3558643
      ],
      [
        103.9380119,
        1.3558646
      ],
      [
        103.9380129,
        1.355911
      ],
      [
        103.938035,
        1.3569209
      ],
      [
        103.9380411,
        1.3572988
      ],
      [
        103.9380426,
        1.3573913
      ],
      [
        103.9380433,
        1.357487
      ],
      [
        103.9380418,
        1.3575629
      ],
      [
        103.9380348,
        1.3579314
      ],
      [
        103.9380436,
        1.3594324
      ],
      [
        103.9380436,
        1.3595931
      ],
      [
        103.9380474,
        1.3602273
      ],
      [
        103.9380482,
        1.3603118
      ],
      [
        103.9380449,
        1.3604545
      ],
      [
        103.9380434,
        1.3605286
      ],
      [
        103.9380368,
        1.3607967
      ],
      [
        103.9380053,
        1.3619618
      ],
      [
        103.9379999,
        1.3622152
      ],
      [
        103.9379972,
        1.3622829
      ],
      [
        103.9379935,
        1.3624131
      ],
      [
        103.9379922,
        1.3626832
      ],
      [
        103.937992,
        1.3627369
      ],
      [
        103.937991,
        1.3628283
      ],
      [
        103.9379902,
        1.3629037
      ],
      [
        103.937988,
        1.3631148
      ],
      [
        103.9379819,
        1.3636835
      ],
      [
        103.9379783,
        1.3637685
      ],
      [
        103.9379665,
        1.3638755
      ],
      [
        103.9379458,
        1.3639935
      ],
      [
        103.9379062,
        1.3641498
      ],
      [
        103.9378501,
        1.364301
      ],
      [
        103.9377779,
        1.3644452
      ],
      [
        103.9376299,
        1.3646963
      ],
      [
        103.9375071,
        1.3648494
      ],
      [
        103.9373843,
        1.3650024
      ],
      [
        103.9373672,
        1.3650237
      ],
      [
        103.9373488,
        1.3650467
      ],
      [
        103.9373046,
        1.3651018
      ],
      [
        103.9372502,
        1.3651705
      ],
      [
        103.9372117,
        1.3652194
      ],
      [
        103.9367782,
        1.3657695
      ],
      [
        103.9365582,
        1.3660594
      ],
      [
        103.9363557,
        1.3663232
      ],
      [
        103.9362337,
        1.3664626
      ],
      [
        103.9361545,
        1.3665163
      ],
      [
        103.9360754,
        1.3665417
      ],
      [
        103.9359285,
        1.366538
      ],
      [
        103.9357951,
        1.3664801
      ],
      [
        103.9354557,
        1.3663264
      ],
      [
        103.9349006,
        1.366165
      ],
      [
        103.9347665,
        1.3661315
      ],
      [
        103.9344529,
        1.3660685
      ],
      [
        103.9343815,
        1.3660562
      ],
      [
        103.9342989,
        1.3660505
      ],
      [
        103.9342652,
        1.3662119
      ],
      [
        103.934244,
        1.3663418
      ],
      [
        103.9341899,
        1.3665221
      ],
      [
        103.9340749,
        1.366739
      ],
      [
        103.9337781,
        1.3672219
      ],
      [
        103.9336669,
        1.3674113
      ],
      [
        103.9334846,
        1.3677218
      ],
      [
        103.933393,
        1.3679308
      ],
      [
        103.9332779,
        1.3682648
      ],
      [
        103.9332326,
        1.3684283
      ],
      [
        103.9332165,
        1.3684864
      ],
      [
        103.9331906,
        1.368589
      ],
      [
        103.933291,
        1.3686125
      ],
      [
        103.9333825,
        1.3686359
      ],
      [
        103.9335416,
        1.3686765
      ],
      [
        103.9341637,
        1.3688658
      ],
      [
        103.9347028,
        1.3690721
      ],
      [
        103.9351995,
        1.3693123
      ],
      [
        103.9353435,
        1.3693868
      ],
      [
        103.9355912,
        1.369515
      ],
      [
        103.9363984,
        1.3699801
      ]
    ]
  }
}