{
  "type": "Feature",
  "properties": {
    "relation": 2971033,
    "direction": "1",
    "fee": "yes",
    "from": "Opposite Blk 489A",
    "name": "Svc 649 (Opposite Blk 489A → Marina Bay Financial Centre)",
    "name:en": "Svc 649 (Opposite Blk 489A → Marina Bay Financial Centre)",
    "network": "Land Transport Authority",
    "network:short": "LTA",
    "network:wikidata": "Q3299279",
    "network:wikipedia": "en:Land Transport Authority",
    "operator": "SMRT Buses",
    "operator:wikidata": "Q10852420",
    "operator:wikipedia": "en:SMRT Buses",
    "public_transport:version": "2",
    "ref": "649",
    "route": "bus",
    "to": "Marina Bay Financial Centre",
    "type": "route",
    "website": "https://www.smrt.com.sg/"
  },
  "geometry": {
    "type": "LineString",
    "coordinates": [
      [
        103.7415894,
        1.3747193
      ],
      [
        103.7404687,
        1.3750764
      ],
      [
        103.7402318,
        1.3751608
      ],
      [
        103.739925,
        1.3752832
      ],
      [
        103.7398436,
        1.3753157
      ],
      [
        103.7396781,
        1.3753817
      ],
      [
        103.7395553,
        1.3754307
      ],
      [
        103.7393362,
        1.3755361
      ],
      [
        103.7390824,
        1.3756624
      ],
      [
        103.7385295,
        1.3759375
      ],
      [
        103.7382967,
        1.3760558
      ],
      [
        103.7382621,
        1.3760774
      ],
      [
        103.7381317,
        1.3761587
      ],
      [
        103.7377393,
        1.3763943
      ],
      [
        103.7374871,
        1.3766637
      ],
      [
        103.7374383,
        1.3767317
      ],
      [
        103.7372906,
        1.3769427
      ],
      [
        103.7371765,
        1.37712
      ],
      [
        103.7371426,
        1.3771612
      ],
      [
        103.7370327,
        1.3773176
      ],
      [
        103.7369954,
        1.377368
      ],
      [
        103.7369247,
        1.3774723
      ],
      [
        103.7366498,
        1.3779097
      ],
      [
        103.7365653,
        1.3780907
      ],
      [
        103.7365278,
        1.3782174
      ],
      [
        103.7365204,
        1.3785432
      ],
      [
        103.736532,
        1.3786495
      ],
      [
        103.7365432,
        1.3787517
      ],
      [
        103.7365727,
        1.3788586
      ],
      [
        103.7365928,
        1.3789313
      ],
      [
        103.7366156,
        1.3789662
      ],
      [
        103.7366866,
        1.3790333
      ],
      [
        103.7370265,
        1.3793548
      ],
      [
        103.7372036,
        1.3795302
      ],
      [
        103.7372827,
        1.3796002
      ],
      [
        103.7373915,
        1.3796965
      ],
      [
        103.7374571,
        1.379762
      ],
      [
        103.7375866,
        1.3798913
      ],
      [
        103.737875,
        1.3801656
      ],
      [
        103.7379086,
        1.3801976
      ],
      [
        103.7379869,
        1.3802733
      ],
      [
        103.7380769,
        1.3803635
      ],
      [
        103.7381107,
        1.3803971
      ],
      [
        103.7390243,
        1.3812661
      ],
      [
        103.7390793,
        1.3813192
      ],
      [
        103.7392439,
        1.3814824
      ],
      [
        103.7393477,
        1.3815871
      ],
      [
        103.7393957,
        1.3816356
      ],
      [
        103.7397283,
        1.3819627
      ],
      [
        103.7399104,
        1.3821531
      ],
      [
        103.7399493,
        1.3821912
      ],
      [
        103.7402295,
        1.3824671
      ],
      [
        103.7402864,
        1.3825242
      ],
      [
        103.7403586,
        1.3825955
      ],
      [
        103.7404783,
        1.3827077
      ],
      [
        103.7406145,
        1.382837
      ],
      [
        103.7410238,
        1.383223
      ],
      [
        103.7412101,
        1.3834212
      ],
      [
        103.7412603,
        1.3834742
      ],
      [
        103.7414067,
        1.383585
      ],
      [
        103.7414902,
        1.3836295
      ],
      [
        103.7415964,
        1.3836756
      ],
      [
        103.741761,
        1.3837248
      ],
      [
        103.7418131,
        1.3837358
      ],
      [
        103.7419622,
        1.3837673
      ],
      [
        103.742242,
        1.38381
      ],
      [
        103.7424635,
        1.3838547
      ],
      [
        103.7425047,
        1.3838678
      ],
      [
        103.7425986,
        1.3838848
      ],
      [
        103.7426228,
        1.3837936
      ],
      [
        103.7426345,
        1.3837372
      ],
      [
        103.7426685,
        1.3835758
      ],
      [
        103.7426982,
        1.3834207
      ],
      [
        103.7427331,
        1.3832384
      ],
      [
        103.7427415,
        1.3832044
      ],
      [
        103.7427566,
        1.3831429
      ],
      [
        103.7428043,
        1.3829494
      ],
      [
        103.7428265,
        1.3828646
      ],
      [
        103.7429589,
        1.3823345
      ],
      [
        103.7429767,
        1.3822798
      ],
      [
        103.7430623,
        1.3820355
      ],
      [
        103.7431394,
        1.3818548
      ],
      [
        103.7431812,
        1.3817588
      ],
      [
        103.743312,
        1.3815825
      ],
      [
        103.7433243,
        1.3815691
      ],
      [
        103.7434215,
        1.3814341
      ],
      [
        103.7434363,
        1.3814144
      ],
      [
        103.7435184,
        1.3812996
      ],
      [
        103.7437156,
        1.3810588
      ],
      [
        103.743832,
        1.3809741
      ],
      [
        103.7439783,
        1.3808606
      ],
      [
        103.7443325,
        1.3806102
      ],
      [
        103.7444544,
        1.3805471
      ],
      [
        103.7446658,
        1.3804432
      ],
      [
        103.7450928,
        1.3802386
      ],
      [
        103.7451238,
        1.3802259
      ],
      [
        103.7451632,
        1.3802049
      ],
      [
        103.7467624,
        1.3795038
      ],
      [
        103.7472164,
        1.3793001
      ],
      [
        103.7478511,
        1.3790057
      ],
      [
        103.7478777,
        1.3789936
      ],
      [
        103.748011,
        1.3789327
      ],
      [
        103.7483416,
        1.378792
      ],
      [
        103.7484907,
        1.3787951
      ],
      [
        103.7485081,
        1.3788011
      ],
      [
        103.7485763,
        1.3788247
      ],
      [
        103.7486693,
        1.3789042
      ],
      [
        103.7488213,
        1.3792545
      ],
      [
        103.7488451,
        1.3793082
      ],
      [
        103.7489254,
        1.3794892
      ],
      [
        103.748941,
        1.3795235
      ],
      [
        103.7490148,
        1.3797018
      ],
      [
        103.7491026,
        1.3798884
      ],
      [
        103.749167,
        1.3800334
      ],
      [
        103.7492024,
        1.3801117
      ],
      [
        103.7494556,
        1.3806722
      ],
      [
        103.7494871,
        1.380742
      ],
      [
        103.749568,
        1.380921
      ],
      [
        103.7495803,
        1.380948
      ],
      [
        103.7497377,
        1.3812947
      ],
      [
        103.7498778,
        1.3816034
      ],
      [
        103.7499161,
        1.3816867
      ],
      [
        103.7500315,
        1.381938
      ],
      [
        103.7500884,
        1.38207
      ],
      [
        103.7501016,
        1.3821005
      ],
      [
        103.7501479,
        1.3821963
      ],
      [
        103.7502371,
        1.3821552
      ],
      [
        103.7502701,
        1.3821407
      ],
      [
        103.7504984,
        1.3820402
      ],
      [
        103.7508568,
        1.3818663
      ],
      [
        103.7509915,
        1.3818105
      ],
      [
        103.7513889,
        1.3816677
      ],
      [
        103.7514912,
        1.3816449
      ],
      [
        103.7516001,
        1.3816388
      ],
      [
        103.7517302,
        1.3816409
      ],
      [
        103.7519133,
        1.3816697
      ],
      [
        103.7520317,
        1.3816913
      ],
      [
        103.7521224,
        1.3817079
      ],
      [
        103.7523283,
        1.3817428
      ],
      [
        103.7524883,
        1.3817447
      ],
      [
        103.752496,
        1.3817448
      ],
      [
        103.7526391,
        1.3817243
      ],
      [
        103.7527119,
        1.3817078
      ],
      [
        103.7531023,
        1.381568
      ],
      [
        103.7532014,
        1.3815328
      ],
      [
        103.7535257,
        1.3814224
      ],
      [
        103.7539524,
        1.3812742
      ],
      [
        103.7545114,
        1.3810827
      ],
      [
        103.7546037,
        1.381048
      ],
      [
        103.7546654,
        1.3810243
      ],
      [
        103.7548537,
        1.3809543
      ],
      [
        103.7553693,
        1.3807755
      ],
      [
        103.7554675,
        1.3807259
      ],
      [
        103.755553,
        1.3806588
      ],
      [
        103.7557357,
        1.3804946
      ],
      [
        103.7558239,
        1.3803746
      ],
      [
        103.7559527,
        1.3801695
      ],
      [
        103.7561566,
        1.3797431
      ],
      [
        103.7561994,
        1.3795835
      ],
      [
        103.7562558,
        1.3792926
      ],
      [
        103.7562742,
        1.3789347
      ],
      [
        103.7562755,
        1.3787329
      ],
      [
        103.7562722,
        1.3786558
      ],
      [
        103.7562514,
        1.3785157
      ],
      [
        103.7562038,
        1.3782416
      ],
      [
        103.7561729,
        1.3781193
      ],
      [
        103.7561655,
        1.3780687
      ],
      [
        103.7561596,
        1.3780209
      ],
      [
        103.7561564,
        1.3779724
      ],
      [
        103.7561554,
        1.3779214
      ],
      [
        103.756157,
        1.3778761
      ],
      [
        103.7561586,
        1.3778368
      ],
      [
        103.7561696,
        1.3777166
      ],
      [
        103.756195,
        1.3776172
      ],
      [
        103.7562126,
        1.3775734
      ],
      [
        103.7562491,
        1.3774932
      ],
      [
        103.7562712,
        1.3774526
      ],
      [
        103.7563248,
        1.3773632
      ],
      [
        103.7562566,
        1.3773184
      ],
      [
        103.7562002,
        1.3772837
      ],
      [
        103.7558008,
        1.3770532
      ],
      [
        103.7556492,
        1.3769862
      ],
      [
        103.7552965,
        1.3768906
      ],
      [
        103.7551728,
        1.376858
      ],
      [
        103.7547948,
        1.376761
      ],
      [
        103.7547445,
        1.3767481
      ],
      [
        103.7546065,
        1.3767004
      ],
      [
        103.7543898,
        1.3766238
      ],
      [
        103.7542666,
        1.3765558
      ],
      [
        103.7541332,
        1.3764574
      ],
      [
        103.7540358,
        1.3763775
      ],
      [
        103.7538962,
        1.3762561
      ],
      [
        103.7538665,
        1.3762303
      ],
      [
        103.7538137,
        1.37615
      ],
      [
        103.7536317,
        1.3758955
      ],
      [
        103.7533543,
        1.3755065
      ],
      [
        103.7530669,
        1.3751078
      ],
      [
        103.7529351,
        1.3748847
      ],
      [
        103.7528019,
        1.3746474
      ],
      [
        103.7526069,
        1.3741756
      ],
      [
        103.7525491,
        1.3740025
      ],
      [
        103.7524437,
        1.3736813
      ],
      [
        103.7523918,
        1.3735185
      ],
      [
        103.7523439,
        1.3733817
      ],
      [
        103.7522499,
        1.3731132
      ],
      [
        103.7521056,
        1.3727888
      ],
      [
        103.7517392,
        1.3721997
      ],
      [
        103.7515703,
        1.371965
      ],
      [
        103.7514487,
        1.3718129
      ],
      [
        103.7512466,
        1.3716114
      ],
      [
        103.7507792,
        1.3711804
      ],
      [
        103.7506798,
        1.3710753
      ],
      [
        103.75048,
        1.3708642
      ],
      [
        103.7501621,
        1.3705578
      ],
      [
        103.7498335,
        1.3702233
      ],
      [
        103.7497209,
        1.3701134
      ],
      [
        103.749446,
        1.3698426
      ],
      [
        103.7491088,
        1.3695155
      ],
      [
        103.7489978,
        1.3694113
      ],
      [
        103.7486902,
        1.3691224
      ],
      [
        103.7486422,
        1.3690773
      ],
      [
        103.748557,
        1.3689974
      ],
      [
        103.7484926,
        1.3689369
      ],
      [
        103.748274,
        1.3687553
      ],
      [
        103.7479312,
        1.3684362
      ],
      [
        103.747036,
        1.3676502
      ],
      [
        103.7467483,
        1.3674034
      ],
      [
        103.7465425,
        1.367224
      ],
      [
        103.7462045,
        1.3669184
      ],
      [
        103.7459911,
        1.3667613
      ],
      [
        103.7457708,
        1.3665632
      ],
      [
        103.7455045,
        1.3663414
      ],
      [
        103.745459,
        1.3663034
      ],
      [
        103.7454102,
        1.3662628
      ],
      [
        103.7452277,
        1.3661107
      ],
      [
        103.7450112,
        1.3659223
      ],
      [
        103.7448298,
        1.3657643
      ],
      [
        103.7445609,
        1.3655169
      ],
      [
        103.7444152,
        1.3653643
      ],
      [
        103.7442911,
        1.3652374
      ],
      [
        103.7439893,
        1.3648865
      ],
      [
        103.7432606,
        1.3639855
      ],
      [
        103.7427664,
        1.3633817
      ],
      [
        103.7424833,
        1.363016
      ],
      [
        103.7422443,
        1.3627256
      ],
      [
        103.7422111,
        1.3626792
      ],
      [
        103.7421712,
        1.3626329
      ],
      [
        103.7419516,
        1.3623677
      ],
      [
        103.7411422,
        1.3613347
      ],
      [
        103.7408294,
        1.3609429
      ],
      [
        103.7404712,
        1.360489
      ],
      [
        103.7402818,
        1.3602615
      ],
      [
        103.7402194,
        1.3601879
      ],
      [
        103.7401966,
        1.3601596
      ],
      [
        103.7400949,
        1.3600329
      ],
      [
        103.7394965,
        1.3593189
      ],
      [
        103.7394409,
        1.3592573
      ],
      [
        103.739285,
        1.3590843
      ],
      [
        103.7390967,
        1.3588701
      ],
      [
        103.7389988,
        1.3587656
      ],
      [
        103.7387287,
        1.3584773
      ],
      [
        103.7383991,
        1.3581573
      ],
      [
        103.7381861,
        1.3579504
      ],
      [
        103.7381517,
        1.3579165
      ],
      [
        103.7380182,
        1.3577857
      ],
      [
        103.7379844,
        1.3577505
      ],
      [
        103.7378038,
        1.3575575
      ],
      [
        103.7374792,
        1.3572062
      ],
      [
        103.7370252,
        1.3565322
      ],
      [
        103.7368681,
        1.3561372
      ],
      [
        103.7367573,
        1.3557852
      ],
      [
        103.7366999,
        1.3555558
      ],
      [
        103.736687,
        1.3555039
      ],
      [
        103.7366115,
        1.3551339
      ],
      [
        103.7366089,
        1.355071
      ],
      [
        103.7366165,
        1.3545554
      ],
      [
        103.7367336,
        1.3539304
      ],
      [
        103.7369434,
        1.3532856
      ],
      [
        103.7374405,
        1.3521003
      ],
      [
        103.7376897,
        1.3516375
      ],
      [
        103.7377958,
        1.3513352
      ],
      [
        103.7378853,
        1.35102
      ],
      [
        103.7379782,
        1.3507265
      ],
      [
        103.7380893,
        1.3503133
      ],
      [
        103.7381247,
        1.3501737
      ],
      [
        103.7381988,
        1.3498842
      ],
      [
        103.7382089,
        1.3498423
      ],
      [
        103.7382138,
        1.3498318
      ],
      [
        103.7382441,
        1.3497255
      ],
      [
        103.7383115,
        1.3494137
      ],
      [
        103.7384335,
        1.3488204
      ],
      [
        103.7384325,
        1.3483868
      ],
      [
        103.7383989,
        1.3480646
      ],
      [
        103.7383362,
        1.3478059
      ],
      [
        103.7382098,
        1.3475267
      ],
      [
        103.7381651,
        1.3474279
      ],
      [
        103.738064,
        1.3472045
      ],
      [
        103.7379614,
        1.3469778
      ],
      [
        103.7378968,
        1.346835
      ],
      [
        103.7377569,
        1.3465743
      ],
      [
        103.7375321,
        1.3461837
      ],
      [
        103.7373727,
        1.3459027
      ],
      [
        103.7372365,
        1.3456451
      ],
      [
        103.7371713,
        1.3455218
      ],
      [
        103.7369292,
        1.3450638
      ],
      [
        103.7366386,
        1.3444879
      ],
      [
        103.7365377,
        1.3442625
      ],
      [
        103.7364303,
        1.3439381
      ],
      [
        103.7363301,
        1.3436355
      ],
      [
        103.7362376,
        1.3433212
      ],
      [
        103.7362216,
        1.3432624
      ],
      [
        103.7362008,
        1.3431865
      ],
      [
        103.7361808,
        1.3431098
      ],
      [
        103.7361155,
        1.3428978
      ],
      [
        103.7360179,
        1.3426599
      ],
      [
        103.7357911,
        1.3421904
      ],
      [
        103.7355065,
        1.3417038
      ],
      [
        103.7353738,
        1.3415183
      ],
      [
        103.73524,
        1.341324
      ],
      [
        103.735052,
        1.3410872
      ],
      [
        103.7350281,
        1.3410589
      ],
      [
        103.7349543,
        1.3409582
      ],
      [
        103.7348989,
        1.3408793
      ],
      [
        103.7347255,
        1.3406499
      ],
      [
        103.7346737,
        1.3405777
      ],
      [
        103.7344592,
        1.340269
      ],
      [
        103.7343425,
        1.3400368
      ],
      [
        103.7342564,
        1.3398494
      ],
      [
        103.734196,
        1.3396306
      ],
      [
        103.7341717,
        1.3395073
      ],
      [
        103.7341333,
        1.3393359
      ],
      [
        103.7340957,
        1.3390838
      ],
      [
        103.7340904,
        1.3387728
      ],
      [
        103.7340957,
        1.3385958
      ],
      [
        103.7341085,
        1.338489
      ],
      [
        103.7341151,
        1.338363
      ],
      [
        103.7341333,
        1.3381668
      ],
      [
        103.7341864,
        1.3379311
      ],
      [
        103.734262,
        1.3377216
      ],
      [
        103.7343476,
        1.3374749
      ],
      [
        103.7344506,
        1.3372919
      ],
      [
        103.7344924,
        1.3372068
      ],
      [
        103.7346265,
        1.3369655
      ],
      [
        103.7347982,
        1.3366598
      ],
      [
        103.7349166,
        1.3364791
      ],
      [
        103.735002,
        1.3363487
      ],
      [
        103.7351428,
        1.3361181
      ],
      [
        103.7353671,
        1.3358095
      ],
      [
        103.7356788,
        1.3354195
      ],
      [
        103.7359676,
        1.3350938
      ],
      [
        103.7362681,
        1.3347774
      ],
      [
        103.7365048,
        1.3345397
      ],
      [
        103.7367411,
        1.3343077
      ],
      [
        103.7369145,
        1.3341445
      ],
      [
        103.7371386,
        1.3339373
      ],
      [
        103.7373278,
        1.3337555
      ],
      [
        103.737418,
        1.3336763
      ],
      [
        103.7375078,
        1.3335974
      ],
      [
        103.7377178,
        1.3334061
      ],
      [
        103.7377482,
        1.3333787
      ],
      [
        103.7378592,
        1.3332945
      ],
      [
        103.7378837,
        1.3332778
      ],
      [
        103.738162,
        1.3330687
      ],
      [
        103.7382883,
        1.3329796
      ],
      [
        103.7386926,
        1.3327277
      ],
      [
        103.7391982,
        1.3323792
      ],
      [
        103.7392497,
        1.3323427
      ],
      [
        103.7393443,
        1.3322757
      ],
      [
        103.7395886,
        1.33211
      ],
      [
        103.7398602,
        1.3319
      ],
      [
        103.7400368,
        1.3317789
      ],
      [
        103.7401888,
        1.3316756
      ],
      [
        103.7402715,
        1.331618
      ],
      [
        103.7403489,
        1.3315642
      ],
      [
        103.7406956,
        1.3313333
      ],
      [
        103.7409651,
        1.3311564
      ],
      [
        103.7410334,
        1.3311099
      ],
      [
        103.7411089,
        1.3310618
      ],
      [
        103.7413077,
        1.3309269
      ],
      [
        103.741866,
        1.3305752
      ],
      [
        103.7422493,
        1.3303053
      ],
      [
        103.7426228,
        1.3300396
      ],
      [
        103.7427027,
        1.3299878
      ],
      [
        103.7433876,
        1.3295001
      ],
      [
        103.7435062,
        1.3294584
      ],
      [
        103.7436162,
        1.3294008
      ],
      [
        103.74369,
        1.3293391
      ],
      [
        103.7441432,
        1.3289192
      ],
      [
        103.7444603,
        1.3286277
      ],
      [
        103.7445429,
        1.3285517
      ],
      [
        103.7446328,
        1.328471
      ],
      [
        103.7447393,
        1.3283679
      ],
      [
        103.7450337,
        1.328052
      ],
      [
        103.7450968,
        1.3279822
      ],
      [
        103.7451638,
        1.3278965
      ],
      [
        103.7452094,
        1.3278294
      ],
      [
        103.7455031,
        1.3272944
      ],
      [
        103.7455796,
        1.3271282
      ],
      [
        103.7456748,
        1.3268533
      ],
      [
        103.7457257,
        1.326679
      ],
      [
        103.7457913,
        1.3262576
      ],
      [
        103.7458128,
        1.326059
      ],
      [
        103.7458207,
        1.3259334
      ],
      [
        103.7458384,
        1.3255568
      ],
      [
        103.7458613,
        1.3251734
      ],
      [
        103.7458791,
        1.3243114
      ],
      [
        103.7458875,
        1.3242032
      ],
      [
        103.7458987,
        1.324121
      ],
      [
        103.7459302,
        1.3240068
      ],
      [
        103.7459889,
        1.3238883
      ],
      [
        103.7461766,
        1.3236843
      ],
      [
        103.7462491,
        1.3236542
      ],
      [
        103.7466015,
        1.3235202
      ],
      [
        103.7470042,
        1.3233953
      ],
      [
        103.7472763,
        1.3233327
      ],
      [
        103.7473511,
        1.3233129
      ],
      [
        103.7477822,
        1.3231991
      ],
      [
        103.747933,
        1.3231572
      ],
      [
        103.7479918,
        1.3231409
      ],
      [
        103.748732,
        1.3229291
      ],
      [
        103.7488073,
        1.3229091
      ],
      [
        103.7488572,
        1.3228968
      ],
      [
        103.7490354,
        1.3228485
      ],
      [
        103.7503707,
        1.3224167
      ],
      [
        103.7508864,
        1.3222673
      ],
      [
        103.7515886,
        1.3220687
      ],
      [
        103.7522281,
        1.3218516
      ],
      [
        103.753074,
        1.3215774
      ],
      [
        103.7535744,
        1.3214069
      ],
      [
        103.7541684,
        1.3212829
      ],
      [
        103.7544272,
        1.3211917
      ],
      [
        103.7547209,
        1.3210094
      ],
      [
        103.7547661,
        1.3209718
      ],
      [
        103.7549931,
        1.3207828
      ],
      [
        103.755264,
        1.3204731
      ],
      [
        103.7554366,
        1.3202101
      ],
      [
        103.7559942,
        1.3195347
      ],
      [
        103.7570265,
        1.3183504
      ],
      [
        103.7571023,
        1.3182697
      ],
      [
        103.7574457,
        1.3178272
      ],
      [
        103.7576469,
        1.3175914
      ],
      [
        103.7580642,
        1.3171499
      ],
      [
        103.7583174,
        1.3168514
      ],
      [
        103.7586929,
        1.316426
      ],
      [
        103.759003,
        1.3160748
      ],
      [
        103.7590818,
        1.315986
      ],
      [
        103.7600704,
        1.3148193
      ],
      [
        103.7602695,
        1.3146018
      ],
      [
        103.7605766,
        1.3142971
      ],
      [
        103.761419,
        1.3134614
      ],
      [
        103.7615713,
        1.3133103
      ],
      [
        103.7622011,
        1.3126855
      ],
      [
        103.7629676,
        1.3119128
      ],
      [
        103.7630992,
        1.3117801
      ],
      [
        103.7634377,
        1.3114389
      ],
      [
        103.7634891,
        1.311387
      ],
      [
        103.7635224,
        1.3113534
      ],
      [
        103.7636281,
        1.3112469
      ],
      [
        103.7642431,
        1.3106253
      ],
      [
        103.7644769,
        1.3103902
      ],
      [
        103.7645423,
        1.3103243
      ],
      [
        103.7649619,
        1.3098722
      ],
      [
        103.7650448,
        1.3097615
      ],
      [
        103.7656877,
        1.3088955
      ],
      [
        103.7658648,
        1.3086539
      ],
      [
        103.7660687,
        1.3083759
      ],
      [
        103.7662666,
        1.3081041
      ],
      [
        103.7664566,
        1.3078426
      ],
      [
        103.7667631,
        1.3074361
      ],
      [
        103.7670838,
        1.3071277
      ],
      [
        103.7672827,
        1.3069191
      ],
      [
        103.7676635,
        1.3065812
      ],
      [
        103.7680884,
        1.3062458
      ],
      [
        103.7686225,
        1.3058122
      ],
      [
        103.7687548,
        1.3057009
      ],
      [
        103.7690204,
        1.3054902
      ],
      [
        103.7696208,
        1.3050833
      ],
      [
        103.7710064,
        1.3043368
      ],
      [
        103.7714158,
        1.3041549
      ],
      [
        103.7719765,
        1.303916
      ],
      [
        103.7733402,
        1.3032496
      ],
      [
        103.7735031,
        1.3031694
      ],
      [
        103.7740223,
        1.3028498
      ],
      [
        103.7751878,
        1.3021757
      ],
      [
        103.776593,
        1.3013621
      ],
      [
        103.7779648,
        1.3005578
      ],
      [
        103.7781587,
        1.3004357
      ],
      [
        103.7782637,
        1.3003696
      ],
      [
        103.7786639,
        1.3001207
      ],
      [
        103.778895,
        1.2999762
      ],
      [
        103.7793839,
        1.2996721
      ],
      [
        103.7795213,
        1.2995891
      ],
      [
        103.7805883,
        1.2989448
      ],
      [
        103.7810213,
        1.2987048
      ],
      [
        103.7812262,
        1.2985917
      ],
      [
        103.7818516,
        1.2982483
      ],
      [
        103.7823947,
        1.2979385
      ],
      [
        103.783111,
        1.2975197
      ],
      [
        103.7835041,
        1.297224
      ],
      [
        103.7835726,
        1.2971602
      ],
      [
        103.783661,
        1.2970792
      ],
      [
        103.7840215,
        1.2967428
      ],
      [
        103.7843837,
        1.296317
      ],
      [
        103.78453,
        1.2961447
      ],
      [
        103.7847878,
        1.2958415
      ],
      [
        103.7857496,
        1.2947577
      ],
      [
        103.7861577,
        1.2942317
      ],
      [
        103.7864956,
        1.2938178
      ],
      [
        103.7872269,
        1.293081
      ],
      [
        103.7878084,
        1.2926108
      ],
      [
        103.7884484,
        1.2922139
      ],
      [
        103.7903679,
        1.291009
      ],
      [
        103.7922135,
        1.2898002
      ],
      [
        103.7926816,
        1.2894429
      ],
      [
        103.7928346,
        1.2893173
      ],
      [
        103.7928729,
        1.2892859
      ],
      [
        103.7931671,
        1.2890445
      ],
      [
        103.7932616,
        1.2889669
      ],
      [
        103.7934333,
        1.288826
      ],
      [
        103.7942988,
        1.2882455
      ],
      [
        103.7946608,
        1.2880208
      ],
      [
        103.7953672,
        1.2876226
      ],
      [
        103.79559,
        1.287497
      ],
      [
        103.7959385,
        1.2873005
      ],
      [
        103.7965043,
        1.2869296
      ],
      [
        103.7967951,
        1.2867315
      ],
      [
        103.797019,
        1.2865904
      ],
      [
        103.7973556,
        1.2863665
      ],
      [
        103.7979713,
        1.2859443
      ],
      [
        103.7982546,
        1.2857501
      ],
      [
        103.7983936,
        1.2856483
      ],
      [
        103.7991454,
        1.2851043
      ],
      [
        103.7997126,
        1.2847452
      ],
      [
        103.800227,
        1.2844992
      ],
      [
        103.8007639,
        1.2843183
      ],
      [
        103.8013101,
        1.2842078
      ],
      [
        103.8020675,
        1.2841194
      ],
      [
        103.8060356,
        1.2838838
      ],
      [
        103.8079549,
        1.2837693
      ],
      [
        103.8082444,
        1.283752
      ],
      [
        103.8101453,
        1.2836386
      ],
      [
        103.810908,
        1.2835657
      ],
      [
        103.8116868,
        1.2834531
      ],
      [
        103.8124171,
        1.2832805
      ],
      [
        103.8131437,
        1.2830515
      ],
      [
        103.8137953,
        1.2828019
      ],
      [
        103.8145566,
        1.2824322
      ],
      [
        103.8149897,
        1.2821861
      ],
      [
        103.8152785,
        1.282022
      ],
      [
        103.8170473,
        1.2809118
      ],
      [
        103.8174462,
        1.2806703
      ],
      [
        103.8176571,
        1.2805338
      ],
      [
        103.8181682,
        1.280203
      ],
      [
        103.8185034,
        1.2800006
      ],
      [
        103.8188244,
        1.2797973
      ],
      [
        103.8192957,
        1.2795244
      ],
      [
        103.8203444,
        1.2791509
      ],
      [
        103.8205136,
        1.279103
      ],
      [
        103.820657,
        1.2790675
      ],
      [
        103.8210654,
        1.2789922
      ],
      [
        103.8212606,
        1.278962
      ],
      [
        103.8215517,
        1.278945
      ],
      [
        103.8222704,
        1.2789411
      ],
      [
        103.8225469,
        1.27894
      ],
      [
        103.8232578,
        1.2788819
      ],
      [
        103.8234756,
        1.2788522
      ],
      [
        103.8235923,
        1.2788252
      ],
      [
        103.82393,
        1.2787187
      ],
      [
        103.8243549,
        1.2785975
      ],
      [
        103.8247649,
        1.2784352
      ],
      [
        103.8250936,
        1.2782896
      ],
      [
        103.8256783,
        1.2779674
      ],
      [
        103.8260933,
        1.2776645
      ],
      [
        103.8266559,
        1.2772453
      ],
      [
        103.8271688,
        1.2768149
      ],
      [
        103.8275145,
        1.2765413
      ],
      [
        103.8287485,
        1.2755787
      ],
      [
        103.8290244,
        1.2753268
      ],
      [
        103.8292667,
        1.2750955
      ],
      [
        103.8295389,
        1.2748356
      ],
      [
        103.8296651,
        1.2747716
      ],
      [
        103.8302844,
        1.2742756
      ],
      [
        103.8317363,
        1.2730585
      ],
      [
        103.8319142,
        1.2729455
      ],
      [
        103.8320705,
        1.2728723
      ],
      [
        103.8321819,
        1.2728324
      ],
      [
        103.8323213,
        1.272792
      ],
      [
        103.8324395,
        1.2727575
      ],
      [
        103.8326087,
        1.2727315
      ],
      [
        103.8327366,
        1.2727184
      ],
      [
        103.8328845,
        1.2727116
      ],
      [
        103.8330886,
        1.2726942
      ],
      [
        103.8332555,
        1.2726325
      ],
      [
        103.8334989,
        1.2726257
      ],
      [
        103.8337558,
        1.2726059
      ],
      [
        103.8348066,
        1.2725169
      ],
      [
        103.8354504,
        1.2725399
      ],
      [
        103.8357857,
        1.2725412
      ],
      [
        103.8362805,
        1.2725556
      ],
      [
        103.8367342,
        1.2725654
      ],
      [
        103.8369975,
        1.2725761
      ],
      [
        103.8373881,
        1.2725862
      ],
      [
        103.8385365,
        1.2726128
      ],
      [
        103.8391539,
        1.2726365
      ],
      [
        103.839296,
        1.2726426
      ],
      [
        103.8394354,
        1.2726486
      ],
      [
        103.8394744,
        1.2726503
      ],
      [
        103.8398205,
        1.2726596
      ],
      [
        103.8399313,
        1.2726623
      ],
      [
        103.8400471,
        1.2726654
      ],
      [
        103.8419374,
        1.2727185
      ],
      [
        103.8419772,
        1.2727201
      ],
      [
        103.8422598,
        1.2727252
      ],
      [
        103.8426709,
        1.272733
      ],
      [
        103.8430022,
        1.2727458
      ],
      [
        103.8431087,
        1.2727497
      ],
      [
        103.8437991,
        1.2727659
      ],
      [
        103.8439163,
        1.2727696
      ],
      [
        103.8440424,
        1.2729059
      ],
      [
        103.8444093,
        1.2733019
      ],
      [
        103.8444977,
        1.2733936
      ],
      [
        103.8445737,
        1.273488
      ],
      [
        103.8447389,
        1.2736864
      ],
      [
        103.8450042,
        1.2740074
      ],
      [
        103.8451084,
        1.2741343
      ],
      [
        103.8451722,
        1.2742177
      ],
      [
        103.8453993,
        1.2745021
      ],
      [
        103.8455683,
        1.2746965
      ],
      [
        103.8455766,
        1.2747026
      ],
      [
        103.8456729,
        1.2748147
      ],
      [
        103.8457074,
        1.2748549
      ],
      [
        103.8457569,
        1.274913
      ],
      [
        103.8458088,
        1.2749743
      ],
      [
        103.845941,
        1.275142
      ],
      [
        103.8461507,
        1.2753973
      ],
      [
        103.8464492,
        1.275764
      ],
      [
        103.8464915,
        1.2758152
      ],
      [
        103.8466158,
        1.2759542
      ],
      [
        103.8467313,
        1.276088
      ],
      [
        103.8468201,
        1.2761893
      ],
      [
        103.8470551,
        1.2764618
      ],
      [
        103.8472225,
        1.2766075
      ],
      [
        103.8472472,
        1.276629
      ],
      [
        103.8473591,
        1.2767092
      ],
      [
        103.8473692,
        1.2767176
      ],
      [
        103.8474051,
        1.276748
      ],
      [
        103.847606,
        1.2769185
      ],
      [
        103.8478131,
        1.2771797
      ],
      [
        103.848052,
        1.2775832
      ],
      [
        103.8486161,
        1.2785002
      ],
      [
        103.8487939,
        1.2787901
      ],
      [
        103.8488095,
        1.2788159
      ],
      [
        103.8493545,
        1.2796985
      ],
      [
        103.8497724,
        1.2803753
      ],
      [
        103.8497996,
        1.2804169
      ],
      [
        103.8498296,
        1.2804625
      ],
      [
        103.8502824,
        1.2811508
      ],
      [
        103.8503193,
        1.281207
      ],
      [
        103.850353,
        1.2812427
      ],
      [
        103.8504915,
        1.281394
      ],
      [
        103.8505867,
        1.2815174
      ],
      [
        103.8508374,
        1.2818628
      ],
      [
        103.8509877,
        1.2821088
      ],
      [
        103.8510427,
        1.2822089
      ],
      [
        103.8511701,
        1.282406
      ],
      [
        103.8512053,
        1.282457
      ],
      [
        103.851221,
        1.2824797
      ],
      [
        103.851264,
        1.2825266
      ],
      [
        103.8513125,
        1.2825625
      ],
      [
        103.8517376,
        1.2823291
      ],
      [
        103.8518207,
        1.2822829
      ],
      [
        103.851904,
        1.2822371
      ],
      [
        103.85198,
        1.282188
      ],
      [
        103.8520704,
        1.2821298
      ],
      [
        103.8526833,
        1.2817345
      ],
      [
        103.8527331,
        1.2817024
      ],
      [
        103.8527756,
        1.281675
      ],
      [
        103.8528428,
        1.2816317
      ],
      [
        103.8532418,
        1.2813744
      ],
      [
        103.8533519,
        1.2813005
      ],
      [
        103.8533614,
        1.2812941
      ],
      [
        103.853373,
        1.2812864
      ],
      [
        103.8534449,
        1.2812433
      ],
      [
        103.853587,
        1.2811517
      ],
      [
        103.8537029,
        1.281077
      ],
      [
        103.8540735,
        1.280838
      ],
      [
        103.854166,
        1.2807783
      ]
    ]
  }
}