{
  "type": "Feature",
  "properties": {
    "relation": 3561382,
    "direction": "1",
    "fee": "yes",
    "from": "Opposite Sembawang Hills Food Centre",
    "name": "Svc 652 (Opposite Sembawang Hills Food Centre → Opposite MAS Building)",
    "name:en": "Svc 652 (Opposite Sembawang Hills Food Centre → Opposite MAS Building)",
    "network": "Land Transport Authority",
    "network:short": "LTA",
    "network:wikidata": "Q3299279",
    "network:wikipedia": "en:Land Transport Authority",
    "operator": "SBS Transit",
    "operator:wikidata": "Q2661305",
    "operator:wikipedia": "en:SBS Transit",
    "public_transport:version": "2",
    "ref": "652",
    "route": "bus",
    "to": "Opposite MAS Building",
    "type": "route",
    "website": "https://www.sbstransit.com.sg/"
  },
  "geometry": {
    "type": "LineString",
    "coordinates": [
      [
        103.8282794,
        1.3680462
      ],
      [
        103.8283132,
        1.3685295
      ],
      [
        103.8283828,
        1.3692946
      ],
      [
        103.8284253,
        1.3697905
      ],
      [
        103.8284697,
        1.3702469
      ],
      [
        103.8284743,
        1.3703197
      ],
      [
        103.8284943,
        1.370524
      ],
      [
        103.8285038,
        1.3706711
      ],
      [
        103.8285113,
        1.3707773
      ],
      [
        103.8285295,
        1.3710578
      ],
      [
        103.8285366,
        1.3711449
      ],
      [
        103.8285466,
        1.3714361
      ],
      [
        103.8285538,
        1.3715571
      ],
      [
        103.8285565,
        1.3716296
      ],
      [
        103.828557,
        1.3718088
      ],
      [
        103.8285398,
        1.3726537
      ],
      [
        103.828526,
        1.372946
      ],
      [
        103.8285225,
        1.3730473
      ],
      [
        103.8284657,
        1.3742641
      ],
      [
        103.8283769,
        1.3758957
      ],
      [
        103.8283486,
        1.3765025
      ],
      [
        103.8282922,
        1.3773411
      ],
      [
        103.8282154,
        1.377698
      ],
      [
        103.8281938,
        1.3777883
      ],
      [
        103.8281688,
        1.3778827
      ],
      [
        103.8282705,
        1.377915
      ],
      [
        103.8283257,
        1.3779397
      ],
      [
        103.828782,
        1.3782683
      ],
      [
        103.8292718,
        1.3786218
      ],
      [
        103.8295601,
        1.3788418
      ],
      [
        103.8298872,
        1.3790751
      ],
      [
        103.830904,
        1.3797569
      ],
      [
        103.831035,
        1.3798416
      ],
      [
        103.8313043,
        1.3800065
      ],
      [
        103.8313059,
        1.3800075
      ],
      [
        103.8314022,
        1.380065
      ],
      [
        103.8314254,
        1.3800792
      ],
      [
        103.8314964,
        1.3801233
      ],
      [
        103.8315602,
        1.3801596
      ],
      [
        103.8317711,
        1.3802797
      ],
      [
        103.8321775,
        1.3804756
      ],
      [
        103.8323016,
        1.3805285
      ],
      [
        103.8327688,
        1.3806729
      ],
      [
        103.8330119,
        1.3807471
      ],
      [
        103.8335112,
        1.3808655
      ],
      [
        103.8337735,
        1.3809334
      ],
      [
        103.833888,
        1.3809694
      ],
      [
        103.8341469,
        1.3810542
      ],
      [
        103.8342163,
        1.3810822
      ],
      [
        103.8343012,
        1.3811193
      ],
      [
        103.8343575,
        1.3809899
      ],
      [
        103.8343974,
        1.3809159
      ],
      [
        103.8345939,
        1.3805712
      ],
      [
        103.8350483,
        1.3799611
      ],
      [
        103.8350483,
        1.3799598
      ],
      [
        103.8350615,
        1.3799448
      ],
      [
        103.8351146,
        1.3798828
      ],
      [
        103.8352373,
        1.3797253
      ],
      [
        103.835569,
        1.3792491
      ],
      [
        103.8357637,
        1.3789808
      ],
      [
        103.8358361,
        1.3788832
      ],
      [
        103.8360027,
        1.3786604
      ],
      [
        103.8361049,
        1.3785238
      ],
      [
        103.8362267,
        1.3783613
      ],
      [
        103.8363833,
        1.3781221
      ],
      [
        103.8364417,
        1.3780558
      ],
      [
        103.8364938,
        1.3779967
      ],
      [
        103.8365469,
        1.3779364
      ],
      [
        103.8367279,
        1.3777265
      ],
      [
        103.8368841,
        1.3775868
      ],
      [
        103.8370192,
        1.3774857
      ],
      [
        103.8371081,
        1.3774359
      ],
      [
        103.837216,
        1.3773709
      ],
      [
        103.8374653,
        1.3772947
      ],
      [
        103.8376367,
        1.3772359
      ],
      [
        103.8377303,
        1.3772165
      ],
      [
        103.8378257,
        1.3771967
      ],
      [
        103.8381139,
        1.3771602
      ],
      [
        103.8385948,
        1.3771328
      ],
      [
        103.8389807,
        1.3771339
      ],
      [
        103.8394246,
        1.3771311
      ],
      [
        103.8395592,
        1.377139
      ],
      [
        103.8396805,
        1.3771316
      ],
      [
        103.8396598,
        1.377013
      ],
      [
        103.8396352,
        1.3769155
      ],
      [
        103.8395919,
        1.3767328
      ],
      [
        103.839547,
        1.3765393
      ],
      [
        103.8395021,
        1.3763375
      ],
      [
        103.8394425,
        1.3761356
      ],
      [
        103.839344,
        1.3759256
      ],
      [
        103.8392291,
        1.375717
      ],
      [
        103.8392108,
        1.3756905
      ],
      [
        103.8391133,
        1.3755494
      ],
      [
        103.839038,
        1.3754785
      ],
      [
        103.8389687,
        1.3754097
      ],
      [
        103.8388623,
        1.3753266
      ],
      [
        103.8387384,
        1.375217
      ],
      [
        103.8386964,
        1.3751868
      ],
      [
        103.8385632,
        1.3750911
      ],
      [
        103.8381761,
        1.3748435
      ],
      [
        103.8380943,
        1.3747878
      ],
      [
        103.8380501,
        1.3747578
      ],
      [
        103.837892,
        1.3746308
      ],
      [
        103.8378094,
        1.3745561
      ],
      [
        103.8377335,
        1.3744677
      ],
      [
        103.8376398,
        1.3743464
      ],
      [
        103.8375949,
        1.374278
      ],
      [
        103.8374775,
        1.3740538
      ],
      [
        103.8374001,
        1.3738185
      ],
      [
        103.8373647,
        1.3737012
      ],
      [
        103.8373369,
        1.3736274
      ],
      [
        103.8373254,
        1.3735904
      ],
      [
        103.8373061,
        1.3735281
      ],
      [
        103.8372868,
        1.373466
      ],
      [
        103.8372788,
        1.3734292
      ],
      [
        103.837264,
        1.3733879
      ],
      [
        103.8372411,
        1.3733252
      ],
      [
        103.8371796,
        1.3731694
      ],
      [
        103.8371123,
        1.3729766
      ],
      [
        103.8370716,
        1.3728524
      ],
      [
        103.8370206,
        1.3726969
      ],
      [
        103.8369538,
        1.3724931
      ],
      [
        103.8368594,
        1.3722277
      ],
      [
        103.836726,
        1.3718657
      ],
      [
        103.8367139,
        1.3718284
      ],
      [
        103.8366816,
        1.3717235
      ],
      [
        103.8366453,
        1.3715912
      ],
      [
        103.8366248,
        1.3715001
      ],
      [
        103.8366182,
        1.3714154
      ],
      [
        103.8366331,
        1.371144
      ],
      [
        103.8366433,
        1.3710475
      ],
      [
        103.8366465,
        1.3709628
      ],
      [
        103.8366493,
        1.3709035
      ],
      [
        103.8366565,
        1.3708013
      ],
      [
        103.8366684,
        1.3707147
      ],
      [
        103.8367262,
        1.3704328
      ],
      [
        103.8367808,
        1.3702847
      ],
      [
        103.83681,
        1.3702054
      ],
      [
        103.8369435,
        1.3699198
      ],
      [
        103.8371984,
        1.3694984
      ],
      [
        103.8372625,
        1.3694087
      ],
      [
        103.8373743,
        1.3694937
      ],
      [
        103.8376002,
        1.3696425
      ],
      [
        103.8380837,
        1.3698201
      ],
      [
        103.8383702,
        1.3698706
      ],
      [
        103.8386103,
        1.369902
      ],
      [
        103.8388413,
        1.3699068
      ],
      [
        103.8388693,
        1.3699088
      ],
      [
        103.8392777,
        1.3698631
      ],
      [
        103.8400939,
        1.3697774
      ],
      [
        103.8402862,
        1.3697533
      ],
      [
        103.8403665,
        1.3697356
      ],
      [
        103.8408317,
        1.3696763
      ],
      [
        103.8409074,
        1.36967
      ],
      [
        103.8413887,
        1.3696197
      ],
      [
        103.8416911,
        1.3695818
      ],
      [
        103.8423562,
        1.3695033
      ],
      [
        103.8426048,
        1.3694818
      ],
      [
        103.8427437,
        1.3694659
      ],
      [
        103.8428186,
        1.3694508
      ],
      [
        103.8431051,
        1.3694164
      ],
      [
        103.8432412,
        1.3693978
      ],
      [
        103.8434198,
        1.3693734
      ],
      [
        103.8435984,
        1.3693489
      ],
      [
        103.8439426,
        1.3693471
      ],
      [
        103.8440539,
        1.3693404
      ],
      [
        103.8441489,
        1.3693326
      ],
      [
        103.8444837,
        1.3692943
      ],
      [
        103.8446547,
        1.3692836
      ],
      [
        103.8447645,
        1.3692614
      ],
      [
        103.8454095,
        1.3691548
      ],
      [
        103.8455521,
        1.3691478
      ],
      [
        103.8456547,
        1.3691409
      ],
      [
        103.8457075,
        1.3691439
      ],
      [
        103.8459755,
        1.3690926
      ],
      [
        103.8464119,
        1.3690409
      ],
      [
        103.8468064,
        1.3689874
      ],
      [
        103.8469249,
        1.368967
      ],
      [
        103.8474384,
        1.3688976
      ],
      [
        103.8477057,
        1.3688648
      ],
      [
        103.847981,
        1.3688394
      ],
      [
        103.8482505,
        1.3688259
      ],
      [
        103.8485784,
        1.3688258
      ],
      [
        103.8487989,
        1.3688462
      ],
      [
        103.8490582,
        1.3688914
      ],
      [
        103.8494921,
        1.3689926
      ],
      [
        103.8495785,
        1.3690175
      ],
      [
        103.849639,
        1.369037
      ],
      [
        103.8497652,
        1.3690664
      ],
      [
        103.8498972,
        1.3690954
      ],
      [
        103.8502167,
        1.3691765
      ],
      [
        103.8509725,
        1.3694101
      ],
      [
        103.8511927,
        1.3694845
      ],
      [
        103.8516254,
        1.3696007
      ],
      [
        103.8519869,
        1.3696949
      ],
      [
        103.8520505,
        1.3697106
      ],
      [
        103.8522987,
        1.369771
      ],
      [
        103.8532344,
        1.3699285
      ],
      [
        103.8536571,
        1.3699186
      ],
      [
        103.8539149,
        1.3699003
      ],
      [
        103.8539355,
        1.3698979
      ],
      [
        103.8541601,
        1.3698658
      ],
      [
        103.8543452,
        1.3698132
      ],
      [
        103.8549212,
        1.3696455
      ],
      [
        103.855432,
        1.3694937
      ],
      [
        103.8558599,
        1.3693854
      ],
      [
        103.8560131,
        1.369342
      ],
      [
        103.8563484,
        1.3692545
      ],
      [
        103.8565221,
        1.3692193
      ],
      [
        103.8566989,
        1.3691679
      ],
      [
        103.8567822,
        1.3691436
      ],
      [
        103.8568528,
        1.3691273
      ],
      [
        103.8568587,
        1.3690255
      ],
      [
        103.8568621,
        1.3689565
      ],
      [
        103.8568619,
        1.3688332
      ],
      [
        103.8568597,
        1.3684256
      ],
      [
        103.856837,
        1.3678739
      ],
      [
        103.8568317,
        1.3678248
      ],
      [
        103.8568213,
        1.3677145
      ],
      [
        103.8567289,
        1.3672013
      ],
      [
        103.856667,
        1.3669634
      ],
      [
        103.8566571,
        1.3669091
      ],
      [
        103.8566015,
        1.3667247
      ],
      [
        103.8565011,
        1.3663921
      ],
      [
        103.856438,
        1.3662143
      ],
      [
        103.8563307,
        1.3658716
      ],
      [
        103.8561335,
        1.3653592
      ],
      [
        103.8560259,
        1.3650325
      ],
      [
        103.8560117,
        1.3649805
      ],
      [
        103.8559378,
        1.3646309
      ],
      [
        103.8559096,
        1.3642728
      ],
      [
        103.8559077,
        1.3642394
      ],
      [
        103.8558928,
        1.363985
      ],
      [
        103.8558896,
        1.3639368
      ],
      [
        103.8558893,
        1.3638844
      ],
      [
        103.855889,
        1.3638351
      ],
      [
        103.8558839,
        1.3630384
      ],
      [
        103.8558819,
        1.3626054
      ],
      [
        103.8558808,
        1.3623808
      ],
      [
        103.8558762,
        1.3618911
      ],
      [
        103.8558723,
        1.3613536
      ],
      [
        103.8558585,
        1.360823
      ],
      [
        103.8558561,
        1.3607399
      ],
      [
        103.8558423,
        1.3606598
      ],
      [
        103.8558292,
        1.3605797
      ],
      [
        103.8558114,
        1.3604954
      ],
      [
        103.8557768,
        1.360331
      ],
      [
        103.8556587,
        1.3600198
      ],
      [
        103.8556253,
        1.3599501
      ],
      [
        103.8555048,
        1.359712
      ],
      [
        103.8554883,
        1.3596891
      ],
      [
        103.8554749,
        1.3596704
      ],
      [
        103.8552428,
        1.3593484
      ],
      [
        103.8548594,
        1.359006
      ],
      [
        103.8544397,
        1.3587105
      ],
      [
        103.8540488,
        1.3584434
      ],
      [
        103.8540065,
        1.3584134
      ],
      [
        103.8544611,
        1.3574225
      ],
      [
        103.854621,
        1.3571219
      ],
      [
        103.8547312,
        1.3569558
      ],
      [
        103.8548533,
        1.3567739
      ],
      [
        103.8550019,
        1.3566083
      ],
      [
        103.8553137,
        1.3563024
      ],
      [
        103.8555076,
        1.3561699
      ],
      [
        103.8555845,
        1.3561173
      ],
      [
        103.8560309,
        1.355855
      ],
      [
        103.8562158,
        1.3557676
      ],
      [
        103.8565897,
        1.3556521
      ],
      [
        103.8567223,
        1.3555366
      ],
      [
        103.8568727,
        1.3554056
      ],
      [
        103.8570421,
        1.3552923
      ],
      [
        103.8571561,
        1.3551763
      ],
      [
        103.8572495,
        1.3550683
      ],
      [
        103.8573296,
        1.3549563
      ],
      [
        103.8573985,
        1.3548377
      ],
      [
        103.8574427,
        1.3546919
      ],
      [
        103.8574687,
        1.3545359
      ],
      [
        103.8574587,
        1.3543625
      ],
      [
        103.8574282,
        1.3541229
      ],
      [
        103.8573319,
        1.3536383
      ],
      [
        103.8573,
        1.3533412
      ],
      [
        103.857321,
        1.3530265
      ],
      [
        103.8573754,
        1.352718
      ],
      [
        103.8574546,
        1.3520962
      ],
      [
        103.8577247,
        1.3512432
      ],
      [
        103.8582599,
        1.3497588
      ],
      [
        103.8583407,
        1.3495184
      ],
      [
        103.8586032,
        1.3487377
      ],
      [
        103.8590239,
        1.3475367
      ],
      [
        103.8591013,
        1.3473053
      ],
      [
        103.8591377,
        1.347147
      ],
      [
        103.859341,
        1.3465854
      ],
      [
        103.8596646,
        1.3458052
      ],
      [
        103.8599046,
        1.3451476
      ],
      [
        103.8599837,
        1.3448376
      ],
      [
        103.8608606,
        1.3423365
      ],
      [
        103.8612815,
        1.341189
      ],
      [
        103.8617901,
        1.339826
      ],
      [
        103.8619084,
        1.339404
      ],
      [
        103.8620312,
        1.3388833
      ],
      [
        103.8621201,
        1.3383601
      ],
      [
        103.8621303,
        1.3382767
      ],
      [
        103.8621393,
        1.3381776
      ],
      [
        103.8621728,
        1.3375612
      ],
      [
        103.8621944,
        1.3371331
      ],
      [
        103.8622206,
        1.3366456
      ],
      [
        103.8622433,
        1.3362871
      ],
      [
        103.8622564,
        1.3352635
      ],
      [
        103.8622939,
        1.3344495
      ],
      [
        103.862312,
        1.3341591
      ],
      [
        103.8623507,
        1.3334597
      ],
      [
        103.8623553,
        1.3332508
      ],
      [
        103.8624219,
        1.3315672
      ],
      [
        103.862424,
        1.329832
      ],
      [
        103.8623903,
        1.3293483
      ],
      [
        103.8623714,
        1.3291025
      ],
      [
        103.8622723,
        1.3286564
      ],
      [
        103.8621611,
        1.328241
      ],
      [
        103.8617932,
        1.3273373
      ],
      [
        103.8614553,
        1.3268121
      ],
      [
        103.861246,
        1.3265306
      ],
      [
        103.8608506,
        1.3260993
      ],
      [
        103.860634,
        1.3258868
      ],
      [
        103.8599358,
        1.3252418
      ],
      [
        103.8596678,
        1.3249918
      ],
      [
        103.8589809,
        1.3243512
      ],
      [
        103.8585017,
        1.3239018
      ],
      [
        103.8583445,
        1.3237545
      ],
      [
        103.8581874,
        1.3236071
      ],
      [
        103.8579285,
        1.3233592
      ],
      [
        103.8577964,
        1.3232253
      ],
      [
        103.8575584,
        1.3229297
      ],
      [
        103.856535,
        1.321741
      ],
      [
        103.8564923,
        1.3216914
      ],
      [
        103.8563696,
        1.3215628
      ],
      [
        103.8560287,
        1.3212197
      ],
      [
        103.8556393,
        1.3208617
      ],
      [
        103.8552404,
        1.3205324
      ],
      [
        103.8541098,
        1.3197514
      ],
      [
        103.8538304,
        1.3195591
      ],
      [
        103.8535398,
        1.3193745
      ],
      [
        103.8526531,
        1.3189738
      ],
      [
        103.8518878,
        1.3186061
      ],
      [
        103.850824,
        1.3180936
      ],
      [
        103.8503567,
        1.3178851
      ],
      [
        103.8500269,
        1.3177386
      ],
      [
        103.8483712,
        1.3170033
      ],
      [
        103.8483262,
        1.3169785
      ],
      [
        103.848154,
        1.3168902
      ],
      [
        103.8478254,
        1.3166972
      ],
      [
        103.8473614,
        1.3163754
      ],
      [
        103.8470234,
        1.3160858
      ],
      [
        103.846775,
        1.3158513
      ],
      [
        103.8464163,
        1.3154758
      ],
      [
        103.8457641,
        1.314541
      ],
      [
        103.8457207,
        1.3144648
      ],
      [
        103.8457047,
        1.3144333
      ],
      [
        103.8456486,
        1.3143228
      ],
      [
        103.845615,
        1.3142567
      ],
      [
        103.8455725,
        1.3141731
      ],
      [
        103.8455378,
        1.3141048
      ],
      [
        103.8455114,
        1.3140528
      ],
      [
        103.8454729,
        1.3139715
      ],
      [
        103.845312,
        1.3136533
      ],
      [
        103.8452327,
        1.3134652
      ],
      [
        103.8451313,
        1.3131694
      ],
      [
        103.8450377,
        1.3127905
      ],
      [
        103.8447927,
        1.3116701
      ],
      [
        103.8447093,
        1.3113608
      ],
      [
        103.8445578,
        1.3109215
      ],
      [
        103.8444007,
        1.3105671
      ],
      [
        103.8440901,
        1.3100489
      ],
      [
        103.8438865,
        1.3097884
      ],
      [
        103.8435838,
        1.3094808
      ],
      [
        103.8430795,
        1.3090241
      ],
      [
        103.8428282,
        1.3088208
      ],
      [
        103.8418494,
        1.3081959
      ],
      [
        103.8415223,
        1.3079485
      ],
      [
        103.8411896,
        1.3076548
      ],
      [
        103.8406297,
        1.3070025
      ],
      [
        103.8404639,
        1.306731
      ],
      [
        103.8403355,
        1.3064282
      ],
      [
        103.8402144,
        1.3060809
      ],
      [
        103.8401717,
        1.3058733
      ],
      [
        103.8401234,
        1.3055193
      ],
      [
        103.8400912,
        1.3052351
      ],
      [
        103.8401194,
        1.3048838
      ],
      [
        103.8402141,
        1.304433
      ],
      [
        103.8402791,
        1.304223
      ],
      [
        103.8403814,
        1.3039527
      ],
      [
        103.8406251,
        1.3035425
      ],
      [
        103.8407341,
        1.3033909
      ],
      [
        103.8408784,
        1.3032144
      ],
      [
        103.8415685,
        1.3026463
      ],
      [
        103.8416617,
        1.3026259
      ],
      [
        103.84171,
        1.302605
      ],
      [
        103.841777,
        1.3025589
      ],
      [
        103.8424729,
        1.3020852
      ],
      [
        103.8427756,
        1.3018898
      ],
      [
        103.8429485,
        1.3017585
      ],
      [
        103.8430873,
        1.3016099
      ],
      [
        103.8431626,
        1.3014635
      ],
      [
        103.8432189,
        1.3013331
      ],
      [
        103.8432549,
        1.3012029
      ],
      [
        103.8432625,
        1.3011167
      ],
      [
        103.8432803,
        1.3009555
      ],
      [
        103.8432688,
        1.3009031
      ],
      [
        103.8432605,
        1.30086
      ],
      [
        103.8432414,
        1.3007682
      ],
      [
        103.8432069,
        1.3006302
      ],
      [
        103.8431898,
        1.300569
      ],
      [
        103.843113,
        1.3002598
      ],
      [
        103.8430981,
        1.3001998
      ],
      [
        103.8430911,
        1.3001715
      ],
      [
        103.8430709,
        1.3000791
      ],
      [
        103.8430705,
        1.3000554
      ],
      [
        103.8430774,
        1.300037
      ],
      [
        103.8431335,
        1.2999773
      ],
      [
        103.8435446,
        1.2998446
      ],
      [
        103.8436685,
        1.2998015
      ],
      [
        103.8438222,
        1.299748
      ],
      [
        103.8439846,
        1.2996931
      ],
      [
        103.8442578,
        1.2996008
      ],
      [
        103.844592,
        1.2994879
      ],
      [
        103.8448857,
        1.29939
      ],
      [
        103.845461,
        1.299203
      ],
      [
        103.8457049,
        1.2991257
      ],
      [
        103.8457167,
        1.299122
      ],
      [
        103.845733,
        1.2991169
      ],
      [
        103.8457575,
        1.2991091
      ],
      [
        103.8458124,
        1.2990917
      ],
      [
        103.8463783,
        1.298908
      ],
      [
        103.8465819,
        1.2988347
      ],
      [
        103.8467733,
        1.2987639
      ],
      [
        103.8469449,
        1.2987223
      ],
      [
        103.8471133,
        1.2986962
      ],
      [
        103.8473037,
        1.2986888
      ],
      [
        103.8473514,
        1.2986907
      ],
      [
        103.8474666,
        1.2986928
      ],
      [
        103.8475317,
        1.2986942
      ],
      [
        103.8480493,
        1.2987257
      ],
      [
        103.848166,
        1.2987297
      ],
      [
        103.8483779,
        1.2987243
      ],
      [
        103.8485388,
        1.2986801
      ],
      [
        103.8485558,
        1.2986733
      ],
      [
        103.848595,
        1.2986574
      ],
      [
        103.8486566,
        1.2986176
      ],
      [
        103.8487115,
        1.2985833
      ],
      [
        103.8487849,
        1.2985263
      ],
      [
        103.849494,
        1.2979713
      ],
      [
        103.8495583,
        1.2979207
      ],
      [
        103.8495898,
        1.2978959
      ],
      [
        103.8496064,
        1.2978828
      ],
      [
        103.8497208,
        1.2977928
      ],
      [
        103.8499544,
        1.2976056
      ],
      [
        103.850139,
        1.2974549
      ],
      [
        103.8502759,
        1.2973461
      ],
      [
        103.8503328,
        1.2973008
      ],
      [
        103.8506353,
        1.2970604
      ],
      [
        103.8506786,
        1.297026
      ],
      [
        103.8508325,
        1.2969036
      ],
      [
        103.8508556,
        1.2968853
      ],
      [
        103.8510876,
        1.2967008
      ],
      [
        103.8511117,
        1.2966816
      ],
      [
        103.8518683,
        1.2960619
      ],
      [
        103.8519011,
        1.2960284
      ],
      [
        103.8520195,
        1.2959364
      ],
      [
        103.8520509,
        1.2959104
      ],
      [
        103.8523784,
        1.2956728
      ],
      [
        103.8525329,
        1.2955563
      ],
      [
        103.8528475,
        1.2953191
      ],
      [
        103.8530449,
        1.2951699
      ],
      [
        103.8531036,
        1.2951261
      ],
      [
        103.8532241,
        1.2950321
      ],
      [
        103.8534533,
        1.2948623
      ],
      [
        103.8538919,
        1.2945341
      ],
      [
        103.8540128,
        1.294437
      ],
      [
        103.8541121,
        1.2943592
      ],
      [
        103.8542348,
        1.294267
      ],
      [
        103.8545651,
        1.2940015
      ],
      [
        103.8546543,
        1.2939345
      ],
      [
        103.8547866,
        1.2938316
      ],
      [
        103.8553292,
        1.2934669
      ],
      [
        103.8557229,
        1.2932314
      ],
      [
        103.8558226,
        1.293172
      ],
      [
        103.8559769,
        1.2930831
      ],
      [
        103.8555084,
        1.2922383
      ],
      [
        103.8553627,
        1.291989
      ],
      [
        103.8552421,
        1.2917631
      ],
      [
        103.8550495,
        1.2914024
      ],
      [
        103.8550077,
        1.291324
      ],
      [
        103.8549222,
        1.2910827
      ],
      [
        103.8548828,
        1.2909735
      ],
      [
        103.8547722,
        1.2906554
      ],
      [
        103.8546839,
        1.2904014
      ],
      [
        103.8546677,
        1.2903412
      ],
      [
        103.8546242,
        1.2901772
      ],
      [
        103.8546059,
        1.2901081
      ],
      [
        103.8545929,
        1.2900434
      ],
      [
        103.8545847,
        1.2900031
      ],
      [
        103.8545152,
        1.289661
      ],
      [
        103.8545091,
        1.2896309
      ],
      [
        103.8544951,
        1.2895618
      ],
      [
        103.8544491,
        1.2893353
      ],
      [
        103.8544324,
        1.2892532
      ],
      [
        103.85437,
        1.2889292
      ],
      [
        103.8541517,
        1.2877946
      ],
      [
        103.8539338,
        1.2866643
      ],
      [
        103.853923,
        1.286596
      ],
      [
        103.8539139,
        1.2865299
      ],
      [
        103.8538963,
        1.2864287
      ],
      [
        103.8538808,
        1.286353
      ],
      [
        103.8538783,
        1.2863408
      ],
      [
        103.8538728,
        1.286314
      ],
      [
        103.8538373,
        1.286137
      ],
      [
        103.8537871,
        1.2859894
      ],
      [
        103.8537139,
        1.2857465
      ],
      [
        103.8536358,
        1.2855608
      ],
      [
        103.8536002,
        1.2854763
      ],
      [
        103.8532555,
        1.284712
      ],
      [
        103.8531867,
        1.2845379
      ],
      [
        103.8530691,
        1.2842401
      ],
      [
        103.8529296,
        1.2838754
      ],
      [
        103.8529182,
        1.2838447
      ],
      [
        103.8528842,
        1.2837265
      ],
      [
        103.8527982,
        1.2834825
      ],
      [
        103.8527325,
        1.2833082
      ],
      [
        103.8526861,
        1.2831883
      ],
      [
        103.8525758,
        1.2830036
      ],
      [
        103.8524793,
        1.2828602
      ],
      [
        103.8523559,
        1.282671
      ],
      [
        103.8523114,
        1.2826027
      ],
      [
        103.8522696,
        1.2825365
      ],
      [
        103.8520783,
        1.2823158
      ],
      [
        103.8520183,
        1.2822383
      ],
      [
        103.85198,
        1.282188
      ],
      [
        103.8519409,
        1.2821265
      ],
      [
        103.8516447,
        1.2816612
      ],
      [
        103.8515109,
        1.281451
      ],
      [
        103.851143,
        1.280885
      ],
      [
        103.8511072,
        1.2808299
      ],
      [
        103.8510547,
        1.2807498
      ],
      [
        103.8505993,
        1.2800134
      ],
      [
        103.8505593,
        1.2799487
      ],
      [
        103.8502458,
        1.279421
      ],
      [
        103.8500047,
        1.2790151
      ],
      [
        103.8499108,
        1.2788687
      ],
      [
        103.8498119,
        1.2787145
      ],
      [
        103.8496182,
        1.2783984
      ],
      [
        103.8495895,
        1.2783516
      ],
      [
        103.8495351,
        1.2782591
      ],
      [
        103.8495062,
        1.2782142
      ],
      [
        103.8491009,
        1.2775194
      ],
      [
        103.8490242,
        1.2773896
      ],
      [
        103.8488901,
        1.2771626
      ],
      [
        103.8487622,
        1.2769574
      ],
      [
        103.8487242,
        1.2768974
      ],
      [
        103.8482674,
        1.2761757
      ],
      [
        103.8482079,
        1.2760817
      ],
      [
        103.84812,
        1.2759524
      ],
      [
        103.8480702,
        1.2758823
      ],
      [
        103.8478787,
        1.2756103
      ],
      [
        103.8478554,
        1.2755773
      ],
      [
        103.8475899,
        1.2751584
      ],
      [
        103.84753,
        1.2750774
      ],
      [
        103.8474839,
        1.2749989
      ],
      [
        103.8474379,
        1.2749354
      ],
      [
        103.8473428,
        1.2748053
      ],
      [
        103.8467498,
        1.2741432
      ],
      [
        103.8466416,
        1.2740145
      ],
      [
        103.8466293,
        1.2740005
      ],
      [
        103.8463864,
        1.2737238
      ],
      [
        103.8463319,
        1.2736617
      ]
    ]
  }
}