{
  "type": "Feature",
  "properties": {
    "relation": 12980619,
    "direction": "2",
    "fee": "yes",
    "from": "Marina Bay Station",
    "name": "Svc 661 (Marina Bay Station → Opposite Blk 479)",
    "name:en": "Svc 661 (Marina Bay Station → Opposite Blk 479)",
    "network": "Land Transport Authority",
    "network:short": "LTA",
    "network:wikidata": "Q3299279",
    "network:wikipedia": "en:Land Transport Authority",
    "operator": "Go-Ahead Singapore",
    "operator:wikidata": "Q24698874",
    "operator:wikipedia": "en:Go-Ahead Singapore",
    "public_transport:version": "2",
    "ref": "661",
    "route": "bus",
    "to": "Opposite Blk 479",
    "type": "route",
    "website": "https://go-aheadsingapore.com/bus-services/"
  },
  "geometry": {
    "type": "LineString",
    "coordinates": [
      [
        103.8560929,
        1.2773425
      ],
      [
        103.8559886,
        1.277411
      ],
      [
        103.8553351,
        1.27784
      ],
      [
        103.8552258,
        1.2779108
      ],
      [
        103.8549895,
        1.278067
      ],
      [
        103.8547052,
        1.2782536
      ],
      [
        103.8546153,
        1.2783126
      ],
      [
        103.854544,
        1.2783594
      ],
      [
        103.8539363,
        1.2787584
      ],
      [
        103.8537637,
        1.2788717
      ],
      [
        103.85325,
        1.279209
      ],
      [
        103.8531841,
        1.2792523
      ],
      [
        103.8531022,
        1.2793061
      ],
      [
        103.8528069,
        1.2794999
      ],
      [
        103.852512,
        1.2796935
      ],
      [
        103.852479,
        1.2797152
      ],
      [
        103.8524334,
        1.2797452
      ],
      [
        103.8523789,
        1.2797809
      ],
      [
        103.8523141,
        1.2798235
      ],
      [
        103.8521817,
        1.2799104
      ],
      [
        103.851976,
        1.2800386
      ],
      [
        103.8518734,
        1.2801189
      ],
      [
        103.8515053,
        1.2804255
      ],
      [
        103.8511721,
        1.2806591
      ],
      [
        103.8510547,
        1.2807498
      ],
      [
        103.8505993,
        1.2800134
      ],
      [
        103.8505593,
        1.2799487
      ],
      [
        103.8502458,
        1.279421
      ],
      [
        103.8500047,
        1.2790151
      ],
      [
        103.8499108,
        1.2788687
      ],
      [
        103.8498119,
        1.2787145
      ],
      [
        103.8496182,
        1.2783984
      ],
      [
        103.8495895,
        1.2783516
      ],
      [
        103.8495351,
        1.2782591
      ],
      [
        103.8495062,
        1.2782142
      ],
      [
        103.8491009,
        1.2775194
      ],
      [
        103.8490242,
        1.2773896
      ],
      [
        103.8488901,
        1.2771626
      ],
      [
        103.8487622,
        1.2769574
      ],
      [
        103.8487242,
        1.2768974
      ],
      [
        103.8482674,
        1.2761757
      ],
      [
        103.8482079,
        1.2760817
      ],
      [
        103.84812,
        1.2759524
      ],
      [
        103.8480702,
        1.2758823
      ],
      [
        103.8478787,
        1.2756103
      ],
      [
        103.8478554,
        1.2755773
      ],
      [
        103.8475899,
        1.2751584
      ],
      [
        103.84753,
        1.2750774
      ],
      [
        103.8474839,
        1.2749989
      ],
      [
        103.8474379,
        1.2749354
      ],
      [
        103.8473428,
        1.2748053
      ],
      [
        103.8467498,
        1.2741432
      ],
      [
        103.8466416,
        1.2740145
      ],
      [
        103.8466293,
        1.2740005
      ],
      [
        103.8463864,
        1.2737238
      ],
      [
        103.8463319,
        1.2736617
      ],
      [
        103.8462884,
        1.2736127
      ],
      [
        103.8461736,
        1.2734806
      ],
      [
        103.8461196,
        1.2734157
      ],
      [
        103.8460739,
        1.273357
      ],
      [
        103.8459364,
        1.2731708
      ],
      [
        103.8459264,
        1.2731573
      ],
      [
        103.84591,
        1.2731354
      ],
      [
        103.8459912,
        1.2728857
      ],
      [
        103.8460005,
        1.2728579
      ],
      [
        103.8460257,
        1.2728211
      ],
      [
        103.8460586,
        1.2727921
      ],
      [
        103.8460977,
        1.2727649
      ],
      [
        103.8461859,
        1.2727305
      ],
      [
        103.8464812,
        1.2726969
      ],
      [
        103.8467977,
        1.2726599
      ],
      [
        103.8469834,
        1.2726353
      ],
      [
        103.8470648,
        1.272623
      ],
      [
        103.8471666,
        1.2726127
      ],
      [
        103.8473238,
        1.2726104
      ],
      [
        103.8475067,
        1.2726109
      ],
      [
        103.847704,
        1.2726239
      ],
      [
        103.8478763,
        1.2726527
      ],
      [
        103.8480396,
        1.2726837
      ],
      [
        103.8482175,
        1.2727344
      ],
      [
        103.8483952,
        1.2727973
      ],
      [
        103.8486038,
        1.272887
      ],
      [
        103.8494222,
        1.2732361
      ],
      [
        103.8497632,
        1.2734025
      ],
      [
        103.8500074,
        1.2735129
      ],
      [
        103.8502709,
        1.2736039
      ],
      [
        103.8505229,
        1.2736756
      ],
      [
        103.8507825,
        1.2737279
      ],
      [
        103.851017,
        1.2737647
      ],
      [
        103.8512166,
        1.2737744
      ],
      [
        103.8514104,
        1.2737705
      ],
      [
        103.851639,
        1.2737531
      ],
      [
        103.8519394,
        1.2736969
      ],
      [
        103.8521738,
        1.2736326
      ],
      [
        103.8524315,
        1.273548
      ],
      [
        103.8526282,
        1.2734674
      ],
      [
        103.8527955,
        1.2733887
      ],
      [
        103.8530198,
        1.2732628
      ],
      [
        103.8538209,
        1.2727429
      ],
      [
        103.8547909,
        1.2721126
      ],
      [
        103.8563172,
        1.2711381
      ],
      [
        103.8564659,
        1.2710404
      ],
      [
        103.8566892,
        1.2709151
      ],
      [
        103.8569167,
        1.2707935
      ],
      [
        103.8570596,
        1.2707326
      ],
      [
        103.8572317,
        1.2706719
      ],
      [
        103.8575045,
        1.2705512
      ],
      [
        103.8579544,
        1.270445
      ],
      [
        103.8583014,
        1.270404
      ],
      [
        103.8587078,
        1.2704012
      ],
      [
        103.8588936,
        1.2704122
      ],
      [
        103.8590982,
        1.2704362
      ],
      [
        103.8592841,
        1.2704744
      ],
      [
        103.8595095,
        1.2705305
      ],
      [
        103.8596847,
        1.2705785
      ],
      [
        103.8599227,
        1.2706555
      ],
      [
        103.8601411,
        1.2707383
      ],
      [
        103.8603205,
        1.2708165
      ],
      [
        103.8605275,
        1.2709188
      ],
      [
        103.8607372,
        1.271045
      ],
      [
        103.8622733,
        1.2721229
      ],
      [
        103.864693,
        1.2738028
      ],
      [
        103.8648243,
        1.2739104
      ],
      [
        103.8658234,
        1.2746507
      ],
      [
        103.8663922,
        1.2750732
      ],
      [
        103.8691347,
        1.2769832
      ],
      [
        103.8711114,
        1.2783821
      ],
      [
        103.8723333,
        1.2792979
      ],
      [
        103.873062,
        1.2798442
      ],
      [
        103.8759955,
        1.2820188
      ],
      [
        103.8764168,
        1.2823284
      ],
      [
        103.8766648,
        1.2825223
      ],
      [
        103.8771375,
        1.282883
      ],
      [
        103.8774672,
        1.2832535
      ],
      [
        103.8777454,
        1.2836675
      ],
      [
        103.8779871,
        1.2841735
      ],
      [
        103.8781441,
        1.2847157
      ],
      [
        103.8781951,
        1.2851091
      ],
      [
        103.8782055,
        1.2855247
      ],
      [
        103.8781963,
        1.2857759
      ],
      [
        103.8781925,
        1.285881
      ],
      [
        103.8781064,
        1.2862343
      ],
      [
        103.8779325,
        1.28671
      ],
      [
        103.8776942,
        1.2871541
      ],
      [
        103.8765355,
        1.2885654
      ],
      [
        103.8759183,
        1.289399
      ],
      [
        103.875656,
        1.2898422
      ],
      [
        103.8754532,
        1.2902882
      ],
      [
        103.8752783,
        1.2908217
      ],
      [
        103.8751776,
        1.291377
      ],
      [
        103.875148,
        1.2919852
      ],
      [
        103.8751877,
        1.2926133
      ],
      [
        103.8752361,
        1.2928701
      ],
      [
        103.8752673,
        1.2930488
      ],
      [
        103.8754483,
        1.2936512
      ],
      [
        103.8757099,
        1.2944501
      ],
      [
        103.8758998,
        1.2950073
      ],
      [
        103.8766693,
        1.2973415
      ],
      [
        103.8767555,
        1.2975425
      ],
      [
        103.8778494,
        1.3003915
      ],
      [
        103.8780809,
        1.3016741
      ],
      [
        103.878006,
        1.3026255
      ],
      [
        103.8778573,
        1.3035574
      ],
      [
        103.8777382,
        1.3039411
      ],
      [
        103.8757561,
        1.3092218
      ],
      [
        103.8755261,
        1.3101967
      ],
      [
        103.875174,
        1.3118253
      ],
      [
        103.8748255,
        1.3137922
      ],
      [
        103.8748039,
        1.313914
      ],
      [
        103.8747029,
        1.3144066
      ],
      [
        103.8745037,
        1.3154955
      ],
      [
        103.8744784,
        1.315923
      ],
      [
        103.8744733,
        1.3165466
      ],
      [
        103.8744691,
        1.3166556
      ],
      [
        103.8744913,
        1.3169234
      ],
      [
        103.8745375,
        1.3172362
      ],
      [
        103.8745963,
        1.3175136
      ],
      [
        103.8746492,
        1.3177026
      ],
      [
        103.8748185,
        1.3184569
      ],
      [
        103.8748694,
        1.3186594
      ],
      [
        103.8749582,
        1.3189386
      ],
      [
        103.8750258,
        1.3190808
      ],
      [
        103.8751017,
        1.3191918
      ],
      [
        103.8752122,
        1.3193659
      ],
      [
        103.8753038,
        1.3194746
      ],
      [
        103.8754117,
        1.3195802
      ],
      [
        103.8756065,
        1.31974
      ],
      [
        103.8758528,
        1.31987
      ],
      [
        103.8760754,
        1.3199619
      ],
      [
        103.8763142,
        1.3200398
      ],
      [
        103.8765365,
        1.320097
      ],
      [
        103.8767736,
        1.3201381
      ],
      [
        103.8771432,
        1.3201892
      ],
      [
        103.8774447,
        1.3201979
      ],
      [
        103.8777717,
        1.3201908
      ],
      [
        103.8782361,
        1.3201727
      ],
      [
        103.8788522,
        1.3201652
      ],
      [
        103.879093,
        1.3201779
      ],
      [
        103.8792689,
        1.3201943
      ],
      [
        103.879399,
        1.3202132
      ],
      [
        103.8795344,
        1.3202423
      ],
      [
        103.8796774,
        1.3202899
      ],
      [
        103.8797997,
        1.3203365
      ],
      [
        103.8798659,
        1.3203616
      ],
      [
        103.8801403,
        1.3203926
      ],
      [
        103.8813338,
        1.3208807
      ],
      [
        103.8820043,
        1.321157
      ],
      [
        103.8833755,
        1.3217209
      ],
      [
        103.8842055,
        1.3220629
      ],
      [
        103.8845777,
        1.3221862
      ],
      [
        103.8847943,
        1.3222371
      ],
      [
        103.8849119,
        1.3222595
      ],
      [
        103.8849847,
        1.3222735
      ],
      [
        103.8850117,
        1.3222787
      ],
      [
        103.8851034,
        1.3222918
      ],
      [
        103.8853523,
        1.3223248
      ],
      [
        103.8856183,
        1.3223416
      ],
      [
        103.8859258,
        1.3223547
      ],
      [
        103.8861802,
        1.3223405
      ],
      [
        103.8863754,
        1.3223397
      ],
      [
        103.8874493,
        1.3223682
      ],
      [
        103.887919,
        1.3224184
      ],
      [
        103.8885099,
        1.3224893
      ],
      [
        103.8891228,
        1.3225865
      ],
      [
        103.8910818,
        1.3230143
      ],
      [
        103.892464,
        1.3233454
      ],
      [
        103.8934128,
        1.3235713
      ],
      [
        103.8948489,
        1.3238851
      ],
      [
        103.8952422,
        1.323972
      ],
      [
        103.8956208,
        1.3240631
      ],
      [
        103.8966284,
        1.3242527
      ],
      [
        103.8986026,
        1.3246434
      ],
      [
        103.9009243,
        1.3250973
      ],
      [
        103.9025149,
        1.325397
      ],
      [
        103.9028475,
        1.3254579
      ],
      [
        103.9028735,
        1.3254626
      ],
      [
        103.9029635,
        1.3254791
      ],
      [
        103.9032024,
        1.3255228
      ],
      [
        103.9037988,
        1.3256607
      ],
      [
        103.9047167,
        1.3259184
      ],
      [
        103.9070991,
        1.3266324
      ],
      [
        103.9073922,
        1.3267195
      ],
      [
        103.9084529,
        1.3270497
      ],
      [
        103.9086674,
        1.3271286
      ],
      [
        103.9088577,
        1.3272054
      ],
      [
        103.9092473,
        1.3273969
      ],
      [
        103.9094635,
        1.3275157
      ],
      [
        103.9107444,
        1.3282601
      ],
      [
        103.91133,
        1.3285994
      ],
      [
        103.9118459,
        1.3288795
      ],
      [
        103.9125581,
        1.3292265
      ],
      [
        103.9134124,
        1.3296266
      ],
      [
        103.9150182,
        1.3303932
      ],
      [
        103.9172011,
        1.3314122
      ],
      [
        103.91774,
        1.3316744
      ],
      [
        103.917921,
        1.3317641
      ],
      [
        103.918511,
        1.332046
      ],
      [
        103.9192674,
        1.3323826
      ],
      [
        103.9193052,
        1.3324018
      ],
      [
        103.9195863,
        1.3325223
      ],
      [
        103.9202278,
        1.3328307
      ],
      [
        103.9210482,
        1.3332113
      ],
      [
        103.9218626,
        1.3335891
      ],
      [
        103.9237419,
        1.3344437
      ],
      [
        103.9240222,
        1.3345656
      ],
      [
        103.9241726,
        1.3346269
      ],
      [
        103.9243223,
        1.3346841
      ],
      [
        103.924487,
        1.3347421
      ],
      [
        103.9250234,
        1.3349166
      ],
      [
        103.925242,
        1.3349857
      ],
      [
        103.9256066,
        1.3350908
      ],
      [
        103.9258742,
        1.3351609
      ],
      [
        103.9261306,
        1.3352207
      ],
      [
        103.9264489,
        1.3352862
      ],
      [
        103.9267443,
        1.3353412
      ],
      [
        103.9272099,
        1.3354238
      ],
      [
        103.9277638,
        1.335514
      ],
      [
        103.9282192,
        1.3355588
      ],
      [
        103.9283208,
        1.3355666
      ],
      [
        103.9285994,
        1.3355843
      ],
      [
        103.9288615,
        1.3355998
      ],
      [
        103.9291628,
        1.3356112
      ],
      [
        103.9293876,
        1.3356154
      ],
      [
        103.9300848,
        1.3356027
      ],
      [
        103.9319891,
        1.3354931
      ],
      [
        103.9330181,
        1.3354183
      ],
      [
        103.934121,
        1.3353443
      ],
      [
        103.9353911,
        1.3352603
      ],
      [
        103.9368943,
        1.33516
      ],
      [
        103.9373172,
        1.3351358
      ],
      [
        103.9377742,
        1.3351204
      ],
      [
        103.9381354,
        1.3351217
      ],
      [
        103.9383446,
        1.3351324
      ],
      [
        103.9384599,
        1.3351438
      ],
      [
        103.9385738,
        1.3351593
      ],
      [
        103.9386885,
        1.3351794
      ],
      [
        103.9388032,
        1.3352048
      ],
      [
        103.9389204,
        1.3352388
      ],
      [
        103.9390349,
        1.3352768
      ],
      [
        103.9391886,
        1.3353359
      ],
      [
        103.9393356,
        1.3354079
      ],
      [
        103.9394504,
        1.3354766
      ],
      [
        103.9400264,
        1.3358946
      ],
      [
        103.9406986,
        1.3364081
      ],
      [
        103.9420011,
        1.3375109
      ],
      [
        103.9439222,
        1.3391399
      ],
      [
        103.9450005,
        1.340057
      ],
      [
        103.9454004,
        1.3403722
      ],
      [
        103.9455882,
        1.3405285
      ],
      [
        103.9466259,
        1.3413923
      ],
      [
        103.947047,
        1.3417262
      ],
      [
        103.9472712,
        1.3419106
      ],
      [
        103.9477287,
        1.3423051
      ],
      [
        103.9483881,
        1.3428806
      ],
      [
        103.9488407,
        1.3432593
      ],
      [
        103.9497533,
        1.3440416
      ],
      [
        103.9501557,
        1.3443897
      ],
      [
        103.9518782,
        1.3457821
      ],
      [
        103.9530459,
        1.3467801
      ],
      [
        103.9547451,
        1.348238
      ],
      [
        103.9552285,
        1.3486936
      ],
      [
        103.9557591,
        1.3490864
      ],
      [
        103.9558513,
        1.3491596
      ],
      [
        103.9563341,
        1.3495159
      ],
      [
        103.9565901,
        1.3496782
      ],
      [
        103.9568791,
        1.349817
      ],
      [
        103.9572421,
        1.3500017
      ],
      [
        103.9576594,
        1.3501836
      ],
      [
        103.9581788,
        1.3504284
      ],
      [
        103.9583832,
        1.3505242
      ],
      [
        103.9590261,
        1.3507008
      ],
      [
        103.959454,
        1.3507562
      ],
      [
        103.9599138,
        1.3507987
      ],
      [
        103.9603055,
        1.3508285
      ],
      [
        103.9606462,
        1.3508328
      ],
      [
        103.9610803,
        1.3507708
      ],
      [
        103.9611142,
        1.3507795
      ],
      [
        103.9612319,
        1.3507735
      ],
      [
        103.961311,
        1.3507748
      ],
      [
        103.9614116,
        1.3507654
      ],
      [
        103.961585,
        1.3507498
      ],
      [
        103.9617872,
        1.3507221
      ],
      [
        103.9620938,
        1.3506987
      ],
      [
        103.9623046,
        1.3507093
      ],
      [
        103.9625585,
        1.3507466
      ],
      [
        103.9628122,
        1.3508628
      ],
      [
        103.9630258,
        1.3510154
      ],
      [
        103.9632422,
        1.3512156
      ],
      [
        103.9634228,
        1.3515117
      ],
      [
        103.9635384,
        1.3518147
      ],
      [
        103.9637409,
        1.3523969
      ],
      [
        103.9637811,
        1.35253
      ],
      [
        103.9638135,
        1.3526495
      ],
      [
        103.9638362,
        1.3527435
      ],
      [
        103.9638697,
        1.3528848
      ],
      [
        103.9636871,
        1.3535086
      ],
      [
        103.9635545,
        1.354057
      ],
      [
        103.9634611,
        1.3544709
      ],
      [
        103.9633435,
        1.3548545
      ],
      [
        103.9633147,
        1.3550337
      ],
      [
        103.9632943,
        1.355173
      ],
      [
        103.963157,
        1.3556395
      ],
      [
        103.9629761,
        1.3562872
      ],
      [
        103.9628834,
        1.3566033
      ],
      [
        103.962777,
        1.356896
      ],
      [
        103.962619,
        1.3572954
      ],
      [
        103.9625356,
        1.3574308
      ],
      [
        103.9624001,
        1.357648
      ],
      [
        103.9623279,
        1.3578018
      ],
      [
        103.9622172,
        1.3579959
      ],
      [
        103.9620715,
        1.3583131
      ],
      [
        103.9619091,
        1.3586128
      ],
      [
        103.9616289,
        1.3590403
      ],
      [
        103.9615225,
        1.3592236
      ],
      [
        103.9613547,
        1.3595053
      ],
      [
        103.9612513,
        1.3596936
      ],
      [
        103.9612233,
        1.3598265
      ],
      [
        103.9611889,
        1.3601103
      ],
      [
        103.9611848,
        1.3601857
      ],
      [
        103.9611106,
        1.3602828
      ],
      [
        103.9611525,
        1.3603249
      ],
      [
        103.9613723,
        1.3605353
      ],
      [
        103.9617726,
        1.3609413
      ],
      [
        103.9619896,
        1.3611614
      ],
      [
        103.9623079,
        1.361477
      ],
      [
        103.9624969,
        1.3616678
      ],
      [
        103.9631956,
        1.3623637
      ],
      [
        103.9636219,
        1.3627929
      ],
      [
        103.9640489,
        1.3632485
      ],
      [
        103.964077,
        1.3633348
      ],
      [
        103.9640713,
        1.3634009
      ],
      [
        103.9640567,
        1.3634606
      ],
      [
        103.9640169,
        1.3635288
      ],
      [
        103.9639508,
        1.3636365
      ],
      [
        103.9631615,
        1.3644469
      ],
      [
        103.9629624,
        1.3646484
      ],
      [
        103.9624013,
        1.3652138
      ],
      [
        103.9623731,
        1.3652428
      ],
      [
        103.9623094,
        1.3651789
      ],
      [
        103.9621606,
        1.3650261
      ],
      [
        103.9621206,
        1.3649876
      ],
      [
        103.9618619,
        1.3647391
      ],
      [
        103.9616484,
        1.3645332
      ],
      [
        103.961545,
        1.3644335
      ],
      [
        103.9614332,
        1.3643156
      ],
      [
        103.9612221,
        1.3640894
      ],
      [
        103.961139,
        1.3640004
      ],
      [
        103.960941,
        1.3638025
      ],
      [
        103.9608929,
        1.363765
      ],
      [
        103.9608438,
        1.3637359
      ],
      [
        103.9607958,
        1.363712
      ],
      [
        103.9607464,
        1.363694
      ],
      [
        103.9606538,
        1.3636659
      ],
      [
        103.960572,
        1.3636514
      ],
      [
        103.9604849,
        1.3636511
      ],
      [
        103.9603601,
        1.3636619
      ],
      [
        103.9601979,
        1.363708
      ],
      [
        103.9601418,
        1.36374
      ],
      [
        103.9600824,
        1.3637855
      ],
      [
        103.9599837,
        1.3638627
      ],
      [
        103.9596084,
        1.3641545
      ],
      [
        103.9591599,
        1.3644983
      ],
      [
        103.9590324,
        1.3645937
      ],
      [
        103.958863,
        1.3647133
      ],
      [
        103.9585852,
        1.3649095
      ],
      [
        103.9585208,
        1.364955
      ],
      [
        103.9580223,
        1.3652754
      ],
      [
        103.9579878,
        1.3652954
      ],
      [
        103.9579244,
        1.3653319
      ],
      [
        103.9578659,
        1.365363
      ],
      [
        103.9578106,
        1.3653923
      ],
      [
        103.9573223,
        1.3656463
      ],
      [
        103.9571106,
        1.3657373
      ],
      [
        103.9568196,
        1.36587
      ],
      [
        103.9567177,
        1.3659465
      ],
      [
        103.9566265,
        1.3660309
      ],
      [
        103.9565326,
        1.3661516
      ],
      [
        103.9564361,
        1.3663259
      ],
      [
        103.9563677,
        1.366464
      ],
      [
        103.9563113,
        1.3666383
      ],
      [
        103.9563022,
        1.3667608
      ],
      [
        103.9563086,
        1.3668565
      ],
      [
        103.956332,
        1.3670215
      ],
      [
        103.9563512,
        1.3671141
      ],
      [
        103.956397,
        1.3672574
      ],
      [
        103.9564133,
        1.3673086
      ],
      [
        103.9564434,
        1.3674344
      ],
      [
        103.9564602,
        1.3674953
      ],
      [
        103.9566304,
        1.368063
      ],
      [
        103.9568562,
        1.368827
      ],
      [
        103.9568806,
        1.3689094
      ],
      [
        103.9569055,
        1.3690476
      ],
      [
        103.9569112,
        1.3690923
      ],
      [
        103.9569151,
        1.3691229
      ],
      [
        103.9569537,
        1.3694243
      ],
      [
        103.9569633,
        1.3695684
      ],
      [
        103.9569712,
        1.3696857
      ],
      [
        103.956974,
        1.3698046
      ],
      [
        103.9569846,
        1.3701818
      ],
      [
        103.9569845,
        1.3704582
      ],
      [
        103.9569858,
        1.3707451
      ],
      [
        103.9569839,
        1.3709836
      ],
      [
        103.9569604,
        1.3711686
      ],
      [
        103.956935,
        1.3713013
      ],
      [
        103.9568678,
        1.3715455
      ],
      [
        103.9568612,
        1.3715695
      ],
      [
        103.9567442,
        1.3718593
      ],
      [
        103.9567064,
        1.3719475
      ],
      [
        103.9566802,
        1.3720129
      ],
      [
        103.9564028,
        1.3726444
      ],
      [
        103.9563087,
        1.3729618
      ],
      [
        103.9562617,
        1.3731535
      ],
      [
        103.9562164,
        1.3733631
      ],
      [
        103.9561978,
        1.3734901
      ],
      [
        103.9561806,
        1.3735933
      ],
      [
        103.9561715,
        1.3738797
      ],
      [
        103.9561651,
        1.374027
      ],
      [
        103.9561425,
        1.3746046
      ],
      [
        103.9561442,
        1.3748191
      ],
      [
        103.9561497,
        1.375089
      ],
      [
        103.9561466,
        1.3753256
      ],
      [
        103.9561376,
        1.3754176
      ],
      [
        103.9561145,
        1.3755424
      ],
      [
        103.95621,
        1.3755501
      ],
      [
        103.9562898,
        1.3755541
      ],
      [
        103.9565241,
        1.3755676
      ],
      [
        103.9566552,
        1.3755792
      ],
      [
        103.9571159,
        1.3756034
      ],
      [
        103.9575938,
        1.3756061
      ],
      [
        103.9585597,
        1.3755916
      ]
    ]
  }
}