{
  "type": "Feature",
  "properties": {
    "relation": 6623063,
    "direction": "1",
    "fee": "yes",
    "from": "Jurong East Interchange",
    "name": "Svc 66 (Jurong East Interchange ↺ Upper Bukit Timah Road)",
    "name:en": "Svc 66 (Jurong East Interchange ↺ Upper Bukit Timah Road)",
    "network": "Land Transport Authority",
    "network:short": "LTA",
    "network:wikidata": "Q3299279",
    "network:wikipedia": "en:Land Transport Authority",
    "operator": "Tower Transit Singapore",
    "operator:wikidata": "Q19898668",
    "operator:wikipedia": "en:Tower Transit Singapore",
    "public_transport:version": "2",
    "ref": "66",
    "roundtrip": "yes",
    "route": "bus",
    "to": "Jurong East Interchange",
    "type": "route",
    "via": "Upper Bukit Timah Road",
    "website": "https://towertransit.sg/"
  },
  "geometry": {
    "type": "LineString",
    "coordinates": [
      [
        103.7409854,
        1.3327178
      ],
      [
        103.7409131,
        1.3326772
      ],
      [
        103.7408605,
        1.3326429
      ],
      [
        103.7408117,
        1.332571
      ],
      [
        103.7408,
        1.3324909
      ],
      [
        103.7408532,
        1.3323685
      ],
      [
        103.7411744,
        1.3319777
      ],
      [
        103.7411842,
        1.3318926
      ],
      [
        103.7411688,
        1.3318184
      ],
      [
        103.7410392,
        1.3316082
      ],
      [
        103.7409957,
        1.3315451
      ],
      [
        103.7409511,
        1.3315127
      ],
      [
        103.7408692,
        1.3315032
      ],
      [
        103.7408058,
        1.3315153
      ],
      [
        103.7405383,
        1.3316896
      ],
      [
        103.7409,
        1.3328756
      ],
      [
        103.7408097,
        1.333052
      ],
      [
        103.7407762,
        1.3331463
      ],
      [
        103.7407508,
        1.3332422
      ],
      [
        103.74074,
        1.3332831
      ],
      [
        103.7407075,
        1.3334225
      ],
      [
        103.7406807,
        1.3335606
      ],
      [
        103.7406301,
        1.3338228
      ],
      [
        103.7405543,
        1.3343023
      ],
      [
        103.7405202,
        1.3345232
      ],
      [
        103.7404952,
        1.334683
      ],
      [
        103.7404512,
        1.3348509
      ],
      [
        103.7403786,
        1.3349983
      ],
      [
        103.7403066,
        1.3351095
      ],
      [
        103.7402943,
        1.3351284
      ],
      [
        103.7402243,
        1.3351965
      ],
      [
        103.7401917,
        1.3352283
      ],
      [
        103.740126,
        1.3352772
      ],
      [
        103.7400943,
        1.3352986
      ],
      [
        103.7399536,
        1.3353582
      ],
      [
        103.739804,
        1.3353899
      ],
      [
        103.7396255,
        1.3353925
      ],
      [
        103.7394706,
        1.3353707
      ],
      [
        103.7391725,
        1.3353337
      ],
      [
        103.7390337,
        1.3352464
      ],
      [
        103.7389785,
        1.3351873
      ],
      [
        103.7389255,
        1.3351306
      ],
      [
        103.738885,
        1.3350754
      ],
      [
        103.7388688,
        1.3348975
      ],
      [
        103.7388432,
        1.3347548
      ],
      [
        103.7387924,
        1.3346196
      ],
      [
        103.7387143,
        1.3344829
      ],
      [
        103.7384301,
        1.334092
      ],
      [
        103.738292,
        1.3338976
      ],
      [
        103.7380535,
        1.3335683
      ],
      [
        103.7378906,
        1.333337
      ],
      [
        103.7378592,
        1.3332945
      ],
      [
        103.7377757,
        1.3331894
      ],
      [
        103.7376658,
        1.3332809
      ],
      [
        103.7376364,
        1.333303
      ],
      [
        103.7374902,
        1.3334346
      ],
      [
        103.7371777,
        1.3337087
      ],
      [
        103.7369817,
        1.3338837
      ],
      [
        103.7367745,
        1.3340813
      ],
      [
        103.7364436,
        1.3344386
      ],
      [
        103.7359269,
        1.3349715
      ],
      [
        103.7356242,
        1.3353031
      ],
      [
        103.7353084,
        1.335733
      ],
      [
        103.7352557,
        1.3358048
      ],
      [
        103.7349669,
        1.3362169
      ],
      [
        103.7347205,
        1.3366097
      ],
      [
        103.7346181,
        1.3367849
      ],
      [
        103.7344207,
        1.3371592
      ],
      [
        103.7342531,
        1.3374865
      ],
      [
        103.7342101,
        1.3375755
      ],
      [
        103.7341728,
        1.3376805
      ],
      [
        103.7340519,
        1.3381207
      ],
      [
        103.7340105,
        1.3383796
      ],
      [
        103.7339686,
        1.3387031
      ],
      [
        103.7339831,
        1.3390624
      ],
      [
        103.7340165,
        1.3393876
      ],
      [
        103.734026,
        1.3394807
      ],
      [
        103.7341419,
        1.3399194
      ],
      [
        103.7343617,
        1.3403441
      ],
      [
        103.7345359,
        1.3406689
      ],
      [
        103.7346058,
        1.3407574
      ],
      [
        103.7347631,
        1.3409831
      ],
      [
        103.7348197,
        1.3410567
      ],
      [
        103.7349038,
        1.3411581
      ],
      [
        103.7349257,
        1.341189
      ],
      [
        103.735152,
        1.3414773
      ],
      [
        103.7354664,
        1.3419812
      ],
      [
        103.7355986,
        1.3421926
      ],
      [
        103.7356969,
        1.3423709
      ],
      [
        103.7357648,
        1.3424978
      ],
      [
        103.7358184,
        1.3426406
      ],
      [
        103.7358727,
        1.3427791
      ],
      [
        103.7360254,
        1.3431998
      ],
      [
        103.7360453,
        1.3432678
      ],
      [
        103.7360713,
        1.3433458
      ],
      [
        103.7360905,
        1.3434053
      ],
      [
        103.7361851,
        1.3437198
      ],
      [
        103.7363786,
        1.3442747
      ],
      [
        103.7364673,
        1.3444971
      ],
      [
        103.7365517,
        1.3446817
      ],
      [
        103.7366833,
        1.3449595
      ],
      [
        103.7367827,
        1.3451698
      ],
      [
        103.7368501,
        1.3453029
      ],
      [
        103.737009,
        1.3455944
      ],
      [
        103.7370703,
        1.3457187
      ],
      [
        103.7372239,
        1.3459886
      ],
      [
        103.7373826,
        1.3462931
      ],
      [
        103.7376933,
        1.34688
      ],
      [
        103.7378206,
        1.3471208
      ],
      [
        103.7379644,
        1.3473926
      ],
      [
        103.7380996,
        1.3477785
      ],
      [
        103.7381842,
        1.3480662
      ],
      [
        103.7382257,
        1.3482765
      ],
      [
        103.7382456,
        1.3486446
      ],
      [
        103.7382108,
        1.3489412
      ],
      [
        103.7381829,
        1.3490837
      ],
      [
        103.738213,
        1.3492256
      ],
      [
        103.7381997,
        1.3493112
      ],
      [
        103.7381241,
        1.3495988
      ],
      [
        103.7381364,
        1.3497124
      ],
      [
        103.7381528,
        1.3497629
      ],
      [
        103.7381625,
        1.3497755
      ],
      [
        103.7381815,
        1.3498023
      ],
      [
        103.7382138,
        1.3498318
      ],
      [
        103.7382537,
        1.3498302
      ],
      [
        103.7384972,
        1.3498257
      ],
      [
        103.7386274,
        1.349829
      ],
      [
        103.7388025,
        1.3498328
      ],
      [
        103.739196,
        1.349835
      ],
      [
        103.7394458,
        1.3498364
      ],
      [
        103.7395133,
        1.3498368
      ],
      [
        103.7396113,
        1.3498373
      ],
      [
        103.739617,
        1.3497255
      ],
      [
        103.739618,
        1.3496562
      ],
      [
        103.7396219,
        1.3493836
      ],
      [
        103.7396293,
        1.3488736
      ],
      [
        103.7396819,
        1.3485674
      ],
      [
        103.7397062,
        1.3484963
      ],
      [
        103.7398054,
        1.3481987
      ],
      [
        103.7398915,
        1.3480182
      ],
      [
        103.7401215,
        1.3476955
      ],
      [
        103.7402292,
        1.3475911
      ],
      [
        103.7403821,
        1.3474402
      ],
      [
        103.7407257,
        1.3471594
      ],
      [
        103.7407713,
        1.3471288
      ],
      [
        103.7408103,
        1.3471027
      ],
      [
        103.7410017,
        1.3469939
      ],
      [
        103.7412057,
        1.3468905
      ],
      [
        103.7414541,
        1.3467795
      ],
      [
        103.7416417,
        1.3467292
      ],
      [
        103.7416959,
        1.3467147
      ],
      [
        103.742075,
        1.3466444
      ],
      [
        103.7424946,
        1.3466286
      ],
      [
        103.7425141,
        1.3466307
      ],
      [
        103.7428202,
        1.3466645
      ],
      [
        103.7430719,
        1.3467431
      ],
      [
        103.7431504,
        1.3467659
      ],
      [
        103.7432182,
        1.3467907
      ],
      [
        103.7432729,
        1.3468107
      ],
      [
        103.7434757,
        1.3468782
      ],
      [
        103.743643,
        1.3469433
      ],
      [
        103.7438355,
        1.3470241
      ],
      [
        103.7438985,
        1.3470478
      ],
      [
        103.7440533,
        1.3471062
      ],
      [
        103.7441581,
        1.347154
      ],
      [
        103.7442528,
        1.3471998
      ],
      [
        103.7443967,
        1.3472769
      ],
      [
        103.7445768,
        1.3473863
      ],
      [
        103.7447233,
        1.3475016
      ],
      [
        103.7448033,
        1.3475645
      ],
      [
        103.7448707,
        1.3476115
      ],
      [
        103.7449234,
        1.3475401
      ],
      [
        103.7449574,
        1.3475074
      ],
      [
        103.745002,
        1.3474671
      ],
      [
        103.7451065,
        1.3473887
      ],
      [
        103.7455534,
        1.3470536
      ],
      [
        103.7455945,
        1.3470229
      ],
      [
        103.7456442,
        1.3469858
      ],
      [
        103.745669,
        1.3469673
      ],
      [
        103.7457484,
        1.346908
      ],
      [
        103.7458383,
        1.3468409
      ],
      [
        103.7458601,
        1.3468247
      ],
      [
        103.7459594,
        1.3467505
      ],
      [
        103.7460465,
        1.3466855
      ],
      [
        103.7461583,
        1.3465988
      ],
      [
        103.7462877,
        1.3465008
      ],
      [
        103.7464748,
        1.3463593
      ],
      [
        103.7466155,
        1.3462548
      ],
      [
        103.7467048,
        1.3461907
      ],
      [
        103.7467751,
        1.3461402
      ],
      [
        103.7469231,
        1.3460394
      ],
      [
        103.7469884,
        1.3459913
      ],
      [
        103.7470835,
        1.345918
      ],
      [
        103.7470967,
        1.3459054
      ],
      [
        103.7471499,
        1.3458667
      ],
      [
        103.7473807,
        1.3456918
      ],
      [
        103.7477206,
        1.3454404
      ],
      [
        103.7477565,
        1.3454205
      ],
      [
        103.7479738,
        1.3453004
      ],
      [
        103.7482101,
        1.3452298
      ],
      [
        103.7484962,
        1.3451866
      ],
      [
        103.7486937,
        1.3451885
      ],
      [
        103.7489395,
        1.3451915
      ],
      [
        103.7490423,
        1.3451905
      ],
      [
        103.7492697,
        1.3451972
      ],
      [
        103.749384,
        1.3452005
      ],
      [
        103.7494754,
        1.3451984
      ],
      [
        103.7496048,
        1.3451954
      ],
      [
        103.7496131,
        1.3451953
      ],
      [
        103.7498381,
        1.3451901
      ],
      [
        103.7498738,
        1.3451893
      ],
      [
        103.7501587,
        1.3451831
      ],
      [
        103.7503687,
        1.3451786
      ],
      [
        103.7511632,
        1.3451669
      ],
      [
        103.7512526,
        1.3451656
      ],
      [
        103.7513244,
        1.345158
      ],
      [
        103.751354,
        1.3451509
      ],
      [
        103.7518647,
        1.3450277
      ],
      [
        103.7537436,
        1.3444913
      ],
      [
        103.7543564,
        1.34433
      ],
      [
        103.7544669,
        1.3442966
      ],
      [
        103.7544984,
        1.3442901
      ],
      [
        103.7545999,
        1.3442585
      ],
      [
        103.7546632,
        1.3442415
      ],
      [
        103.7547335,
        1.3442227
      ],
      [
        103.7548198,
        1.3441995
      ],
      [
        103.7549886,
        1.3441592
      ],
      [
        103.7552302,
        1.3441105
      ],
      [
        103.7554789,
        1.3441006
      ],
      [
        103.755685,
        1.3441187
      ],
      [
        103.7557655,
        1.3441474
      ],
      [
        103.7560273,
        1.3442211
      ],
      [
        103.7561463,
        1.3442679
      ],
      [
        103.7563008,
        1.3443288
      ],
      [
        103.7564395,
        1.3443993
      ],
      [
        103.7565828,
        1.3445119
      ],
      [
        103.7567119,
        1.3446286
      ],
      [
        103.7569588,
        1.3448743
      ],
      [
        103.7571301,
        1.3450448
      ],
      [
        103.7572559,
        1.3451699
      ],
      [
        103.7572784,
        1.3451923
      ],
      [
        103.7573556,
        1.3452692
      ],
      [
        103.7573722,
        1.3452856
      ],
      [
        103.7575064,
        1.3454204
      ],
      [
        103.7575673,
        1.3454798
      ],
      [
        103.7576495,
        1.3455593
      ],
      [
        103.7577042,
        1.3456104
      ],
      [
        103.7578861,
        1.3457805
      ],
      [
        103.7581585,
        1.3460159
      ],
      [
        103.7583323,
        1.3461527
      ],
      [
        103.758718,
        1.3463701
      ],
      [
        103.7587927,
        1.3464129
      ],
      [
        103.7591209,
        1.3465421
      ],
      [
        103.7592819,
        1.3465938
      ],
      [
        103.7593959,
        1.3466223
      ],
      [
        103.7597909,
        1.3466777
      ],
      [
        103.7601887,
        1.3466925
      ],
      [
        103.760476,
        1.3467086
      ],
      [
        103.7607149,
        1.3467068
      ],
      [
        103.7608205,
        1.346704
      ],
      [
        103.7609439,
        1.346703
      ],
      [
        103.7609836,
        1.3467025
      ],
      [
        103.7611871,
        1.3467029
      ],
      [
        103.7623874,
        1.3466951
      ],
      [
        103.7625452,
        1.3467002
      ],
      [
        103.7629667,
        1.3467433
      ],
      [
        103.7632896,
        1.3467949
      ],
      [
        103.7634549,
        1.3468219
      ],
      [
        103.7636749,
        1.3468579
      ],
      [
        103.7638191,
        1.3468894
      ],
      [
        103.7639645,
        1.3469194
      ],
      [
        103.764291,
        1.3470236
      ],
      [
        103.7645744,
        1.347119
      ],
      [
        103.764685,
        1.3471462
      ],
      [
        103.7648449,
        1.3471898
      ],
      [
        103.7652781,
        1.3472759
      ],
      [
        103.7654222,
        1.3472915
      ],
      [
        103.7656338,
        1.3472935
      ],
      [
        103.7659803,
        1.3472965
      ],
      [
        103.7664656,
        1.3472671
      ],
      [
        103.7665516,
        1.3472668
      ],
      [
        103.7666391,
        1.3472676
      ],
      [
        103.7666478,
        1.3471729
      ],
      [
        103.7666548,
        1.3471097
      ],
      [
        103.7667147,
        1.3469975
      ],
      [
        103.766883,
        1.3467404
      ],
      [
        103.7669941,
        1.3466095
      ],
      [
        103.7670978,
        1.3465067
      ],
      [
        103.767161,
        1.3464442
      ],
      [
        103.7672184,
        1.3463873
      ],
      [
        103.7673305,
        1.3462712
      ],
      [
        103.7686178,
        1.3449566
      ],
      [
        103.7688822,
        1.3445627
      ],
      [
        103.7690045,
        1.3443945
      ],
      [
        103.7691329,
        1.3442314
      ],
      [
        103.769174,
        1.3441747
      ],
      [
        103.7693898,
        1.343931
      ],
      [
        103.7697295,
        1.343514
      ],
      [
        103.7699647,
        1.3432364
      ],
      [
        103.7699923,
        1.3432025
      ],
      [
        103.7701451,
        1.3430147
      ],
      [
        103.7701744,
        1.3429787
      ],
      [
        103.7702242,
        1.3429107
      ],
      [
        103.7707394,
        1.3422104
      ],
      [
        103.7707677,
        1.3421763
      ],
      [
        103.770968,
        1.3419353
      ],
      [
        103.7711568,
        1.3417256
      ],
      [
        103.7717532,
        1.3411818
      ],
      [
        103.7718407,
        1.341102
      ],
      [
        103.7718931,
        1.3410533
      ],
      [
        103.7719028,
        1.3410445
      ],
      [
        103.7720083,
        1.3409278
      ],
      [
        103.772163,
        1.3407779
      ],
      [
        103.7723018,
        1.3406706
      ],
      [
        103.7723466,
        1.3406281
      ],
      [
        103.7724215,
        1.3405779
      ],
      [
        103.7724732,
        1.3405434
      ],
      [
        103.7725701,
        1.3404863
      ],
      [
        103.7727123,
        1.340425
      ],
      [
        103.7728476,
        1.3403819
      ],
      [
        103.7730685,
        1.3403434
      ],
      [
        103.7734956,
        1.3403198
      ],
      [
        103.773891,
        1.3403144
      ],
      [
        103.7741971,
        1.3403026
      ],
      [
        103.7742765,
        1.3403007
      ],
      [
        103.7743302,
        1.3402989
      ],
      [
        103.7746084,
        1.3402894
      ],
      [
        103.7750825,
        1.3402814
      ],
      [
        103.7753225,
        1.3402815
      ],
      [
        103.7756108,
        1.3402725
      ],
      [
        103.7759079,
        1.3403006
      ],
      [
        103.7759908,
        1.3403056
      ],
      [
        103.7760968,
        1.3403192
      ],
      [
        103.7761563,
        1.3401934
      ],
      [
        103.776203,
        1.3401196
      ],
      [
        103.7763787,
        1.3399051
      ],
      [
        103.7764816,
        1.3397713
      ],
      [
        103.7769789,
        1.3390946
      ],
      [
        103.777388,
        1.3385127
      ],
      [
        103.7775044,
        1.3383331
      ],
      [
        103.7775632,
        1.3382712
      ],
      [
        103.7776523,
        1.3381761
      ],
      [
        103.7777726,
        1.3380787
      ],
      [
        103.7778819,
        1.3380024
      ],
      [
        103.777921,
        1.3379803
      ],
      [
        103.7779641,
        1.3379596
      ],
      [
        103.7782666,
        1.3378154
      ],
      [
        103.7784784,
        1.3377418
      ],
      [
        103.7786372,
        1.3377841
      ],
      [
        103.7787289,
        1.3378026
      ],
      [
        103.7787931,
        1.3378292
      ],
      [
        103.7788631,
        1.337865
      ],
      [
        103.7788975,
        1.3379546
      ],
      [
        103.7789515,
        1.3381023
      ],
      [
        103.7790944,
        1.3384776
      ],
      [
        103.7791969,
        1.338864
      ],
      [
        103.7792272,
        1.3390455
      ],
      [
        103.7792351,
        1.3391544
      ],
      [
        103.7792376,
        1.33922
      ],
      [
        103.7792394,
        1.3392748
      ],
      [
        103.7792323,
        1.3393806
      ],
      [
        103.7791701,
        1.3397149
      ],
      [
        103.7790787,
        1.3399012
      ],
      [
        103.778984,
        1.3400239
      ],
      [
        103.7788531,
        1.3401306
      ],
      [
        103.7787052,
        1.3402404
      ],
      [
        103.7785918,
        1.3403233
      ],
      [
        103.7785312,
        1.3403736
      ],
      [
        103.7784923,
        1.3404054
      ],
      [
        103.7783883,
        1.3405128
      ],
      [
        103.7782936,
        1.3406508
      ],
      [
        103.778166,
        1.3409902
      ],
      [
        103.7781542,
        1.3410216
      ],
      [
        103.7780769,
        1.3412033
      ],
      [
        103.7779996,
        1.3412812
      ],
      [
        103.7779404,
        1.3413483
      ],
      [
        103.7778989,
        1.341389
      ],
      [
        103.7778538,
        1.3414172
      ],
      [
        103.7777973,
        1.3414411
      ],
      [
        103.7777452,
        1.3414482
      ],
      [
        103.7777125,
        1.3414499
      ],
      [
        103.7776683,
        1.3414437
      ],
      [
        103.777617,
        1.3414278
      ],
      [
        103.7775782,
        1.3414111
      ],
      [
        103.7775384,
        1.3413837
      ],
      [
        103.7774493,
        1.3413028
      ],
      [
        103.7769758,
        1.3407108
      ],
      [
        103.776957,
        1.3406872
      ],
      [
        103.7768039,
        1.3405317
      ],
      [
        103.7766721,
        1.3404217
      ],
      [
        103.7766422,
        1.3403977
      ],
      [
        103.7765553,
        1.3403528
      ],
      [
        103.776456,
        1.3403046
      ],
      [
        103.7762216,
        1.3402084
      ],
      [
        103.7761563,
        1.3401934
      ],
      [
        103.7760381,
        1.3401746
      ],
      [
        103.7759632,
        1.3401704
      ],
      [
        103.775562,
        1.3401477
      ],
      [
        103.7751415,
        1.3401535
      ],
      [
        103.7749926,
        1.3401573
      ],
      [
        103.7746436,
        1.3401715
      ],
      [
        103.7744157,
        1.3401745
      ],
      [
        103.774272,
        1.3401775
      ],
      [
        103.7741949,
        1.3401825
      ],
      [
        103.7733558,
        1.3402098
      ],
      [
        103.7730374,
        1.340251
      ],
      [
        103.7729341,
        1.3402688
      ],
      [
        103.7727405,
        1.340313
      ],
      [
        103.772554,
        1.3403827
      ],
      [
        103.772364,
        1.3404989
      ],
      [
        103.7722883,
        1.3405389
      ],
      [
        103.7722243,
        1.3405862
      ],
      [
        103.772087,
        1.3407118
      ],
      [
        103.7718277,
        1.3409715
      ],
      [
        103.7718116,
        1.3409859
      ],
      [
        103.7717609,
        1.3410362
      ],
      [
        103.771678,
        1.3411148
      ],
      [
        103.7711853,
        1.3415814
      ],
      [
        103.7710426,
        1.3417204
      ],
      [
        103.7709712,
        1.3417884
      ],
      [
        103.7708906,
        1.3418652
      ],
      [
        103.7707296,
        1.3420789
      ],
      [
        103.7703838,
        1.3425352
      ],
      [
        103.7703039,
        1.342644
      ],
      [
        103.7700945,
        1.342922
      ],
      [
        103.7700176,
        1.3430241
      ],
      [
        103.7696299,
        1.3434901
      ],
      [
        103.7694338,
        1.3437185
      ],
      [
        103.7693057,
        1.3438612
      ],
      [
        103.769092,
        1.34412
      ],
      [
        103.7690526,
        1.3441721
      ],
      [
        103.768933,
        1.344345
      ],
      [
        103.7688138,
        1.3445111
      ],
      [
        103.7686199,
        1.3447778
      ],
      [
        103.7684343,
        1.3449897
      ],
      [
        103.767883,
        1.3455515
      ],
      [
        103.7674779,
        1.345965
      ],
      [
        103.7672721,
        1.3461823
      ],
      [
        103.7670321,
        1.3464402
      ],
      [
        103.7668683,
        1.346624
      ],
      [
        103.7667659,
        1.346751
      ],
      [
        103.7665585,
        1.3469188
      ],
      [
        103.7664243,
        1.3470198
      ],
      [
        103.7663561,
        1.3470644
      ],
      [
        103.7662463,
        1.3471192
      ],
      [
        103.7660585,
        1.3472067
      ],
      [
        103.7658296,
        1.3472134
      ],
      [
        103.7656524,
        1.3472072
      ],
      [
        103.7654258,
        1.3471909
      ],
      [
        103.7653655,
        1.3471801
      ],
      [
        103.765018,
        1.3471281
      ],
      [
        103.7647481,
        1.3470566
      ],
      [
        103.7645124,
        1.3469868
      ],
      [
        103.7642154,
        1.3468947
      ],
      [
        103.7639137,
        1.3468063
      ],
      [
        103.7637877,
        1.3467743
      ],
      [
        103.7634942,
        1.346687
      ],
      [
        103.7631102,
        1.3466239
      ],
      [
        103.7629281,
        1.3466058
      ],
      [
        103.7625891,
        1.3465726
      ],
      [
        103.7624319,
        1.3465682
      ],
      [
        103.7617989,
        1.3465823
      ],
      [
        103.7614716,
        1.3465823
      ],
      [
        103.7611524,
        1.346581
      ],
      [
        103.7609841,
        1.3465813
      ],
      [
        103.7609462,
        1.3465793
      ],
      [
        103.7608238,
        1.3465783
      ],
      [
        103.7607864,
        1.346578
      ],
      [
        103.7607184,
        1.3465801
      ],
      [
        103.7604157,
        1.3465867
      ],
      [
        103.7597802,
        1.3465721
      ],
      [
        103.7593873,
        1.3465001
      ],
      [
        103.7591066,
        1.3464151
      ],
      [
        103.7588968,
        1.3463305
      ],
      [
        103.7587772,
        1.3462684
      ],
      [
        103.7585724,
        1.3461654
      ],
      [
        103.7583274,
        1.3459944
      ],
      [
        103.7579633,
        1.3456854
      ],
      [
        103.7579226,
        1.3456495
      ],
      [
        103.7577719,
        1.3455165
      ],
      [
        103.7577118,
        1.3454635
      ],
      [
        103.7576296,
        1.3453847
      ],
      [
        103.7575696,
        1.3453246
      ],
      [
        103.757413,
        1.3451623
      ],
      [
        103.7574039,
        1.3451536
      ],
      [
        103.7573244,
        1.3450779
      ],
      [
        103.757299,
        1.3450537
      ],
      [
        103.7572204,
        1.3449789
      ],
      [
        103.7568831,
        1.3446301
      ],
      [
        103.7566893,
        1.3444506
      ],
      [
        103.7565404,
        1.3443245
      ],
      [
        103.7564144,
        1.3442454
      ],
      [
        103.7562655,
        1.3441585
      ],
      [
        103.7562221,
        1.3441414
      ],
      [
        103.7561465,
        1.3441117
      ],
      [
        103.7558847,
        1.344038
      ],
      [
        103.7556115,
        1.3439979
      ],
      [
        103.7554097,
        1.3439769
      ],
      [
        103.7553078,
        1.3439741
      ],
      [
        103.7550682,
        1.3440068
      ],
      [
        103.7546277,
        1.3441268
      ],
      [
        103.7545642,
        1.3441441
      ],
      [
        103.7544627,
        1.3441757
      ],
      [
        103.7544176,
        1.344192
      ],
      [
        103.7522669,
        1.3448395
      ],
      [
        103.7521318,
        1.3448718
      ],
      [
        103.7520544,
        1.3448903
      ],
      [
        103.7518337,
        1.3449374
      ],
      [
        103.7513502,
        1.3450485
      ],
      [
        103.7513208,
        1.3450547
      ],
      [
        103.7512481,
        1.3450625
      ],
      [
        103.7511612,
        1.3450632
      ],
      [
        103.7503928,
        1.3450633
      ],
      [
        103.7500812,
        1.3450582
      ],
      [
        103.7494728,
        1.3450578
      ],
      [
        103.74938,
        1.3450577
      ],
      [
        103.7492642,
        1.3450567
      ],
      [
        103.7487434,
        1.3450581
      ],
      [
        103.7483914,
        1.3450552
      ],
      [
        103.7481991,
        1.3450929
      ],
      [
        103.7480865,
        1.3451141
      ],
      [
        103.7480222,
        1.3451302
      ],
      [
        103.7478938,
        1.3451877
      ],
      [
        103.7476694,
        1.3453344
      ],
      [
        103.7474549,
        1.3454898
      ],
      [
        103.7472491,
        1.3456353
      ],
      [
        103.7470269,
        1.3458059
      ],
      [
        103.747011,
        1.3458198
      ],
      [
        103.746913,
        1.3458898
      ],
      [
        103.7468443,
        1.345938
      ],
      [
        103.746656,
        1.3460702
      ],
      [
        103.7463661,
        1.3463006
      ],
      [
        103.7462283,
        1.3464101
      ],
      [
        103.7460838,
        1.3465203
      ],
      [
        103.74575,
        1.3467789
      ],
      [
        103.7457232,
        1.3467988
      ],
      [
        103.7456901,
        1.3468233
      ],
      [
        103.7455311,
        1.3469414
      ],
      [
        103.7454473,
        1.3470114
      ],
      [
        103.7452982,
        1.3471357
      ],
      [
        103.7452015,
        1.3472129
      ],
      [
        103.7449063,
        1.3474589
      ],
      [
        103.7448594,
        1.3474983
      ],
      [
        103.7447767,
        1.3474396
      ],
      [
        103.7446193,
        1.3473278
      ],
      [
        103.7444316,
        1.3472031
      ],
      [
        103.7442941,
        1.3471253
      ],
      [
        103.7441591,
        1.3470581
      ],
      [
        103.7438498,
        1.3469272
      ],
      [
        103.7437826,
        1.3469037
      ],
      [
        103.7432948,
        1.3467199
      ],
      [
        103.7432496,
        1.3467028
      ],
      [
        103.7431782,
        1.3466759
      ],
      [
        103.7430962,
        1.3466472
      ],
      [
        103.7429542,
        1.3466093
      ],
      [
        103.74276,
        1.3465709
      ],
      [
        103.7425253,
        1.3465512
      ],
      [
        103.74229,
        1.3465586
      ],
      [
        103.7421893,
        1.3465618
      ],
      [
        103.7421253,
        1.3465638
      ],
      [
        103.7420068,
        1.346579
      ],
      [
        103.7418265,
        1.3466021
      ],
      [
        103.7417801,
        1.346608
      ],
      [
        103.7414236,
        1.3466872
      ],
      [
        103.741337,
        1.346719
      ],
      [
        103.7409758,
        1.3469047
      ],
      [
        103.7407683,
        1.3470378
      ],
      [
        103.7406842,
        1.3470912
      ],
      [
        103.7406178,
        1.3471375
      ],
      [
        103.7405008,
        1.3472353
      ],
      [
        103.740343,
        1.3473411
      ],
      [
        103.7401494,
        1.3475195
      ],
      [
        103.7400261,
        1.347663
      ],
      [
        103.7399349,
        1.3477756
      ],
      [
        103.7398745,
        1.347848
      ],
      [
        103.739794,
        1.3479793
      ],
      [
        103.7397595,
        1.348038
      ],
      [
        103.7397479,
        1.3480577
      ],
      [
        103.739727,
        1.3480933
      ],
      [
        103.7396237,
        1.3483802
      ],
      [
        103.7395808,
        1.3485156
      ],
      [
        103.7395446,
        1.3486658
      ],
      [
        103.7395325,
        1.3488301
      ],
      [
        103.7395306,
        1.3489112
      ],
      [
        103.7395278,
        1.3490532
      ],
      [
        103.739525,
        1.3491935
      ],
      [
        103.73952,
        1.3494461
      ],
      [
        103.7394525,
        1.3495341
      ],
      [
        103.7393907,
        1.3496152
      ],
      [
        103.7393559,
        1.3496527
      ],
      [
        103.7392279,
        1.3497244
      ],
      [
        103.7386438,
        1.3497301
      ],
      [
        103.7385596,
        1.3496996
      ],
      [
        103.7384946,
        1.3496594
      ],
      [
        103.7383953,
        1.3495783
      ],
      [
        103.7383451,
        1.3495069
      ],
      [
        103.7383115,
        1.3494137
      ],
      [
        103.7384335,
        1.3488204
      ],
      [
        103.7384325,
        1.3483868
      ],
      [
        103.7383989,
        1.3480646
      ],
      [
        103.7383362,
        1.3478059
      ],
      [
        103.7382098,
        1.3475267
      ],
      [
        103.7381651,
        1.3474279
      ],
      [
        103.738064,
        1.3472045
      ],
      [
        103.7379614,
        1.3469778
      ],
      [
        103.7378968,
        1.346835
      ],
      [
        103.7377569,
        1.3465743
      ],
      [
        103.7375321,
        1.3461837
      ],
      [
        103.7373727,
        1.3459027
      ],
      [
        103.7372365,
        1.3456451
      ],
      [
        103.7371713,
        1.3455218
      ],
      [
        103.7369292,
        1.3450638
      ],
      [
        103.7366386,
        1.3444879
      ],
      [
        103.7365377,
        1.3442625
      ],
      [
        103.7364303,
        1.3439381
      ],
      [
        103.7363301,
        1.3436355
      ],
      [
        103.7362376,
        1.3433212
      ],
      [
        103.7362216,
        1.3432624
      ],
      [
        103.7362008,
        1.3431865
      ],
      [
        103.7361808,
        1.3431098
      ],
      [
        103.7361155,
        1.3428978
      ],
      [
        103.7360179,
        1.3426599
      ],
      [
        103.7357911,
        1.3421904
      ],
      [
        103.7355065,
        1.3417038
      ],
      [
        103.7353738,
        1.3415183
      ],
      [
        103.73524,
        1.341324
      ],
      [
        103.735052,
        1.3410872
      ],
      [
        103.7350281,
        1.3410589
      ],
      [
        103.7349543,
        1.3409582
      ],
      [
        103.7348989,
        1.3408793
      ],
      [
        103.7347255,
        1.3406499
      ],
      [
        103.7346737,
        1.3405777
      ],
      [
        103.7344592,
        1.340269
      ],
      [
        103.7343425,
        1.3400368
      ],
      [
        103.7342564,
        1.3398494
      ],
      [
        103.734196,
        1.3396306
      ],
      [
        103.7341717,
        1.3395073
      ],
      [
        103.7341333,
        1.3393359
      ],
      [
        103.7340957,
        1.3390838
      ],
      [
        103.7340904,
        1.3387728
      ],
      [
        103.7340957,
        1.3385958
      ],
      [
        103.7341085,
        1.338489
      ],
      [
        103.7341151,
        1.338363
      ],
      [
        103.7341333,
        1.3381668
      ],
      [
        103.7341864,
        1.3379311
      ],
      [
        103.734262,
        1.3377216
      ],
      [
        103.7343476,
        1.3374749
      ],
      [
        103.7344506,
        1.3372919
      ],
      [
        103.7344924,
        1.3372068
      ],
      [
        103.7346265,
        1.3369655
      ],
      [
        103.7347982,
        1.3366598
      ],
      [
        103.7349166,
        1.3364791
      ],
      [
        103.735002,
        1.3363487
      ],
      [
        103.7351428,
        1.3361181
      ],
      [
        103.7353671,
        1.3358095
      ],
      [
        103.7356788,
        1.3354195
      ],
      [
        103.7359676,
        1.3350938
      ],
      [
        103.7362681,
        1.3347774
      ],
      [
        103.7365048,
        1.3345397
      ],
      [
        103.7367411,
        1.3343077
      ],
      [
        103.7369145,
        1.3341445
      ],
      [
        103.7371386,
        1.3339373
      ],
      [
        103.7373278,
        1.3337555
      ],
      [
        103.737418,
        1.3336763
      ],
      [
        103.7375078,
        1.3335974
      ],
      [
        103.7377493,
        1.3335629
      ],
      [
        103.7378473,
        1.3335807
      ],
      [
        103.7379244,
        1.3336115
      ],
      [
        103.7384031,
        1.3342495
      ],
      [
        103.7386094,
        1.3344986
      ],
      [
        103.7386313,
        1.3345251
      ],
      [
        103.7386903,
        1.3346565
      ],
      [
        103.7387198,
        1.3347342
      ],
      [
        103.7387587,
        1.3349528
      ],
      [
        103.738778,
        1.335226
      ],
      [
        103.7387832,
        1.3352533
      ],
      [
        103.7387945,
        1.3353128
      ],
      [
        103.7388147,
        1.3354425
      ],
      [
        103.7389143,
        1.3354466
      ],
      [
        103.7389692,
        1.3354506
      ],
      [
        103.7390101,
        1.3354536
      ],
      [
        103.7392336,
        1.3354839
      ],
      [
        103.739641,
        1.3355326
      ],
      [
        103.7398616,
        1.3355209
      ],
      [
        103.7399112,
        1.3355154
      ],
      [
        103.7401441,
        1.3354287
      ],
      [
        103.7401957,
        1.3353972
      ],
      [
        103.7402748,
        1.3353329
      ],
      [
        103.7403169,
        1.3352939
      ],
      [
        103.7403654,
        1.3352491
      ],
      [
        103.7404617,
        1.3351246
      ],
      [
        103.7405471,
        1.3349817
      ],
      [
        103.7406104,
        1.3348143
      ],
      [
        103.7406758,
        1.3344332
      ],
      [
        103.7407461,
        1.3340138
      ],
      [
        103.7407743,
        1.3338459
      ],
      [
        103.7408126,
        1.3336257
      ],
      [
        103.7409203,
        1.3331881
      ],
      [
        103.7410353,
        1.3328714
      ],
      [
        103.7410941,
        1.3327769
      ],
      [
        103.7409854,
        1.3327178
      ],
      [
        103.7409131,
        1.3326772
      ],
      [
        103.7408605,
        1.3326429
      ],
      [
        103.7408117,
        1.332571
      ],
      [
        103.7408,
        1.3324909
      ],
      [
        103.7408532,
        1.3323685
      ],
      [
        103.7411744,
        1.3319777
      ],
      [
        103.7411842,
        1.3318926
      ],
      [
        103.7411688,
        1.3318184
      ],
      [
        103.7410392,
        1.3316082
      ],
      [
        103.7409957,
        1.3315451
      ],
      [
        103.7409511,
        1.3315127
      ],
      [
        103.7408692,
        1.3315032
      ],
      [
        103.7408058,
        1.3315153
      ],
      [
        103.7405383,
        1.3316896
      ]
    ]
  }
}