{
  "type": "Feature",
  "properties": {
    "relation": 12980690,
    "direction": "1",
    "fee": "yes",
    "from": "Opposite Blk 288",
    "name": "Svc 670 (Opposite Blk 288 → Marina Bay Financial Centre)",
    "name:en": "Svc 670 (Opposite Blk 288 → Marina Bay Financial Centre)",
    "network": "Land Transport Authority",
    "network:short": "LTA",
    "network:wikidata": "Q3299279",
    "network:wikipedia": "en:Land Transport Authority",
    "operator": "Tower Transit Singapore",
    "operator:wikidata": "Q19898668",
    "operator:wikipedia": "en:Tower Transit Singapore",
    "public_transport:version": "2",
    "ref": "670",
    "route": "bus",
    "to": "Marina Bay Financial Centre",
    "type": "route",
    "website": "https://towertransit.sg/"
  },
  "geometry": {
    "type": "LineString",
    "coordinates": [
      [
        103.835649,
        1.4395454
      ],
      [
        103.8359614,
        1.4396754
      ],
      [
        103.8367962,
        1.4400298
      ],
      [
        103.8370788,
        1.4401498
      ],
      [
        103.8375992,
        1.4403694
      ],
      [
        103.8378661,
        1.4404843
      ],
      [
        103.8382035,
        1.4406276
      ],
      [
        103.8384122,
        1.4407162
      ],
      [
        103.8386342,
        1.4408122
      ],
      [
        103.8391249,
        1.4410226
      ],
      [
        103.839182,
        1.4410467
      ],
      [
        103.8392843,
        1.44109
      ],
      [
        103.8393371,
        1.4409561
      ],
      [
        103.8393692,
        1.4408809
      ],
      [
        103.8397828,
        1.4399182
      ],
      [
        103.8400482,
        1.4392639
      ],
      [
        103.840132,
        1.4390677
      ],
      [
        103.8401853,
        1.4389429
      ],
      [
        103.8403281,
        1.4386086
      ],
      [
        103.8403957,
        1.4384555
      ],
      [
        103.8404939,
        1.4382718
      ],
      [
        103.8407065,
        1.4379971
      ],
      [
        103.8408669,
        1.4378196
      ],
      [
        103.8410154,
        1.4376558
      ],
      [
        103.8410852,
        1.4375801
      ],
      [
        103.8411555,
        1.437506
      ],
      [
        103.8411985,
        1.4374609
      ],
      [
        103.841547,
        1.4370948
      ],
      [
        103.8416692,
        1.4369731
      ],
      [
        103.8419498,
        1.4366756
      ],
      [
        103.8420886,
        1.4365249
      ],
      [
        103.8421576,
        1.4364526
      ],
      [
        103.8422157,
        1.4363917
      ],
      [
        103.8423066,
        1.4362861
      ],
      [
        103.8426815,
        1.4358506
      ],
      [
        103.8429768,
        1.4355269
      ],
      [
        103.8431338,
        1.4353593
      ],
      [
        103.8432136,
        1.4352741
      ],
      [
        103.843266,
        1.4352231
      ],
      [
        103.8431978,
        1.4351501
      ],
      [
        103.8431537,
        1.4351073
      ],
      [
        103.8429739,
        1.4349326
      ],
      [
        103.8427252,
        1.4347045
      ],
      [
        103.8425049,
        1.4344883
      ],
      [
        103.842355,
        1.4343411
      ],
      [
        103.8423375,
        1.4343244
      ],
      [
        103.8415128,
        1.4335361
      ],
      [
        103.8414592,
        1.4334872
      ],
      [
        103.8413565,
        1.4333935
      ],
      [
        103.8409541,
        1.4330263
      ],
      [
        103.8408993,
        1.432979
      ],
      [
        103.8408246,
        1.4329117
      ],
      [
        103.8407523,
        1.4329678
      ],
      [
        103.8406909,
        1.4330211
      ],
      [
        103.8402207,
        1.4334295
      ],
      [
        103.8399543,
        1.4336656
      ],
      [
        103.839706,
        1.4338849
      ],
      [
        103.839516,
        1.4340526
      ],
      [
        103.8392974,
        1.4342457
      ],
      [
        103.8392046,
        1.4343276
      ],
      [
        103.8390938,
        1.4344255
      ],
      [
        103.838921,
        1.434578
      ],
      [
        103.8383319,
        1.4350983
      ],
      [
        103.8382209,
        1.4351963
      ],
      [
        103.8379131,
        1.4354776
      ],
      [
        103.8376818,
        1.4355736
      ],
      [
        103.8374317,
        1.4356001
      ],
      [
        103.8371713,
        1.4355549
      ],
      [
        103.8369646,
        1.4354841
      ],
      [
        103.8362965,
        1.4352535
      ],
      [
        103.8361808,
        1.4352156
      ],
      [
        103.8361372,
        1.4352016
      ],
      [
        103.83605,
        1.4351726
      ],
      [
        103.8359529,
        1.4351407
      ],
      [
        103.8353819,
        1.4349103
      ],
      [
        103.8351452,
        1.4348271
      ],
      [
        103.8350452,
        1.4347913
      ],
      [
        103.8347779,
        1.4346983
      ],
      [
        103.8346712,
        1.4346576
      ],
      [
        103.8345434,
        1.434612
      ],
      [
        103.8344848,
        1.434591
      ],
      [
        103.8338659,
        1.4344033
      ],
      [
        103.8337867,
        1.4343792
      ],
      [
        103.8335422,
        1.4343051
      ],
      [
        103.8333353,
        1.434247
      ],
      [
        103.8331282,
        1.4342366
      ],
      [
        103.8329327,
        1.434286
      ],
      [
        103.8327498,
        1.4343566
      ],
      [
        103.8326787,
        1.4343977
      ],
      [
        103.8325444,
        1.434522
      ],
      [
        103.8323767,
        1.4346626
      ],
      [
        103.8323493,
        1.4346856
      ],
      [
        103.8323101,
        1.434727
      ],
      [
        103.8322962,
        1.434738
      ],
      [
        103.8319102,
        1.4350434
      ],
      [
        103.8317244,
        1.4351942
      ],
      [
        103.8315929,
        1.4352724
      ],
      [
        103.8314392,
        1.4353124
      ],
      [
        103.831257,
        1.4352953
      ],
      [
        103.8312068,
        1.4352906
      ],
      [
        103.8311394,
        1.4352482
      ],
      [
        103.8307552,
        1.435007
      ],
      [
        103.830547,
        1.4348763
      ],
      [
        103.830171,
        1.4346401
      ],
      [
        103.8299556,
        1.4345048
      ],
      [
        103.829761,
        1.4343758
      ],
      [
        103.8296197,
        1.4341491
      ],
      [
        103.8295623,
        1.4339696
      ],
      [
        103.8295574,
        1.4338988
      ],
      [
        103.8295648,
        1.4337418
      ],
      [
        103.8295817,
        1.4334086
      ],
      [
        103.8296096,
        1.4328601
      ],
      [
        103.829628,
        1.4325621
      ],
      [
        103.8296386,
        1.4324333
      ],
      [
        103.8296552,
        1.4321544
      ],
      [
        103.8296566,
        1.4320973
      ],
      [
        103.8296843,
        1.431649
      ],
      [
        103.8297103,
        1.4312958
      ],
      [
        103.8297271,
        1.4310658
      ],
      [
        103.8297523,
        1.430723
      ],
      [
        103.8297708,
        1.4304711
      ],
      [
        103.8297751,
        1.4304131
      ],
      [
        103.8297832,
        1.4303147
      ],
      [
        103.829787,
        1.4302557
      ],
      [
        103.8298181,
        1.4297907
      ],
      [
        103.8298278,
        1.4296448
      ],
      [
        103.8298446,
        1.4294929
      ],
      [
        103.8298497,
        1.4294471
      ],
      [
        103.8298715,
        1.4293045
      ],
      [
        103.8299091,
        1.4291586
      ],
      [
        103.8299681,
        1.4290548
      ],
      [
        103.8303463,
        1.4286866
      ],
      [
        103.8303927,
        1.4286457
      ],
      [
        103.8308017,
        1.4282862
      ],
      [
        103.8311841,
        1.42795
      ],
      [
        103.8314095,
        1.4277518
      ],
      [
        103.8314448,
        1.4277207
      ],
      [
        103.8315027,
        1.4276698
      ],
      [
        103.8315321,
        1.4276438
      ],
      [
        103.8319581,
        1.4272788
      ],
      [
        103.8320104,
        1.4272207
      ],
      [
        103.8320453,
        1.4271761
      ],
      [
        103.8320783,
        1.4271189
      ],
      [
        103.8321006,
        1.427055
      ],
      [
        103.8321132,
        1.4270027
      ],
      [
        103.8321238,
        1.4269397
      ],
      [
        103.8321316,
        1.4268825
      ],
      [
        103.8321388,
        1.4268012
      ],
      [
        103.8321733,
        1.4259324
      ],
      [
        103.8321818,
        1.4256563
      ],
      [
        103.8321863,
        1.4255632
      ],
      [
        103.8321999,
        1.425282
      ],
      [
        103.8321659,
        1.4250339
      ],
      [
        103.8319033,
        1.4244313
      ],
      [
        103.8316112,
        1.4237172
      ],
      [
        103.8315867,
        1.4236565
      ],
      [
        103.8315648,
        1.4235316
      ],
      [
        103.8315602,
        1.4233335
      ],
      [
        103.8315456,
        1.4230717
      ],
      [
        103.8315387,
        1.4229491
      ],
      [
        103.8315378,
        1.4228328
      ],
      [
        103.8315375,
        1.4227921
      ],
      [
        103.8315269,
        1.4215188
      ],
      [
        103.8315353,
        1.4211912
      ],
      [
        103.8315516,
        1.420924
      ],
      [
        103.831575,
        1.4207675
      ],
      [
        103.8316477,
        1.4204773
      ],
      [
        103.8317657,
        1.4201679
      ],
      [
        103.8319809,
        1.4196204
      ],
      [
        103.8321507,
        1.4192219
      ],
      [
        103.8321741,
        1.419173
      ],
      [
        103.8322082,
        1.4191155
      ],
      [
        103.8322444,
        1.4190708
      ],
      [
        103.8323051,
        1.4190133
      ],
      [
        103.8324141,
        1.4189319
      ],
      [
        103.8325866,
        1.4188336
      ],
      [
        103.8327356,
        1.4187569
      ],
      [
        103.8328265,
        1.4187096
      ],
      [
        103.8331779,
        1.4185303
      ],
      [
        103.8336197,
        1.4183121
      ],
      [
        103.8337263,
        1.4182621
      ],
      [
        103.8338508,
        1.418208
      ],
      [
        103.8338015,
        1.4181158
      ],
      [
        103.8337747,
        1.4180553
      ],
      [
        103.833548,
        1.4176093
      ],
      [
        103.8332542,
        1.4170211
      ],
      [
        103.8332284,
        1.4169727
      ],
      [
        103.8330919,
        1.4167023
      ],
      [
        103.8326135,
        1.4157726
      ],
      [
        103.8324219,
        1.4153873
      ],
      [
        103.8316326,
        1.4138255
      ],
      [
        103.8315918,
        1.4137442
      ],
      [
        103.8313588,
        1.4132653
      ],
      [
        103.8312581,
        1.4130716
      ],
      [
        103.8311072,
        1.4127721
      ],
      [
        103.8305627,
        1.4116848
      ],
      [
        103.8304862,
        1.4115027
      ],
      [
        103.8303468,
        1.4112303
      ],
      [
        103.8302636,
        1.4110641
      ],
      [
        103.830041,
        1.4106176
      ],
      [
        103.8298618,
        1.4102434
      ],
      [
        103.8298149,
        1.4101398
      ],
      [
        103.8297553,
        1.4099855
      ],
      [
        103.8296164,
        1.4096756
      ],
      [
        103.8295332,
        1.4094978
      ],
      [
        103.8294639,
        1.4093755
      ],
      [
        103.8294458,
        1.4093404
      ],
      [
        103.829383,
        1.4092296
      ],
      [
        103.8287962,
        1.4080488
      ],
      [
        103.828449,
        1.4073388
      ],
      [
        103.8283688,
        1.4071734
      ],
      [
        103.8278824,
        1.4059445
      ],
      [
        103.8276158,
        1.4049144
      ],
      [
        103.8275007,
        1.4036542
      ],
      [
        103.8274998,
        1.4031285
      ],
      [
        103.8275117,
        1.4026928
      ],
      [
        103.8275678,
        1.4021563
      ],
      [
        103.8276751,
        1.4016507
      ],
      [
        103.8278291,
        1.4009865
      ],
      [
        103.8278886,
        1.4007808
      ],
      [
        103.8280154,
        1.4003424
      ],
      [
        103.828113,
        1.4000851
      ],
      [
        103.8281181,
        1.4000719
      ],
      [
        103.8282594,
        1.3996995
      ],
      [
        103.8284833,
        1.399162
      ],
      [
        103.8285913,
        1.3989695
      ],
      [
        103.8291118,
        1.3981623
      ],
      [
        103.8293915,
        1.3978
      ],
      [
        103.8299537,
        1.3971811
      ],
      [
        103.8302811,
        1.396841
      ],
      [
        103.8307333,
        1.3964178
      ],
      [
        103.831152,
        1.3961413
      ],
      [
        103.8313744,
        1.3960044
      ],
      [
        103.8318325,
        1.3957256
      ],
      [
        103.8320267,
        1.3956075
      ],
      [
        103.8321057,
        1.3955594
      ],
      [
        103.8328799,
        1.3950705
      ],
      [
        103.8333049,
        1.394807
      ],
      [
        103.8334861,
        1.3947023
      ],
      [
        103.8336472,
        1.3946208
      ],
      [
        103.8338058,
        1.3946062
      ],
      [
        103.8340463,
        1.394627
      ],
      [
        103.8345757,
        1.3947424
      ],
      [
        103.8357731,
        1.3949887
      ],
      [
        103.8363133,
        1.3950994
      ],
      [
        103.8364096,
        1.3951135
      ],
      [
        103.8366288,
        1.3951339
      ],
      [
        103.8372365,
        1.3952801
      ],
      [
        103.8376146,
        1.3953844
      ],
      [
        103.8388209,
        1.3956762
      ],
      [
        103.8398188,
        1.3959076
      ],
      [
        103.8401609,
        1.3959886
      ],
      [
        103.8409604,
        1.3961733
      ],
      [
        103.8417872,
        1.396329
      ],
      [
        103.8425368,
        1.3964647
      ],
      [
        103.8432865,
        1.3965487
      ],
      [
        103.8443843,
        1.3966499
      ],
      [
        103.8454845,
        1.3966821
      ],
      [
        103.8463969,
        1.3966776
      ],
      [
        103.8465849,
        1.3966703
      ],
      [
        103.8469612,
        1.3966567
      ],
      [
        103.8475867,
        1.396633
      ],
      [
        103.8487816,
        1.3965944
      ],
      [
        103.8494704,
        1.396573
      ],
      [
        103.8501611,
        1.3965802
      ],
      [
        103.8507744,
        1.3966475
      ],
      [
        103.851386,
        1.3967776
      ],
      [
        103.8519975,
        1.3969899
      ],
      [
        103.8524716,
        1.3971752
      ],
      [
        103.8528201,
        1.397316
      ],
      [
        103.8533552,
        1.3975442
      ],
      [
        103.8537947,
        1.3976947
      ],
      [
        103.8542774,
        1.3978005
      ],
      [
        103.8546889,
        1.3978353
      ],
      [
        103.8548601,
        1.3978212
      ],
      [
        103.8549623,
        1.3978137
      ],
      [
        103.8550375,
        1.397804
      ],
      [
        103.8552512,
        1.3977729
      ],
      [
        103.8554676,
        1.3977234
      ],
      [
        103.8557433,
        1.3976382
      ],
      [
        103.8560105,
        1.3975339
      ],
      [
        103.8563042,
        1.397382
      ],
      [
        103.8565734,
        1.3972136
      ],
      [
        103.8568936,
        1.3969409
      ],
      [
        103.8571507,
        1.3966705
      ],
      [
        103.8574035,
        1.396313
      ],
      [
        103.8575944,
        1.3959575
      ],
      [
        103.8576981,
        1.3957503
      ],
      [
        103.8577931,
        1.3954989
      ],
      [
        103.8578636,
        1.3952132
      ],
      [
        103.8579153,
        1.3948853
      ],
      [
        103.8579313,
        1.3948121
      ],
      [
        103.8579535,
        1.3946801
      ],
      [
        103.8581002,
        1.3929872
      ],
      [
        103.8581299,
        1.3925425
      ],
      [
        103.8582732,
        1.3901777
      ],
      [
        103.8583115,
        1.3895345
      ],
      [
        103.8583767,
        1.3879657
      ],
      [
        103.8584161,
        1.3865238
      ],
      [
        103.8584249,
        1.3854904
      ],
      [
        103.8584537,
        1.3846166
      ],
      [
        103.8584634,
        1.3837406
      ],
      [
        103.8584379,
        1.381648
      ],
      [
        103.8584355,
        1.3815215
      ],
      [
        103.8584109,
        1.3793026
      ],
      [
        103.8584109,
        1.3784082
      ],
      [
        103.8584598,
        1.3776464
      ],
      [
        103.8585053,
        1.377086
      ],
      [
        103.8585589,
        1.3767732
      ],
      [
        103.8586232,
        1.3764418
      ],
      [
        103.8587114,
        1.3760422
      ],
      [
        103.8590266,
        1.3749638
      ],
      [
        103.8593191,
        1.3740548
      ],
      [
        103.8596987,
        1.3731827
      ],
      [
        103.8605076,
        1.371452
      ],
      [
        103.8606874,
        1.3709252
      ],
      [
        103.8608205,
        1.37046
      ],
      [
        103.8609053,
        1.3700412
      ],
      [
        103.8609642,
        1.3696528
      ],
      [
        103.8609884,
        1.3693392
      ],
      [
        103.8609994,
        1.3688986
      ],
      [
        103.8609823,
        1.3685266
      ],
      [
        103.8609505,
        1.3681869
      ],
      [
        103.8608919,
        1.3678391
      ],
      [
        103.8608001,
        1.367485
      ],
      [
        103.8606928,
        1.3671229
      ],
      [
        103.8605699,
        1.3667658
      ],
      [
        103.8604609,
        1.3664101
      ],
      [
        103.860384,
        1.3661534
      ],
      [
        103.859153,
        1.3627977
      ],
      [
        103.8589066,
        1.3620818
      ],
      [
        103.8580782,
        1.3597831
      ],
      [
        103.8575497,
        1.3582502
      ],
      [
        103.8574799,
        1.3580391
      ],
      [
        103.8573028,
        1.3575557
      ],
      [
        103.8571961,
        1.3571999
      ],
      [
        103.8571248,
        1.356906
      ],
      [
        103.8570759,
        1.3565839
      ],
      [
        103.8569829,
        1.3559239
      ],
      [
        103.8569404,
        1.3549726
      ],
      [
        103.8570859,
        1.3533717
      ],
      [
        103.8574546,
        1.3520962
      ],
      [
        103.8577247,
        1.3512432
      ],
      [
        103.8582599,
        1.3497588
      ],
      [
        103.8583407,
        1.3495184
      ],
      [
        103.8586032,
        1.3487377
      ],
      [
        103.8590239,
        1.3475367
      ],
      [
        103.8591013,
        1.3473053
      ],
      [
        103.8591377,
        1.347147
      ],
      [
        103.859341,
        1.3465854
      ],
      [
        103.8596646,
        1.3458052
      ],
      [
        103.8599046,
        1.3451476
      ],
      [
        103.8599837,
        1.3448376
      ],
      [
        103.8608606,
        1.3423365
      ],
      [
        103.8612815,
        1.341189
      ],
      [
        103.8617901,
        1.339826
      ],
      [
        103.8619084,
        1.339404
      ],
      [
        103.8620312,
        1.3388833
      ],
      [
        103.8621201,
        1.3383601
      ],
      [
        103.8621303,
        1.3382767
      ],
      [
        103.8621393,
        1.3381776
      ],
      [
        103.8621728,
        1.3375612
      ],
      [
        103.8621944,
        1.3371331
      ],
      [
        103.8622206,
        1.3366456
      ],
      [
        103.8622433,
        1.3362871
      ],
      [
        103.8622564,
        1.3352635
      ],
      [
        103.8622939,
        1.3344495
      ],
      [
        103.862312,
        1.3341591
      ],
      [
        103.8623507,
        1.3334597
      ],
      [
        103.8623553,
        1.3332508
      ],
      [
        103.8624219,
        1.3315672
      ],
      [
        103.862424,
        1.329832
      ],
      [
        103.8623903,
        1.3293483
      ],
      [
        103.8623714,
        1.3291025
      ],
      [
        103.8622723,
        1.3286564
      ],
      [
        103.8621611,
        1.328241
      ],
      [
        103.8617932,
        1.3273373
      ],
      [
        103.8614553,
        1.3268121
      ],
      [
        103.861246,
        1.3265306
      ],
      [
        103.8608506,
        1.3260993
      ],
      [
        103.860634,
        1.3258868
      ],
      [
        103.8599358,
        1.3252418
      ],
      [
        103.8596678,
        1.3249918
      ],
      [
        103.8589809,
        1.3243512
      ],
      [
        103.8585017,
        1.3239018
      ],
      [
        103.8583445,
        1.3237545
      ],
      [
        103.8581874,
        1.3236071
      ],
      [
        103.8579285,
        1.3233592
      ],
      [
        103.8577964,
        1.3232253
      ],
      [
        103.8575584,
        1.3229297
      ],
      [
        103.856535,
        1.321741
      ],
      [
        103.8564923,
        1.3216914
      ],
      [
        103.8563696,
        1.3215628
      ],
      [
        103.8560287,
        1.3212197
      ],
      [
        103.8556393,
        1.3208617
      ],
      [
        103.8552404,
        1.3205324
      ],
      [
        103.8541098,
        1.3197514
      ],
      [
        103.8538304,
        1.3195591
      ],
      [
        103.8535398,
        1.3193745
      ],
      [
        103.8526531,
        1.3189738
      ],
      [
        103.8518878,
        1.3186061
      ],
      [
        103.850824,
        1.3180936
      ],
      [
        103.8503567,
        1.3178851
      ],
      [
        103.8500269,
        1.3177386
      ],
      [
        103.8483712,
        1.3170033
      ],
      [
        103.8483262,
        1.3169785
      ],
      [
        103.848154,
        1.3168902
      ],
      [
        103.8478254,
        1.3166972
      ],
      [
        103.8473614,
        1.3163754
      ],
      [
        103.8470234,
        1.3160858
      ],
      [
        103.846775,
        1.3158513
      ],
      [
        103.8464163,
        1.3154758
      ],
      [
        103.8457641,
        1.314541
      ],
      [
        103.8457207,
        1.3144648
      ],
      [
        103.8457047,
        1.3144333
      ],
      [
        103.8456486,
        1.3143228
      ],
      [
        103.845615,
        1.3142567
      ],
      [
        103.8455725,
        1.3141731
      ],
      [
        103.8455378,
        1.3141048
      ],
      [
        103.8455114,
        1.3140528
      ],
      [
        103.8454729,
        1.3139715
      ],
      [
        103.845312,
        1.3136533
      ],
      [
        103.8452327,
        1.3134652
      ],
      [
        103.8451313,
        1.3131694
      ],
      [
        103.8450377,
        1.3127905
      ],
      [
        103.8447927,
        1.3116701
      ],
      [
        103.8447093,
        1.3113608
      ],
      [
        103.8445578,
        1.3109215
      ],
      [
        103.8444007,
        1.3105671
      ],
      [
        103.8440901,
        1.3100489
      ],
      [
        103.8438865,
        1.3097884
      ],
      [
        103.8435838,
        1.3094808
      ],
      [
        103.8430795,
        1.3090241
      ],
      [
        103.8428282,
        1.3088208
      ],
      [
        103.8418494,
        1.3081959
      ],
      [
        103.8415223,
        1.3079485
      ],
      [
        103.8411896,
        1.3076548
      ],
      [
        103.8406297,
        1.3070025
      ],
      [
        103.8404639,
        1.306731
      ],
      [
        103.8403355,
        1.3064282
      ],
      [
        103.8402144,
        1.3060809
      ],
      [
        103.8401717,
        1.3058733
      ],
      [
        103.8401234,
        1.3055193
      ],
      [
        103.8400912,
        1.3052351
      ],
      [
        103.8401194,
        1.3048838
      ],
      [
        103.8402141,
        1.304433
      ],
      [
        103.8402791,
        1.304223
      ],
      [
        103.8403814,
        1.3039527
      ],
      [
        103.8406251,
        1.3035425
      ],
      [
        103.8407341,
        1.3033909
      ],
      [
        103.8408784,
        1.3032144
      ],
      [
        103.8415685,
        1.3026463
      ],
      [
        103.8417229,
        1.3025075
      ],
      [
        103.8420061,
        1.3022528
      ],
      [
        103.8426297,
        1.3017089
      ],
      [
        103.8427759,
        1.3015891
      ],
      [
        103.843035,
        1.3013647
      ],
      [
        103.8433032,
        1.301
      ],
      [
        103.843432,
        1.3006461
      ],
      [
        103.8435393,
        1.3000669
      ],
      [
        103.8435715,
        1.2994984
      ],
      [
        103.8435715,
        1.2991123
      ],
      [
        103.8434856,
        1.29834
      ],
      [
        103.843432,
        1.2977822
      ],
      [
        103.8435285,
        1.2971708
      ],
      [
        103.8438075,
        1.2966345
      ],
      [
        103.8441294,
        1.2959373
      ],
      [
        103.84432,
        1.2950602
      ],
      [
        103.8443825,
        1.294363
      ],
      [
        103.8443761,
        1.293835
      ],
      [
        103.8442687,
        1.2934026
      ],
      [
        103.844084,
        1.2929739
      ],
      [
        103.8437109,
        1.2921725
      ],
      [
        103.8433247,
        1.2914753
      ],
      [
        103.8427493,
        1.2903631
      ],
      [
        103.8422391,
        1.2894506
      ],
      [
        103.8420379,
        1.2891269
      ],
      [
        103.841843,
        1.2888334
      ],
      [
        103.8412698,
        1.28808
      ],
      [
        103.8407789,
        1.2875566
      ],
      [
        103.8406065,
        1.2874073
      ],
      [
        103.8404642,
        1.2872945
      ],
      [
        103.840124,
        1.2870683
      ],
      [
        103.839995,
        1.2869844
      ],
      [
        103.8398021,
        1.2868783
      ],
      [
        103.8393707,
        1.2866375
      ],
      [
        103.8389249,
        1.2863567
      ],
      [
        103.8384233,
        1.2860255
      ],
      [
        103.8384122,
        1.2859944
      ],
      [
        103.838396,
        1.285971
      ],
      [
        103.8383733,
        1.2859502
      ],
      [
        103.8379061,
        1.2855095
      ],
      [
        103.8377725,
        1.2853376
      ],
      [
        103.8373153,
        1.2846382
      ],
      [
        103.8371934,
        1.2843974
      ],
      [
        103.8371215,
        1.2842334
      ],
      [
        103.8368947,
        1.2839224
      ],
      [
        103.8367243,
        1.2836887
      ],
      [
        103.8365651,
        1.2835123
      ],
      [
        103.8364716,
        1.28337
      ],
      [
        103.836426,
        1.2832614
      ],
      [
        103.8364133,
        1.2832081
      ],
      [
        103.8364104,
        1.2831518
      ],
      [
        103.8364585,
        1.2829218
      ],
      [
        103.837067,
        1.2825547
      ],
      [
        103.8375749,
        1.2822177
      ],
      [
        103.8380168,
        1.2819414
      ],
      [
        103.8382257,
        1.2818106
      ],
      [
        103.8383569,
        1.2817086
      ],
      [
        103.8384156,
        1.2816629
      ],
      [
        103.8385371,
        1.2815776
      ],
      [
        103.8387585,
        1.2814009
      ],
      [
        103.8388224,
        1.2813464
      ],
      [
        103.839051,
        1.2811032
      ],
      [
        103.8391387,
        1.281005
      ],
      [
        103.8392475,
        1.2808532
      ],
      [
        103.8394011,
        1.280577
      ],
      [
        103.8394685,
        1.2804101
      ],
      [
        103.8395983,
        1.2799735
      ],
      [
        103.8396515,
        1.2798726
      ],
      [
        103.8397222,
        1.279693
      ],
      [
        103.839763,
        1.279589
      ],
      [
        103.8398696,
        1.2792622
      ],
      [
        103.8399739,
        1.2790458
      ],
      [
        103.840133,
        1.278746
      ],
      [
        103.8404585,
        1.278099
      ],
      [
        103.8404935,
        1.2780308
      ],
      [
        103.8405391,
        1.2779203
      ],
      [
        103.8405889,
        1.2777855
      ],
      [
        103.8406256,
        1.2776465
      ],
      [
        103.840649,
        1.2775047
      ],
      [
        103.8407215,
        1.2770983
      ],
      [
        103.8407643,
        1.2768883
      ],
      [
        103.8408018,
        1.2766714
      ],
      [
        103.8408419,
        1.2764579
      ],
      [
        103.8408517,
        1.276406
      ],
      [
        103.8408814,
        1.2762407
      ],
      [
        103.8408906,
        1.2761905
      ],
      [
        103.8409254,
        1.2759702
      ],
      [
        103.8410357,
        1.2754253
      ],
      [
        103.8411061,
        1.2750028
      ],
      [
        103.8412949,
        1.2744185
      ],
      [
        103.8413939,
        1.2741648
      ],
      [
        103.8414552,
        1.2740493
      ],
      [
        103.8414809,
        1.2739869
      ],
      [
        103.8415404,
        1.273854
      ],
      [
        103.8416322,
        1.2736842
      ],
      [
        103.8416919,
        1.273525
      ],
      [
        103.8417029,
        1.2735078
      ],
      [
        103.8417204,
        1.2734804
      ],
      [
        103.8417651,
        1.2734105
      ],
      [
        103.8419208,
        1.2731468
      ],
      [
        103.8419712,
        1.2730635
      ],
      [
        103.8421056,
        1.2728797
      ],
      [
        103.8421549,
        1.2728079
      ],
      [
        103.8422027,
        1.2727636
      ],
      [
        103.8422598,
        1.2727252
      ],
      [
        103.8426709,
        1.272733
      ],
      [
        103.8430022,
        1.2727458
      ],
      [
        103.8431087,
        1.2727497
      ],
      [
        103.8437991,
        1.2727659
      ],
      [
        103.8439163,
        1.2727696
      ],
      [
        103.8440424,
        1.2729059
      ],
      [
        103.8444093,
        1.2733019
      ],
      [
        103.8444977,
        1.2733936
      ],
      [
        103.8445737,
        1.273488
      ],
      [
        103.8447389,
        1.2736864
      ],
      [
        103.8450042,
        1.2740074
      ],
      [
        103.8451084,
        1.2741343
      ],
      [
        103.8451722,
        1.2742177
      ],
      [
        103.8453993,
        1.2745021
      ],
      [
        103.8455683,
        1.2746965
      ],
      [
        103.8455766,
        1.2747026
      ],
      [
        103.8456729,
        1.2748147
      ],
      [
        103.8457074,
        1.2748549
      ],
      [
        103.8457569,
        1.274913
      ],
      [
        103.8458088,
        1.2749743
      ],
      [
        103.845941,
        1.275142
      ],
      [
        103.8461507,
        1.2753973
      ],
      [
        103.8464492,
        1.275764
      ],
      [
        103.8464915,
        1.2758152
      ],
      [
        103.8466158,
        1.2759542
      ],
      [
        103.8467313,
        1.276088
      ],
      [
        103.8468201,
        1.2761893
      ],
      [
        103.8470551,
        1.2764618
      ],
      [
        103.8472225,
        1.2766075
      ],
      [
        103.8472472,
        1.276629
      ],
      [
        103.8473591,
        1.2767092
      ],
      [
        103.8473692,
        1.2767176
      ],
      [
        103.8474051,
        1.276748
      ],
      [
        103.847606,
        1.2769185
      ],
      [
        103.8478131,
        1.2771797
      ],
      [
        103.848052,
        1.2775832
      ],
      [
        103.8486161,
        1.2785002
      ],
      [
        103.8487939,
        1.2787901
      ],
      [
        103.8488095,
        1.2788159
      ],
      [
        103.8493545,
        1.2796985
      ],
      [
        103.8497724,
        1.2803753
      ],
      [
        103.8497996,
        1.2804169
      ],
      [
        103.8498296,
        1.2804625
      ],
      [
        103.8502824,
        1.2811508
      ],
      [
        103.8503193,
        1.281207
      ],
      [
        103.850353,
        1.2812427
      ],
      [
        103.8504915,
        1.281394
      ],
      [
        103.8505867,
        1.2815174
      ],
      [
        103.8508374,
        1.2818628
      ],
      [
        103.8509877,
        1.2821088
      ],
      [
        103.8510427,
        1.2822089
      ],
      [
        103.8511701,
        1.282406
      ],
      [
        103.8512053,
        1.282457
      ],
      [
        103.851221,
        1.2824797
      ],
      [
        103.851264,
        1.2825266
      ],
      [
        103.8513125,
        1.2825625
      ],
      [
        103.8517376,
        1.2823291
      ],
      [
        103.8518207,
        1.2822829
      ],
      [
        103.851904,
        1.2822371
      ],
      [
        103.85198,
        1.282188
      ],
      [
        103.8520704,
        1.2821298
      ],
      [
        103.8526833,
        1.2817345
      ],
      [
        103.8527331,
        1.2817024
      ],
      [
        103.8527756,
        1.281675
      ],
      [
        103.8528428,
        1.2816317
      ],
      [
        103.8532418,
        1.2813744
      ],
      [
        103.8533519,
        1.2813005
      ],
      [
        103.8533614,
        1.2812941
      ],
      [
        103.853373,
        1.2812864
      ],
      [
        103.8534449,
        1.2812433
      ],
      [
        103.853587,
        1.2811517
      ],
      [
        103.8537029,
        1.281077
      ],
      [
        103.8540735,
        1.280838
      ],
      [
        103.854166,
        1.2807783
      ],
      [
        103.8543972,
        1.2806292
      ],
      [
        103.8550657,
        1.2801981
      ],
      [
        103.8555371,
        1.2798941
      ],
      [
        103.8555963,
        1.2798559
      ]
    ]
  }
}