{
  "type": "Feature",
  "properties": {
    "relation": 12980701,
    "direction": "2",
    "fee": "yes",
    "from": "Suntec Convention Centre",
    "name": "Svc 671 (Suntec Convention Centre → The Rivervale)",
    "name:en": "Svc 671 (Suntec Convention Centre → The Rivervale)",
    "network": "Land Transport Authority",
    "network:short": "LTA",
    "network:wikidata": "Q3299279",
    "network:wikipedia": "en:Land Transport Authority",
    "operator": "SBS Transit",
    "operator:wikidata": "Q2661305",
    "operator:wikipedia": "en:SBS Transit",
    "public_transport:version": "2",
    "ref": "671",
    "route": "bus",
    "to": "The Rivervale",
    "type": "route",
    "website": "https://www.sbstransit.com.sg/"
  },
  "geometry": {
    "type": "LineString",
    "coordinates": [
      [
        103.8577737,
        1.2928992
      ],
      [
        103.8580556,
        1.2933924
      ],
      [
        103.8582405,
        1.2937113
      ],
      [
        103.858378,
        1.2939486
      ],
      [
        103.8585234,
        1.2941993
      ],
      [
        103.8585949,
        1.2943162
      ],
      [
        103.8586093,
        1.2943574
      ],
      [
        103.8586146,
        1.294403
      ],
      [
        103.8586084,
        1.2944522
      ],
      [
        103.8585826,
        1.2945378
      ],
      [
        103.8585515,
        1.2945931
      ],
      [
        103.8585259,
        1.2946673
      ],
      [
        103.8585155,
        1.294745
      ],
      [
        103.8585207,
        1.2948233
      ],
      [
        103.8585357,
        1.2948837
      ],
      [
        103.8585601,
        1.2949409
      ],
      [
        103.8585931,
        1.2949936
      ],
      [
        103.858634,
        1.2950405
      ],
      [
        103.8586628,
        1.2950661
      ],
      [
        103.8587333,
        1.2951114
      ],
      [
        103.8588117,
        1.2951408
      ],
      [
        103.8588945,
        1.295153
      ],
      [
        103.8589781,
        1.2951475
      ],
      [
        103.8590445,
        1.2951299
      ],
      [
        103.8591068,
        1.2951011
      ],
      [
        103.8591632,
        1.295062
      ],
      [
        103.8592119,
        1.2950136
      ],
      [
        103.8592516,
        1.2949576
      ],
      [
        103.8592762,
        1.294908
      ],
      [
        103.8592965,
        1.2948429
      ],
      [
        103.8593052,
        1.2947752
      ],
      [
        103.859302,
        1.2947068
      ],
      [
        103.8592898,
        1.294648
      ],
      [
        103.8593411,
        1.2945805
      ],
      [
        103.8595942,
        1.2944337
      ],
      [
        103.8598415,
        1.2942903
      ],
      [
        103.8598839,
        1.2942657
      ],
      [
        103.8601112,
        1.2941242
      ],
      [
        103.8605153,
        1.2938794
      ],
      [
        103.8605813,
        1.2938426
      ],
      [
        103.8606524,
        1.2937867
      ],
      [
        103.8606844,
        1.2937562
      ],
      [
        103.8607259,
        1.2937071
      ],
      [
        103.8607869,
        1.2936014
      ],
      [
        103.8608285,
        1.2934982
      ],
      [
        103.8608601,
        1.2933929
      ],
      [
        103.8608853,
        1.2930274
      ],
      [
        103.860903,
        1.2926215
      ],
      [
        103.8609142,
        1.2921903
      ],
      [
        103.8609193,
        1.2920199
      ],
      [
        103.8609199,
        1.2918804
      ],
      [
        103.8609258,
        1.2916996
      ],
      [
        103.8609354,
        1.291417
      ],
      [
        103.8609332,
        1.2913321
      ],
      [
        103.8609361,
        1.2912346
      ],
      [
        103.860962,
        1.29038
      ],
      [
        103.8609834,
        1.2896744
      ],
      [
        103.8609842,
        1.2896462
      ],
      [
        103.8609857,
        1.2895592
      ],
      [
        103.8609892,
        1.289483
      ],
      [
        103.8609897,
        1.2894653
      ],
      [
        103.8609981,
        1.2891903
      ],
      [
        103.860901,
        1.2858569
      ],
      [
        103.8608914,
        1.2855271
      ],
      [
        103.8608828,
        1.2854291
      ],
      [
        103.8608243,
        1.2850303
      ],
      [
        103.8608051,
        1.2849576
      ],
      [
        103.860803,
        1.2849482
      ],
      [
        103.8607807,
        1.2848685
      ],
      [
        103.860715,
        1.2846556
      ],
      [
        103.8606539,
        1.2844605
      ],
      [
        103.8605874,
        1.2842848
      ],
      [
        103.8604935,
        1.2840732
      ],
      [
        103.8604043,
        1.2839098
      ],
      [
        103.8602821,
        1.2837086
      ],
      [
        103.8601491,
        1.2835076
      ],
      [
        103.8598087,
        1.2829571
      ],
      [
        103.8595504,
        1.2824792
      ],
      [
        103.8595121,
        1.282417
      ],
      [
        103.859437,
        1.2823044
      ],
      [
        103.859408,
        1.2822628
      ],
      [
        103.8590254,
        1.2816669
      ],
      [
        103.8589403,
        1.2815277
      ],
      [
        103.8588872,
        1.2814466
      ],
      [
        103.8586299,
        1.2810611
      ],
      [
        103.8585788,
        1.2809853
      ],
      [
        103.8585116,
        1.2808892
      ],
      [
        103.8584731,
        1.2808332
      ],
      [
        103.8580311,
        1.2801208
      ],
      [
        103.857717,
        1.2796503
      ],
      [
        103.857653,
        1.279553
      ],
      [
        103.8573119,
        1.2789883
      ],
      [
        103.8572079,
        1.2788165
      ],
      [
        103.8571495,
        1.2787236
      ],
      [
        103.8567185,
        1.2780433
      ],
      [
        103.8565392,
        1.2777605
      ],
      [
        103.856289,
        1.2773813
      ],
      [
        103.8562118,
        1.2772644
      ],
      [
        103.8560929,
        1.2773425
      ],
      [
        103.8559886,
        1.277411
      ],
      [
        103.8553351,
        1.27784
      ],
      [
        103.8552258,
        1.2779108
      ],
      [
        103.8549895,
        1.278067
      ],
      [
        103.8547052,
        1.2782536
      ],
      [
        103.8546153,
        1.2783126
      ],
      [
        103.854544,
        1.2783594
      ],
      [
        103.8539363,
        1.2787584
      ],
      [
        103.8537637,
        1.2788717
      ],
      [
        103.85325,
        1.279209
      ],
      [
        103.8531841,
        1.2792523
      ],
      [
        103.8531022,
        1.2793061
      ],
      [
        103.8528069,
        1.2794999
      ],
      [
        103.852512,
        1.2796935
      ],
      [
        103.852479,
        1.2797152
      ],
      [
        103.8524334,
        1.2797452
      ],
      [
        103.8523789,
        1.2797809
      ],
      [
        103.8523141,
        1.2798235
      ],
      [
        103.8521817,
        1.2799104
      ],
      [
        103.851976,
        1.2800386
      ],
      [
        103.8518734,
        1.2801189
      ],
      [
        103.8515053,
        1.2804255
      ],
      [
        103.8511721,
        1.2806591
      ],
      [
        103.8510547,
        1.2807498
      ],
      [
        103.8505993,
        1.2800134
      ],
      [
        103.8505593,
        1.2799487
      ],
      [
        103.8502458,
        1.279421
      ],
      [
        103.8500047,
        1.2790151
      ],
      [
        103.8499108,
        1.2788687
      ],
      [
        103.8498119,
        1.2787145
      ],
      [
        103.8496182,
        1.2783984
      ],
      [
        103.8495895,
        1.2783516
      ],
      [
        103.8495351,
        1.2782591
      ],
      [
        103.8495062,
        1.2782142
      ],
      [
        103.8491009,
        1.2775194
      ],
      [
        103.8490242,
        1.2773896
      ],
      [
        103.8488901,
        1.2771626
      ],
      [
        103.8487622,
        1.2769574
      ],
      [
        103.8487242,
        1.2768974
      ],
      [
        103.8482674,
        1.2761757
      ],
      [
        103.8482079,
        1.2760817
      ],
      [
        103.84812,
        1.2759524
      ],
      [
        103.8480702,
        1.2758823
      ],
      [
        103.8478787,
        1.2756103
      ],
      [
        103.8478554,
        1.2755773
      ],
      [
        103.8475899,
        1.2751584
      ],
      [
        103.84753,
        1.2750774
      ],
      [
        103.8474839,
        1.2749989
      ],
      [
        103.8474379,
        1.2749354
      ],
      [
        103.8473428,
        1.2748053
      ],
      [
        103.8467498,
        1.2741432
      ],
      [
        103.8466416,
        1.2740145
      ],
      [
        103.8466293,
        1.2740005
      ],
      [
        103.8463864,
        1.2737238
      ],
      [
        103.8463319,
        1.2736617
      ],
      [
        103.8462884,
        1.2736127
      ],
      [
        103.8461736,
        1.2734806
      ],
      [
        103.8461196,
        1.2734157
      ],
      [
        103.8460739,
        1.273357
      ],
      [
        103.8459364,
        1.2731708
      ],
      [
        103.8459264,
        1.2731573
      ],
      [
        103.84591,
        1.2731354
      ],
      [
        103.8456995,
        1.2728845
      ],
      [
        103.8456443,
        1.2728338
      ],
      [
        103.8456032,
        1.2727926
      ],
      [
        103.8453495,
        1.27251
      ],
      [
        103.8452465,
        1.2725192
      ],
      [
        103.845085,
        1.2725315
      ],
      [
        103.844939,
        1.2725332
      ],
      [
        103.844523,
        1.2725288
      ],
      [
        103.8443438,
        1.2725284
      ],
      [
        103.8441254,
        1.2725215
      ],
      [
        103.8439923,
        1.2725191
      ],
      [
        103.8438968,
        1.2725175
      ],
      [
        103.8437841,
        1.2725155
      ],
      [
        103.8437047,
        1.2725125
      ],
      [
        103.8430631,
        1.2724981
      ],
      [
        103.8426387,
        1.2724802
      ],
      [
        103.8419184,
        1.2724541
      ],
      [
        103.8418426,
        1.2724515
      ],
      [
        103.8417967,
        1.2724482
      ],
      [
        103.8416174,
        1.272444
      ],
      [
        103.8413559,
        1.2724333
      ],
      [
        103.8400482,
        1.2723902
      ],
      [
        103.8399497,
        1.272387
      ],
      [
        103.8399313,
        1.2726623
      ],
      [
        103.839929,
        1.2727036
      ],
      [
        103.8399356,
        1.2729527
      ],
      [
        103.8399401,
        1.2729713
      ],
      [
        103.8399441,
        1.2729877
      ],
      [
        103.8399663,
        1.2730238
      ],
      [
        103.8399903,
        1.273061
      ],
      [
        103.8400228,
        1.2731068
      ],
      [
        103.8400579,
        1.273152
      ],
      [
        103.8400969,
        1.2731925
      ],
      [
        103.8401596,
        1.2732391
      ],
      [
        103.8404551,
        1.2734339
      ],
      [
        103.8408529,
        1.273699
      ],
      [
        103.8410145,
        1.2738396
      ],
      [
        103.8410868,
        1.2739351
      ],
      [
        103.8411097,
        1.2739807
      ],
      [
        103.8411368,
        1.2740399
      ],
      [
        103.8411496,
        1.2740809
      ],
      [
        103.8411669,
        1.2741406
      ],
      [
        103.8411777,
        1.2741975
      ],
      [
        103.8411779,
        1.27427
      ],
      [
        103.8411748,
        1.274324
      ],
      [
        103.841168,
        1.2744462
      ],
      [
        103.8410415,
        1.2747898
      ],
      [
        103.8409907,
        1.2749794
      ],
      [
        103.840945,
        1.2751429
      ],
      [
        103.8409394,
        1.2751713
      ],
      [
        103.8409104,
        1.2752993
      ],
      [
        103.8408834,
        1.2754578
      ],
      [
        103.8408168,
        1.2758656
      ],
      [
        103.8407958,
        1.2759811
      ],
      [
        103.8407814,
        1.2760582
      ],
      [
        103.8407267,
        1.2763832
      ],
      [
        103.8407174,
        1.2764348
      ],
      [
        103.8406421,
        1.2768516
      ],
      [
        103.8406301,
        1.2769192
      ],
      [
        103.8405878,
        1.2771585
      ],
      [
        103.8405767,
        1.2772212
      ],
      [
        103.8405214,
        1.2775546
      ],
      [
        103.8404869,
        1.2776784
      ],
      [
        103.8404193,
        1.2778886
      ],
      [
        103.8403805,
        1.2779917
      ],
      [
        103.8403401,
        1.2780625
      ],
      [
        103.8401596,
        1.2783836
      ],
      [
        103.8399617,
        1.2787413
      ],
      [
        103.839775,
        1.279138
      ],
      [
        103.839652,
        1.2794436
      ],
      [
        103.839617,
        1.2795569
      ],
      [
        103.8395466,
        1.279748
      ],
      [
        103.8395037,
        1.2798719
      ],
      [
        103.8394269,
        1.2800804
      ],
      [
        103.8393047,
        1.2803775
      ],
      [
        103.8392031,
        1.2805976
      ],
      [
        103.8391018,
        1.2807711
      ],
      [
        103.8389605,
        1.2809754
      ],
      [
        103.8387522,
        1.2811963
      ],
      [
        103.8386436,
        1.2812946
      ],
      [
        103.8384357,
        1.2814683
      ],
      [
        103.8382993,
        1.2815656
      ],
      [
        103.8377296,
        1.2818909
      ],
      [
        103.837446,
        1.2820696
      ],
      [
        103.8373332,
        1.2821346
      ],
      [
        103.8372925,
        1.2821579
      ],
      [
        103.8365854,
        1.2825789
      ],
      [
        103.8364515,
        1.2826633
      ],
      [
        103.8363039,
        1.2828122
      ],
      [
        103.8362717,
        1.2828417
      ],
      [
        103.8362489,
        1.2828618
      ],
      [
        103.8361457,
        1.2829677
      ],
      [
        103.8361,
        1.2830474
      ],
      [
        103.8360637,
        1.2831077
      ],
      [
        103.8360317,
        1.283208
      ],
      [
        103.8360281,
        1.2832607
      ],
      [
        103.8360287,
        1.2833768
      ],
      [
        103.8360484,
        1.2834704
      ],
      [
        103.8360706,
        1.2835483
      ],
      [
        103.8361044,
        1.2836154
      ],
      [
        103.8361629,
        1.2836851
      ],
      [
        103.836405,
        1.2839302
      ],
      [
        103.8366169,
        1.2841968
      ],
      [
        103.836682,
        1.2843113
      ],
      [
        103.8368658,
        1.2845813
      ],
      [
        103.8371608,
        1.2850545
      ],
      [
        103.8373041,
        1.2852681
      ],
      [
        103.8374333,
        1.2854346
      ],
      [
        103.8375902,
        1.2855948
      ],
      [
        103.8377077,
        1.2857094
      ],
      [
        103.837812,
        1.2857926
      ],
      [
        103.8379189,
        1.2858605
      ],
      [
        103.8380778,
        1.2859499
      ],
      [
        103.8381798,
        1.2860164
      ],
      [
        103.8383311,
        1.286086
      ],
      [
        103.8389302,
        1.2864622
      ],
      [
        103.8392857,
        1.2866748
      ],
      [
        103.8397286,
        1.2869535
      ],
      [
        103.8399388,
        1.2870823
      ],
      [
        103.8400584,
        1.2871556
      ],
      [
        103.8403084,
        1.287337
      ],
      [
        103.8404775,
        1.2874634
      ],
      [
        103.8405751,
        1.287537
      ],
      [
        103.8407125,
        1.2876559
      ],
      [
        103.8408129,
        1.2877466
      ],
      [
        103.8411145,
        1.2880817
      ],
      [
        103.8416694,
        1.2887414
      ],
      [
        103.8421353,
        1.2895016
      ],
      [
        103.842165,
        1.2895477
      ],
      [
        103.8426131,
        1.2904169
      ],
      [
        103.8426324,
        1.2904523
      ],
      [
        103.8434749,
        1.2920009
      ],
      [
        103.8439123,
        1.2928828
      ],
      [
        103.844025,
        1.2931027
      ],
      [
        103.8441554,
        1.2934167
      ],
      [
        103.8442641,
        1.2938508
      ],
      [
        103.8442687,
        1.2943685
      ],
      [
        103.8442045,
        1.2949827
      ],
      [
        103.844061,
        1.2955693
      ],
      [
        103.8439684,
        1.2959481
      ],
      [
        103.8434213,
        1.2970636
      ],
      [
        103.8432818,
        1.29775
      ],
      [
        103.8433462,
        1.2983829
      ],
      [
        103.8434642,
        1.299359
      ],
      [
        103.8433676,
        1.3001259
      ],
      [
        103.843255,
        1.3006246
      ],
      [
        103.8431369,
        1.3009035
      ],
      [
        103.8429814,
        1.3011395
      ],
      [
        103.8426877,
        1.3014693
      ],
      [
        103.8425536,
        1.3015852
      ],
      [
        103.8418899,
        1.3021331
      ],
      [
        103.8412634,
        1.3026702
      ],
      [
        103.8410728,
        1.3028309
      ],
      [
        103.840698,
        1.3031861
      ],
      [
        103.8405221,
        1.3034605
      ],
      [
        103.8402603,
        1.3039011
      ],
      [
        103.8401551,
        1.3041938
      ],
      [
        103.8400511,
        1.3045534
      ],
      [
        103.8399943,
        1.3048523
      ],
      [
        103.8399678,
        1.3052485
      ],
      [
        103.839992,
        1.3055488
      ],
      [
        103.840051,
        1.3058947
      ],
      [
        103.840104,
        1.3061061
      ],
      [
        103.8402327,
        1.3064586
      ],
      [
        103.8403125,
        1.3066163
      ],
      [
        103.8405643,
        1.3070679
      ],
      [
        103.8408691,
        1.3074232
      ],
      [
        103.8410976,
        1.3077149
      ],
      [
        103.8414303,
        1.3080298
      ],
      [
        103.8418073,
        1.3082892
      ],
      [
        103.8427511,
        1.3089251
      ],
      [
        103.8429981,
        1.3091196
      ],
      [
        103.843461,
        1.3095748
      ],
      [
        103.8437626,
        1.3098839
      ],
      [
        103.843964,
        1.3101376
      ],
      [
        103.8442536,
        1.3106348
      ],
      [
        103.8444041,
        1.3109912
      ],
      [
        103.8445533,
        1.3114388
      ],
      [
        103.8446259,
        1.3117347
      ],
      [
        103.8447379,
        1.3123559
      ],
      [
        103.8449749,
        1.313392
      ],
      [
        103.8450036,
        1.3134632
      ],
      [
        103.8452074,
        1.3139439
      ],
      [
        103.8454174,
        1.3143472
      ],
      [
        103.8456627,
        1.3147496
      ],
      [
        103.8459442,
        1.3151366
      ],
      [
        103.846242,
        1.3155141
      ],
      [
        103.8466105,
        1.3159209
      ],
      [
        103.8469054,
        1.3162453
      ],
      [
        103.8472366,
        1.316543
      ],
      [
        103.847479,
        1.3167137
      ],
      [
        103.8477221,
        1.3168849
      ],
      [
        103.8482802,
        1.3172142
      ],
      [
        103.8484568,
        1.3172986
      ],
      [
        103.8494471,
        1.3177511
      ],
      [
        103.8500661,
        1.3180156
      ],
      [
        103.8502082,
        1.3180739
      ],
      [
        103.8518139,
        1.3187582
      ],
      [
        103.8524432,
        1.3190443
      ],
      [
        103.8526886,
        1.319175
      ],
      [
        103.8532479,
        1.3194515
      ],
      [
        103.8536994,
        1.3196991
      ],
      [
        103.8541483,
        1.3199681
      ],
      [
        103.8546686,
        1.3203148
      ],
      [
        103.8551279,
        1.3206796
      ],
      [
        103.8555157,
        1.3209643
      ],
      [
        103.8559189,
        1.3213271
      ],
      [
        103.8562607,
        1.3216923
      ],
      [
        103.8563297,
        1.3217662
      ],
      [
        103.8571354,
        1.3227045
      ],
      [
        103.8575636,
        1.3232275
      ],
      [
        103.857806,
        1.3235021
      ],
      [
        103.8580151,
        1.3237454
      ],
      [
        103.8580643,
        1.3237938
      ],
      [
        103.8583856,
        1.3240794
      ],
      [
        103.8588321,
        1.3244916
      ],
      [
        103.8595428,
        1.3251544
      ],
      [
        103.859842,
        1.3254178
      ],
      [
        103.8600858,
        1.3256452
      ],
      [
        103.8602304,
        1.32578
      ],
      [
        103.8605654,
        1.3260924
      ],
      [
        103.8607637,
        1.3262684
      ],
      [
        103.8611864,
        1.3267629
      ],
      [
        103.8615257,
        1.3272566
      ],
      [
        103.8617787,
        1.3277492
      ],
      [
        103.861864,
        1.3279507
      ],
      [
        103.8619482,
        1.328169
      ],
      [
        103.8621315,
        1.3287083
      ],
      [
        103.8621806,
        1.3289167
      ],
      [
        103.8622181,
        1.3291308
      ],
      [
        103.8622463,
        1.3292787
      ],
      [
        103.8622718,
        1.329453
      ],
      [
        103.8622731,
        1.3297597
      ],
      [
        103.8622628,
        1.3319586
      ],
      [
        103.8622416,
        1.3322225
      ],
      [
        103.8622103,
        1.3326944
      ],
      [
        103.8621977,
        1.3330583
      ],
      [
        103.862141,
        1.3341896
      ],
      [
        103.8621228,
        1.3344416
      ],
      [
        103.862097,
        1.3350144
      ],
      [
        103.8621049,
        1.3355354
      ],
      [
        103.8620837,
        1.3360778
      ],
      [
        103.8620561,
        1.3367485
      ],
      [
        103.8620287,
        1.3374314
      ],
      [
        103.8620176,
        1.337786
      ],
      [
        103.8619997,
        1.3380047
      ],
      [
        103.8619822,
        1.3381572
      ],
      [
        103.8619438,
        1.3384109
      ],
      [
        103.8618561,
        1.3389314
      ],
      [
        103.8617769,
        1.3392687
      ],
      [
        103.8616823,
        1.3395935
      ],
      [
        103.8615004,
        1.3400839
      ],
      [
        103.8614324,
        1.3402775
      ],
      [
        103.861126,
        1.3411355
      ],
      [
        103.8607549,
        1.3422265
      ],
      [
        103.8604572,
        1.3430656
      ],
      [
        103.8603506,
        1.3433573
      ],
      [
        103.8603057,
        1.3434821
      ],
      [
        103.8599121,
        1.3445776
      ],
      [
        103.8595788,
        1.3454911
      ],
      [
        103.8591312,
        1.3465946
      ],
      [
        103.8587449,
        1.3476907
      ],
      [
        103.8577997,
        1.3503726
      ],
      [
        103.8577647,
        1.3504831
      ],
      [
        103.8576294,
        1.3508496
      ],
      [
        103.857545,
        1.3510626
      ],
      [
        103.8572896,
        1.3519359
      ],
      [
        103.8571135,
        1.3525265
      ],
      [
        103.8569231,
        1.3533717
      ],
      [
        103.8567776,
        1.354975
      ],
      [
        103.8568248,
        1.3559468
      ],
      [
        103.8568925,
        1.3565445
      ],
      [
        103.8569511,
        1.3568729
      ],
      [
        103.857027,
        1.3571747
      ],
      [
        103.8572484,
        1.3578605
      ],
      [
        103.8573212,
        1.3580819
      ],
      [
        103.8574177,
        1.3584361
      ],
      [
        103.8578522,
        1.359599
      ],
      [
        103.8581557,
        1.3604112
      ],
      [
        103.8587696,
        1.3621403
      ],
      [
        103.8590157,
        1.3628336
      ],
      [
        103.8594018,
        1.3639287
      ],
      [
        103.859662,
        1.3647063
      ],
      [
        103.8599607,
        1.3655469
      ],
      [
        103.8600583,
        1.3658384
      ],
      [
        103.8604303,
        1.3668149
      ],
      [
        103.8605487,
        1.367223
      ],
      [
        103.8606272,
        1.3675508
      ],
      [
        103.8607491,
        1.3681304
      ],
      [
        103.8607812,
        1.3682958
      ],
      [
        103.8608106,
        1.3685505
      ],
      [
        103.8608388,
        1.3688559
      ],
      [
        103.8608384,
        1.3693091
      ],
      [
        103.8607498,
        1.3700099
      ],
      [
        103.8606621,
        1.3704274
      ],
      [
        103.8605478,
        1.3708191
      ],
      [
        103.8603321,
        1.3713915
      ],
      [
        103.8595643,
        1.3731337
      ],
      [
        103.8594933,
        1.3732982
      ],
      [
        103.8591868,
        1.3740079
      ],
      [
        103.8588512,
        1.3748974
      ],
      [
        103.8585355,
        1.375988
      ],
      [
        103.8584491,
        1.3763899
      ],
      [
        103.8583757,
        1.3767322
      ],
      [
        103.8583225,
        1.3770455
      ],
      [
        103.8582795,
        1.3775842
      ],
      [
        103.8582365,
        1.3781299
      ],
      [
        103.8581805,
        1.3792487
      ],
      [
        103.8581957,
        1.3796788
      ],
      [
        103.8581962,
        1.3802388
      ],
      [
        103.8582451,
        1.3818005
      ],
      [
        103.8582862,
        1.3827161
      ],
      [
        103.8582806,
        1.3837392
      ],
      [
        103.8582774,
        1.3846017
      ],
      [
        103.8582518,
        1.3854661
      ],
      [
        103.8582151,
        1.3865987
      ],
      [
        103.8582041,
        1.3879785
      ],
      [
        103.8581173,
        1.3881207
      ],
      [
        103.8580884,
        1.3882225
      ],
      [
        103.8580714,
        1.3883537
      ],
      [
        103.8580198,
        1.3890225
      ],
      [
        103.8579722,
        1.3893661
      ],
      [
        103.8579374,
        1.3895886
      ],
      [
        103.8579054,
        1.3898217
      ],
      [
        103.8578567,
        1.3900901
      ],
      [
        103.8578787,
        1.3903078
      ],
      [
        103.8578877,
        1.3904595
      ],
      [
        103.8579144,
        1.390587
      ],
      [
        103.8579776,
        1.3907748
      ],
      [
        103.8580555,
        1.3909609
      ],
      [
        103.8580893,
        1.3910417
      ],
      [
        103.8582407,
        1.3911497
      ],
      [
        103.8590051,
        1.3909886
      ],
      [
        103.8594803,
        1.3908744
      ],
      [
        103.8597317,
        1.3908087
      ],
      [
        103.8599262,
        1.3907578
      ],
      [
        103.8600207,
        1.3907283
      ],
      [
        103.8601287,
        1.3906948
      ],
      [
        103.8603443,
        1.3906392
      ],
      [
        103.8604185,
        1.3906217
      ],
      [
        103.8605156,
        1.3905951
      ],
      [
        103.8605272,
        1.3905928
      ],
      [
        103.8607997,
        1.390516
      ],
      [
        103.8631788,
        1.3898483
      ],
      [
        103.8636199,
        1.3897225
      ],
      [
        103.8638027,
        1.3896705
      ],
      [
        103.8638443,
        1.3896587
      ],
      [
        103.8639726,
        1.3896219
      ],
      [
        103.8640398,
        1.3896024
      ],
      [
        103.864285,
        1.3895322
      ],
      [
        103.8650411,
        1.38935
      ],
      [
        103.8654394,
        1.3892401
      ],
      [
        103.8658387,
        1.3891255
      ],
      [
        103.8659011,
        1.3891083
      ],
      [
        103.866238,
        1.3890252
      ],
      [
        103.8674256,
        1.3886823
      ],
      [
        103.8676241,
        1.388633
      ],
      [
        103.8679393,
        1.388547
      ],
      [
        103.8681326,
        1.388503
      ],
      [
        103.8683317,
        1.38845
      ],
      [
        103.8684867,
        1.3884999
      ],
      [
        103.8685989,
        1.3885555
      ],
      [
        103.8686323,
        1.3886027
      ],
      [
        103.8686906,
        1.3886816
      ],
      [
        103.8687415,
        1.3888069
      ],
      [
        103.8687826,
        1.3889717
      ],
      [
        103.8688189,
        1.3891337
      ],
      [
        103.8688824,
        1.3892479
      ],
      [
        103.8689216,
        1.3895604
      ],
      [
        103.8689945,
        1.3901622
      ],
      [
        103.8689996,
        1.390203
      ],
      [
        103.8690024,
        1.3903194
      ],
      [
        103.8690148,
        1.3905066
      ],
      [
        103.8690463,
        1.3908073
      ],
      [
        103.869077,
        1.3912075
      ],
      [
        103.8690814,
        1.3912638
      ],
      [
        103.8690801,
        1.391361
      ],
      [
        103.8692239,
        1.3913459
      ],
      [
        103.8693419,
        1.3913335
      ],
      [
        103.869572,
        1.3913093
      ],
      [
        103.8702607,
        1.3912471
      ],
      [
        103.8704619,
        1.3912257
      ],
      [
        103.8705619,
        1.3912214
      ],
      [
        103.8707523,
        1.3912029
      ],
      [
        103.8711923,
        1.3911731
      ],
      [
        103.8713172,
        1.3911647
      ],
      [
        103.8714456,
        1.3911474
      ],
      [
        103.8715191,
        1.391137
      ],
      [
        103.8717832,
        1.3910969
      ],
      [
        103.8721287,
        1.3910515
      ],
      [
        103.8723548,
        1.39103
      ],
      [
        103.8728169,
        1.3909878
      ],
      [
        103.8736021,
        1.3909276
      ],
      [
        103.8736368,
        1.390925
      ],
      [
        103.8736981,
        1.3909196
      ],
      [
        103.8737272,
        1.3909152
      ],
      [
        103.8747185,
        1.3908073
      ],
      [
        103.8748741,
        1.390794
      ],
      [
        103.8751608,
        1.3907673
      ],
      [
        103.875492,
        1.3907508
      ],
      [
        103.8755308,
        1.3907489
      ],
      [
        103.8756446,
        1.3907434
      ],
      [
        103.8756848,
        1.3907456
      ],
      [
        103.8757638,
        1.3907498
      ],
      [
        103.875892,
        1.3907682
      ],
      [
        103.8760713,
        1.3908125
      ],
      [
        103.8763932,
        1.3909408
      ],
      [
        103.8766068,
        1.3910225
      ],
      [
        103.8768067,
        1.3911062
      ],
      [
        103.8772128,
        1.3912691
      ],
      [
        103.8774099,
        1.3913481
      ],
      [
        103.8779004,
        1.3915421
      ],
      [
        103.8781539,
        1.3916433
      ],
      [
        103.8784347,
        1.3917485
      ],
      [
        103.8787863,
        1.3918966
      ],
      [
        103.8789243,
        1.3919481
      ],
      [
        103.8789636,
        1.3919625
      ],
      [
        103.879023,
        1.3919851
      ],
      [
        103.8791121,
        1.3920191
      ],
      [
        103.8791617,
        1.3920371
      ],
      [
        103.8793278,
        1.3920974
      ],
      [
        103.8795467,
        1.3921473
      ],
      [
        103.8797819,
        1.3921781
      ],
      [
        103.8801777,
        1.3921963
      ],
      [
        103.8804026,
        1.3921904
      ],
      [
        103.8806952,
        1.3921797
      ],
      [
        103.8809548,
        1.3921583
      ],
      [
        103.8811327,
        1.3921234
      ],
      [
        103.881423,
        1.3920388
      ],
      [
        103.8817604,
        1.3919263
      ],
      [
        103.8819207,
        1.3918593
      ],
      [
        103.8820465,
        1.391806
      ],
      [
        103.8821282,
        1.3917667
      ],
      [
        103.882366,
        1.3916396
      ],
      [
        103.8825443,
        1.3915375
      ],
      [
        103.8829918,
        1.3912646
      ],
      [
        103.8830978,
        1.3911995
      ],
      [
        103.8836733,
        1.3908475
      ],
      [
        103.8836999,
        1.3908305
      ],
      [
        103.8837635,
        1.3907898
      ],
      [
        103.8838337,
        1.3907469
      ],
      [
        103.8844422,
        1.3903675
      ],
      [
        103.8847366,
        1.3901839
      ],
      [
        103.8849787,
        1.3900351
      ],
      [
        103.885148,
        1.3899339
      ],
      [
        103.885271,
        1.3899178
      ],
      [
        103.8853254,
        1.3899218
      ],
      [
        103.8854443,
        1.3899537
      ],
      [
        103.8858867,
        1.3907093
      ],
      [
        103.8859376,
        1.3907937
      ],
      [
        103.8860288,
        1.3909528
      ],
      [
        103.8860992,
        1.3910601
      ],
      [
        103.8862474,
        1.3913024
      ],
      [
        103.8864252,
        1.3915714
      ],
      [
        103.8865282,
        1.3917106
      ],
      [
        103.8865646,
        1.3917572
      ],
      [
        103.8866011,
        1.3918144
      ],
      [
        103.886666,
        1.3917784
      ],
      [
        103.8867122,
        1.3917514
      ],
      [
        103.8869754,
        1.3915948
      ],
      [
        103.8879805,
        1.3911037
      ],
      [
        103.888023,
        1.3910854
      ],
      [
        103.8883406,
        1.390944
      ],
      [
        103.8887513,
        1.390795
      ],
      [
        103.8889038,
        1.3907416
      ],
      [
        103.8890538,
        1.39069
      ],
      [
        103.8892547,
        1.3906224
      ],
      [
        103.8894263,
        1.3905605
      ],
      [
        103.8895164,
        1.390528
      ],
      [
        103.8895637,
        1.390511
      ],
      [
        103.8898062,
        1.3904216
      ],
      [
        103.8902168,
        1.3902797
      ],
      [
        103.8906132,
        1.3901427
      ],
      [
        103.8907239,
        1.3901068
      ],
      [
        103.8908678,
        1.3900555
      ],
      [
        103.890938,
        1.3900304
      ],
      [
        103.8916055,
        1.3898016
      ],
      [
        103.8919985,
        1.3896661
      ],
      [
        103.8922042,
        1.3895952
      ],
      [
        103.8922236,
        1.3895885
      ],
      [
        103.8922834,
        1.3895679
      ],
      [
        103.8924302,
        1.3895136
      ],
      [
        103.8924687,
        1.3895005
      ],
      [
        103.8927027,
        1.3894209
      ],
      [
        103.8929929,
        1.389322
      ],
      [
        103.8933777,
        1.389191
      ],
      [
        103.8934277,
        1.389174
      ],
      [
        103.8937742,
        1.389056
      ],
      [
        103.8941881,
        1.388915
      ],
      [
        103.894372,
        1.3888488
      ],
      [
        103.8944304,
        1.3888278
      ],
      [
        103.8944479,
        1.3888204
      ],
      [
        103.8945345,
        1.3887894
      ],
      [
        103.894619,
        1.3887573
      ],
      [
        103.8946999,
        1.3887265
      ],
      [
        103.895045,
        1.3886243
      ],
      [
        103.8956456,
        1.3884109
      ],
      [
        103.8959889,
        1.3882889
      ],
      [
        103.8963116,
        1.3881742
      ],
      [
        103.8965408,
        1.3880928
      ],
      [
        103.8966216,
        1.3880641
      ],
      [
        103.8967075,
        1.3880336
      ],
      [
        103.8966859,
        1.3879599
      ],
      [
        103.8966695,
        1.3879086
      ],
      [
        103.8966104,
        1.3877234
      ],
      [
        103.8966041,
        1.3877029
      ],
      [
        103.8963716,
        1.3870021
      ],
      [
        103.8962876,
        1.386749
      ],
      [
        103.8962101,
        1.3865155
      ],
      [
        103.8960917,
        1.3861806
      ],
      [
        103.8960602,
        1.3861116
      ],
      [
        103.8959824,
        1.3859373
      ],
      [
        103.8959891,
        1.385826
      ],
      [
        103.8959977,
        1.3857703
      ],
      [
        103.8960034,
        1.3857333
      ],
      [
        103.8960348,
        1.3856407
      ],
      [
        103.8960862,
        1.3855179
      ],
      [
        103.896376,
        1.3851804
      ],
      [
        103.8965046,
        1.3850346
      ],
      [
        103.8966744,
        1.3848385
      ],
      [
        103.8968562,
        1.3846301
      ],
      [
        103.8969085,
        1.3845672
      ],
      [
        103.8969551,
        1.3845198
      ],
      [
        103.8971152,
        1.3843513
      ],
      [
        103.8976039,
        1.383876
      ],
      [
        103.8976618,
        1.3838192
      ],
      [
        103.897694,
        1.3837902
      ],
      [
        103.8977786,
        1.3837142
      ],
      [
        103.8977931,
        1.3837012
      ],
      [
        103.8980815,
        1.383442
      ],
      [
        103.898317,
        1.3832303
      ],
      [
        103.8984643,
        1.3830905
      ],
      [
        103.8985127,
        1.3830445
      ],
      [
        103.8985761,
        1.3829876
      ],
      [
        103.8984631,
        1.3829046
      ],
      [
        103.8984035,
        1.3828588
      ],
      [
        103.8982424,
        1.3827351
      ],
      [
        103.8980517,
        1.3825886
      ],
      [
        103.8978202,
        1.3823592
      ],
      [
        103.8976238,
        1.3820823
      ],
      [
        103.8974704,
        1.3818122
      ],
      [
        103.897466,
        1.3818
      ],
      [
        103.8974055,
        1.3816305
      ],
      [
        103.8973696,
        1.3815024
      ],
      [
        103.8972688,
        1.3810848
      ],
      [
        103.858166,
        1.3910964
      ],
      [
        103.8582407,
        1.3911497
      ]
    ]
  }
}