{
  "type": "Feature",
  "properties": {
    "relation": 18378223,
    "direction": "1",
    "fee": "yes",
    "from": "Blk 953",
    "name": "Svc 675 (Blk 953 → Suntec Tower Two)",
    "name:en": "Svc 675 (Blk 953 → Suntec Tower Two)",
    "network": "Land Transport Authority",
    "network:short": "LTA",
    "network:wikidata": "Q3299279",
    "network:wikipedia": "en:Land Transport Authority",
    "operator": "SBS Transit",
    "operator:wikidata": "Q2661305",
    "operator:wikipedia": "en:SBS Transit",
    "public_transport:version": "2",
    "ref": "675",
    "route": "bus",
    "to": "Suntec Tower Two",
    "type": "route",
    "website": "https://www.sbstransit.com.sg/"
  },
  "geometry": {
    "type": "LineString",
    "coordinates": [
      [
        103.8767544,
        1.3785333
      ],
      [
        103.87685,
        1.3778269
      ],
      [
        103.8769143,
        1.3774329
      ],
      [
        103.8770274,
        1.3767407
      ],
      [
        103.8770664,
        1.3764286
      ],
      [
        103.8770697,
        1.3763933
      ],
      [
        103.8771092,
        1.3759253
      ],
      [
        103.8771111,
        1.3757431
      ],
      [
        103.8771161,
        1.3755725
      ],
      [
        103.877114,
        1.3754774
      ],
      [
        103.8771737,
        1.3752357
      ],
      [
        103.8772156,
        1.3751568
      ],
      [
        103.8772854,
        1.3751014
      ],
      [
        103.8774424,
        1.3750567
      ],
      [
        103.8777548,
        1.3750577
      ],
      [
        103.8781832,
        1.3750591
      ],
      [
        103.8785662,
        1.3750634
      ],
      [
        103.878818,
        1.3750663
      ],
      [
        103.8792528,
        1.3750712
      ],
      [
        103.879399,
        1.3750728
      ],
      [
        103.8795951,
        1.3750714
      ],
      [
        103.8800146,
        1.375074
      ],
      [
        103.8800701,
        1.3750744
      ],
      [
        103.8801697,
        1.3750743
      ],
      [
        103.8802184,
        1.3750739
      ],
      [
        103.8809014,
        1.3750694
      ],
      [
        103.881146,
        1.3750637
      ],
      [
        103.8813407,
        1.3750534
      ],
      [
        103.8815049,
        1.3750308
      ],
      [
        103.881529,
        1.3750254
      ],
      [
        103.8816732,
        1.3749933
      ],
      [
        103.8817145,
        1.3749828
      ],
      [
        103.882214,
        1.3748981
      ],
      [
        103.8825603,
        1.374822
      ],
      [
        103.8830817,
        1.3746938
      ],
      [
        103.8833311,
        1.3746422
      ],
      [
        103.8839701,
        1.37451
      ],
      [
        103.8841646,
        1.3744698
      ],
      [
        103.8842242,
        1.3744572
      ],
      [
        103.884287,
        1.3744485
      ],
      [
        103.8845087,
        1.3744476
      ],
      [
        103.8846956,
        1.374539
      ],
      [
        103.8848219,
        1.3746322
      ],
      [
        103.8849626,
        1.3747268
      ],
      [
        103.8850014,
        1.3747555
      ],
      [
        103.8850818,
        1.3748051
      ],
      [
        103.8851443,
        1.3747286
      ],
      [
        103.8851818,
        1.3746853
      ],
      [
        103.8852397,
        1.3746115
      ],
      [
        103.8852656,
        1.3745745
      ],
      [
        103.8853219,
        1.3744297
      ],
      [
        103.8853474,
        1.3742621
      ],
      [
        103.88534,
        1.3740944
      ],
      [
        103.8853249,
        1.3739977
      ],
      [
        103.8853058,
        1.3739096
      ],
      [
        103.8852909,
        1.3738407
      ],
      [
        103.885267,
        1.3737305
      ],
      [
        103.8852337,
        1.3735767
      ],
      [
        103.8851536,
        1.3732074
      ],
      [
        103.8851066,
        1.3729905
      ],
      [
        103.885098,
        1.3728789
      ],
      [
        103.8851238,
        1.3727846
      ],
      [
        103.8851753,
        1.3727159
      ],
      [
        103.885244,
        1.3726558
      ],
      [
        103.8856827,
        1.3723124
      ],
      [
        103.8858826,
        1.3721661
      ],
      [
        103.8859167,
        1.3721425
      ],
      [
        103.8860235,
        1.3720695
      ],
      [
        103.8861313,
        1.3719938
      ],
      [
        103.8863098,
        1.3718631
      ],
      [
        103.8864201,
        1.3717863
      ],
      [
        103.8865806,
        1.3716982
      ],
      [
        103.8867565,
        1.3716149
      ],
      [
        103.8870656,
        1.3715457
      ],
      [
        103.8874327,
        1.3714742
      ],
      [
        103.887654,
        1.3714264
      ],
      [
        103.8878294,
        1.3713931
      ],
      [
        103.8880003,
        1.3713545
      ],
      [
        103.8881185,
        1.3713106
      ],
      [
        103.8883096,
        1.3712129
      ],
      [
        103.8884321,
        1.3711324
      ],
      [
        103.8885449,
        1.3710359
      ],
      [
        103.8887107,
        1.3708766
      ],
      [
        103.8889114,
        1.3706837
      ],
      [
        103.8889477,
        1.3706502
      ],
      [
        103.8890165,
        1.3705866
      ],
      [
        103.8889703,
        1.3705107
      ],
      [
        103.8889375,
        1.3704607
      ],
      [
        103.888812,
        1.3702873
      ],
      [
        103.8886597,
        1.370074
      ],
      [
        103.8883663,
        1.3696981
      ],
      [
        103.8882664,
        1.3695984
      ],
      [
        103.8878271,
        1.3692608
      ],
      [
        103.8877167,
        1.3691816
      ],
      [
        103.8876187,
        1.369109
      ],
      [
        103.8875519,
        1.3690605
      ],
      [
        103.8873768,
        1.3689232
      ],
      [
        103.8872702,
        1.3688231
      ],
      [
        103.8871537,
        1.3686815
      ],
      [
        103.887109,
        1.3686172
      ],
      [
        103.8870813,
        1.3685649
      ],
      [
        103.8870039,
        1.3683771
      ],
      [
        103.8869528,
        1.368213
      ],
      [
        103.886994,
        1.3680394
      ],
      [
        103.8870251,
        1.3679583
      ],
      [
        103.8870975,
        1.3678779
      ],
      [
        103.887189,
        1.3677971
      ],
      [
        103.8882331,
        1.3675612
      ],
      [
        103.8884392,
        1.3675047
      ],
      [
        103.8889274,
        1.3673637
      ],
      [
        103.8891038,
        1.3672896
      ],
      [
        103.8896115,
        1.3670516
      ],
      [
        103.8897087,
        1.3669916
      ],
      [
        103.8898757,
        1.3668777
      ],
      [
        103.890109,
        1.3666353
      ],
      [
        103.8901898,
        1.3665351
      ],
      [
        103.8904234,
        1.3662836
      ],
      [
        103.8904993,
        1.3662023
      ],
      [
        103.8905516,
        1.3661462
      ],
      [
        103.8906847,
        1.3659975
      ],
      [
        103.8908763,
        1.3657857
      ],
      [
        103.8909289,
        1.3657275
      ],
      [
        103.8910133,
        1.3656374
      ],
      [
        103.8910567,
        1.3655939
      ],
      [
        103.8912417,
        1.3653917
      ],
      [
        103.8917128,
        1.3648802
      ],
      [
        103.8919791,
        1.3645994
      ],
      [
        103.8921683,
        1.3643854
      ],
      [
        103.8922924,
        1.3642277
      ],
      [
        103.8924472,
        1.3639962
      ],
      [
        103.8924683,
        1.3639589
      ],
      [
        103.8927047,
        1.3635414
      ],
      [
        103.8927665,
        1.363408
      ],
      [
        103.8928678,
        1.3631896
      ],
      [
        103.8929794,
        1.3626833
      ],
      [
        103.8929994,
        1.3625135
      ],
      [
        103.8930455,
        1.3621229
      ],
      [
        103.8930516,
        1.3620715
      ],
      [
        103.8932127,
        1.3618149
      ],
      [
        103.8932834,
        1.3617061
      ],
      [
        103.8933294,
        1.361661
      ],
      [
        103.893394,
        1.3616274
      ],
      [
        103.8934622,
        1.3616044
      ],
      [
        103.893565,
        1.3615766
      ],
      [
        103.8939965,
        1.3616245
      ],
      [
        103.8940261,
        1.3616262
      ],
      [
        103.8941495,
        1.3616403
      ],
      [
        103.8948184,
        1.3617147
      ],
      [
        103.895037,
        1.3617431
      ],
      [
        103.8952711,
        1.3617742
      ],
      [
        103.8953482,
        1.3617838
      ],
      [
        103.8954543,
        1.3617969
      ],
      [
        103.8954835,
        1.3618019
      ],
      [
        103.8958223,
        1.3618424
      ],
      [
        103.896259,
        1.3619064
      ],
      [
        103.8965116,
        1.3619261
      ],
      [
        103.8969684,
        1.361785
      ],
      [
        103.8972529,
        1.3617596
      ],
      [
        103.8979294,
        1.3618535
      ],
      [
        103.8986819,
        1.3619382
      ],
      [
        103.8990736,
        1.3619842
      ],
      [
        103.8994078,
        1.3620356
      ],
      [
        103.9000433,
        1.3621391
      ],
      [
        103.9005039,
        1.3621913
      ],
      [
        103.9007424,
        1.3622859
      ],
      [
        103.9010905,
        1.3623293
      ],
      [
        103.9013977,
        1.3623489
      ],
      [
        103.9017204,
        1.3624001
      ],
      [
        103.9018599,
        1.3624322
      ],
      [
        103.9022415,
        1.3625036
      ],
      [
        103.9026269,
        1.3626242
      ],
      [
        103.9029125,
        1.3628167
      ],
      [
        103.9030265,
        1.3628343
      ],
      [
        103.9032484,
        1.362866
      ],
      [
        103.9037032,
        1.3629308
      ],
      [
        103.9038032,
        1.3629451
      ],
      [
        103.9044152,
        1.3630318
      ],
      [
        103.9050114,
        1.3631151
      ],
      [
        103.9050842,
        1.3630807
      ],
      [
        103.9051576,
        1.3630371
      ],
      [
        103.9052326,
        1.3629797
      ],
      [
        103.9052803,
        1.3629386
      ],
      [
        103.905292,
        1.3629238
      ],
      [
        103.9053105,
        1.3628936
      ],
      [
        103.905336,
        1.3628373
      ],
      [
        103.9053565,
        1.362744
      ],
      [
        103.905352,
        1.3626596
      ],
      [
        103.9053433,
        1.3625973
      ],
      [
        103.9053252,
        1.3625243
      ],
      [
        103.9052947,
        1.3624345
      ],
      [
        103.9052678,
        1.362333
      ],
      [
        103.9048981,
        1.3617734
      ],
      [
        103.9042649,
        1.3607504
      ],
      [
        103.9041618,
        1.3605838
      ],
      [
        103.903732,
        1.3599548
      ],
      [
        103.903426,
        1.3595683
      ],
      [
        103.9033389,
        1.3594148
      ],
      [
        103.9032396,
        1.3592291
      ],
      [
        103.9029054,
        1.3585555
      ],
      [
        103.9020673,
        1.3570819
      ],
      [
        103.9003982,
        1.3535873
      ],
      [
        103.9000818,
        1.3529247
      ],
      [
        103.8987718,
        1.3494957
      ],
      [
        103.8985525,
        1.3487366
      ],
      [
        103.8984321,
        1.3480491
      ],
      [
        103.8985179,
        1.3473769
      ],
      [
        103.8986012,
        1.3469993
      ],
      [
        103.8988572,
        1.3458588
      ],
      [
        103.8989669,
        1.3454558
      ],
      [
        103.8990703,
        1.3450945
      ],
      [
        103.8991703,
        1.3445297
      ],
      [
        103.8991884,
        1.3440151
      ],
      [
        103.8991373,
        1.3435435
      ],
      [
        103.8990478,
        1.3430981
      ],
      [
        103.8989756,
        1.3426976
      ],
      [
        103.8988155,
        1.3421664
      ],
      [
        103.8986249,
        1.3415579
      ],
      [
        103.8982431,
        1.3405414
      ],
      [
        103.8979399,
        1.3399648
      ],
      [
        103.8973356,
        1.3389535
      ],
      [
        103.8969156,
        1.3383779
      ],
      [
        103.8963915,
        1.3377531
      ],
      [
        103.8957496,
        1.3371184
      ],
      [
        103.8949889,
        1.3365822
      ],
      [
        103.8943242,
        1.3359939
      ],
      [
        103.8935193,
        1.3354375
      ],
      [
        103.8900252,
        1.33345
      ],
      [
        103.8898394,
        1.333344
      ],
      [
        103.889617,
        1.3332085
      ],
      [
        103.8893927,
        1.333086
      ],
      [
        103.8888586,
        1.3327943
      ],
      [
        103.8878201,
        1.3322537
      ],
      [
        103.8869216,
        1.3317587
      ],
      [
        103.8867085,
        1.3316203
      ],
      [
        103.8860397,
        1.3312373
      ],
      [
        103.8855368,
        1.3308752
      ],
      [
        103.8851741,
        1.3302233
      ],
      [
        103.8850046,
        1.3296328
      ],
      [
        103.8850226,
        1.3284579
      ],
      [
        103.8848759,
        1.3266779
      ],
      [
        103.8847788,
        1.3258171
      ],
      [
        103.8843167,
        1.3240174
      ],
      [
        103.8838725,
        1.3234811
      ],
      [
        103.8833052,
        1.3230376
      ],
      [
        103.8802228,
        1.3218577
      ],
      [
        103.8793923,
        1.3214904
      ],
      [
        103.8777158,
        1.3207282
      ],
      [
        103.8767657,
        1.3202203
      ],
      [
        103.8759515,
        1.3195925
      ],
      [
        103.8754986,
        1.3191225
      ],
      [
        103.8752892,
        1.3187136
      ],
      [
        103.8751176,
        1.3183059
      ],
      [
        103.874879,
        1.3174255
      ],
      [
        103.8747479,
        1.316324
      ],
      [
        103.874845,
        1.3152017
      ],
      [
        103.8750193,
        1.3139057
      ],
      [
        103.8751671,
        1.3125077
      ],
      [
        103.8751926,
        1.3123712
      ],
      [
        103.8753075,
        1.3118498
      ],
      [
        103.875691,
        1.3102574
      ],
      [
        103.8759974,
        1.3091263
      ],
      [
        103.8761358,
        1.3087793
      ],
      [
        103.876286,
        1.3083382
      ],
      [
        103.8764217,
        1.3079912
      ],
      [
        103.8765139,
        1.3077556
      ],
      [
        103.876588,
        1.3075662
      ],
      [
        103.8781402,
        1.3035974
      ],
      [
        103.8782815,
        1.3026675
      ],
      [
        103.8782881,
        1.3017356
      ],
      [
        103.8780665,
        1.3005423
      ],
      [
        103.8772979,
        1.2981716
      ],
      [
        103.876914,
        1.2970172
      ],
      [
        103.8760918,
        1.2949595
      ],
      [
        103.8758847,
        1.2944023
      ],
      [
        103.8758488,
        1.294303
      ],
      [
        103.8757648,
        1.2940667
      ],
      [
        103.8756341,
        1.2937064
      ],
      [
        103.8755807,
        1.293558
      ],
      [
        103.8754259,
        1.2930217
      ],
      [
        103.875339,
        1.2925884
      ],
      [
        103.8752947,
        1.2919927
      ],
      [
        103.875337,
        1.2914188
      ],
      [
        103.8754261,
        1.2908655
      ],
      [
        103.8755907,
        1.2903638
      ],
      [
        103.8757764,
        1.2899133
      ],
      [
        103.8760342,
        1.2894682
      ],
      [
        103.8766893,
        1.2887228
      ],
      [
        103.8779084,
        1.2872701
      ],
      [
        103.8781483,
        1.2868348
      ],
      [
        103.8783377,
        1.2863241
      ],
      [
        103.8784368,
        1.285933
      ],
      [
        103.8784831,
        1.2855385
      ],
      [
        103.8784862,
        1.2850857
      ],
      [
        103.8784282,
        1.2846319
      ],
      [
        103.8782549,
        1.2840617
      ],
      [
        103.8779813,
        1.2835525
      ],
      [
        103.8777064,
        1.283095
      ],
      [
        103.8773146,
        1.2826853
      ],
      [
        103.8769658,
        1.2824201
      ],
      [
        103.8768861,
        1.2823658
      ],
      [
        103.8765878,
        1.2821265
      ],
      [
        103.8762186,
        1.2818508
      ],
      [
        103.8732505,
        1.2796685
      ],
      [
        103.8724752,
        1.2791113
      ],
      [
        103.8696795,
        1.2770749
      ],
      [
        103.8691529,
        1.2766903
      ],
      [
        103.8665301,
        1.27491
      ],
      [
        103.8661064,
        1.2746442
      ],
      [
        103.8659317,
        1.2745145
      ],
      [
        103.8653178,
        1.2741106
      ],
      [
        103.8649661,
        1.2738428
      ],
      [
        103.8632355,
        1.2726449
      ],
      [
        103.8608452,
        1.27094
      ],
      [
        103.8606551,
        1.2708084
      ],
      [
        103.8603952,
        1.270682
      ],
      [
        103.8602205,
        1.270605
      ],
      [
        103.8600124,
        1.270521
      ],
      [
        103.859741,
        1.2704141
      ],
      [
        103.8593835,
        1.2702946
      ],
      [
        103.8592524,
        1.2702624
      ],
      [
        103.8591098,
        1.2702337
      ],
      [
        103.858985,
        1.2702095
      ],
      [
        103.8587819,
        1.270189
      ],
      [
        103.8585804,
        1.2701788
      ],
      [
        103.8581713,
        1.2701832
      ],
      [
        103.8577266,
        1.2702385
      ],
      [
        103.8575813,
        1.2702728
      ],
      [
        103.8573659,
        1.2703212
      ],
      [
        103.8571762,
        1.2703865
      ],
      [
        103.8569531,
        1.2704807
      ],
      [
        103.8566182,
        1.2706493
      ],
      [
        103.854383,
        1.2721078
      ],
      [
        103.8535343,
        1.2726697
      ],
      [
        103.8532475,
        1.2728596
      ],
      [
        103.8530199,
        1.2730183
      ],
      [
        103.8528277,
        1.2731284
      ],
      [
        103.8526891,
        1.273195
      ],
      [
        103.8525993,
        1.2732395
      ],
      [
        103.8524071,
        1.2733244
      ],
      [
        103.8521758,
        1.2733926
      ],
      [
        103.8519238,
        1.2734686
      ],
      [
        103.85173,
        1.2735071
      ],
      [
        103.8515131,
        1.2735332
      ],
      [
        103.8512886,
        1.2735471
      ],
      [
        103.8510563,
        1.2735425
      ],
      [
        103.8508087,
        1.273524
      ],
      [
        103.8505796,
        1.2734825
      ],
      [
        103.8503627,
        1.2734148
      ],
      [
        103.8501181,
        1.2733226
      ],
      [
        103.849947,
        1.2732577
      ],
      [
        103.8498483,
        1.2732125
      ],
      [
        103.8497315,
        1.2731478
      ],
      [
        103.8496617,
        1.2730541
      ],
      [
        103.849639,
        1.2730312
      ],
      [
        103.8494809,
        1.2729274
      ],
      [
        103.849023,
        1.2726491
      ],
      [
        103.8487065,
        1.2724762
      ],
      [
        103.8486046,
        1.2724265
      ],
      [
        103.8484798,
        1.2723689
      ],
      [
        103.8482894,
        1.2723019
      ],
      [
        103.8481317,
        1.2722572
      ],
      [
        103.8479568,
        1.2722147
      ],
      [
        103.8477524,
        1.2721994
      ],
      [
        103.847576,
        1.2721858
      ],
      [
        103.8473794,
        1.2721877
      ],
      [
        103.8471739,
        1.2722013
      ],
      [
        103.8468833,
        1.2722381
      ],
      [
        103.8463639,
        1.2723319
      ],
      [
        103.8462346,
        1.2723598
      ],
      [
        103.8459721,
        1.2724165
      ],
      [
        103.8455344,
        1.2724909
      ],
      [
        103.8453495,
        1.27251
      ],
      [
        103.8452465,
        1.2725192
      ],
      [
        103.845085,
        1.2725315
      ],
      [
        103.844939,
        1.2725332
      ],
      [
        103.844523,
        1.2725288
      ],
      [
        103.8443438,
        1.2725284
      ],
      [
        103.8441254,
        1.2725215
      ],
      [
        103.8439923,
        1.2725191
      ],
      [
        103.8438968,
        1.2725175
      ],
      [
        103.8437841,
        1.2725155
      ],
      [
        103.843866,
        1.2726804
      ],
      [
        103.8439163,
        1.2727696
      ],
      [
        103.8440424,
        1.2729059
      ],
      [
        103.8444093,
        1.2733019
      ],
      [
        103.8444977,
        1.2733936
      ],
      [
        103.8445737,
        1.273488
      ],
      [
        103.8447389,
        1.2736864
      ],
      [
        103.8450042,
        1.2740074
      ],
      [
        103.8451084,
        1.2741343
      ],
      [
        103.8451722,
        1.2742177
      ],
      [
        103.8453993,
        1.2745021
      ],
      [
        103.8455683,
        1.2746965
      ],
      [
        103.8455766,
        1.2747026
      ],
      [
        103.8456729,
        1.2748147
      ],
      [
        103.8457074,
        1.2748549
      ],
      [
        103.8457569,
        1.274913
      ],
      [
        103.8458088,
        1.2749743
      ],
      [
        103.845941,
        1.275142
      ],
      [
        103.8461507,
        1.2753973
      ],
      [
        103.8464492,
        1.275764
      ],
      [
        103.8464915,
        1.2758152
      ],
      [
        103.8466158,
        1.2759542
      ],
      [
        103.8467313,
        1.276088
      ],
      [
        103.8468201,
        1.2761893
      ],
      [
        103.8468898,
        1.2763658
      ],
      [
        103.8469066,
        1.2764085
      ],
      [
        103.8469576,
        1.276564
      ],
      [
        103.8470005,
        1.2767919
      ],
      [
        103.8470039,
        1.2768232
      ],
      [
        103.8470098,
        1.2768786
      ],
      [
        103.847016,
        1.2769552
      ],
      [
        103.8470143,
        1.2770557
      ],
      [
        103.8470109,
        1.2771704
      ],
      [
        103.8470085,
        1.2772505
      ],
      [
        103.8470032,
        1.2773738
      ],
      [
        103.847061,
        1.2776068
      ],
      [
        103.8470736,
        1.2776341
      ],
      [
        103.8471958,
        1.2778406
      ],
      [
        103.8472745,
        1.2779629
      ],
      [
        103.8475696,
        1.2784501
      ],
      [
        103.8477379,
        1.2787159
      ],
      [
        103.8478871,
        1.2789462
      ],
      [
        103.8480675,
        1.2792248
      ],
      [
        103.8480938,
        1.2792655
      ],
      [
        103.8481177,
        1.2793047
      ],
      [
        103.84858,
        1.2800637
      ],
      [
        103.8487574,
        1.2803612
      ],
      [
        103.848858,
        1.2805383
      ],
      [
        103.8490295,
        1.2808379
      ],
      [
        103.8490524,
        1.2808779
      ],
      [
        103.849074,
        1.2809143
      ],
      [
        103.8492192,
        1.2811588
      ],
      [
        103.8493235,
        1.2813345
      ],
      [
        103.8494772,
        1.2815934
      ],
      [
        103.8495242,
        1.2816724
      ],
      [
        103.8495479,
        1.2817092
      ],
      [
        103.8497476,
        1.2820186
      ],
      [
        103.8498737,
        1.2822081
      ],
      [
        103.8498919,
        1.2822338
      ],
      [
        103.8500463,
        1.282452
      ],
      [
        103.8501663,
        1.2825715
      ],
      [
        103.8502706,
        1.2826354
      ],
      [
        103.8503707,
        1.2826758
      ],
      [
        103.8504251,
        1.2826928
      ],
      [
        103.8507869,
        1.2826449
      ],
      [
        103.8508287,
        1.2826181
      ],
      [
        103.850907,
        1.2826135
      ],
      [
        103.8513125,
        1.2825625
      ],
      [
        103.8517376,
        1.2823291
      ],
      [
        103.8518207,
        1.2822829
      ],
      [
        103.851904,
        1.2822371
      ],
      [
        103.85198,
        1.282188
      ],
      [
        103.8520704,
        1.2821298
      ],
      [
        103.8526833,
        1.2817345
      ],
      [
        103.8527331,
        1.2817024
      ],
      [
        103.8527756,
        1.281675
      ],
      [
        103.8528428,
        1.2816317
      ],
      [
        103.8532418,
        1.2813744
      ],
      [
        103.8533519,
        1.2813005
      ],
      [
        103.8533614,
        1.2812941
      ],
      [
        103.853373,
        1.2812864
      ],
      [
        103.8534449,
        1.2812433
      ],
      [
        103.853587,
        1.2811517
      ],
      [
        103.8537029,
        1.281077
      ],
      [
        103.8540735,
        1.280838
      ],
      [
        103.854166,
        1.2807783
      ],
      [
        103.8543972,
        1.2806292
      ],
      [
        103.8550657,
        1.2801981
      ],
      [
        103.8555371,
        1.2798941
      ],
      [
        103.8555963,
        1.2798559
      ],
      [
        103.8558831,
        1.279671
      ],
      [
        103.8570136,
        1.2789419
      ],
      [
        103.8570906,
        1.2788922
      ],
      [
        103.857192,
        1.2790599
      ],
      [
        103.8574972,
        1.2795652
      ],
      [
        103.8575464,
        1.2796396
      ],
      [
        103.8579165,
        1.2802026
      ],
      [
        103.8583674,
        1.2809003
      ],
      [
        103.858404,
        1.2809588
      ],
      [
        103.8584702,
        1.2810559
      ],
      [
        103.8585191,
        1.281124
      ],
      [
        103.8587798,
        1.2815196
      ],
      [
        103.8590069,
        1.281889
      ],
      [
        103.859062,
        1.2819781
      ],
      [
        103.8592829,
        1.2823309
      ],
      [
        103.8593164,
        1.2823801
      ],
      [
        103.8593916,
        1.2824957
      ],
      [
        103.859424,
        1.2825548
      ],
      [
        103.8596403,
        1.2829171
      ],
      [
        103.8596867,
        1.2829905
      ],
      [
        103.8599262,
        1.283411
      ],
      [
        103.8600375,
        1.2835978
      ],
      [
        103.8601498,
        1.2837756
      ],
      [
        103.860365,
        1.2841296
      ],
      [
        103.8604559,
        1.2843393
      ],
      [
        103.8605329,
        1.2845325
      ],
      [
        103.860588,
        1.2846915
      ],
      [
        103.8606769,
        1.2849871
      ],
      [
        103.8606932,
        1.2850561
      ],
      [
        103.8607492,
        1.2854346
      ],
      [
        103.8607537,
        1.285533
      ],
      [
        103.8608723,
        1.2886893
      ],
      [
        103.8608867,
        1.2891846
      ],
      [
        103.8608795,
        1.2894683
      ],
      [
        103.8608791,
        1.2894838
      ],
      [
        103.8608765,
        1.289565
      ],
      [
        103.8608748,
        1.2896522
      ],
      [
        103.8608743,
        1.2896737
      ],
      [
        103.8608648,
        1.2900445
      ],
      [
        103.860856,
        1.2903898
      ],
      [
        103.8608343,
        1.2912363
      ],
      [
        103.8608319,
        1.2913301
      ],
      [
        103.8608313,
        1.2914252
      ],
      [
        103.8608296,
        1.2917228
      ],
      [
        103.8608255,
        1.2921193
      ],
      [
        103.860823,
        1.2923792
      ],
      [
        103.8608068,
        1.2928861
      ],
      [
        103.8607729,
        1.2933482
      ],
      [
        103.8607471,
        1.2934748
      ],
      [
        103.8607147,
        1.2935507
      ],
      [
        103.8606977,
        1.2935916
      ],
      [
        103.8606577,
        1.2936491
      ],
      [
        103.8606045,
        1.2937226
      ],
      [
        103.8605353,
        1.2937729
      ],
      [
        103.8604011,
        1.2938497
      ],
      [
        103.8602992,
        1.2939166
      ],
      [
        103.8599557,
        1.2941219
      ],
      [
        103.8598909,
        1.2941616
      ],
      [
        103.8593539,
        1.2944296
      ],
      [
        103.8593005,
        1.2944497
      ],
      [
        103.8592322,
        1.2944506
      ],
      [
        103.8591209,
        1.294424
      ],
      [
        103.8590571,
        1.2943915
      ],
      [
        103.8589885,
        1.294371
      ],
      [
        103.8589173,
        1.2943633
      ],
      [
        103.8588519,
        1.2943676
      ],
      [
        103.8587881,
        1.2943827
      ],
      [
        103.8587277,
        1.294408
      ],
      [
        103.8586724,
        1.294443
      ],
      [
        103.8586235,
        1.2944867
      ],
      [
        103.8585826,
        1.2945378
      ],
      [
        103.8585515,
        1.2945931
      ],
      [
        103.8585259,
        1.2946673
      ],
      [
        103.8585155,
        1.294745
      ],
      [
        103.8585207,
        1.2948233
      ],
      [
        103.8585357,
        1.2948837
      ],
      [
        103.8585601,
        1.2949409
      ],
      [
        103.8585931,
        1.2949936
      ],
      [
        103.858634,
        1.2950405
      ],
      [
        103.8586628,
        1.2950661
      ],
      [
        103.8587333,
        1.2951114
      ],
      [
        103.8588117,
        1.2951408
      ],
      [
        103.8588945,
        1.295153
      ],
      [
        103.8589781,
        1.2951475
      ],
      [
        103.8590397,
        1.2951593
      ],
      [
        103.8590786,
        1.295174
      ],
      [
        103.8591051,
        1.2952083
      ],
      [
        103.8591328,
        1.2952578
      ],
      [
        103.8593513,
        1.2956483
      ],
      [
        103.8595484,
        1.2959487
      ]
    ]
  }
}