{
  "type": "Feature",
  "properties": {
    "relation": 1150306,
    "direction": "1",
    "fee": "yes",
    "from": "Choa Chu Kang Interchange",
    "name": "Svc 67 (Choa Chu Kang Interchange → Tampines Interchange)",
    "network": "Land Transport Authority",
    "network:short": "LTA",
    "network:wikidata": "Q3299279",
    "network:wikipedia": "en:Land Transport Authority",
    "operator": "SMRT Buses",
    "operator:wikidata": "Q10852420",
    "operator:wikipedia": "en:SMRT Buses",
    "public_transport:version": "2",
    "ref": "67",
    "route": "bus",
    "to": "Tampines Interchange",
    "type": "route",
    "website": "https://www.smrt.com.sg/"
  },
  "geometry": {
    "type": "LineString",
    "coordinates": [
      [
        103.7457448,
        1.3858397
      ],
      [
        103.7457618,
        1.3856968
      ],
      [
        103.7457551,
        1.3856544
      ],
      [
        103.7457468,
        1.3856259
      ],
      [
        103.7457297,
        1.3856041
      ],
      [
        103.7456963,
        1.3855811
      ],
      [
        103.7454416,
        1.3854939
      ],
      [
        103.7454206,
        1.3855002
      ],
      [
        103.7454074,
        1.3855093
      ],
      [
        103.7453905,
        1.3855297
      ],
      [
        103.7453765,
        1.3855549
      ],
      [
        103.7452374,
        1.385835
      ],
      [
        103.7451194,
        1.3859186
      ],
      [
        103.7449612,
        1.3859221
      ],
      [
        103.7449306,
        1.3859362
      ],
      [
        103.7449094,
        1.3859539
      ],
      [
        103.7448958,
        1.3859704
      ],
      [
        103.7448667,
        1.386125
      ],
      [
        103.7448475,
        1.3862563
      ],
      [
        103.744824,
        1.3863372
      ],
      [
        103.7446493,
        1.3863381
      ],
      [
        103.7444096,
        1.3863394
      ],
      [
        103.7438871,
        1.3863197
      ],
      [
        103.7438001,
        1.3863095
      ],
      [
        103.7436491,
        1.386303
      ],
      [
        103.7435249,
        1.3862599
      ],
      [
        103.7434768,
        1.3862202
      ],
      [
        103.7434279,
        1.3861709
      ],
      [
        103.7431007,
        1.385815
      ],
      [
        103.7430688,
        1.385764
      ],
      [
        103.7430393,
        1.3857067
      ],
      [
        103.7430348,
        1.3856454
      ],
      [
        103.7430409,
        1.3855943
      ],
      [
        103.7430577,
        1.3855376
      ],
      [
        103.7431993,
        1.3850524
      ],
      [
        103.7432601,
        1.3848392
      ],
      [
        103.7432892,
        1.3847447
      ],
      [
        103.7433201,
        1.3846453
      ],
      [
        103.7433557,
        1.3845323
      ],
      [
        103.7434092,
        1.3843709
      ],
      [
        103.7434572,
        1.3842286
      ],
      [
        103.7434975,
        1.3841043
      ],
      [
        103.7435182,
        1.3840227
      ],
      [
        103.7434496,
        1.3839991
      ],
      [
        103.7433536,
        1.3839726
      ],
      [
        103.7432483,
        1.3839419
      ],
      [
        103.7429974,
        1.3838731
      ],
      [
        103.7428563,
        1.383789
      ],
      [
        103.7428096,
        1.3837582
      ],
      [
        103.742757,
        1.3836993
      ],
      [
        103.7426685,
        1.3835758
      ],
      [
        103.7426982,
        1.3834207
      ],
      [
        103.7427331,
        1.3832384
      ],
      [
        103.7427415,
        1.3832044
      ],
      [
        103.7427566,
        1.3831429
      ],
      [
        103.7428043,
        1.3829494
      ],
      [
        103.7428265,
        1.3828646
      ],
      [
        103.7429589,
        1.3823345
      ],
      [
        103.7429767,
        1.3822798
      ],
      [
        103.7430623,
        1.3820355
      ],
      [
        103.7431394,
        1.3818548
      ],
      [
        103.7431812,
        1.3817588
      ],
      [
        103.743312,
        1.3815825
      ],
      [
        103.7433243,
        1.3815691
      ],
      [
        103.7434215,
        1.3814341
      ],
      [
        103.7434363,
        1.3814144
      ],
      [
        103.7435184,
        1.3812996
      ],
      [
        103.7437156,
        1.3810588
      ],
      [
        103.743832,
        1.3809741
      ],
      [
        103.7439783,
        1.3808606
      ],
      [
        103.7443325,
        1.3806102
      ],
      [
        103.7444544,
        1.3805471
      ],
      [
        103.7446658,
        1.3804432
      ],
      [
        103.7450928,
        1.3802386
      ],
      [
        103.7451238,
        1.3802259
      ],
      [
        103.7451632,
        1.3802049
      ],
      [
        103.7467624,
        1.3795038
      ],
      [
        103.7472164,
        1.3793001
      ],
      [
        103.7478511,
        1.3790057
      ],
      [
        103.7478777,
        1.3789936
      ],
      [
        103.748011,
        1.3789327
      ],
      [
        103.7483416,
        1.378792
      ],
      [
        103.7485061,
        1.3787148
      ],
      [
        103.7485807,
        1.3786803
      ],
      [
        103.7486692,
        1.3786433
      ],
      [
        103.748707,
        1.3786258
      ],
      [
        103.7488418,
        1.3785597
      ],
      [
        103.7499436,
        1.3780616
      ],
      [
        103.7500911,
        1.3779944
      ],
      [
        103.7502886,
        1.3779095
      ],
      [
        103.7504146,
        1.3778529
      ],
      [
        103.7512076,
        1.3775054
      ],
      [
        103.7517319,
        1.3772677
      ],
      [
        103.7517708,
        1.3772499
      ],
      [
        103.7518306,
        1.3772227
      ],
      [
        103.7518856,
        1.3771975
      ],
      [
        103.7521577,
        1.3770744
      ],
      [
        103.7527269,
        1.3768081
      ],
      [
        103.752992,
        1.3766891
      ],
      [
        103.7530693,
        1.3766537
      ],
      [
        103.7531486,
        1.3766177
      ],
      [
        103.7532629,
        1.3765735
      ],
      [
        103.7535285,
        1.3764516
      ],
      [
        103.7537747,
        1.3764568
      ],
      [
        103.753814,
        1.3764698
      ],
      [
        103.7540702,
        1.3765529
      ],
      [
        103.7544475,
        1.3767552
      ],
      [
        103.7547178,
        1.3768431
      ],
      [
        103.7547897,
        1.3768665
      ],
      [
        103.7548529,
        1.3768871
      ],
      [
        103.7552692,
        1.3769848
      ],
      [
        103.755497,
        1.3770549
      ],
      [
        103.7555975,
        1.3770861
      ],
      [
        103.7556713,
        1.3771129
      ],
      [
        103.7561486,
        1.3773788
      ],
      [
        103.7562028,
        1.3774108
      ],
      [
        103.7562712,
        1.3774526
      ],
      [
        103.7562884,
        1.3774609
      ],
      [
        103.75645,
        1.3775396
      ],
      [
        103.7571811,
        1.377962
      ],
      [
        103.7573326,
        1.3780489
      ],
      [
        103.7575434,
        1.3781733
      ],
      [
        103.7576153,
        1.3782104
      ],
      [
        103.7576759,
        1.3782391
      ],
      [
        103.7577655,
        1.3782804
      ],
      [
        103.7579828,
        1.3783883
      ],
      [
        103.7583689,
        1.3785177
      ],
      [
        103.7585078,
        1.3785674
      ],
      [
        103.758587,
        1.3785981
      ],
      [
        103.7591021,
        1.3787919
      ],
      [
        103.7593943,
        1.3789067
      ],
      [
        103.7601057,
        1.3791989
      ],
      [
        103.760353,
        1.3793265
      ],
      [
        103.7605258,
        1.3794297
      ],
      [
        103.7606974,
        1.3795166
      ],
      [
        103.7610015,
        1.3796588
      ],
      [
        103.7610695,
        1.379693
      ],
      [
        103.7614046,
        1.3798586
      ],
      [
        103.7614837,
        1.3797155
      ],
      [
        103.7615308,
        1.3796165
      ],
      [
        103.761636,
        1.3794136
      ],
      [
        103.7616941,
        1.3792888
      ],
      [
        103.7619492,
        1.3787176
      ],
      [
        103.7622265,
        1.3780452
      ],
      [
        103.76229,
        1.3777969
      ],
      [
        103.7623172,
        1.3776985
      ],
      [
        103.7623862,
        1.3772961
      ],
      [
        103.7623997,
        1.3771421
      ],
      [
        103.76242,
        1.3770041
      ],
      [
        103.7624326,
        1.3768907
      ],
      [
        103.7624762,
        1.3765623
      ],
      [
        103.7625539,
        1.376018
      ],
      [
        103.7625928,
        1.3757672
      ],
      [
        103.7626499,
        1.3754795
      ],
      [
        103.7627056,
        1.3750705
      ],
      [
        103.7626916,
        1.3749928
      ],
      [
        103.76268,
        1.3749286
      ],
      [
        103.7626845,
        1.374909
      ],
      [
        103.7627305,
        1.3747071
      ],
      [
        103.7627718,
        1.3744854
      ],
      [
        103.7628932,
        1.3737213
      ],
      [
        103.7629114,
        1.3736131
      ],
      [
        103.7630295,
        1.3730429
      ],
      [
        103.763093,
        1.3727289
      ],
      [
        103.7631192,
        1.3726263
      ],
      [
        103.763207,
        1.372272
      ],
      [
        103.7632839,
        1.3719487
      ],
      [
        103.7632956,
        1.3718996
      ],
      [
        103.7633055,
        1.3718541
      ],
      [
        103.7633596,
        1.3716057
      ],
      [
        103.7634847,
        1.3711729
      ],
      [
        103.7635276,
        1.3710559
      ],
      [
        103.7635495,
        1.371005
      ],
      [
        103.7636326,
        1.3707908
      ],
      [
        103.7636627,
        1.3707299
      ],
      [
        103.7637593,
        1.3705347
      ],
      [
        103.7639615,
        1.3702101
      ],
      [
        103.7640523,
        1.3700762
      ],
      [
        103.7640954,
        1.3700111
      ],
      [
        103.7643961,
        1.3695568
      ],
      [
        103.7644348,
        1.3694982
      ],
      [
        103.7644823,
        1.3694265
      ],
      [
        103.7645006,
        1.3693988
      ],
      [
        103.7646371,
        1.3691926
      ],
      [
        103.7647016,
        1.3691006
      ],
      [
        103.7647464,
        1.3690332
      ],
      [
        103.7651359,
        1.3684751
      ],
      [
        103.7654553,
        1.368034
      ],
      [
        103.7655571,
        1.3678775
      ],
      [
        103.7656596,
        1.3677395
      ],
      [
        103.7658255,
        1.3675
      ],
      [
        103.7660116,
        1.3673031
      ],
      [
        103.7662741,
        1.3669547
      ],
      [
        103.7664081,
        1.3667816
      ],
      [
        103.7665235,
        1.366622
      ],
      [
        103.7667537,
        1.3662803
      ],
      [
        103.7671434,
        1.3656626
      ],
      [
        103.7673161,
        1.365376
      ],
      [
        103.7674408,
        1.3651653
      ],
      [
        103.7675501,
        1.3649511
      ],
      [
        103.767612,
        1.3648024
      ],
      [
        103.7676503,
        1.36469
      ],
      [
        103.767704,
        1.364505
      ],
      [
        103.7677512,
        1.3643437
      ],
      [
        103.7677921,
        1.3641673
      ],
      [
        103.7678082,
        1.3640102
      ],
      [
        103.7678163,
        1.3638619
      ],
      [
        103.767807,
        1.3636417
      ],
      [
        103.7678026,
        1.363606
      ],
      [
        103.7677999,
        1.3635394
      ],
      [
        103.7677886,
        1.3634221
      ],
      [
        103.7677666,
        1.3632943
      ],
      [
        103.7677386,
        1.3631068
      ],
      [
        103.7675957,
        1.3626616
      ],
      [
        103.7674878,
        1.3622884
      ],
      [
        103.7674424,
        1.3621561
      ],
      [
        103.7674246,
        1.3621012
      ],
      [
        103.767408,
        1.36205
      ],
      [
        103.7673293,
        1.3618475
      ],
      [
        103.7672764,
        1.3616575
      ],
      [
        103.7672373,
        1.3614932
      ],
      [
        103.767206,
        1.3612499
      ],
      [
        103.767198,
        1.3609891
      ],
      [
        103.767203,
        1.3606804
      ],
      [
        103.767335,
        1.3597309
      ],
      [
        103.7673942,
        1.3592112
      ],
      [
        103.7674925,
        1.358449
      ],
      [
        103.7674877,
        1.3583012
      ],
      [
        103.767507,
        1.3581316
      ],
      [
        103.7675664,
        1.3577144
      ],
      [
        103.7676086,
        1.3575146
      ],
      [
        103.7676615,
        1.3573249
      ],
      [
        103.7677266,
        1.3571781
      ],
      [
        103.7684279,
        1.3562865
      ],
      [
        103.7685752,
        1.3560725
      ],
      [
        103.7688052,
        1.3556319
      ],
      [
        103.768936,
        1.3552614
      ],
      [
        103.7691216,
        1.3547328
      ],
      [
        103.769188,
        1.3545604
      ],
      [
        103.7693724,
        1.3540813
      ],
      [
        103.769448,
        1.3538931
      ],
      [
        103.769597,
        1.3534485
      ],
      [
        103.7696439,
        1.3532889
      ],
      [
        103.7696884,
        1.3531226
      ],
      [
        103.7697443,
        1.3529245
      ],
      [
        103.7698358,
        1.35253
      ],
      [
        103.7698911,
        1.352265
      ],
      [
        103.7699181,
        1.3521097
      ],
      [
        103.7699655,
        1.3518449
      ],
      [
        103.7699822,
        1.3517269
      ],
      [
        103.7699889,
        1.3516801
      ],
      [
        103.7700721,
        1.3510094
      ],
      [
        103.7701812,
        1.3501799
      ],
      [
        103.7702663,
        1.3495034
      ],
      [
        103.7703275,
        1.3492616
      ],
      [
        103.7703567,
        1.3491799
      ],
      [
        103.7703658,
        1.3491606
      ],
      [
        103.7703924,
        1.3491037
      ],
      [
        103.770408,
        1.3490747
      ],
      [
        103.7704644,
        1.3489662
      ],
      [
        103.7706175,
        1.3487237
      ],
      [
        103.7706383,
        1.3486907
      ],
      [
        103.7707708,
        1.3484944
      ],
      [
        103.771066,
        1.3480654
      ],
      [
        103.7714922,
        1.3473867
      ],
      [
        103.7718024,
        1.3468926
      ],
      [
        103.7719655,
        1.346682
      ],
      [
        103.7720242,
        1.3466208
      ],
      [
        103.7721492,
        1.3464904
      ],
      [
        103.7723377,
        1.3463028
      ],
      [
        103.7725806,
        1.3461412
      ],
      [
        103.7727104,
        1.3460483
      ],
      [
        103.7739372,
        1.3453368
      ],
      [
        103.7743731,
        1.3450874
      ],
      [
        103.7746957,
        1.344893
      ],
      [
        103.7747693,
        1.3448487
      ],
      [
        103.7749582,
        1.3447399
      ],
      [
        103.7751124,
        1.344649
      ],
      [
        103.7751832,
        1.3445673
      ],
      [
        103.7752289,
        1.3445014
      ],
      [
        103.7752588,
        1.3444495
      ],
      [
        103.7752648,
        1.3443912
      ],
      [
        103.7752819,
        1.3442516
      ],
      [
        103.7753351,
        1.3439295
      ],
      [
        103.7753635,
        1.3438727
      ],
      [
        103.7754135,
        1.3436022
      ],
      [
        103.7755893,
        1.3426801
      ],
      [
        103.7756908,
        1.3421286
      ],
      [
        103.7757341,
        1.3419084
      ],
      [
        103.775817,
        1.3414799
      ],
      [
        103.7758344,
        1.3413898
      ],
      [
        103.7758475,
        1.3413222
      ],
      [
        103.7758599,
        1.341266
      ],
      [
        103.7759184,
        1.3410009
      ],
      [
        103.775968,
        1.3407974
      ],
      [
        103.7760018,
        1.3406432
      ],
      [
        103.7760722,
        1.3403935
      ],
      [
        103.7760968,
        1.3403192
      ],
      [
        103.7761563,
        1.3401934
      ],
      [
        103.776203,
        1.3401196
      ],
      [
        103.7763787,
        1.3399051
      ],
      [
        103.7764816,
        1.3397713
      ],
      [
        103.7769789,
        1.3390946
      ],
      [
        103.777388,
        1.3385127
      ],
      [
        103.7775044,
        1.3383331
      ],
      [
        103.7775632,
        1.3382712
      ],
      [
        103.7776523,
        1.3381761
      ],
      [
        103.7777726,
        1.3380787
      ],
      [
        103.7778819,
        1.3380024
      ],
      [
        103.777921,
        1.3379803
      ],
      [
        103.7779641,
        1.3379596
      ],
      [
        103.7782666,
        1.3378154
      ],
      [
        103.7784784,
        1.3377418
      ],
      [
        103.7786626,
        1.3376808
      ],
      [
        103.7786988,
        1.3376688
      ],
      [
        103.7787781,
        1.3376437
      ],
      [
        103.779034,
        1.337561
      ],
      [
        103.7790756,
        1.3375481
      ],
      [
        103.7793066,
        1.3374934
      ],
      [
        103.7797924,
        1.3373221
      ],
      [
        103.7801469,
        1.3372015
      ],
      [
        103.7804094,
        1.3371132
      ],
      [
        103.7805315,
        1.3370731
      ],
      [
        103.7807502,
        1.3370088
      ],
      [
        103.7808458,
        1.3369747
      ],
      [
        103.7809469,
        1.3369386
      ],
      [
        103.7811193,
        1.3368842
      ],
      [
        103.7814246,
        1.3367843
      ],
      [
        103.781529,
        1.3367492
      ],
      [
        103.7817294,
        1.3366846
      ],
      [
        103.7822797,
        1.3365102
      ],
      [
        103.7823882,
        1.336474
      ],
      [
        103.7827068,
        1.3363676
      ],
      [
        103.782991,
        1.3362667
      ],
      [
        103.7832794,
        1.336161
      ],
      [
        103.7833633,
        1.3361313
      ],
      [
        103.7835241,
        1.3360752
      ],
      [
        103.7837442,
        1.3359936
      ],
      [
        103.783793,
        1.3359761
      ],
      [
        103.7839039,
        1.3359363
      ],
      [
        103.7840779,
        1.3358761
      ],
      [
        103.7841331,
        1.335857
      ],
      [
        103.7842319,
        1.3358227
      ],
      [
        103.7846051,
        1.3356889
      ],
      [
        103.7853782,
        1.3354164
      ],
      [
        103.7862655,
        1.3351036
      ],
      [
        103.786371,
        1.335067
      ],
      [
        103.7864209,
        1.3350503
      ],
      [
        103.7865622,
        1.3349997
      ],
      [
        103.7868447,
        1.3349113
      ],
      [
        103.7869311,
        1.334879
      ],
      [
        103.787482,
        1.3346763
      ],
      [
        103.787571,
        1.3346452
      ],
      [
        103.7877356,
        1.3345938
      ],
      [
        103.7880693,
        1.3344895
      ],
      [
        103.7888034,
        1.3342291
      ],
      [
        103.7890846,
        1.3341294
      ],
      [
        103.7899579,
        1.3338308
      ],
      [
        103.7903044,
        1.3337123
      ],
      [
        103.7909878,
        1.3334941
      ],
      [
        103.7910787,
        1.3334608
      ],
      [
        103.7913318,
        1.3333776
      ],
      [
        103.7923541,
        1.3330272
      ],
      [
        103.792898,
        1.3328408
      ],
      [
        103.7941867,
        1.3323991
      ],
      [
        103.7945802,
        1.332251
      ],
      [
        103.7947496,
        1.332195
      ],
      [
        103.7949899,
        1.3321171
      ],
      [
        103.7954782,
        1.3319483
      ],
      [
        103.7956103,
        1.3319023
      ],
      [
        103.7956469,
        1.3318896
      ],
      [
        103.795846,
        1.3318265
      ],
      [
        103.795942,
        1.3317933
      ],
      [
        103.796429,
        1.3316253
      ],
      [
        103.7969278,
        1.331445
      ],
      [
        103.7971475,
        1.3313628
      ],
      [
        103.797668,
        1.3311775
      ],
      [
        103.7977069,
        1.3311674
      ],
      [
        103.7977925,
        1.3311375
      ],
      [
        103.7978321,
        1.3311236
      ],
      [
        103.7979109,
        1.3310961
      ],
      [
        103.7982801,
        1.3309633
      ],
      [
        103.7984311,
        1.3309142
      ],
      [
        103.7984682,
        1.3309021
      ],
      [
        103.7985026,
        1.3308894
      ],
      [
        103.7985656,
        1.3308661
      ],
      [
        103.799507,
        1.3305241
      ],
      [
        103.8008647,
        1.3300392
      ],
      [
        103.8009437,
        1.3300141
      ],
      [
        103.801374,
        1.3298777
      ],
      [
        103.8016624,
        1.3297735
      ],
      [
        103.8019173,
        1.3296878
      ],
      [
        103.8022196,
        1.3295973
      ],
      [
        103.8026494,
        1.3294421
      ],
      [
        103.8028814,
        1.3293551
      ],
      [
        103.8032393,
        1.3292122
      ],
      [
        103.8036105,
        1.3290347
      ],
      [
        103.8039652,
        1.3288218
      ],
      [
        103.804519,
        1.3284555
      ],
      [
        103.8058724,
        1.3275842
      ],
      [
        103.8059701,
        1.3275174
      ],
      [
        103.8061057,
        1.3274294
      ],
      [
        103.8064746,
        1.3271884
      ],
      [
        103.8078601,
        1.3262421
      ],
      [
        103.8081093,
        1.3260719
      ],
      [
        103.8083036,
        1.3259375
      ],
      [
        103.8083691,
        1.3258922
      ],
      [
        103.8086091,
        1.3257263
      ],
      [
        103.8095868,
        1.3250476
      ],
      [
        103.8097702,
        1.3249203
      ],
      [
        103.810104,
        1.3247
      ],
      [
        103.8101392,
        1.3246938
      ],
      [
        103.8101846,
        1.3246783
      ],
      [
        103.8102354,
        1.3246543
      ],
      [
        103.8103109,
        1.3246134
      ],
      [
        103.8103356,
        1.324601
      ],
      [
        103.8103704,
        1.324581
      ],
      [
        103.8104237,
        1.3245489
      ],
      [
        103.8108633,
        1.3243412
      ],
      [
        103.8114215,
        1.3241937
      ],
      [
        103.8118687,
        1.3240793
      ],
      [
        103.8121381,
        1.3240104
      ],
      [
        103.8124495,
        1.3239662
      ],
      [
        103.8127003,
        1.3239581
      ],
      [
        103.8128294,
        1.323953
      ],
      [
        103.8130894,
        1.3239426
      ],
      [
        103.8132145,
        1.3239332
      ],
      [
        103.8133205,
        1.3239232
      ],
      [
        103.8135914,
        1.323865
      ],
      [
        103.8136608,
        1.3238346
      ],
      [
        103.8140724,
        1.3236542
      ],
      [
        103.8142844,
        1.3235672
      ],
      [
        103.8143693,
        1.3235372
      ],
      [
        103.814522,
        1.323477
      ],
      [
        103.8147466,
        1.3234342
      ],
      [
        103.8149891,
        1.3233918
      ],
      [
        103.8153741,
        1.3233316
      ],
      [
        103.8154806,
        1.323315
      ],
      [
        103.8158219,
        1.3232794
      ],
      [
        103.8158814,
        1.3232757
      ],
      [
        103.8163681,
        1.3232454
      ],
      [
        103.8165723,
        1.3232239
      ],
      [
        103.8169835,
        1.3231981
      ],
      [
        103.8170246,
        1.3231888
      ],
      [
        103.8170973,
        1.3231471
      ],
      [
        103.8172024,
        1.3231391
      ],
      [
        103.8175411,
        1.3231152
      ],
      [
        103.8176741,
        1.3231034
      ],
      [
        103.8179912,
        1.3230682
      ],
      [
        103.8186671,
        1.3229786
      ],
      [
        103.8188374,
        1.3229612
      ],
      [
        103.8189971,
        1.3229357
      ],
      [
        103.8191137,
        1.3229115
      ],
      [
        103.8192806,
        1.3228653
      ],
      [
        103.8193917,
        1.3228357
      ],
      [
        103.8195593,
        1.32279
      ],
      [
        103.8196733,
        1.322758
      ],
      [
        103.8197613,
        1.322738
      ],
      [
        103.8198379,
        1.3227118
      ],
      [
        103.8199364,
        1.3226923
      ],
      [
        103.8200034,
        1.3226731
      ],
      [
        103.8218732,
        1.322167
      ],
      [
        103.8223822,
        1.3220204
      ],
      [
        103.8229044,
        1.3218451
      ],
      [
        103.8230607,
        1.3218602
      ],
      [
        103.8235474,
        1.3217156
      ],
      [
        103.8241009,
        1.3215241
      ],
      [
        103.8241912,
        1.3214962
      ],
      [
        103.8242161,
        1.3214877
      ],
      [
        103.8243923,
        1.3214287
      ],
      [
        103.824893,
        1.3212572
      ],
      [
        103.8252056,
        1.3211613
      ],
      [
        103.825354,
        1.3211143
      ],
      [
        103.8254464,
        1.321085
      ],
      [
        103.8255865,
        1.3210416
      ],
      [
        103.8256241,
        1.3210231
      ],
      [
        103.8257832,
        1.3209648
      ],
      [
        103.826772,
        1.3206501
      ],
      [
        103.827082,
        1.3205515
      ],
      [
        103.827707,
        1.3203465
      ],
      [
        103.8284155,
        1.3200774
      ],
      [
        103.8285206,
        1.3200435
      ],
      [
        103.8286396,
        1.3200108
      ],
      [
        103.8291586,
        1.3198537
      ],
      [
        103.8293203,
        1.3197992
      ],
      [
        103.8295263,
        1.3197329
      ],
      [
        103.8300073,
        1.3195698
      ],
      [
        103.8301259,
        1.31953
      ],
      [
        103.8304246,
        1.3194298
      ],
      [
        103.8310057,
        1.3192349
      ],
      [
        103.8314529,
        1.319092
      ],
      [
        103.8314945,
        1.3190787
      ],
      [
        103.8328302,
        1.3186826
      ],
      [
        103.8335892,
        1.3184615
      ],
      [
        103.8337471,
        1.3184134
      ],
      [
        103.8344053,
        1.3181949
      ],
      [
        103.8346843,
        1.3180928
      ],
      [
        103.834884,
        1.3179843
      ],
      [
        103.8349992,
        1.3179044
      ],
      [
        103.8350714,
        1.317853
      ],
      [
        103.8352049,
        1.3177635
      ],
      [
        103.8355045,
        1.3174753
      ],
      [
        103.8355549,
        1.3174196
      ],
      [
        103.8356064,
        1.3173599
      ],
      [
        103.8356723,
        1.3172854
      ],
      [
        103.8359211,
        1.3170111
      ],
      [
        103.8360316,
        1.3168937
      ],
      [
        103.836316,
        1.3165604
      ],
      [
        103.8366007,
        1.3162404
      ],
      [
        103.8367908,
        1.3160268
      ],
      [
        103.836848,
        1.3159611
      ],
      [
        103.8370086,
        1.3157769
      ],
      [
        103.8370128,
        1.3157764
      ],
      [
        103.8374144,
        1.315394
      ],
      [
        103.8378364,
        1.3150046
      ],
      [
        103.8381247,
        1.3147143
      ],
      [
        103.8383842,
        1.3143983
      ],
      [
        103.8385935,
        1.3141896
      ],
      [
        103.8389097,
        1.3138521
      ],
      [
        103.8390509,
        1.3136854
      ],
      [
        103.8390765,
        1.313657
      ],
      [
        103.8391999,
        1.313526
      ],
      [
        103.8392212,
        1.3135032
      ],
      [
        103.8392881,
        1.3134317
      ],
      [
        103.8393476,
        1.3134137
      ],
      [
        103.8394455,
        1.3133802
      ],
      [
        103.8395387,
        1.3133266
      ],
      [
        103.8395876,
        1.313226
      ],
      [
        103.8396075,
        1.3131602
      ],
      [
        103.8396198,
        1.3130973
      ],
      [
        103.8396211,
        1.3130308
      ],
      [
        103.8396205,
        1.3130105
      ],
      [
        103.8395816,
        1.3129223
      ],
      [
        103.8396023,
        1.3128548
      ],
      [
        103.8396244,
        1.3128034
      ],
      [
        103.8396782,
        1.3127427
      ],
      [
        103.8402575,
        1.3124649
      ],
      [
        103.8413251,
        1.3119929
      ],
      [
        103.8416784,
        1.3118324
      ],
      [
        103.8418117,
        1.3117693
      ],
      [
        103.8418416,
        1.31174
      ],
      [
        103.8418669,
        1.3117152
      ],
      [
        103.8422961,
        1.3115217
      ],
      [
        103.8428136,
        1.3112741
      ],
      [
        103.8432053,
        1.3110867
      ],
      [
        103.8433072,
        1.3110379
      ],
      [
        103.8436255,
        1.3109067
      ],
      [
        103.8437218,
        1.3108746
      ],
      [
        103.8442177,
        1.3107101
      ],
      [
        103.8445168,
        1.3105951
      ],
      [
        103.8445727,
        1.3105764
      ],
      [
        103.8447703,
        1.3105324
      ],
      [
        103.8449045,
        1.3104975
      ],
      [
        103.8451123,
        1.3104385
      ],
      [
        103.8453269,
        1.3103581
      ],
      [
        103.845516,
        1.3102723
      ],
      [
        103.8457011,
        1.310157
      ],
      [
        103.8458057,
        1.3100712
      ],
      [
        103.8459331,
        1.3099478
      ],
      [
        103.8460082,
        1.3098607
      ],
      [
        103.8462549,
        1.309563
      ],
      [
        103.8464427,
        1.3093244
      ],
      [
        103.8465017,
        1.3092573
      ],
      [
        103.846657,
        1.3090614
      ],
      [
        103.846778,
        1.3089087
      ],
      [
        103.846845,
        1.3088323
      ],
      [
        103.847028,
        1.3085858
      ],
      [
        103.8470974,
        1.3084913
      ],
      [
        103.8474619,
        1.3080931
      ],
      [
        103.8479812,
        1.3076068
      ],
      [
        103.8480373,
        1.3075546
      ],
      [
        103.8482481,
        1.3073425
      ],
      [
        103.8485775,
        1.3069946
      ],
      [
        103.8488511,
        1.3067377
      ],
      [
        103.8493133,
        1.3063781
      ],
      [
        103.8493578,
        1.306343
      ],
      [
        103.8494485,
        1.3062695
      ],
      [
        103.8502045,
        1.3056467
      ],
      [
        103.8508098,
        1.3051492
      ],
      [
        103.8509109,
        1.305073
      ],
      [
        103.8509852,
        1.3052004
      ],
      [
        103.8510539,
        1.3053144
      ],
      [
        103.8512158,
        1.305583
      ],
      [
        103.8514552,
        1.306012
      ],
      [
        103.851485,
        1.3060576
      ],
      [
        103.8515057,
        1.3060894
      ],
      [
        103.8515245,
        1.3061159
      ],
      [
        103.8516328,
        1.3062688
      ],
      [
        103.8516888,
        1.3063655
      ],
      [
        103.8517806,
        1.3065101
      ],
      [
        103.8518369,
        1.3065924
      ],
      [
        103.851859,
        1.3066247
      ],
      [
        103.851894,
        1.3066758
      ],
      [
        103.8519603,
        1.3067851
      ],
      [
        103.8521945,
        1.3071435
      ],
      [
        103.8525294,
        1.3076592
      ],
      [
        103.8525438,
        1.3076803
      ],
      [
        103.8525739,
        1.3077242
      ],
      [
        103.8526225,
        1.3078013
      ],
      [
        103.8526802,
        1.3078869
      ],
      [
        103.8527915,
        1.3080533
      ],
      [
        103.852931,
        1.3082708
      ],
      [
        103.8530383,
        1.3084321
      ],
      [
        103.8533349,
        1.308889
      ],
      [
        103.8535181,
        1.3091653
      ],
      [
        103.8535374,
        1.3091992
      ],
      [
        103.8536491,
        1.3093698
      ],
      [
        103.8538417,
        1.3096646
      ],
      [
        103.8539544,
        1.3098293
      ],
      [
        103.8540477,
        1.3099704
      ],
      [
        103.8541177,
        1.3100744
      ],
      [
        103.8544006,
        1.3104887
      ],
      [
        103.8544571,
        1.3105714
      ],
      [
        103.8545359,
        1.3106868
      ],
      [
        103.8547233,
        1.3109219
      ],
      [
        103.8548474,
        1.3110781
      ],
      [
        103.8549991,
        1.3112866
      ],
      [
        103.8550348,
        1.3113291
      ],
      [
        103.8550478,
        1.3113465
      ],
      [
        103.8550635,
        1.3113688
      ],
      [
        103.8551225,
        1.3114516
      ],
      [
        103.8553167,
        1.3117284
      ],
      [
        103.8553675,
        1.3118005
      ],
      [
        103.855408,
        1.311857
      ],
      [
        103.8554569,
        1.3119231
      ],
      [
        103.855491,
        1.3119706
      ],
      [
        103.8557904,
        1.3123295
      ],
      [
        103.8559579,
        1.3125348
      ],
      [
        103.8559821,
        1.3125635
      ],
      [
        103.8561485,
        1.3127666
      ],
      [
        103.8565227,
        1.3132124
      ],
      [
        103.8566508,
        1.313365
      ],
      [
        103.8566893,
        1.3134109
      ],
      [
        103.857171,
        1.3140217
      ],
      [
        103.8572658,
        1.3141392
      ],
      [
        103.8574679,
        1.3143897
      ],
      [
        103.85754,
        1.314485
      ],
      [
        103.857621,
        1.3145922
      ],
      [
        103.8579261,
        1.3149792
      ],
      [
        103.8580138,
        1.3150903
      ],
      [
        103.8580495,
        1.3151356
      ],
      [
        103.8582337,
        1.3153631
      ],
      [
        103.8583374,
        1.3154914
      ],
      [
        103.8586828,
        1.3159177
      ],
      [
        103.8587654,
        1.3160196
      ],
      [
        103.85884,
        1.316109
      ],
      [
        103.8589275,
        1.3159977
      ],
      [
        103.8591102,
        1.3157652
      ],
      [
        103.8591995,
        1.3156492
      ],
      [
        103.8595812,
        1.3151346
      ],
      [
        103.8598576,
        1.3147552
      ],
      [
        103.8599589,
        1.3146058
      ],
      [
        103.8601347,
        1.3143791
      ],
      [
        103.8603346,
        1.3141238
      ],
      [
        103.8603993,
        1.3140413
      ],
      [
        103.8604911,
        1.3139144
      ],
      [
        103.8605569,
        1.3138235
      ],
      [
        103.8611117,
        1.3130664
      ],
      [
        103.8613477,
        1.3127487
      ],
      [
        103.8614832,
        1.3125596
      ],
      [
        103.8616269,
        1.3123441
      ],
      [
        103.8617849,
        1.3121353
      ],
      [
        103.8618379,
        1.3120669
      ],
      [
        103.8618811,
        1.3120158
      ],
      [
        103.8619939,
        1.3118824
      ],
      [
        103.8622314,
        1.3115746
      ],
      [
        103.86232,
        1.3114597
      ],
      [
        103.8625204,
        1.3111819
      ],
      [
        103.8626265,
        1.3110472
      ],
      [
        103.8627999,
        1.310827
      ],
      [
        103.8634161,
        1.3099427
      ],
      [
        103.8635381,
        1.3097771
      ],
      [
        103.8636081,
        1.309682
      ],
      [
        103.8637415,
        1.3094535
      ],
      [
        103.8638143,
        1.3093138
      ],
      [
        103.863865,
        1.309185
      ],
      [
        103.8638883,
        1.3091258
      ],
      [
        103.8639823,
        1.3090623
      ],
      [
        103.8640802,
        1.3089932
      ],
      [
        103.8641341,
        1.3089612
      ],
      [
        103.8641871,
        1.3089472
      ],
      [
        103.8642883,
        1.308913
      ],
      [
        103.8643514,
        1.3088918
      ],
      [
        103.8649808,
        1.309071
      ],
      [
        103.8656935,
        1.3092427
      ],
      [
        103.8657886,
        1.3092651
      ],
      [
        103.8660028,
        1.3093156
      ],
      [
        103.8669107,
        1.3095236
      ],
      [
        103.867171,
        1.3095778
      ],
      [
        103.8676717,
        1.3097038
      ],
      [
        103.8682088,
        1.3098779
      ],
      [
        103.868521,
        1.3099841
      ],
      [
        103.8686208,
        1.3100181
      ],
      [
        103.8688595,
        1.3100895
      ],
      [
        103.8693263,
        1.3102152
      ],
      [
        103.8693709,
        1.3102269
      ],
      [
        103.8698522,
        1.3103528
      ],
      [
        103.8703859,
        1.3104975
      ],
      [
        103.8708133,
        1.3106306
      ],
      [
        103.8708826,
        1.3106634
      ],
      [
        103.8709088,
        1.310676
      ],
      [
        103.8709926,
        1.3107155
      ],
      [
        103.8712545,
        1.3108716
      ],
      [
        103.871397,
        1.3109897
      ],
      [
        103.87148,
        1.3110557
      ],
      [
        103.8715209,
        1.3110882
      ],
      [
        103.8718325,
        1.3113462
      ],
      [
        103.871888,
        1.3113931
      ],
      [
        103.8720588,
        1.311523
      ],
      [
        103.8721651,
        1.3116046
      ],
      [
        103.8722478,
        1.3116621
      ],
      [
        103.8723365,
        1.3117231
      ],
      [
        103.8725681,
        1.3119035
      ],
      [
        103.8732232,
        1.3123538
      ],
      [
        103.8732541,
        1.3123706
      ],
      [
        103.8734009,
        1.312467
      ],
      [
        103.873537,
        1.3125548
      ],
      [
        103.8739455,
        1.3127903
      ],
      [
        103.874033,
        1.3128319
      ],
      [
        103.8742319,
        1.3129134
      ],
      [
        103.8745663,
        1.3130445
      ],
      [
        103.8748082,
        1.313122
      ],
      [
        103.8749355,
        1.3131627
      ],
      [
        103.8750656,
        1.3132004
      ],
      [
        103.8751319,
        1.3132219
      ],
      [
        103.8754429,
        1.3133181
      ],
      [
        103.8755232,
        1.3133453
      ],
      [
        103.8755431,
        1.3133515
      ],
      [
        103.8755952,
        1.3133678
      ],
      [
        103.8756384,
        1.3133816
      ],
      [
        103.8759285,
        1.3134758
      ],
      [
        103.8760804,
        1.3135273
      ],
      [
        103.8761493,
        1.3135499
      ],
      [
        103.8762064,
        1.3135659
      ],
      [
        103.8762389,
        1.3135771
      ],
      [
        103.8763244,
        1.3136066
      ],
      [
        103.8767515,
        1.313754
      ],
      [
        103.8768522,
        1.3137918
      ],
      [
        103.8768864,
        1.3138049
      ],
      [
        103.8771773,
        1.3139095
      ],
      [
        103.8772923,
        1.3139509
      ],
      [
        103.8774729,
        1.3140079
      ],
      [
        103.8776436,
        1.314069
      ],
      [
        103.877749,
        1.3141044
      ],
      [
        103.8778177,
        1.3141261
      ],
      [
        103.8779843,
        1.3141788
      ],
      [
        103.8782955,
        1.3142549
      ],
      [
        103.8783211,
        1.3142626
      ],
      [
        103.8784318,
        1.3142958
      ],
      [
        103.8784719,
        1.3143045
      ],
      [
        103.8785348,
        1.314317
      ],
      [
        103.8786427,
        1.3143341
      ],
      [
        103.8789437,
        1.3143972
      ],
      [
        103.8790762,
        1.3144189
      ],
      [
        103.8791141,
        1.3144273
      ],
      [
        103.8798881,
        1.3145991
      ],
      [
        103.879921,
        1.3146058
      ],
      [
        103.8799539,
        1.3146126
      ],
      [
        103.8806006,
        1.3147276
      ],
      [
        103.8806492,
        1.3147403
      ],
      [
        103.8807294,
        1.3147598
      ],
      [
        103.8809402,
        1.3147956
      ],
      [
        103.8812694,
        1.3148479
      ],
      [
        103.8813076,
        1.314854
      ],
      [
        103.8814607,
        1.3148825
      ],
      [
        103.8817124,
        1.3149321
      ],
      [
        103.881782,
        1.3149443
      ],
      [
        103.8818731,
        1.3149631
      ],
      [
        103.8819331,
        1.3149736
      ],
      [
        103.8820044,
        1.3149871
      ],
      [
        103.8821659,
        1.3150116
      ],
      [
        103.8822281,
        1.3150234
      ],
      [
        103.8824014,
        1.3150563
      ],
      [
        103.8824453,
        1.3150668
      ],
      [
        103.8827367,
        1.3151199
      ],
      [
        103.8829924,
        1.3151686
      ],
      [
        103.8830831,
        1.3151856
      ],
      [
        103.8831212,
        1.3151941
      ],
      [
        103.8834214,
        1.3152452
      ],
      [
        103.8837261,
        1.3153076
      ],
      [
        103.8837575,
        1.3153145
      ],
      [
        103.8846884,
        1.3154902
      ],
      [
        103.8848023,
        1.3155146
      ],
      [
        103.8848941,
        1.3155304
      ],
      [
        103.8849448,
        1.3155404
      ],
      [
        103.8852241,
        1.3155991
      ],
      [
        103.8854989,
        1.315654
      ],
      [
        103.8858014,
        1.3157144
      ],
      [
        103.8860619,
        1.3157628
      ],
      [
        103.8861178,
        1.315773
      ],
      [
        103.8861675,
        1.3157827
      ],
      [
        103.8863888,
        1.3158257
      ],
      [
        103.8865486,
        1.3158585
      ],
      [
        103.8865744,
        1.3158642
      ],
      [
        103.8867122,
        1.3158928
      ],
      [
        103.886749,
        1.3158989
      ],
      [
        103.8869695,
        1.315937
      ],
      [
        103.8877715,
        1.316071
      ],
      [
        103.8878158,
        1.3160769
      ],
      [
        103.8879303,
        1.3160913
      ],
      [
        103.8880459,
        1.3161194
      ],
      [
        103.8881524,
        1.3161425
      ],
      [
        103.8882915,
        1.3161666
      ],
      [
        103.8883241,
        1.3161756
      ],
      [
        103.8885807,
        1.3162127
      ],
      [
        103.8888102,
        1.3162578
      ],
      [
        103.8893602,
        1.3163609
      ],
      [
        103.8894202,
        1.3163722
      ],
      [
        103.8895659,
        1.3163995
      ],
      [
        103.8898896,
        1.3164543
      ],
      [
        103.8899746,
        1.3164687
      ],
      [
        103.8900298,
        1.3164786
      ],
      [
        103.8901573,
        1.3165014
      ],
      [
        103.8902827,
        1.3165235
      ],
      [
        103.8904142,
        1.316547
      ],
      [
        103.8904882,
        1.3165617
      ],
      [
        103.8905983,
        1.3165816
      ],
      [
        103.8906448,
        1.31659
      ],
      [
        103.890649,
        1.3165908
      ],
      [
        103.890677,
        1.3165959
      ],
      [
        103.890837,
        1.3166248
      ],
      [
        103.8911591,
        1.3166831
      ],
      [
        103.8912152,
        1.3166933
      ],
      [
        103.8912419,
        1.3166984
      ],
      [
        103.8916486,
        1.3167763
      ],
      [
        103.8918585,
        1.3168202
      ],
      [
        103.892155,
        1.3168901
      ],
      [
        103.8922266,
        1.3169065
      ],
      [
        103.8923629,
        1.3169357
      ],
      [
        103.8924634,
        1.3169472
      ],
      [
        103.892712,
        1.3169828
      ],
      [
        103.8927954,
        1.316995
      ],
      [
        103.8928912,
        1.3170109
      ],
      [
        103.8931312,
        1.3170404
      ],
      [
        103.8933148,
        1.3170664
      ],
      [
        103.8933724,
        1.3170745
      ],
      [
        103.8935253,
        1.3170912
      ],
      [
        103.8936257,
        1.3171021
      ],
      [
        103.8936918,
        1.3171093
      ],
      [
        103.893709,
        1.3171129
      ],
      [
        103.8938035,
        1.3171273
      ],
      [
        103.8939496,
        1.3171442
      ],
      [
        103.8945848,
        1.3172481
      ],
      [
        103.8947655,
        1.3172769
      ],
      [
        103.8949655,
        1.3173059
      ],
      [
        103.8951993,
        1.3173399
      ],
      [
        103.8955131,
        1.3173866
      ],
      [
        103.8956038,
        1.3174008
      ],
      [
        103.8957052,
        1.3174166
      ],
      [
        103.8964048,
        1.317524
      ],
      [
        103.8965732,
        1.3175486
      ],
      [
        103.8966982,
        1.3175674
      ],
      [
        103.8967271,
        1.3175718
      ],
      [
        103.896764,
        1.317579
      ],
      [
        103.8967966,
        1.3175854
      ],
      [
        103.8971958,
        1.3176546
      ],
      [
        103.8972908,
        1.3176819
      ],
      [
        103.8973417,
        1.3176917
      ],
      [
        103.8975633,
        1.3177341
      ],
      [
        103.8975884,
        1.3177389
      ],
      [
        103.8979881,
        1.3178213
      ],
      [
        103.8980094,
        1.3178254
      ],
      [
        103.8980267,
        1.3178287
      ],
      [
        103.8980801,
        1.3178389
      ],
      [
        103.8982957,
        1.3178802
      ],
      [
        103.8986597,
        1.3179529
      ],
      [
        103.8989778,
        1.3180164
      ],
      [
        103.8991872,
        1.3180606
      ],
      [
        103.8997118,
        1.3181712
      ],
      [
        103.899828,
        1.3181937
      ],
      [
        103.8998752,
        1.3182028
      ],
      [
        103.9003472,
        1.3182941
      ],
      [
        103.9004189,
        1.3183097
      ],
      [
        103.9009343,
        1.3184173
      ],
      [
        103.9015672,
        1.3185502
      ],
      [
        103.9018232,
        1.3185961
      ],
      [
        103.9025805,
        1.3187318
      ],
      [
        103.9026342,
        1.3187414
      ],
      [
        103.9026633,
        1.3187475
      ],
      [
        103.9030701,
        1.3188325
      ],
      [
        103.9031467,
        1.3188486
      ],
      [
        103.9032653,
        1.3188732
      ],
      [
        103.9035721,
        1.3189382
      ],
      [
        103.9038358,
        1.3189961
      ],
      [
        103.9038836,
        1.3190068
      ],
      [
        103.9039559,
        1.3190231
      ],
      [
        103.9040711,
        1.319051
      ],
      [
        103.9043891,
        1.319128
      ],
      [
        103.9046841,
        1.3192039
      ],
      [
        103.9048738,
        1.3192445
      ],
      [
        103.9049157,
        1.3192539
      ],
      [
        103.905065,
        1.3192761
      ],
      [
        103.9051748,
        1.3192975
      ],
      [
        103.905568,
        1.319374
      ],
      [
        103.9057935,
        1.3194032
      ],
      [
        103.906374,
        1.3194819
      ],
      [
        103.9064353,
        1.3194928
      ],
      [
        103.9066999,
        1.3195262
      ],
      [
        103.907302,
        1.3196066
      ],
      [
        103.9076429,
        1.3196713
      ],
      [
        103.9077296,
        1.3196902
      ],
      [
        103.9077856,
        1.3197023
      ],
      [
        103.9078827,
        1.3197232
      ],
      [
        103.9083443,
        1.3198078
      ],
      [
        103.908756,
        1.319888
      ],
      [
        103.9088589,
        1.319908
      ],
      [
        103.9093812,
        1.3200265
      ],
      [
        103.9095101,
        1.3200551
      ],
      [
        103.9100459,
        1.3201711
      ],
      [
        103.9103588,
        1.3202363
      ],
      [
        103.9104197,
        1.320249
      ],
      [
        103.910494,
        1.3202644
      ],
      [
        103.910642,
        1.3202944
      ],
      [
        103.9109343,
        1.3203524
      ],
      [
        103.9110269,
        1.3203735
      ],
      [
        103.9114479,
        1.3204702
      ],
      [
        103.9114616,
        1.3204729
      ],
      [
        103.9117995,
        1.320538
      ],
      [
        103.9122607,
        1.3206288
      ],
      [
        103.9127885,
        1.3207374
      ],
      [
        103.9128147,
        1.3207427
      ],
      [
        103.9132933,
        1.3208475
      ],
      [
        103.9136531,
        1.3209239
      ],
      [
        103.9137008,
        1.3209333
      ],
      [
        103.9137826,
        1.3209499
      ],
      [
        103.9138344,
        1.32096
      ],
      [
        103.914,
        1.320989
      ],
      [
        103.9146225,
        1.3211036
      ],
      [
        103.915265,
        1.3211843
      ],
      [
        103.9153688,
        1.3211987
      ],
      [
        103.915924,
        1.3212524
      ],
      [
        103.9161533,
        1.3212651
      ],
      [
        103.9163506,
        1.3212635
      ],
      [
        103.9167726,
        1.3212705
      ],
      [
        103.9177407,
        1.3212333
      ],
      [
        103.9183777,
        1.3211981
      ],
      [
        103.9183917,
        1.3211996
      ],
      [
        103.9187916,
        1.3212412
      ],
      [
        103.9190083,
        1.321288
      ],
      [
        103.9191237,
        1.3213209
      ],
      [
        103.9194575,
        1.3214478
      ],
      [
        103.919655,
        1.3215277
      ],
      [
        103.9197422,
        1.3215631
      ],
      [
        103.9199103,
        1.3216231
      ],
      [
        103.919958,
        1.3216405
      ],
      [
        103.9201361,
        1.3217028
      ],
      [
        103.9203797,
        1.3217898
      ],
      [
        103.9209601,
        1.321997
      ],
      [
        103.922334,
        1.3224642
      ],
      [
        103.922459,
        1.3225061
      ],
      [
        103.9228387,
        1.3226367
      ],
      [
        103.9231669,
        1.3227437
      ],
      [
        103.9232156,
        1.322758
      ],
      [
        103.9233461,
        1.3228038
      ],
      [
        103.9233764,
        1.3228123
      ],
      [
        103.9234736,
        1.3228411
      ],
      [
        103.9235978,
        1.322878
      ],
      [
        103.9240693,
        1.3230069
      ],
      [
        103.924267,
        1.3230523
      ],
      [
        103.9244804,
        1.3231038
      ],
      [
        103.9246667,
        1.3231461
      ],
      [
        103.9253801,
        1.3232816
      ],
      [
        103.9258342,
        1.3233774
      ],
      [
        103.9261942,
        1.3234317
      ],
      [
        103.9266508,
        1.3235189
      ],
      [
        103.9268585,
        1.323553
      ],
      [
        103.9271264,
        1.3235958
      ],
      [
        103.9272262,
        1.3236086
      ],
      [
        103.9273632,
        1.3236293
      ],
      [
        103.9274853,
        1.3236457
      ],
      [
        103.9276884,
        1.3236764
      ],
      [
        103.9279032,
        1.3237146
      ],
      [
        103.9281073,
        1.3237509
      ],
      [
        103.9282985,
        1.3237849
      ],
      [
        103.9287212,
        1.323879
      ],
      [
        103.9291134,
        1.323962
      ],
      [
        103.9294249,
        1.3240328
      ],
      [
        103.9299323,
        1.3241286
      ],
      [
        103.9304297,
        1.3242035
      ],
      [
        103.9306136,
        1.3242224
      ],
      [
        103.9308633,
        1.324248
      ],
      [
        103.9309162,
        1.3242517
      ],
      [
        103.9309479,
        1.324255
      ],
      [
        103.9310511,
        1.3242626
      ],
      [
        103.9313299,
        1.3242831
      ],
      [
        103.931831,
        1.3243144
      ],
      [
        103.9318491,
        1.3243155
      ],
      [
        103.9318807,
        1.3243174
      ],
      [
        103.9323934,
        1.3243421
      ],
      [
        103.93269,
        1.3243645
      ],
      [
        103.9327184,
        1.3243662
      ],
      [
        103.9329386,
        1.3243774
      ],
      [
        103.9332681,
        1.3244152
      ],
      [
        103.9333771,
        1.3244312
      ],
      [
        103.9345184,
        1.3245725
      ],
      [
        103.935004,
        1.3246367
      ],
      [
        103.9353373,
        1.324674
      ],
      [
        103.9354319,
        1.3247289
      ],
      [
        103.9354708,
        1.3247689
      ],
      [
        103.9354846,
        1.3247853
      ],
      [
        103.9354984,
        1.3248054
      ],
      [
        103.9355191,
        1.3248361
      ],
      [
        103.9355465,
        1.3249089
      ],
      [
        103.9354081,
        1.3256826
      ],
      [
        103.9353528,
        1.3259918
      ],
      [
        103.9353383,
        1.326073
      ],
      [
        103.9352605,
        1.3264902
      ],
      [
        103.9352131,
        1.3267445
      ],
      [
        103.9351432,
        1.3271195
      ],
      [
        103.935091,
        1.3273996
      ],
      [
        103.9350544,
        1.3275956
      ],
      [
        103.935026,
        1.3277469
      ],
      [
        103.9350129,
        1.3278183
      ],
      [
        103.9349995,
        1.3278833
      ],
      [
        103.9349724,
        1.3280191
      ],
      [
        103.9347919,
        1.3288919
      ],
      [
        103.9347124,
        1.3292783
      ],
      [
        103.9346217,
        1.3297168
      ],
      [
        103.9345768,
        1.3299365
      ],
      [
        103.9345633,
        1.3299975
      ],
      [
        103.9344584,
        1.3304729
      ],
      [
        103.9344299,
        1.330602
      ],
      [
        103.9342871,
        1.3312364
      ],
      [
        103.9342688,
        1.3313253
      ],
      [
        103.9342433,
        1.3314484
      ],
      [
        103.9342179,
        1.3315626
      ],
      [
        103.9342077,
        1.3316171
      ],
      [
        103.9341834,
        1.3317506
      ],
      [
        103.9340485,
        1.3324796
      ],
      [
        103.9340129,
        1.3326745
      ],
      [
        103.9339071,
        1.3332448
      ],
      [
        103.9338414,
        1.3336151
      ],
      [
        103.9338161,
        1.3337378
      ],
      [
        103.9337513,
        1.3340884
      ],
      [
        103.9337252,
        1.3342296
      ],
      [
        103.9336476,
        1.3346497
      ],
      [
        103.9336065,
        1.3348725
      ],
      [
        103.9335596,
        1.335126
      ],
      [
        103.933534,
        1.3352648
      ],
      [
        103.9334939,
        1.3354819
      ],
      [
        103.9334512,
        1.3356763
      ],
      [
        103.933372,
        1.3359824
      ],
      [
        103.9333179,
        1.3361849
      ],
      [
        103.9332358,
        1.3365163
      ],
      [
        103.9332107,
        1.3366225
      ],
      [
        103.9331887,
        1.3367146
      ],
      [
        103.9331562,
        1.336884
      ],
      [
        103.9331122,
        1.3370963
      ],
      [
        103.9330133,
        1.3376271
      ],
      [
        103.9329777,
        1.3377925
      ],
      [
        103.9329643,
        1.3378546
      ],
      [
        103.9329526,
        1.3379069
      ],
      [
        103.9329337,
        1.3380044
      ],
      [
        103.9330272,
        1.3380233
      ],
      [
        103.9330867,
        1.3380363
      ],
      [
        103.933365,
        1.3380975
      ],
      [
        103.9335434,
        1.3381484
      ],
      [
        103.9338016,
        1.3382322
      ],
      [
        103.9340182,
        1.3383167
      ],
      [
        103.9342508,
        1.3384172
      ],
      [
        103.934392,
        1.3384933
      ],
      [
        103.9344598,
        1.3385299
      ],
      [
        103.9345266,
        1.338568
      ],
      [
        103.9346142,
        1.338627
      ],
      [
        103.9347366,
        1.3387079
      ],
      [
        103.9348677,
        1.3388239
      ],
      [
        103.9350135,
        1.3389697
      ],
      [
        103.9351238,
        1.3390827
      ],
      [
        103.9352734,
        1.3392358
      ],
      [
        103.9353265,
        1.33929
      ],
      [
        103.935667,
        1.3396335
      ],
      [
        103.9357457,
        1.3397072
      ],
      [
        103.93599,
        1.3400186
      ],
      [
        103.9361412,
        1.3401883
      ],
      [
        103.9362676,
        1.3403381
      ],
      [
        103.9364513,
        1.3406194
      ],
      [
        103.9366379,
        1.3409034
      ],
      [
        103.9366982,
        1.3409979
      ],
      [
        103.9367493,
        1.3410779
      ],
      [
        103.9367723,
        1.3411141
      ],
      [
        103.9368524,
        1.3412456
      ],
      [
        103.937376,
        1.3422762
      ],
      [
        103.9377918,
        1.3430671
      ],
      [
        103.9378144,
        1.34311
      ],
      [
        103.9378675,
        1.343196
      ],
      [
        103.9378863,
        1.3432324
      ],
      [
        103.9380147,
        1.3434812
      ],
      [
        103.9381084,
        1.343681
      ],
      [
        103.9381885,
        1.3438573
      ],
      [
        103.9382347,
        1.3439994
      ],
      [
        103.9382612,
        1.344097
      ],
      [
        103.9383058,
        1.3443468
      ],
      [
        103.9383214,
        1.3446294
      ],
      [
        103.9383227,
        1.3446522
      ],
      [
        103.9383241,
        1.3446783
      ],
      [
        103.9383309,
        1.3448481
      ],
      [
        103.9384379,
        1.3448475
      ],
      [
        103.9384806,
        1.3448479
      ],
      [
        103.9386503,
        1.3448499
      ],
      [
        103.9394127,
        1.3448587
      ],
      [
        103.9395261,
        1.3448662
      ],
      [
        103.9396354,
        1.3448783
      ],
      [
        103.939837,
        1.3449101
      ],
      [
        103.9401382,
        1.3449669
      ],
      [
        103.9406584,
        1.345099
      ],
      [
        103.9407102,
        1.3451122
      ],
      [
        103.9408918,
        1.3451814
      ],
      [
        103.9412333,
        1.3453368
      ],
      [
        103.9415584,
        1.3454965
      ],
      [
        103.9419944,
        1.3457477
      ],
      [
        103.9421432,
        1.3458436
      ],
      [
        103.9421903,
        1.3458772
      ],
      [
        103.9422983,
        1.3459592
      ],
      [
        103.9423931,
        1.3460978
      ],
      [
        103.9424687,
        1.346235
      ],
      [
        103.942498,
        1.3463728
      ],
      [
        103.942503,
        1.3463966
      ],
      [
        103.9424897,
        1.3465565
      ],
      [
        103.9424438,
        1.346731
      ],
      [
        103.9423433,
        1.347028
      ],
      [
        103.9422523,
        1.3472253
      ],
      [
        103.9421734,
        1.3474417
      ],
      [
        103.9420938,
        1.3476753
      ],
      [
        103.9420742,
        1.3477327
      ],
      [
        103.9419788,
        1.3481368
      ],
      [
        103.9419441,
        1.3482837
      ],
      [
        103.941644,
        1.3495631
      ],
      [
        103.9416236,
        1.3496499
      ],
      [
        103.9415742,
        1.3498226
      ],
      [
        103.941527,
        1.3500722
      ],
      [
        103.9414863,
        1.3503241
      ],
      [
        103.9414707,
        1.3504302
      ],
      [
        103.9414164,
        1.3510617
      ],
      [
        103.9414165,
        1.3511217
      ],
      [
        103.9414097,
        1.3514397
      ],
      [
        103.9414012,
        1.351626
      ],
      [
        103.9413999,
        1.351688
      ],
      [
        103.9413955,
        1.3517953
      ],
      [
        103.9413899,
        1.3518487
      ],
      [
        103.9413941,
        1.3521573
      ],
      [
        103.9413996,
        1.3532377
      ],
      [
        103.9413964,
        1.3533438
      ],
      [
        103.9413982,
        1.3539777
      ],
      [
        103.9413983,
        1.3540467
      ],
      [
        103.9413986,
        1.3541282
      ],
      [
        103.9415231,
        1.3541292
      ],
      [
        103.9416368,
        1.3541305
      ],
      [
        103.9424057,
        1.3541317
      ],
      [
        103.9424718,
        1.3541323
      ],
      [
        103.942541,
        1.3541344
      ],
      [
        103.9425411,
        1.354065
      ],
      [
        103.9425514,
        1.3539838
      ],
      [
        103.9425802,
        1.3538841
      ],
      [
        103.9426248,
        1.3537917
      ],
      [
        103.9426965,
        1.3536961
      ],
      [
        103.9427915,
        1.3535947
      ],
      [
        103.9429077,
        1.3534833
      ],
      [
        103.9429735,
        1.3534169
      ],
      [
        103.9430151,
        1.353455
      ],
      [
        103.9431651,
        1.3535938
      ],
      [
        103.9431999,
        1.3536257
      ],
      [
        103.9432187,
        1.3536431
      ],
      [
        103.9432932,
        1.3537066
      ],
      [
        103.9433999,
        1.3538498
      ],
      [
        103.9438699,
        1.354325
      ],
      [
        103.9439222,
        1.3543452
      ],
      [
        103.9439772,
        1.3543552
      ],
      [
        103.9440411,
        1.3543499
      ],
      [
        103.944129,
        1.3542595
      ],
      [
        103.9441945,
        1.3541922
      ],
      [
        103.9442088,
        1.3541233
      ],
      [
        103.9442052,
        1.3540633
      ],
      [
        103.9441728,
        1.3540033
      ],
      [
        103.9439273,
        1.3537543
      ],
      [
        103.9438736,
        1.3537252
      ],
      [
        103.9438246,
        1.3537022
      ],
      [
        103.9435622,
        1.3537044
      ],
      [
        103.9432932,
        1.3537066
      ]
    ]
  }
}