{
  "type": "Feature",
  "properties": {
    "relation": 19869125,
    "direction": "2",
    "fee": "yes",
    "from": "Saint Joseph Institute Junior",
    "name": "Svc 681 (Saint Joseph Institute Junior → Opposite Blk 477A)",
    "name:en": "Svc 681 (Saint Joseph Institute Junior → Opposite Blk 477A)",
    "network": "Land Transport Authority",
    "network:short": "LTA",
    "network:wikidata": "Q3299279",
    "network:wikipedia": "en:Land Transport Authority",
    "operator": "SBS Transit",
    "operator:wikidata": "Q2661305",
    "operator:wikipedia": "en:SBS Transit",
    "public_transport:version": "2",
    "ref": "681",
    "route": "bus",
    "to": "Opposite Blk 477A",
    "type": "route",
    "website": "https://www.sbstransit.com.sg/"
  },
  "geometry": {
    "type": "LineString",
    "coordinates": [
      [
        103.8459526,
        1.3183958
      ],
      [
        103.845937,
        1.3183949
      ],
      [
        103.8456817,
        1.3183797
      ],
      [
        103.845588,
        1.3183688
      ],
      [
        103.8455614,
        1.3183684
      ],
      [
        103.8454845,
        1.318373
      ],
      [
        103.8452731,
        1.3183901
      ],
      [
        103.8451281,
        1.3184157
      ],
      [
        103.8448172,
        1.3184651
      ],
      [
        103.8445392,
        1.318523
      ],
      [
        103.8443887,
        1.3185457
      ],
      [
        103.844305,
        1.3185525
      ],
      [
        103.8442346,
        1.3185514
      ],
      [
        103.8441531,
        1.3185433
      ],
      [
        103.8440378,
        1.3185201
      ],
      [
        103.8438783,
        1.3184837
      ],
      [
        103.8438255,
        1.3186018
      ],
      [
        103.8437973,
        1.3186587
      ],
      [
        103.8437442,
        1.3187426
      ],
      [
        103.8434515,
        1.319162
      ],
      [
        103.8430915,
        1.3190729
      ],
      [
        103.8430143,
        1.3190483
      ],
      [
        103.8429327,
        1.3190222
      ],
      [
        103.8428551,
        1.3189919
      ],
      [
        103.8427918,
        1.3189561
      ],
      [
        103.8427222,
        1.318897
      ],
      [
        103.8426348,
        1.3188188
      ],
      [
        103.8423774,
        1.3185924
      ],
      [
        103.8421941,
        1.3184058
      ],
      [
        103.8420114,
        1.3182409
      ],
      [
        103.8419083,
        1.3181053
      ],
      [
        103.8418616,
        1.3180438
      ],
      [
        103.8417965,
        1.3179229
      ],
      [
        103.8417704,
        1.3178745
      ],
      [
        103.841662,
        1.3175669
      ],
      [
        103.8416441,
        1.3174983
      ],
      [
        103.8416353,
        1.3174665
      ],
      [
        103.8416017,
        1.3173458
      ],
      [
        103.8414277,
        1.3167015
      ],
      [
        103.8413802,
        1.3165002
      ],
      [
        103.841326,
        1.3162692
      ],
      [
        103.8411948,
        1.3157706
      ],
      [
        103.8411685,
        1.3156837
      ],
      [
        103.8411628,
        1.3156648
      ],
      [
        103.8411131,
        1.3154751
      ],
      [
        103.841096,
        1.3154114
      ],
      [
        103.8410377,
        1.3152103
      ],
      [
        103.84099,
        1.315046
      ],
      [
        103.8408684,
        1.3147977
      ],
      [
        103.8408378,
        1.3147352
      ],
      [
        103.8408159,
        1.3146904
      ],
      [
        103.8408084,
        1.3146751
      ],
      [
        103.8406455,
        1.314449
      ],
      [
        103.8403752,
        1.3141622
      ],
      [
        103.840142,
        1.3139608
      ],
      [
        103.8397822,
        1.3136492
      ],
      [
        103.8395794,
        1.3134759
      ],
      [
        103.8395341,
        1.3134124
      ],
      [
        103.8395288,
        1.3133638
      ],
      [
        103.8395387,
        1.3133266
      ],
      [
        103.8395876,
        1.313226
      ],
      [
        103.8396075,
        1.3131602
      ],
      [
        103.8396198,
        1.3130973
      ],
      [
        103.8396211,
        1.3130308
      ],
      [
        103.8396205,
        1.3130105
      ],
      [
        103.8395816,
        1.3129223
      ],
      [
        103.8395052,
        1.3128144
      ],
      [
        103.8393411,
        1.3126731
      ],
      [
        103.839239,
        1.3126126
      ],
      [
        103.8391799,
        1.3125898
      ],
      [
        103.8391022,
        1.3125787
      ],
      [
        103.8390029,
        1.3125737
      ],
      [
        103.8389211,
        1.3125965
      ],
      [
        103.8388551,
        1.3126266
      ],
      [
        103.8388059,
        1.31266
      ],
      [
        103.8387138,
        1.3126263
      ],
      [
        103.8386084,
        1.3125928
      ],
      [
        103.8384631,
        1.3125016
      ],
      [
        103.8379933,
        1.3121916
      ],
      [
        103.8377213,
        1.3120167
      ],
      [
        103.8372414,
        1.3116941
      ],
      [
        103.8370703,
        1.3115812
      ],
      [
        103.8365906,
        1.3112661
      ],
      [
        103.8365404,
        1.3112327
      ],
      [
        103.8362154,
        1.311016
      ],
      [
        103.8357473,
        1.310704
      ],
      [
        103.835604,
        1.3106084
      ],
      [
        103.8355211,
        1.3105624
      ],
      [
        103.8350818,
        1.3103058
      ],
      [
        103.834848,
        1.3101692
      ],
      [
        103.8344212,
        1.3099136
      ],
      [
        103.8342904,
        1.3098073
      ],
      [
        103.8339908,
        1.3094131
      ],
      [
        103.833931,
        1.309284
      ],
      [
        103.8338456,
        1.3090788
      ],
      [
        103.8337827,
        1.3089412
      ],
      [
        103.833654,
        1.3086384
      ],
      [
        103.8334183,
        1.3080989
      ],
      [
        103.8333922,
        1.308036
      ],
      [
        103.8333186,
        1.3078575
      ],
      [
        103.833056,
        1.3072314
      ],
      [
        103.8330161,
        1.3071363
      ],
      [
        103.8329732,
        1.307034
      ],
      [
        103.8329194,
        1.3069058
      ],
      [
        103.8326052,
        1.3061951
      ],
      [
        103.8324939,
        1.3059591
      ],
      [
        103.8324142,
        1.305792
      ],
      [
        103.8323845,
        1.3057342
      ],
      [
        103.8323388,
        1.3056564
      ],
      [
        103.8322287,
        1.3054926
      ],
      [
        103.8321501,
        1.305233
      ],
      [
        103.8321361,
        1.3051408
      ],
      [
        103.8321291,
        1.3050556
      ],
      [
        103.8321373,
        1.3049879
      ],
      [
        103.8321688,
        1.3049132
      ],
      [
        103.8322688,
        1.3048036
      ],
      [
        103.8322866,
        1.3047841
      ],
      [
        103.8323264,
        1.3047617
      ],
      [
        103.8324948,
        1.3046666
      ],
      [
        103.8325992,
        1.304608
      ],
      [
        103.8329914,
        1.3043877
      ],
      [
        103.8332644,
        1.3042467
      ],
      [
        103.8337941,
        1.3039729
      ],
      [
        103.8341395,
        1.3037979
      ],
      [
        103.8342408,
        1.3037465
      ],
      [
        103.8343481,
        1.3036921
      ],
      [
        103.8343779,
        1.303677
      ],
      [
        103.8346182,
        1.3035484
      ],
      [
        103.8347183,
        1.3034936
      ],
      [
        103.8351571,
        1.3032537
      ],
      [
        103.8357661,
        1.3029095
      ],
      [
        103.8358887,
        1.3028412
      ],
      [
        103.8359878,
        1.302781
      ],
      [
        103.8359941,
        1.3027776
      ],
      [
        103.8361317,
        1.3027055
      ],
      [
        103.8361674,
        1.3026855
      ],
      [
        103.836584,
        1.3024526
      ],
      [
        103.8373803,
        1.3020054
      ],
      [
        103.8374798,
        1.3019496
      ],
      [
        103.8375571,
        1.3019062
      ],
      [
        103.8377859,
        1.3017933
      ],
      [
        103.8379684,
        1.3017149
      ],
      [
        103.8381377,
        1.3016407
      ],
      [
        103.8387816,
        1.3013408
      ],
      [
        103.8388956,
        1.3012973
      ],
      [
        103.8389486,
        1.3012785
      ],
      [
        103.8395454,
        1.3010774
      ],
      [
        103.8398974,
        1.3009661
      ],
      [
        103.8400133,
        1.3009327
      ],
      [
        103.8405638,
        1.3007732
      ],
      [
        103.8406704,
        1.3007427
      ],
      [
        103.841123,
        1.3005966
      ],
      [
        103.8412588,
        1.3005494
      ],
      [
        103.8419492,
        1.3003426
      ],
      [
        103.8428421,
        1.3000755
      ],
      [
        103.8428649,
        1.3000691
      ],
      [
        103.8429499,
        1.3000417
      ],
      [
        103.8431335,
        1.2999773
      ],
      [
        103.8435446,
        1.2998446
      ],
      [
        103.8436685,
        1.2998015
      ],
      [
        103.8438222,
        1.299748
      ],
      [
        103.8439846,
        1.2996931
      ],
      [
        103.8442578,
        1.2996008
      ],
      [
        103.844592,
        1.2994879
      ],
      [
        103.8448857,
        1.29939
      ],
      [
        103.845461,
        1.299203
      ],
      [
        103.8457049,
        1.2991257
      ],
      [
        103.8457167,
        1.299122
      ],
      [
        103.845733,
        1.2991169
      ],
      [
        103.8457575,
        1.2991091
      ],
      [
        103.8458124,
        1.2990917
      ],
      [
        103.8463783,
        1.298908
      ],
      [
        103.8465819,
        1.2988347
      ],
      [
        103.8467733,
        1.2987639
      ],
      [
        103.8469449,
        1.2987223
      ],
      [
        103.8471133,
        1.2986962
      ],
      [
        103.8473037,
        1.2986888
      ],
      [
        103.8473514,
        1.2986907
      ],
      [
        103.8474666,
        1.2986928
      ],
      [
        103.8475317,
        1.2986942
      ],
      [
        103.8480493,
        1.2987257
      ],
      [
        103.848166,
        1.2987297
      ],
      [
        103.8483779,
        1.2987243
      ],
      [
        103.8485388,
        1.2986801
      ],
      [
        103.8485558,
        1.2986733
      ],
      [
        103.848595,
        1.2986574
      ],
      [
        103.8486566,
        1.2986176
      ],
      [
        103.8487115,
        1.2985833
      ],
      [
        103.8487849,
        1.2985263
      ],
      [
        103.849494,
        1.2979713
      ],
      [
        103.8495583,
        1.2979207
      ],
      [
        103.8495898,
        1.2978959
      ],
      [
        103.8496064,
        1.2978828
      ],
      [
        103.8497208,
        1.2977928
      ],
      [
        103.8499544,
        1.2976056
      ],
      [
        103.850139,
        1.2974549
      ],
      [
        103.8502759,
        1.2973461
      ],
      [
        103.8503328,
        1.2973008
      ],
      [
        103.8506353,
        1.2970604
      ],
      [
        103.8506786,
        1.297026
      ],
      [
        103.8508325,
        1.2969036
      ],
      [
        103.8508556,
        1.2968853
      ],
      [
        103.8510876,
        1.2967008
      ],
      [
        103.8511117,
        1.2966816
      ],
      [
        103.8518683,
        1.2960619
      ],
      [
        103.8519011,
        1.2960284
      ],
      [
        103.8520195,
        1.2959364
      ],
      [
        103.8520509,
        1.2959104
      ],
      [
        103.8523784,
        1.2956728
      ],
      [
        103.8525329,
        1.2955563
      ],
      [
        103.8528475,
        1.2953191
      ],
      [
        103.8530449,
        1.2951699
      ],
      [
        103.8531036,
        1.2951261
      ],
      [
        103.8532241,
        1.2950321
      ],
      [
        103.8534533,
        1.2948623
      ],
      [
        103.8538919,
        1.2945341
      ],
      [
        103.8540128,
        1.294437
      ],
      [
        103.8541121,
        1.2943592
      ],
      [
        103.8542348,
        1.294267
      ],
      [
        103.8545651,
        1.2940015
      ],
      [
        103.8546543,
        1.2939345
      ],
      [
        103.8547866,
        1.2938316
      ],
      [
        103.8553292,
        1.2934669
      ],
      [
        103.8555354,
        1.2934257
      ],
      [
        103.8557383,
        1.2934386
      ],
      [
        103.8558215,
        1.2934626
      ],
      [
        103.8559207,
        1.2935082
      ],
      [
        103.8559959,
        1.2935603
      ],
      [
        103.8560902,
        1.2936106
      ],
      [
        103.8563465,
        1.2940077
      ],
      [
        103.8565627,
        1.2943647
      ],
      [
        103.8565824,
        1.2943972
      ],
      [
        103.8567824,
        1.2947274
      ],
      [
        103.8568064,
        1.2947667
      ],
      [
        103.8570184,
        1.2951135
      ],
      [
        103.8570577,
        1.2951778
      ],
      [
        103.8570983,
        1.2952441
      ],
      [
        103.8572918,
        1.2955465
      ],
      [
        103.8573402,
        1.2956223
      ],
      [
        103.8574563,
        1.2957821
      ],
      [
        103.8575544,
        1.295901
      ],
      [
        103.8576815,
        1.2960535
      ],
      [
        103.857877,
        1.2962993
      ],
      [
        103.8583911,
        1.2968643
      ],
      [
        103.8584845,
        1.2969572
      ],
      [
        103.8593114,
        1.2977805
      ],
      [
        103.8595095,
        1.2979655
      ],
      [
        103.8597136,
        1.2981504
      ],
      [
        103.8599249,
        1.2983277
      ],
      [
        103.8599722,
        1.2983674
      ],
      [
        103.8605131,
        1.2987866
      ],
      [
        103.8615617,
        1.299543
      ],
      [
        103.8620786,
        1.2999357
      ],
      [
        103.8621612,
        1.2999924
      ],
      [
        103.8627931,
        1.3004728
      ],
      [
        103.8631535,
        1.3007442
      ],
      [
        103.8631798,
        1.3007631
      ],
      [
        103.8633113,
        1.3008612
      ],
      [
        103.8634966,
        1.300996
      ],
      [
        103.8644332,
        1.3016729
      ],
      [
        103.8652217,
        1.3022387
      ],
      [
        103.86639,
        1.3029812
      ],
      [
        103.8693997,
        1.3049602
      ],
      [
        103.8696242,
        1.3051053
      ],
      [
        103.8698439,
        1.3052472
      ],
      [
        103.8700221,
        1.3053709
      ],
      [
        103.8702145,
        1.3055044
      ],
      [
        103.8706494,
        1.3057745
      ],
      [
        103.8710355,
        1.3060308
      ],
      [
        103.8711847,
        1.3061367
      ],
      [
        103.8714887,
        1.3063273
      ],
      [
        103.8715002,
        1.3063506
      ],
      [
        103.8716018,
        1.3064605
      ],
      [
        103.8718115,
        1.3065863
      ],
      [
        103.8722402,
        1.3067839
      ],
      [
        103.8726104,
        1.306899
      ],
      [
        103.8734295,
        1.3069732
      ],
      [
        103.8735599,
        1.3069889
      ],
      [
        103.873855,
        1.3070222
      ],
      [
        103.8741048,
        1.3070503
      ],
      [
        103.8744262,
        1.3070879
      ],
      [
        103.8745819,
        1.3071061
      ],
      [
        103.8746682,
        1.3071162
      ],
      [
        103.8750484,
        1.3072051
      ],
      [
        103.8751422,
        1.3072386
      ],
      [
        103.8753769,
        1.3073271
      ],
      [
        103.8756371,
        1.3074491
      ],
      [
        103.8758718,
        1.3076073
      ],
      [
        103.8759375,
        1.307685
      ],
      [
        103.8759823,
        1.3078191
      ],
      [
        103.875991,
        1.3079664
      ],
      [
        103.8759719,
        1.3082777
      ],
      [
        103.8757766,
        1.3091145
      ],
      [
        103.8757561,
        1.3092218
      ],
      [
        103.8755261,
        1.3101967
      ],
      [
        103.875174,
        1.3118253
      ],
      [
        103.8748255,
        1.3137922
      ],
      [
        103.8748039,
        1.313914
      ],
      [
        103.8747747,
        1.3141441
      ],
      [
        103.874747,
        1.3143614
      ],
      [
        103.8746439,
        1.3151726
      ],
      [
        103.8745647,
        1.3163443
      ],
      [
        103.8746958,
        1.317461
      ],
      [
        103.874938,
        1.3182539
      ],
      [
        103.8750055,
        1.3184978
      ],
      [
        103.8751402,
        1.3188146
      ],
      [
        103.8753484,
        1.3191976
      ],
      [
        103.8757988,
        1.3197073
      ],
      [
        103.8766369,
        1.3203694
      ],
      [
        103.8768939,
        1.3205471
      ],
      [
        103.8777028,
        1.3209566
      ],
      [
        103.8831429,
        1.3232666
      ],
      [
        103.8837437,
        1.3237042
      ],
      [
        103.8840699,
        1.3241504
      ],
      [
        103.8845946,
        1.3260254
      ],
      [
        103.8846809,
        1.3266999
      ],
      [
        103.8848168,
        1.3284767
      ],
      [
        103.8848476,
        1.3292133
      ],
      [
        103.8848596,
        1.3293901
      ],
      [
        103.8848747,
        1.3295947
      ],
      [
        103.884931,
        1.3299305
      ],
      [
        103.8850397,
        1.3303259
      ],
      [
        103.8853131,
        1.3308084
      ],
      [
        103.8856345,
        1.331152
      ],
      [
        103.8858665,
        1.3313011
      ],
      [
        103.886365,
        1.3315956
      ],
      [
        103.8866048,
        1.3317296
      ],
      [
        103.8876971,
        1.3324664
      ],
      [
        103.8888329,
        1.3330946
      ],
      [
        103.8907945,
        1.3340286
      ],
      [
        103.8934649,
        1.3355488
      ],
      [
        103.8942619,
        1.3360409
      ],
      [
        103.8949519,
        1.3367093
      ],
      [
        103.895659,
        1.337365
      ],
      [
        103.8960977,
        1.3377741
      ],
      [
        103.8962386,
        1.3379055
      ],
      [
        103.8964158,
        1.3380839
      ],
      [
        103.8967192,
        1.3383893
      ],
      [
        103.8968084,
        1.3384791
      ],
      [
        103.8971856,
        1.339014
      ],
      [
        103.8977716,
        1.3400295
      ],
      [
        103.8980691,
        1.340623
      ],
      [
        103.8983735,
        1.3412114
      ],
      [
        103.8985982,
        1.341777
      ],
      [
        103.8988619,
        1.3427312
      ],
      [
        103.8989427,
        1.3431261
      ],
      [
        103.8990061,
        1.3436634
      ],
      [
        103.8990495,
        1.3440509
      ],
      [
        103.8990439,
        1.3445188
      ],
      [
        103.898968,
        1.3450715
      ],
      [
        103.8987856,
        1.3457295
      ],
      [
        103.8985714,
        1.3463714
      ],
      [
        103.8985194,
        1.346527
      ],
      [
        103.89826,
        1.3473823
      ],
      [
        103.898189,
        1.3480759
      ],
      [
        103.898275,
        1.3488159
      ],
      [
        103.8984886,
        1.349569
      ],
      [
        103.899893,
        1.3529881
      ],
      [
        103.9019377,
        1.3571326
      ],
      [
        103.9021334,
        1.3574986
      ],
      [
        103.902635,
        1.3584545
      ],
      [
        103.902873,
        1.3588956
      ],
      [
        103.9030984,
        1.3593445
      ],
      [
        103.9033417,
        1.3598167
      ],
      [
        103.9034062,
        1.3600178
      ],
      [
        103.9034346,
        1.3600868
      ],
      [
        103.9034668,
        1.3601568
      ],
      [
        103.9037153,
        1.3607989
      ],
      [
        103.9040525,
        1.3614909
      ],
      [
        103.904485,
        1.3623278
      ],
      [
        103.9044832,
        1.3624737
      ],
      [
        103.9044621,
        1.3625862
      ],
      [
        103.9044117,
        1.3626762
      ],
      [
        103.9043512,
        1.362729
      ],
      [
        103.9043265,
        1.3627422
      ],
      [
        103.9041025,
        1.3627973
      ],
      [
        103.9034301,
        1.3627004
      ],
      [
        103.9030718,
        1.3626488
      ],
      [
        103.9026508,
        1.3624275
      ],
      [
        103.9020451,
        1.3622949
      ],
      [
        103.9017351,
        1.3622438
      ],
      [
        103.9014262,
        1.3621928
      ],
      [
        103.9011825,
        1.3621549
      ],
      [
        103.9009407,
        1.362122
      ],
      [
        103.9007142,
        1.3620862
      ],
      [
        103.8998126,
        1.3619292
      ],
      [
        103.8972345,
        1.3616058
      ],
      [
        103.8965866,
        1.3616899
      ],
      [
        103.896335,
        1.3617304
      ],
      [
        103.8961848,
        1.3617366
      ],
      [
        103.8958125,
        1.3617131
      ],
      [
        103.895501,
        1.3616717
      ],
      [
        103.8954667,
        1.3616675
      ],
      [
        103.8953588,
        1.3616562
      ],
      [
        103.8952832,
        1.361648
      ],
      [
        103.8951098,
        1.3616291
      ],
      [
        103.8945048,
        1.3615602
      ],
      [
        103.8941552,
        1.3615127
      ],
      [
        103.8940008,
        1.3614879
      ],
      [
        103.8937727,
        1.3614561
      ],
      [
        103.8931795,
        1.3614071
      ],
      [
        103.8931295,
        1.3614013
      ],
      [
        103.8929514,
        1.3613763
      ],
      [
        103.8929389,
        1.3615059
      ],
      [
        103.8929316,
        1.3615761
      ],
      [
        103.8928194,
        1.3626523
      ],
      [
        103.8927918,
        1.3628953
      ],
      [
        103.8927817,
        1.3629435
      ],
      [
        103.8927305,
        1.3631494
      ],
      [
        103.8926577,
        1.3633512
      ],
      [
        103.8926076,
        1.3634899
      ],
      [
        103.8923614,
        1.363919
      ],
      [
        103.8921936,
        1.3641673
      ],
      [
        103.8918381,
        1.3645556
      ],
      [
        103.8915676,
        1.3648854
      ],
      [
        103.8913103,
        1.3651329
      ],
      [
        103.8911458,
        1.3653211
      ],
      [
        103.8909713,
        1.365511
      ],
      [
        103.8909255,
        1.3655549
      ],
      [
        103.8908415,
        1.3656405
      ],
      [
        103.8909289,
        1.3657275
      ],
      [
        103.8909715,
        1.3657733
      ],
      [
        103.8911916,
        1.3659836
      ],
      [
        103.891623,
        1.3663921
      ],
      [
        103.8917959,
        1.3665559
      ],
      [
        103.8919533,
        1.3667049
      ],
      [
        103.891966,
        1.3667748
      ],
      [
        103.8919749,
        1.3668317
      ],
      [
        103.8919764,
        1.3668946
      ],
      [
        103.8919588,
        1.366965
      ],
      [
        103.8918939,
        1.3670444
      ],
      [
        103.8914906,
        1.3673698
      ],
      [
        103.8910462,
        1.3677486
      ],
      [
        103.8908977,
        1.3678591
      ],
      [
        103.8907851,
        1.3679427
      ],
      [
        103.8904928,
        1.3682069
      ],
      [
        103.8902325,
        1.368499
      ],
      [
        103.8900045,
        1.3688099
      ],
      [
        103.889781,
        1.3691723
      ],
      [
        103.8897474,
        1.3692363
      ],
      [
        103.8897142,
        1.369295
      ],
      [
        103.8897992,
        1.3693467
      ],
      [
        103.8898582,
        1.3693869
      ],
      [
        103.8900326,
        1.369486
      ],
      [
        103.8903035,
        1.3696556
      ],
      [
        103.8904002,
        1.3698032
      ],
      [
        103.8904964,
        1.3700174
      ],
      [
        103.8906587,
        1.3702479
      ],
      [
        103.8907003,
        1.370301
      ],
      [
        103.8907638,
        1.3703545
      ],
      [
        103.8908494,
        1.3704446
      ],
      [
        103.8909675,
        1.3705722
      ],
      [
        103.8911301,
        1.3707385
      ],
      [
        103.8911967,
        1.3708144
      ],
      [
        103.8912413,
        1.3708583
      ],
      [
        103.8912745,
        1.3709193
      ],
      [
        103.891357,
        1.3710399
      ],
      [
        103.8915072,
        1.3712192
      ],
      [
        103.8915606,
        1.3712446
      ],
      [
        103.8915945,
        1.3712577
      ],
      [
        103.8917736,
        1.3713274
      ],
      [
        103.8920085,
        1.3713685
      ],
      [
        103.89258,
        1.3713712
      ],
      [
        103.8928736,
        1.371367
      ],
      [
        103.8930776,
        1.3713682
      ],
      [
        103.8931346,
        1.371362
      ],
      [
        103.893209,
        1.371334
      ],
      [
        103.8932828,
        1.3712895
      ],
      [
        103.8933002,
        1.371279
      ],
      [
        103.8937186,
        1.3708818
      ],
      [
        103.8938825,
        1.370715
      ],
      [
        103.8939912,
        1.3705587
      ],
      [
        103.8940235,
        1.3704521
      ],
      [
        103.8940333,
        1.3702747
      ],
      [
        103.8940411,
        1.3701954
      ],
      [
        103.8940439,
        1.3701487
      ],
      [
        103.8940512,
        1.3701026
      ],
      [
        103.8940892,
        1.3699867
      ],
      [
        103.8941503,
        1.3699074
      ],
      [
        103.8942188,
        1.3698111
      ],
      [
        103.8943827,
        1.3695999
      ],
      [
        103.8945722,
        1.3694854
      ],
      [
        103.8946339,
        1.3694779
      ],
      [
        103.8947007,
        1.3694818
      ],
      [
        103.8948216,
        1.3695244
      ],
      [
        103.8951999,
        1.3698786
      ],
      [
        103.8952401,
        1.3699202
      ],
      [
        103.8953118,
        1.3699908
      ],
      [
        103.8956099,
        1.3702648
      ],
      [
        103.8956795,
        1.3703288
      ],
      [
        103.8956885,
        1.3703371
      ],
      [
        103.8958937,
        1.3705257
      ],
      [
        103.8962522,
        1.3708557
      ],
      [
        103.8967005,
        1.3712553
      ],
      [
        103.8968399,
        1.3713897
      ],
      [
        103.8969058,
        1.3714532
      ],
      [
        103.897271,
        1.3718006
      ],
      [
        103.8977241,
        1.372211
      ],
      [
        103.8978041,
        1.372282
      ],
      [
        103.8983496,
        1.3727642
      ],
      [
        103.8986528,
        1.3730196
      ],
      [
        103.8987089,
        1.3730677
      ],
      [
        103.8987729,
        1.3731203
      ],
      [
        103.8988893,
        1.3732212
      ],
      [
        103.8989747,
        1.3733026
      ],
      [
        103.8992444,
        1.3735758
      ],
      [
        103.8992787,
        1.3736107
      ],
      [
        103.8993437,
        1.3736765
      ],
      [
        103.8993939,
        1.3737267
      ],
      [
        103.8996125,
        1.3739445
      ],
      [
        103.8997378,
        1.3740581
      ],
      [
        103.8999885,
        1.3742983
      ],
      [
        103.9000983,
        1.3744059
      ],
      [
        103.9004248,
        1.3747036
      ],
      [
        103.9005821,
        1.3748675
      ],
      [
        103.9006132,
        1.3749037
      ],
      [
        103.9008471,
        1.3751218
      ],
      [
        103.9010624,
        1.3753423
      ],
      [
        103.9012043,
        1.3754736
      ],
      [
        103.9020903,
        1.3763166
      ],
      [
        103.9022782,
        1.3765274
      ],
      [
        103.9024724,
        1.3767722
      ],
      [
        103.9027114,
        1.3770452
      ],
      [
        103.9028348,
        1.3772502
      ],
      [
        103.9028655,
        1.3773011
      ],
      [
        103.9029045,
        1.3773658
      ],
      [
        103.9029249,
        1.377399
      ],
      [
        103.9030197,
        1.3775519
      ],
      [
        103.9030416,
        1.377598
      ],
      [
        103.9031299,
        1.3777838
      ],
      [
        103.9032394,
        1.3780363
      ],
      [
        103.903296,
        1.3781922
      ],
      [
        103.9033498,
        1.3783691
      ],
      [
        103.9034156,
        1.3786231
      ],
      [
        103.9034485,
        1.3787625
      ],
      [
        103.9035185,
        1.3792704
      ]
    ]
  }
}