{
  "type": "Feature",
  "properties": {
    "relation": 12980686,
    "direction": "1",
    "fee": "yes",
    "from": "Tampines Interchange",
    "name": "Svc 68B (Tampines Interchange → Reebonz Building)",
    "network": "Land Transport Authority",
    "network:short": "LTA",
    "network:wikidata": "Q3299279",
    "network:wikipedia": "en:Land Transport Authority",
    "operator": "Go-Ahead Singapore",
    "operator:wikidata": "Q24698874",
    "operator:wikipedia": "en:Go-Ahead Singapore",
    "public_transport:version": "2",
    "ref": "68B",
    "route": "bus",
    "to": "Reebonz Building",
    "type": "route",
    "website": "https://go-aheadsingapore.com/bus-services/"
  },
  "geometry": {
    "type": "LineString",
    "coordinates": [
      [
        103.9434895,
        1.3548843
      ],
      [
        103.9435506,
        1.3547662
      ],
      [
        103.9436213,
        1.3546287
      ],
      [
        103.9436472,
        1.354583
      ],
      [
        103.943647,
        1.3545493
      ],
      [
        103.9436302,
        1.3545253
      ],
      [
        103.9434061,
        1.3543026
      ],
      [
        103.9431003,
        1.3539963
      ],
      [
        103.9430264,
        1.3540247
      ],
      [
        103.9430019,
        1.3540914
      ],
      [
        103.9429956,
        1.3542446
      ],
      [
        103.9429853,
        1.3544914
      ],
      [
        103.9430158,
        1.3546427
      ],
      [
        103.9430903,
        1.3547532
      ],
      [
        103.9431709,
        1.354833
      ],
      [
        103.9432027,
        1.3548645
      ],
      [
        103.942933,
        1.355131
      ],
      [
        103.9428826,
        1.3551813
      ],
      [
        103.9428309,
        1.355241
      ],
      [
        103.9427831,
        1.3552866
      ],
      [
        103.9426827,
        1.3553823
      ],
      [
        103.9424135,
        1.3556527
      ],
      [
        103.9422409,
        1.355836
      ],
      [
        103.9421009,
        1.3559824
      ],
      [
        103.9419948,
        1.3560934
      ],
      [
        103.9415126,
        1.3565358
      ],
      [
        103.941148,
        1.3568996
      ],
      [
        103.9410367,
        1.3570063
      ],
      [
        103.9410244,
        1.3570181
      ],
      [
        103.9409721,
        1.35707
      ],
      [
        103.9409122,
        1.3571294
      ],
      [
        103.9408504,
        1.3571941
      ],
      [
        103.9406855,
        1.3573705
      ],
      [
        103.9405531,
        1.3575153
      ],
      [
        103.9402889,
        1.3577889
      ],
      [
        103.9401281,
        1.3579685
      ],
      [
        103.9400828,
        1.3580191
      ],
      [
        103.9400155,
        1.358084
      ],
      [
        103.9399667,
        1.3581328
      ],
      [
        103.9397895,
        1.3583097
      ],
      [
        103.9395965,
        1.3584956
      ],
      [
        103.9394373,
        1.3586489
      ],
      [
        103.9393553,
        1.3587851
      ],
      [
        103.9393016,
        1.3589491
      ],
      [
        103.9392642,
        1.359298
      ],
      [
        103.9392859,
        1.3595329
      ],
      [
        103.9392827,
        1.3596678
      ],
      [
        103.9392991,
        1.3598875
      ],
      [
        103.9392969,
        1.3599583
      ],
      [
        103.9392972,
        1.36004
      ],
      [
        103.9392637,
        1.3601189
      ],
      [
        103.9392227,
        1.3601733
      ],
      [
        103.9392019,
        1.3602056
      ],
      [
        103.9391578,
        1.3602459
      ],
      [
        103.9391079,
        1.3602666
      ],
      [
        103.9389862,
        1.3603167
      ],
      [
        103.9388228,
        1.3603216
      ],
      [
        103.9384372,
        1.3603215
      ],
      [
        103.9382098,
        1.3603109
      ],
      [
        103.9381309,
        1.36031
      ],
      [
        103.9380482,
        1.3603118
      ],
      [
        103.9380449,
        1.3604545
      ],
      [
        103.9380434,
        1.3605286
      ],
      [
        103.9380368,
        1.3607967
      ],
      [
        103.9380053,
        1.3619618
      ],
      [
        103.9379999,
        1.3622152
      ],
      [
        103.9379972,
        1.3622829
      ],
      [
        103.9379935,
        1.3624131
      ],
      [
        103.9379922,
        1.3626832
      ],
      [
        103.937992,
        1.3627369
      ],
      [
        103.937991,
        1.3628283
      ],
      [
        103.9379902,
        1.3629037
      ],
      [
        103.937988,
        1.3631148
      ],
      [
        103.9379819,
        1.3636835
      ],
      [
        103.9379783,
        1.3637685
      ],
      [
        103.9379665,
        1.3638755
      ],
      [
        103.9379458,
        1.3639935
      ],
      [
        103.9379062,
        1.3641498
      ],
      [
        103.9378501,
        1.364301
      ],
      [
        103.9377779,
        1.3644452
      ],
      [
        103.9376299,
        1.3646963
      ],
      [
        103.9375071,
        1.3648494
      ],
      [
        103.9373843,
        1.3650024
      ],
      [
        103.9373672,
        1.3650237
      ],
      [
        103.9373488,
        1.3650467
      ],
      [
        103.9373046,
        1.3651018
      ],
      [
        103.9372502,
        1.3651705
      ],
      [
        103.9372117,
        1.3652194
      ],
      [
        103.9367782,
        1.3657695
      ],
      [
        103.9365582,
        1.3660594
      ],
      [
        103.9363557,
        1.3663232
      ],
      [
        103.9362337,
        1.3664626
      ],
      [
        103.9361545,
        1.3665163
      ],
      [
        103.9360754,
        1.3665417
      ],
      [
        103.9359285,
        1.366538
      ],
      [
        103.9357951,
        1.3664801
      ],
      [
        103.9354557,
        1.3663264
      ],
      [
        103.9349006,
        1.366165
      ],
      [
        103.9347665,
        1.3661315
      ],
      [
        103.9344529,
        1.3660685
      ],
      [
        103.9343815,
        1.3660562
      ],
      [
        103.9342989,
        1.3660505
      ],
      [
        103.9342285,
        1.3660384
      ],
      [
        103.9340162,
        1.3660229
      ],
      [
        103.9333258,
        1.3660174
      ]
    ]
  }
}