{
  "type": "Feature",
  "properties": {
    "relation": 1147202,
    "direction": "1",
    "fee": "yes",
    "from": "Pasir Ris Interchange",
    "name": "Svc 6 (Pasir Ris Interchange ↺ Loyang Crescent)",
    "name:en": "Svc 6 (Pasir Ris Interchange ↺ Loyang Crescent)",
    "network": "Land Transport Authority",
    "network:short": "LTA",
    "network:wikidata": "Q3299279",
    "network:wikipedia": "en:Land Transport Authority",
    "operator": "Go-Ahead Singapore",
    "operator:wikidata": "Q24698874",
    "operator:wikipedia": "en:Go-Ahead Singapore",
    "public_transport:version": "2",
    "ref": "6",
    "roundtrip": "yes",
    "route": "bus",
    "to": "Pasir Ris Interchange",
    "type": "route",
    "via": "Loyang Crescent",
    "website": "https://go-aheadsingapore.com/bus-services/"
  },
  "geometry": {
    "type": "LineString",
    "coordinates": [
      [
        103.9485976,
        1.3735437
      ],
      [
        103.9485175,
        1.3735669
      ],
      [
        103.9484386,
        1.3736764
      ],
      [
        103.9484088,
        1.3737805
      ],
      [
        103.9484229,
        1.3739023
      ],
      [
        103.9484646,
        1.3740787
      ],
      [
        103.9485192,
        1.3742512
      ],
      [
        103.9485761,
        1.3744308
      ],
      [
        103.9486404,
        1.3746339
      ],
      [
        103.9486862,
        1.3747786
      ],
      [
        103.9487038,
        1.3748343
      ],
      [
        103.9487311,
        1.3748618
      ],
      [
        103.9487827,
        1.3748628
      ],
      [
        103.9489614,
        1.374809
      ],
      [
        103.9492107,
        1.374734
      ],
      [
        103.9492107,
        1.374734
      ],
      [
        103.9492813,
        1.3749702
      ],
      [
        103.9492647,
        1.3749088
      ],
      [
        103.9493175,
        1.3750796
      ],
      [
        103.9497279,
        1.3750688
      ],
      [
        103.9498874,
        1.3750318
      ],
      [
        103.949945,
        1.375022
      ],
      [
        103.9501773,
        1.3749838
      ],
      [
        103.9505464,
        1.3749485
      ],
      [
        103.9510212,
        1.3749301
      ],
      [
        103.9511345,
        1.374929
      ],
      [
        103.9512397,
        1.3749286
      ],
      [
        103.951308,
        1.3749314
      ],
      [
        103.951636,
        1.3749591
      ],
      [
        103.9521098,
        1.3750272
      ],
      [
        103.9524404,
        1.375074
      ],
      [
        103.9524826,
        1.37508
      ],
      [
        103.9525104,
        1.3750846
      ],
      [
        103.9525853,
        1.3750945
      ],
      [
        103.9526076,
        1.3750985
      ],
      [
        103.9529046,
        1.3751402
      ],
      [
        103.9533163,
        1.3751923
      ],
      [
        103.9534092,
        1.3752015
      ],
      [
        103.9541549,
        1.3752684
      ],
      [
        103.9543404,
        1.375286
      ],
      [
        103.9547851,
        1.3753562
      ],
      [
        103.9552504,
        1.3754303
      ],
      [
        103.9553757,
        1.3754426
      ],
      [
        103.9554675,
        1.3754568
      ],
      [
        103.956017,
        1.3755297
      ],
      [
        103.9561145,
        1.3755424
      ],
      [
        103.95621,
        1.3755501
      ],
      [
        103.9562898,
        1.3755541
      ],
      [
        103.9565241,
        1.3755676
      ],
      [
        103.9566552,
        1.3755792
      ],
      [
        103.9571159,
        1.3756034
      ],
      [
        103.9575938,
        1.3756061
      ],
      [
        103.9585597,
        1.3755916
      ],
      [
        103.95879,
        1.3755819
      ],
      [
        103.9589911,
        1.3755717
      ],
      [
        103.9590806,
        1.3755658
      ],
      [
        103.9591579,
        1.3755577
      ],
      [
        103.9593324,
        1.3755333
      ],
      [
        103.9597406,
        1.375483
      ],
      [
        103.9604602,
        1.375335
      ],
      [
        103.9607196,
        1.3752883
      ],
      [
        103.9611352,
        1.375215
      ],
      [
        103.9612816,
        1.375185
      ],
      [
        103.9613897,
        1.3751661
      ],
      [
        103.961522,
        1.3751436
      ],
      [
        103.9621552,
        1.3750359
      ],
      [
        103.9624917,
        1.3749599
      ],
      [
        103.9627223,
        1.3748866
      ],
      [
        103.9629355,
        1.3747835
      ],
      [
        103.963263,
        1.374565
      ],
      [
        103.9634601,
        1.374399
      ],
      [
        103.9636177,
        1.3742197
      ],
      [
        103.9636938,
        1.3740986
      ],
      [
        103.9637428,
        1.3740011
      ],
      [
        103.963773,
        1.3739276
      ],
      [
        103.9638527,
        1.3737499
      ],
      [
        103.963897,
        1.3736103
      ],
      [
        103.9639391,
        1.3733758
      ],
      [
        103.9639454,
        1.3731584
      ],
      [
        103.9639278,
        1.3729705
      ],
      [
        103.9638799,
        1.3722499
      ],
      [
        103.9638304,
        1.3715061
      ],
      [
        103.9638341,
        1.3713847
      ],
      [
        103.963832,
        1.3712904
      ],
      [
        103.9637887,
        1.3706099
      ],
      [
        103.9637961,
        1.3704257
      ],
      [
        103.9638387,
        1.3701674
      ],
      [
        103.9639068,
        1.3699463
      ],
      [
        103.9640369,
        1.3696741
      ],
      [
        103.964667,
        1.3686265
      ],
      [
        103.9647335,
        1.3685046
      ],
      [
        103.9649051,
        1.3682324
      ],
      [
        103.9650371,
        1.3680181
      ],
      [
        103.9650883,
        1.3679303
      ],
      [
        103.9651402,
        1.3678483
      ],
      [
        103.9651783,
        1.3677867
      ],
      [
        103.9652537,
        1.3676402
      ],
      [
        103.9653307,
        1.367499
      ],
      [
        103.9655047,
        1.3672302
      ],
      [
        103.9655993,
        1.3670977
      ],
      [
        103.9657846,
        1.3668028
      ],
      [
        103.9660185,
        1.3664754
      ],
      [
        103.9661144,
        1.3663483
      ],
      [
        103.966315,
        1.3661348
      ],
      [
        103.9664167,
        1.3660936
      ],
      [
        103.9665274,
        1.3660804
      ],
      [
        103.9666147,
        1.3660652
      ],
      [
        103.9667661,
        1.366049
      ],
      [
        103.9668347,
        1.3660784
      ],
      [
        103.96691,
        1.3661273
      ],
      [
        103.9693942,
        1.3686302
      ],
      [
        103.9695129,
        1.3689521
      ],
      [
        103.9695718,
        1.3691506
      ],
      [
        103.9695959,
        1.3692979
      ],
      [
        103.9695907,
        1.3694159
      ],
      [
        103.9695498,
        1.3695631
      ],
      [
        103.9694954,
        1.3696567
      ],
      [
        103.9694672,
        1.3697541
      ],
      [
        103.9689206,
        1.3703301
      ],
      [
        103.9688524,
        1.3704048
      ],
      [
        103.968814,
        1.3704439
      ],
      [
        103.9687594,
        1.3704979
      ],
      [
        103.9689938,
        1.3707317
      ],
      [
        103.9692135,
        1.3709508
      ],
      [
        103.9692928,
        1.3710299
      ],
      [
        103.969389,
        1.3711258
      ],
      [
        103.9696874,
        1.3714235
      ],
      [
        103.9697326,
        1.3714685
      ],
      [
        103.9698523,
        1.3715879
      ],
      [
        103.96993,
        1.3716659
      ],
      [
        103.9702378,
        1.3719751
      ],
      [
        103.9706091,
        1.3723479
      ],
      [
        103.9706972,
        1.3724364
      ],
      [
        103.9707603,
        1.3724997
      ],
      [
        103.9714904,
        1.3732328
      ],
      [
        103.9716911,
        1.3734343
      ],
      [
        103.9719741,
        1.3737185
      ],
      [
        103.9721267,
        1.3738717
      ],
      [
        103.9726155,
        1.3743625
      ],
      [
        103.9731557,
        1.3749049
      ],
      [
        103.9732848,
        1.3750346
      ],
      [
        103.9734592,
        1.3752097
      ],
      [
        103.9735302,
        1.375281
      ],
      [
        103.9735896,
        1.3753406
      ],
      [
        103.9736561,
        1.3754074
      ],
      [
        103.9737102,
        1.3754617
      ],
      [
        103.9744947,
        1.3762507
      ],
      [
        103.9746302,
        1.3763872
      ],
      [
        103.9753549,
        1.3771175
      ],
      [
        103.9754311,
        1.3771943
      ],
      [
        103.9760156,
        1.3777834
      ],
      [
        103.9760502,
        1.3778197
      ],
      [
        103.9761598,
        1.3779348
      ],
      [
        103.9761883,
        1.3779647
      ],
      [
        103.976303,
        1.3780275
      ],
      [
        103.9764082,
        1.3781522
      ],
      [
        103.9765087,
        1.3783195
      ],
      [
        103.9765628,
        1.378474
      ],
      [
        103.9765818,
        1.3786013
      ],
      [
        103.9765797,
        1.3787164
      ],
      [
        103.9765662,
        1.3788533
      ],
      [
        103.9765298,
        1.3789664
      ],
      [
        103.9764817,
        1.3790965
      ],
      [
        103.9763874,
        1.3792994
      ],
      [
        103.9763278,
        1.3794275
      ],
      [
        103.9761901,
        1.3796729
      ],
      [
        103.9761359,
        1.3797694
      ],
      [
        103.9760455,
        1.3799515
      ],
      [
        103.9760175,
        1.3800079
      ],
      [
        103.9756769,
        1.3805549
      ],
      [
        103.9756371,
        1.3806241
      ],
      [
        103.9755802,
        1.3807232
      ],
      [
        103.975469,
        1.3809089
      ],
      [
        103.9753348,
        1.3811379
      ],
      [
        103.9753006,
        1.3811962
      ],
      [
        103.9751834,
        1.3814041
      ],
      [
        103.9750782,
        1.3815907
      ],
      [
        103.9750564,
        1.3816294
      ],
      [
        103.9750233,
        1.3816882
      ],
      [
        103.9749559,
        1.3818077
      ],
      [
        103.9748843,
        1.3819319
      ],
      [
        103.974786,
        1.3821006
      ],
      [
        103.9744488,
        1.3827282
      ],
      [
        103.9742795,
        1.3830265
      ],
      [
        103.9740637,
        1.3834207
      ],
      [
        103.9740203,
        1.3834952
      ],
      [
        103.9739532,
        1.3836078
      ],
      [
        103.973798,
        1.3838759
      ],
      [
        103.9737105,
        1.3840146
      ],
      [
        103.9735635,
        1.3843019
      ],
      [
        103.9734815,
        1.3844336
      ],
      [
        103.9734576,
        1.3844679
      ],
      [
        103.9734171,
        1.3845261
      ],
      [
        103.9731957,
        1.38491
      ],
      [
        103.9731294,
        1.3850131
      ],
      [
        103.9727613,
        1.3854117
      ],
      [
        103.9726974,
        1.3854759
      ],
      [
        103.9724697,
        1.3857094
      ],
      [
        103.9719607,
        1.385171
      ],
      [
        103.9720758,
        1.3852926
      ],
      [
        103.9723983,
        1.3856335
      ],
      [
        103.9724697,
        1.3857094
      ],
      [
        103.9713996,
        1.3842278
      ],
      [
        103.9714378,
        1.3844481
      ],
      [
        103.971498,
        1.3845959
      ],
      [
        103.9715946,
        1.3847594
      ],
      [
        103.9717991,
        1.3849948
      ],
      [
        103.9718554,
        1.3850597
      ],
      [
        103.9715211,
        1.3834181
      ],
      [
        103.9715102,
        1.3834399
      ],
      [
        103.9714219,
        1.3836161
      ],
      [
        103.9713719,
        1.3838326
      ],
      [
        103.9713652,
        1.383952
      ],
      [
        103.9715977,
        1.3832844
      ],
      [
        103.9715329,
        1.3833946
      ],
      [
        103.9718585,
        1.3828416
      ],
      [
        103.9718056,
        1.3829308
      ],
      [
        103.9721273,
        1.3823632
      ],
      [
        103.9720036,
        1.3825761
      ],
      [
        103.9719947,
        1.3825935
      ],
      [
        103.9719297,
        1.3827213
      ],
      [
        103.9722309,
        1.3821752
      ],
      [
        103.9723261,
        1.3820056
      ],
      [
        103.9723643,
        1.3819366
      ],
      [
        103.9730917,
        1.3806541
      ],
      [
        103.9726731,
        1.381379
      ],
      [
        103.9731722,
        1.3805147
      ],
      [
        103.9733992,
        1.3801079
      ],
      [
        103.9736321,
        1.3796928
      ],
      [
        103.9746287,
        1.3779126
      ],
      [
        103.9744607,
        1.3782115
      ],
      [
        103.9744075,
        1.378306
      ],
      [
        103.9743569,
        1.378396
      ],
      [
        103.9741272,
        1.3788044
      ],
      [
        103.9740173,
        1.3789999
      ],
      [
        103.9747659,
        1.3777152
      ],
      [
        103.9752824,
        1.3771909
      ],
      [
        103.9748398,
        1.3776387
      ],
      [
        103.9753549,
        1.3771175
      ],
      [
        103.9747208,
        1.3763667
      ],
      [
        103.9744256,
        1.3760595
      ],
      [
        103.9737666,
        1.3754139
      ],
      [
        103.9737052,
        1.3753534
      ],
      [
        103.9735806,
        1.3752308
      ],
      [
        103.9735086,
        1.3751583
      ],
      [
        103.9729177,
        1.3745635
      ],
      [
        103.9726713,
        1.3743154
      ],
      [
        103.9721862,
        1.3738271
      ],
      [
        103.9717435,
        1.3733815
      ],
      [
        103.9715413,
        1.3731779
      ],
      [
        103.9706766,
        1.3723075
      ],
      [
        103.9703373,
        1.3719589
      ],
      [
        103.9699863,
        1.3716126
      ],
      [
        103.9699085,
        1.3715343
      ],
      [
        103.9697887,
        1.3714149
      ],
      [
        103.9692668,
        1.370895
      ],
      [
        103.9689187,
        1.3705482
      ],
      [
        103.9688955,
        1.3704499
      ],
      [
        103.9689003,
        1.3703923
      ],
      [
        103.9689206,
        1.3703301
      ],
      [
        103.9689206,
        1.3703301
      ],
      [
        103.9695427,
        1.369671
      ],
      [
        103.969591,
        1.3695718
      ],
      [
        103.9696231,
        1.3694163
      ],
      [
        103.9696285,
        1.3692929
      ],
      [
        103.9696017,
        1.3691441
      ],
      [
        103.9695461,
        1.3689415
      ],
      [
        103.9694743,
        1.3687432
      ],
      [
        103.9693942,
        1.3686302
      ],
      [
        103.9693942,
        1.3686302
      ],
      [
        103.9668659,
        1.3660258
      ],
      [
        103.9666786,
        1.3658507
      ],
      [
        103.9666186,
        1.3657946
      ],
      [
        103.9665627,
        1.3657424
      ],
      [
        103.9664706,
        1.36584
      ],
      [
        103.9663994,
        1.3659155
      ],
      [
        103.966206,
        1.3661205
      ],
      [
        103.9660991,
        1.3662626
      ],
      [
        103.9658878,
        1.3665218
      ],
      [
        103.9657684,
        1.3666823
      ],
      [
        103.9654837,
        1.3671276
      ],
      [
        103.9653298,
        1.3673575
      ],
      [
        103.9650792,
        1.3677241
      ],
      [
        103.9650374,
        1.3677936
      ],
      [
        103.9649842,
        1.3678745
      ],
      [
        103.9649368,
        1.367945
      ],
      [
        103.9648547,
        1.3680712
      ],
      [
        103.964712,
        1.3683137
      ],
      [
        103.9639371,
        1.369631
      ],
      [
        103.9637884,
        1.3699452
      ],
      [
        103.9637033,
        1.3702858
      ],
      [
        103.9636873,
        1.3706446
      ],
      [
        103.963724,
        1.3711564
      ],
      [
        103.9637335,
        1.3713273
      ],
      [
        103.9637426,
        1.3715054
      ],
      [
        103.9637518,
        1.3716854
      ],
      [
        103.9638247,
        1.3729693
      ],
      [
        103.9638293,
        1.3732231
      ],
      [
        103.9638234,
        1.3734007
      ],
      [
        103.9637586,
        1.373622
      ],
      [
        103.9636642,
        1.3738735
      ],
      [
        103.9636269,
        1.3739541
      ],
      [
        103.9635714,
        1.3740476
      ],
      [
        103.9633884,
        1.3742854
      ],
      [
        103.9631495,
        1.3745138
      ],
      [
        103.9628514,
        1.3746864
      ],
      [
        103.9627164,
        1.374744
      ],
      [
        103.9626255,
        1.3747828
      ],
      [
        103.9621519,
        1.374928
      ],
      [
        103.9619112,
        1.3749679
      ],
      [
        103.9618527,
        1.3749812
      ],
      [
        103.9614998,
        1.3750387
      ],
      [
        103.9613631,
        1.375061
      ],
      [
        103.961254,
        1.3750791
      ],
      [
        103.961113,
        1.3751075
      ],
      [
        103.9599789,
        1.375318
      ],
      [
        103.9597104,
        1.3753682
      ],
      [
        103.9591506,
        1.3754419
      ],
      [
        103.9590723,
        1.375447
      ],
      [
        103.9589871,
        1.375451
      ],
      [
        103.9587111,
        1.3754649
      ],
      [
        103.9577144,
        1.375484
      ],
      [
        103.9570113,
        1.3754687
      ],
      [
        103.9565421,
        1.3754415
      ],
      [
        103.9562995,
        1.3754274
      ],
      [
        103.9562206,
        1.3754241
      ],
      [
        103.9561376,
        1.3754176
      ],
      [
        103.9560443,
        1.3754067
      ],
      [
        103.9558663,
        1.3753881
      ],
      [
        103.9554423,
        1.3753436
      ],
      [
        103.9543768,
        1.3752075
      ],
      [
        103.954349,
        1.3752045
      ],
      [
        103.9534852,
        1.3751118
      ],
      [
        103.9533817,
        1.3751007
      ],
      [
        103.9532637,
        1.3750885
      ],
      [
        103.9529224,
        1.3750339
      ],
      [
        103.9526203,
        1.3749926
      ],
      [
        103.9525978,
        1.374989
      ],
      [
        103.952494,
        1.3749767
      ],
      [
        103.9524502,
        1.3749705
      ],
      [
        103.9524276,
        1.3749673
      ],
      [
        103.9521351,
        1.374926
      ],
      [
        103.9519254,
        1.3748977
      ],
      [
        103.9516278,
        1.3748575
      ],
      [
        103.9513023,
        1.3748181
      ],
      [
        103.951244,
        1.3748161
      ],
      [
        103.9511344,
        1.3748107
      ],
      [
        103.9510234,
        1.3748153
      ],
      [
        103.9505378,
        1.3748392
      ],
      [
        103.9501639,
        1.3748793
      ],
      [
        103.9499146,
        1.3749153
      ],
      [
        103.9498585,
        1.3749238
      ],
      [
        103.9496377,
        1.3749796
      ],
      [
        103.9493175,
        1.3750796
      ],
      [
        103.9492813,
        1.3749702
      ],
      [
        103.9492647,
        1.3749088
      ],
      [
        103.9492107,
        1.374734
      ],
      [
        103.948911,
        1.373622
      ],
      [
        103.9488692,
        1.3735524
      ],
      [
        103.9488217,
        1.3735233
      ],
      [
        103.9487375,
        1.3735015
      ],
      [
        103.9485976,
        1.3735437
      ]
    ]
  }
}