{
  "type": "Feature",
  "properties": {
    "relation": 2583898,
    "direction": "1",
    "fee": "yes",
    "from": "Yio Chu Kang Interchange",
    "name": "Svc 70M (Yio Chu Kang Interchange ↺ Temasek Avenue)",
    "name:en": "Svc 70M (Yio Chu Kang Interchange ↺ Temasek Avenue)",
    "network": "Land Transport Authority",
    "network:short": "LTA",
    "network:wikidata": "Q3299279",
    "network:wikipedia": "en:Land Transport Authority",
    "operator": "SBS Transit",
    "operator:wikidata": "Q2661305",
    "operator:wikipedia": "en:SBS Transit",
    "public_transport:version": "2",
    "ref": "70M",
    "roundtrip": "yes",
    "route": "bus",
    "to": "Yio Chu Kang Interchange",
    "type": "route",
    "via": "Temasek Avenue",
    "website": "https://www.sbstransit.com.sg/"
  },
  "geometry": {
    "type": "LineString",
    "coordinates": [
      [
        103.8454957,
        1.3813792
      ],
      [
        103.8448769,
        1.3820421
      ],
      [
        103.8448702,
        1.3820766
      ],
      [
        103.8448769,
        1.3821141
      ],
      [
        103.8449482,
        1.3822004
      ],
      [
        103.8450666,
        1.3823782
      ],
      [
        103.8451147,
        1.3825122
      ],
      [
        103.8451506,
        1.3826666
      ],
      [
        103.845105,
        1.3831506
      ],
      [
        103.8450154,
        1.3833863
      ],
      [
        103.8449717,
        1.3834355
      ],
      [
        103.8449187,
        1.3834654
      ],
      [
        103.844856,
        1.3834704
      ],
      [
        103.8446851,
        1.3834031
      ],
      [
        103.8446569,
        1.3833616
      ],
      [
        103.8446561,
        1.3833069
      ],
      [
        103.844647,
        1.3826463
      ],
      [
        103.8446429,
        1.3826088
      ],
      [
        103.8446261,
        1.3825414
      ],
      [
        103.8445975,
        1.3824862
      ],
      [
        103.844509,
        1.3825053
      ],
      [
        103.8444505,
        1.3825521
      ],
      [
        103.8444241,
        1.3826186
      ],
      [
        103.8444271,
        1.3836345
      ],
      [
        103.8444333,
        1.3840209
      ],
      [
        103.8444293,
        1.3840922
      ],
      [
        103.844122,
        1.3840633
      ],
      [
        103.8439955,
        1.384045
      ],
      [
        103.8438738,
        1.3840288
      ],
      [
        103.8437743,
        1.3840156
      ],
      [
        103.8437107,
        1.3840093
      ],
      [
        103.8436862,
        1.3840812
      ],
      [
        103.843847,
        1.3841024
      ],
      [
        103.8439831,
        1.3841188
      ],
      [
        103.8444272,
        1.3841806
      ],
      [
        103.8444861,
        1.3841867
      ],
      [
        103.8448058,
        1.384228
      ],
      [
        103.8450288,
        1.3842566
      ],
      [
        103.8452795,
        1.384295
      ],
      [
        103.8453281,
        1.3843016
      ],
      [
        103.8454655,
        1.3843199
      ],
      [
        103.8456572,
        1.3843344
      ],
      [
        103.8458821,
        1.3843461
      ],
      [
        103.8460757,
        1.3843501
      ],
      [
        103.8461379,
        1.3843497
      ],
      [
        103.8464529,
        1.384319
      ],
      [
        103.8467706,
        1.3842641
      ],
      [
        103.8470357,
        1.3841942
      ],
      [
        103.8472548,
        1.3841324
      ],
      [
        103.8474075,
        1.3840686
      ],
      [
        103.8476034,
        1.3839805
      ],
      [
        103.8476472,
        1.3839626
      ],
      [
        103.8478649,
        1.3838598
      ],
      [
        103.8479052,
        1.3839557
      ],
      [
        103.847882,
        1.3839004
      ],
      [
        103.8478649,
        1.3838598
      ],
      [
        103.8480581,
        1.3844108
      ],
      [
        103.8480019,
        1.3842209
      ],
      [
        103.8479504,
        1.38407
      ],
      [
        103.8481163,
        1.3846179
      ],
      [
        103.8481432,
        1.3847152
      ],
      [
        103.8481705,
        1.3848346
      ],
      [
        103.8482029,
        1.385028
      ],
      [
        103.848198,
        1.3849986
      ],
      [
        103.8482391,
        1.3853038
      ],
      [
        103.8482354,
        1.3852608
      ],
      [
        103.8482277,
        1.3851757
      ],
      [
        103.8482466,
        1.3853874
      ],
      [
        103.848244,
        1.3853531
      ],
      [
        103.8482482,
        1.3854217
      ],
      [
        103.8482498,
        1.3854951
      ],
      [
        103.8482496,
        1.3859192
      ],
      [
        103.8482565,
        1.3857469
      ],
      [
        103.8482478,
        1.3856135
      ],
      [
        103.8482344,
        1.3861685
      ],
      [
        103.8482069,
        1.3864186
      ],
      [
        103.8481982,
        1.3864963
      ],
      [
        103.8481915,
        1.3865888
      ],
      [
        103.8481828,
        1.386682
      ],
      [
        103.848176,
        1.3867628
      ],
      [
        103.8481553,
        1.386985
      ],
      [
        103.8481227,
        1.3872963
      ],
      [
        103.8480905,
        1.3875914
      ],
      [
        103.8480855,
        1.3876377
      ],
      [
        103.8474518,
        1.3874903
      ],
      [
        103.8464482,
        1.387237
      ],
      [
        103.8463397,
        1.3872551
      ],
      [
        103.8462657,
        1.3872983
      ],
      [
        103.8462315,
        1.387353
      ],
      [
        103.8462076,
        1.3874345
      ],
      [
        103.8460654,
        1.3880428
      ],
      [
        103.845868,
        1.3888064
      ],
      [
        103.8458526,
        1.3888607
      ],
      [
        103.8457499,
        1.3892493
      ],
      [
        103.8456765,
        1.3894877
      ],
      [
        103.845628,
        1.3895846
      ],
      [
        103.8455893,
        1.3896503
      ],
      [
        103.8455566,
        1.3897003
      ],
      [
        103.8455376,
        1.3897305
      ],
      [
        103.8453678,
        1.3899882
      ],
      [
        103.8452313,
        1.3901726
      ],
      [
        103.8452005,
        1.3902142
      ],
      [
        103.8451919,
        1.3902331
      ],
      [
        103.8451851,
        1.3902539
      ],
      [
        103.8451812,
        1.3902688
      ],
      [
        103.845179,
        1.3902792
      ],
      [
        103.845176,
        1.3902963
      ],
      [
        103.8451742,
        1.3903117
      ],
      [
        103.8451728,
        1.3903472
      ],
      [
        103.8451766,
        1.3903911
      ],
      [
        103.8451882,
        1.3904397
      ],
      [
        103.845218,
        1.3905273
      ],
      [
        103.8456305,
        1.3908296
      ],
      [
        103.8460282,
        1.3911053
      ],
      [
        103.846551,
        1.3914092
      ],
      [
        103.8470828,
        1.3916789
      ],
      [
        103.8477768,
        1.3919688
      ],
      [
        103.8483985,
        1.3921732
      ],
      [
        103.8485217,
        1.3922084
      ],
      [
        103.8486465,
        1.3922444
      ],
      [
        103.8494578,
        1.3924137
      ],
      [
        103.8500804,
        1.392486
      ],
      [
        103.8501254,
        1.3924889
      ],
      [
        103.8503747,
        1.3925058
      ],
      [
        103.8508908,
        1.3925188
      ],
      [
        103.8514774,
        1.3925133
      ],
      [
        103.8516615,
        1.3925059
      ],
      [
        103.8517937,
        1.392498
      ],
      [
        103.8525185,
        1.3923959
      ],
      [
        103.8527067,
        1.3923595
      ],
      [
        103.8535267,
        1.3921844
      ],
      [
        103.853615,
        1.3921722
      ],
      [
        103.8543266,
        1.3920423
      ],
      [
        103.8548904,
        1.3919377
      ],
      [
        103.8549225,
        1.3919302
      ],
      [
        103.8549658,
        1.3919179
      ],
      [
        103.8551069,
        1.3918843
      ],
      [
        103.8553091,
        1.391841
      ],
      [
        103.8553437,
        1.3918336
      ],
      [
        103.8556874,
        1.3917608
      ],
      [
        103.8561227,
        1.3916573
      ],
      [
        103.8565144,
        1.3915568
      ],
      [
        103.8567638,
        1.3914925
      ],
      [
        103.8569892,
        1.3914387
      ],
      [
        103.8580998,
        1.3911761
      ],
      [
        103.8582407,
        1.3911497
      ],
      [
        103.8590051,
        1.3909886
      ],
      [
        103.8594803,
        1.3908744
      ],
      [
        103.8597317,
        1.3908087
      ],
      [
        103.8599262,
        1.3907578
      ],
      [
        103.8600207,
        1.3907283
      ],
      [
        103.8601287,
        1.3906948
      ],
      [
        103.8603443,
        1.3906392
      ],
      [
        103.8604185,
        1.3906217
      ],
      [
        103.8605156,
        1.3905951
      ],
      [
        103.8605272,
        1.3905928
      ],
      [
        103.8607997,
        1.390516
      ],
      [
        103.8631788,
        1.3898483
      ],
      [
        103.8636199,
        1.3897225
      ],
      [
        103.8638027,
        1.3896705
      ],
      [
        103.8638443,
        1.3896587
      ],
      [
        103.8639726,
        1.3896219
      ],
      [
        103.8640398,
        1.3896024
      ],
      [
        103.864285,
        1.3895322
      ],
      [
        103.8650411,
        1.38935
      ],
      [
        103.8654394,
        1.3892401
      ],
      [
        103.8658387,
        1.3891255
      ],
      [
        103.8659011,
        1.3891083
      ],
      [
        103.866238,
        1.3890252
      ],
      [
        103.8674256,
        1.3886823
      ],
      [
        103.8676241,
        1.388633
      ],
      [
        103.8679393,
        1.388547
      ],
      [
        103.8681326,
        1.388503
      ],
      [
        103.8683317,
        1.38845
      ],
      [
        103.8686829,
        1.3883385
      ],
      [
        103.8687017,
        1.3883325
      ],
      [
        103.8687964,
        1.3883024
      ],
      [
        103.8689205,
        1.3882761
      ],
      [
        103.8689802,
        1.3882623
      ],
      [
        103.8692856,
        1.3881827
      ],
      [
        103.8696304,
        1.3880857
      ],
      [
        103.870658,
        1.3878511
      ],
      [
        103.8708754,
        1.3878014
      ],
      [
        103.8714246,
        1.3876963
      ],
      [
        103.871925,
        1.3875867
      ],
      [
        103.8724469,
        1.3874548
      ],
      [
        103.8727089,
        1.38739
      ],
      [
        103.8728636,
        1.3873485
      ],
      [
        103.8731164,
        1.3872544
      ],
      [
        103.8731878,
        1.3872261
      ],
      [
        103.8733295,
        1.3871687
      ],
      [
        103.8736063,
        1.387055
      ],
      [
        103.8738803,
        1.3868925
      ],
      [
        103.874063,
        1.3867841
      ],
      [
        103.8744577,
        1.3864748
      ],
      [
        103.8753508,
        1.3856951
      ],
      [
        103.8764051,
        1.3847202
      ],
      [
        103.8766164,
        1.3843858
      ],
      [
        103.8768308,
        1.3839361
      ],
      [
        103.8768872,
        1.3836778
      ],
      [
        103.8769566,
        1.3832782
      ],
      [
        103.8769711,
        1.3829517
      ],
      [
        103.8769669,
        1.3828926
      ],
      [
        103.8769573,
        1.3827349
      ],
      [
        103.8769063,
        1.382096
      ],
      [
        103.8768716,
        1.3814812
      ],
      [
        103.876864,
        1.3814125
      ],
      [
        103.8768523,
        1.3812423
      ],
      [
        103.8768215,
        1.380795
      ],
      [
        103.8767968,
        1.3804628
      ],
      [
        103.8767922,
        1.3804158
      ],
      [
        103.8767428,
        1.3799133
      ],
      [
        103.8767357,
        1.3797391
      ],
      [
        103.8767248,
        1.379537
      ],
      [
        103.8767155,
        1.3793111
      ],
      [
        103.8767017,
        1.3790685
      ],
      [
        103.8766988,
        1.3789933
      ],
      [
        103.8767091,
        1.3788711
      ],
      [
        103.8767206,
        1.378785
      ],
      [
        103.8767544,
        1.3785333
      ],
      [
        103.87685,
        1.3778269
      ],
      [
        103.8769143,
        1.3774329
      ],
      [
        103.8770274,
        1.3767407
      ],
      [
        103.8770664,
        1.3764286
      ],
      [
        103.8770697,
        1.3763933
      ],
      [
        103.8771092,
        1.3759253
      ],
      [
        103.8771111,
        1.3757431
      ],
      [
        103.8771161,
        1.3755725
      ],
      [
        103.877114,
        1.3754774
      ],
      [
        103.8771001,
        1.3751114
      ],
      [
        103.8770978,
        1.3750522
      ],
      [
        103.8770979,
        1.3749737
      ],
      [
        103.8770973,
        1.3749429
      ],
      [
        103.8770892,
        1.3746878
      ],
      [
        103.8770623,
        1.3741813
      ],
      [
        103.8770017,
        1.3735587
      ],
      [
        103.8769589,
        1.3731719
      ],
      [
        103.8769486,
        1.3730971
      ],
      [
        103.8768817,
        1.3726118
      ],
      [
        103.8768751,
        1.3725642
      ],
      [
        103.8767393,
        1.3715791
      ],
      [
        103.876681,
        1.3711775
      ],
      [
        103.8766613,
        1.3710016
      ],
      [
        103.8765905,
        1.3705364
      ],
      [
        103.8765187,
        1.3700988
      ],
      [
        103.8765086,
        1.3700358
      ],
      [
        103.8764775,
        1.3698446
      ],
      [
        103.8764134,
        1.369493
      ],
      [
        103.8763601,
        1.3692507
      ],
      [
        103.8763454,
        1.3692002
      ],
      [
        103.8762811,
        1.3689804
      ],
      [
        103.8762356,
        1.3688227
      ],
      [
        103.8762129,
        1.3687368
      ],
      [
        103.8760887,
        1.368266
      ],
      [
        103.8760171,
        1.3680911
      ],
      [
        103.8759191,
        1.3678517
      ],
      [
        103.8759007,
        1.3678114
      ],
      [
        103.8757102,
        1.3673927
      ],
      [
        103.8756743,
        1.367311
      ],
      [
        103.8755255,
        1.3669729
      ],
      [
        103.875479,
        1.3668673
      ],
      [
        103.8753438,
        1.3665601
      ],
      [
        103.8752209,
        1.3662807
      ],
      [
        103.8751155,
        1.3660309
      ],
      [
        103.8749267,
        1.3656392
      ],
      [
        103.8744017,
        1.3645225
      ],
      [
        103.8743182,
        1.3643507
      ],
      [
        103.8741313,
        1.3639661
      ],
      [
        103.8740519,
        1.3638314
      ],
      [
        103.874024,
        1.3637744
      ],
      [
        103.8739726,
        1.3636801
      ],
      [
        103.873915,
        1.3635748
      ],
      [
        103.8737425,
        1.3632592
      ],
      [
        103.8736148,
        1.3630304
      ],
      [
        103.8735234,
        1.3628832
      ],
      [
        103.8734559,
        1.3627607
      ],
      [
        103.8734005,
        1.3626002
      ],
      [
        103.8733718,
        1.3624141
      ],
      [
        103.8733687,
        1.3623438
      ],
      [
        103.8733653,
        1.3622528
      ],
      [
        103.8733655,
        1.3622102
      ],
      [
        103.8733689,
        1.3620773
      ],
      [
        103.8733889,
        1.3619227
      ],
      [
        103.8734552,
        1.3616362
      ],
      [
        103.873496,
        1.3614947
      ],
      [
        103.8736009,
        1.3611118
      ],
      [
        103.8736084,
        1.3610859
      ],
      [
        103.8736679,
        1.360819
      ],
      [
        103.8736778,
        1.3607739
      ],
      [
        103.8737446,
        1.3604734
      ],
      [
        103.8737616,
        1.3603803
      ],
      [
        103.873913,
        1.3597183
      ],
      [
        103.87401,
        1.3593194
      ],
      [
        103.8741016,
        1.358973
      ],
      [
        103.8741624,
        1.3586926
      ],
      [
        103.8741787,
        1.3586187
      ],
      [
        103.8742052,
        1.358399
      ],
      [
        103.8742048,
        1.3582824
      ],
      [
        103.8741983,
        1.3582153
      ],
      [
        103.8741773,
        1.3579991
      ],
      [
        103.8741546,
        1.3577647
      ],
      [
        103.8741154,
        1.3573164
      ],
      [
        103.8740841,
        1.3570799
      ],
      [
        103.8740683,
        1.3569957
      ],
      [
        103.8740033,
        1.356643
      ],
      [
        103.8739317,
        1.3563613
      ],
      [
        103.8738953,
        1.3562556
      ],
      [
        103.8737945,
        1.3560351
      ],
      [
        103.8736041,
        1.3556795
      ],
      [
        103.8735732,
        1.3556228
      ],
      [
        103.8735038,
        1.3554911
      ],
      [
        103.8734713,
        1.3554211
      ],
      [
        103.8733303,
        1.355146
      ],
      [
        103.873163,
        1.3547847
      ],
      [
        103.8731012,
        1.3545664
      ],
      [
        103.8730408,
        1.3542392
      ],
      [
        103.8729262,
        1.3538382
      ],
      [
        103.8728906,
        1.3537108
      ],
      [
        103.8728338,
        1.3534606
      ],
      [
        103.872732,
        1.3527019
      ],
      [
        103.8727231,
        1.3526348
      ],
      [
        103.8726964,
        1.3524035
      ],
      [
        103.8726811,
        1.3522707
      ],
      [
        103.8726648,
        1.3519173
      ],
      [
        103.8726814,
        1.3517302
      ],
      [
        103.8727079,
        1.3516249
      ],
      [
        103.872741,
        1.3515319
      ],
      [
        103.8728051,
        1.3514011
      ],
      [
        103.8728756,
        1.3512964
      ],
      [
        103.8729208,
        1.3512267
      ],
      [
        103.8729804,
        1.3511473
      ],
      [
        103.8731549,
        1.3509147
      ],
      [
        103.8732229,
        1.3508262
      ],
      [
        103.8735912,
        1.3503872
      ],
      [
        103.873709,
        1.3503118
      ],
      [
        103.8737945,
        1.35028
      ],
      [
        103.8738428,
        1.3502707
      ],
      [
        103.8738959,
        1.3502617
      ],
      [
        103.8739614,
        1.3502664
      ],
      [
        103.8740103,
        1.3502868
      ],
      [
        103.8746053,
        1.3508737
      ],
      [
        103.8747311,
        1.3509899
      ],
      [
        103.8749776,
        1.3512173
      ],
      [
        103.8752526,
        1.3514729
      ],
      [
        103.8754334,
        1.3516418
      ],
      [
        103.8756318,
        1.3518393
      ],
      [
        103.8759003,
        1.3520882
      ],
      [
        103.8760386,
        1.3522325
      ],
      [
        103.8760835,
        1.3522852
      ],
      [
        103.87626,
        1.3524537
      ],
      [
        103.876361,
        1.3525576
      ],
      [
        103.8764365,
        1.3526386
      ],
      [
        103.876717,
        1.3524061
      ],
      [
        103.8768007,
        1.3523648
      ],
      [
        103.8770561,
        1.3522228
      ],
      [
        103.8771783,
        1.352164
      ],
      [
        103.8773839,
        1.3520819
      ],
      [
        103.8777132,
        1.3519948
      ],
      [
        103.8779954,
        1.351909
      ],
      [
        103.8780471,
        1.3518942
      ],
      [
        103.8783215,
        1.3518158
      ],
      [
        103.878375,
        1.351791
      ],
      [
        103.8785721,
        1.3517132
      ],
      [
        103.8787572,
        1.3515804
      ],
      [
        103.8789476,
        1.3514317
      ],
      [
        103.8792769,
        1.3510663
      ],
      [
        103.8793533,
        1.3509859
      ],
      [
        103.8794001,
        1.3508995
      ],
      [
        103.8794753,
        1.3507606
      ],
      [
        103.8795583,
        1.3506029
      ],
      [
        103.879596,
        1.3505314
      ],
      [
        103.8796551,
        1.3503886
      ],
      [
        103.8797637,
        1.350126
      ],
      [
        103.8800615,
        1.3494086
      ],
      [
        103.8800977,
        1.3493161
      ],
      [
        103.8802361,
        1.3489867
      ],
      [
        103.8802822,
        1.3488797
      ],
      [
        103.8803225,
        1.3487698
      ],
      [
        103.8804001,
        1.3484654
      ],
      [
        103.8804771,
        1.3480928
      ],
      [
        103.8805112,
        1.3477535
      ],
      [
        103.8805328,
        1.3475379
      ],
      [
        103.8805415,
        1.3474511
      ],
      [
        103.8805774,
        1.3473237
      ],
      [
        103.8807874,
        1.3467856
      ],
      [
        103.8808726,
        1.346676
      ],
      [
        103.8810964,
        1.3463917
      ],
      [
        103.8812035,
        1.3462696
      ],
      [
        103.8812209,
        1.3462478
      ],
      [
        103.8814239,
        1.3460229
      ],
      [
        103.8816501,
        1.3457347
      ],
      [
        103.8816847,
        1.3456908
      ],
      [
        103.8817575,
        1.3456047
      ],
      [
        103.8817766,
        1.3455793
      ],
      [
        103.8820418,
        1.3451434
      ],
      [
        103.8820607,
        1.3451113
      ],
      [
        103.8822877,
        1.3447587
      ],
      [
        103.882349,
        1.3446701
      ],
      [
        103.8827585,
        1.3439796
      ],
      [
        103.88286,
        1.3437758
      ],
      [
        103.88305,
        1.3433943
      ],
      [
        103.8832084,
        1.3430763
      ],
      [
        103.8833111,
        1.3428989
      ],
      [
        103.8834363,
        1.3426826
      ],
      [
        103.8836517,
        1.3424094
      ],
      [
        103.883694,
        1.3423664
      ],
      [
        103.8838655,
        1.3421922
      ],
      [
        103.8842855,
        1.3418357
      ],
      [
        103.8843678,
        1.3417644
      ],
      [
        103.884605,
        1.3415633
      ],
      [
        103.884804,
        1.3413847
      ],
      [
        103.8848842,
        1.3413063
      ],
      [
        103.8849007,
        1.3412899
      ],
      [
        103.8850829,
        1.3410762
      ],
      [
        103.885152,
        1.3409871
      ],
      [
        103.8854065,
        1.3407312
      ],
      [
        103.8854479,
        1.3406863
      ],
      [
        103.8856526,
        1.3404593
      ],
      [
        103.8858348,
        1.3402341
      ],
      [
        103.886057,
        1.3399528
      ],
      [
        103.8860673,
        1.3399404
      ],
      [
        103.8862669,
        1.3397005
      ],
      [
        103.8864978,
        1.3393306
      ],
      [
        103.8866939,
        1.3390165
      ],
      [
        103.8870071,
        1.3383822
      ],
      [
        103.887045,
        1.3382885
      ],
      [
        103.8870523,
        1.3382664
      ],
      [
        103.8870592,
        1.3381901
      ],
      [
        103.8874377,
        1.3374491
      ],
      [
        103.8878667,
        1.3365603
      ],
      [
        103.8880713,
        1.336111
      ],
      [
        103.8882017,
        1.3358229
      ],
      [
        103.8882917,
        1.3356301
      ],
      [
        103.8886024,
        1.3349711
      ],
      [
        103.8886797,
        1.3347897
      ],
      [
        103.8887744,
        1.3345232
      ],
      [
        103.8888367,
        1.3343164
      ],
      [
        103.8888977,
        1.334102
      ],
      [
        103.8889454,
        1.3339342
      ],
      [
        103.8889527,
        1.3339085
      ],
      [
        103.8890031,
        1.3337163
      ],
      [
        103.8890214,
        1.3336466
      ],
      [
        103.8890498,
        1.333507
      ],
      [
        103.8890657,
        1.3334283
      ],
      [
        103.8891044,
        1.3332068
      ],
      [
        103.8891261,
        1.3330888
      ],
      [
        103.8891597,
        1.3329079
      ],
      [
        103.8892712,
        1.3322658
      ],
      [
        103.8893741,
        1.3316586
      ],
      [
        103.8894919,
        1.3310522
      ],
      [
        103.8895508,
        1.3307498
      ],
      [
        103.8895948,
        1.3305452
      ],
      [
        103.8896534,
        1.3302724
      ],
      [
        103.8896641,
        1.3302193
      ],
      [
        103.8897028,
        1.3300478
      ],
      [
        103.8897596,
        1.3297087
      ],
      [
        103.8897655,
        1.3296749
      ],
      [
        103.889818,
        1.3294021
      ],
      [
        103.8899189,
        1.3289197
      ],
      [
        103.8899696,
        1.3286835
      ],
      [
        103.890059,
        1.328263
      ],
      [
        103.8901654,
        1.327805
      ],
      [
        103.8902038,
        1.3276053
      ],
      [
        103.890345,
        1.3269244
      ],
      [
        103.8903857,
        1.3267146
      ],
      [
        103.8903998,
        1.3266416
      ],
      [
        103.8904187,
        1.3265397
      ],
      [
        103.8904274,
        1.3264874
      ],
      [
        103.8904625,
        1.3263026
      ],
      [
        103.8905141,
        1.3259644
      ],
      [
        103.8905503,
        1.3256917
      ],
      [
        103.8905779,
        1.3255365
      ],
      [
        103.8906053,
        1.3253825
      ],
      [
        103.8906259,
        1.3252622
      ],
      [
        103.8906643,
        1.3250374
      ],
      [
        103.890708,
        1.3247814
      ],
      [
        103.8907487,
        1.3245497
      ],
      [
        103.8907919,
        1.3242905
      ],
      [
        103.8908963,
        1.3237683
      ],
      [
        103.8910022,
        1.3232199
      ],
      [
        103.8910338,
        1.3230596
      ],
      [
        103.8910913,
        1.3227865
      ],
      [
        103.8911138,
        1.3226823
      ],
      [
        103.8912633,
        1.3219893
      ],
      [
        103.8913157,
        1.321736
      ],
      [
        103.8914014,
        1.3213221
      ],
      [
        103.8914636,
        1.3210117
      ],
      [
        103.8915315,
        1.3207093
      ],
      [
        103.8915916,
        1.3204698
      ],
      [
        103.8916696,
        1.3201068
      ],
      [
        103.891684,
        1.320045
      ],
      [
        103.8917087,
        1.3199218
      ],
      [
        103.8917211,
        1.3198702
      ],
      [
        103.8918142,
        1.3194833
      ],
      [
        103.8918257,
        1.3194296
      ],
      [
        103.8919594,
        1.3188786
      ],
      [
        103.8920273,
        1.3185071
      ],
      [
        103.8920627,
        1.3182923
      ],
      [
        103.8920781,
        1.3181625
      ],
      [
        103.8921409,
        1.3178516
      ],
      [
        103.8922766,
        1.3173167
      ],
      [
        103.8923538,
        1.3169757
      ],
      [
        103.8923629,
        1.3169357
      ],
      [
        103.8923912,
        1.3167934
      ],
      [
        103.8924426,
        1.3165349
      ],
      [
        103.8924467,
        1.3164751
      ],
      [
        103.8924453,
        1.316252
      ],
      [
        103.8924358,
        1.3160477
      ],
      [
        103.8923024,
        1.3152984
      ],
      [
        103.8922917,
        1.3152384
      ],
      [
        103.8922684,
        1.315095
      ],
      [
        103.8922368,
        1.3149338
      ],
      [
        103.8921986,
        1.3147384
      ],
      [
        103.8921696,
        1.3145713
      ],
      [
        103.8921296,
        1.3143409
      ],
      [
        103.8921262,
        1.3143214
      ],
      [
        103.8920879,
        1.3140512
      ],
      [
        103.8920585,
        1.3138105
      ],
      [
        103.8920067,
        1.3136034
      ],
      [
        103.8919893,
        1.3135592
      ],
      [
        103.8918257,
        1.313236
      ],
      [
        103.8917935,
        1.3131772
      ],
      [
        103.8915226,
        1.312683
      ],
      [
        103.8914445,
        1.312531
      ],
      [
        103.8913007,
        1.312354
      ],
      [
        103.8911422,
        1.3122812
      ],
      [
        103.8909024,
        1.3122124
      ],
      [
        103.8900341,
        1.3120301
      ],
      [
        103.8893091,
        1.3118807
      ],
      [
        103.889055,
        1.3118304
      ],
      [
        103.8890439,
        1.3118277
      ],
      [
        103.8887383,
        1.3117623
      ],
      [
        103.8885886,
        1.3117281
      ],
      [
        103.8884185,
        1.3116945
      ],
      [
        103.8883523,
        1.3116807
      ],
      [
        103.8881651,
        1.3116459
      ],
      [
        103.8872928,
        1.3114878
      ],
      [
        103.8870442,
        1.3114412
      ],
      [
        103.8868251,
        1.3113996
      ],
      [
        103.8864525,
        1.3113214
      ],
      [
        103.8863267,
        1.3112977
      ],
      [
        103.8857742,
        1.3111801
      ],
      [
        103.8857356,
        1.3111723
      ],
      [
        103.8856511,
        1.311155
      ],
      [
        103.8848671,
        1.3109938
      ],
      [
        103.8840515,
        1.3108252
      ],
      [
        103.8838931,
        1.3107925
      ],
      [
        103.8835405,
        1.3107196
      ],
      [
        103.8833728,
        1.3106849
      ],
      [
        103.8831318,
        1.3106351
      ],
      [
        103.8827864,
        1.3105637
      ],
      [
        103.8827534,
        1.310557
      ],
      [
        103.8827115,
        1.3105489
      ],
      [
        103.8823448,
        1.3104723
      ],
      [
        103.8822436,
        1.310451
      ],
      [
        103.8821375,
        1.3104295
      ],
      [
        103.88201,
        1.3104031
      ],
      [
        103.8815615,
        1.3102881
      ],
      [
        103.8814304,
        1.3102581
      ],
      [
        103.8808461,
        1.310138
      ],
      [
        103.8801747,
        1.3099999
      ],
      [
        103.8799109,
        1.3099513
      ],
      [
        103.8794221,
        1.3098472
      ],
      [
        103.8793269,
        1.3098191
      ],
      [
        103.8790444,
        1.3097427
      ],
      [
        103.8786711,
        1.3095628
      ],
      [
        103.8784119,
        1.3094021
      ],
      [
        103.8781749,
        1.3092075
      ],
      [
        103.8780901,
        1.3090938
      ],
      [
        103.8779717,
        1.3089285
      ],
      [
        103.8778319,
        1.3087188
      ],
      [
        103.8775253,
        1.3083201
      ],
      [
        103.8774692,
        1.3082471
      ],
      [
        103.8773947,
        1.3081305
      ],
      [
        103.8772558,
        1.3078895
      ],
      [
        103.8772027,
        1.3078094
      ],
      [
        103.8770232,
        1.3075492
      ],
      [
        103.8769463,
        1.3074489
      ],
      [
        103.8767653,
        1.307264
      ],
      [
        103.8766002,
        1.3071405
      ],
      [
        103.8764581,
        1.3070593
      ],
      [
        103.8762835,
        1.3069851
      ],
      [
        103.8762132,
        1.3069622
      ],
      [
        103.8760991,
        1.306933
      ],
      [
        103.8758244,
        1.3068999
      ],
      [
        103.8754671,
        1.3068705
      ],
      [
        103.87418,
        1.3067478
      ],
      [
        103.8740337,
        1.3067401
      ],
      [
        103.8733581,
        1.3067044
      ],
      [
        103.8728913,
        1.3066797
      ],
      [
        103.8724926,
        1.3066017
      ],
      [
        103.8719482,
        1.306408
      ],
      [
        103.8717118,
        1.3062943
      ],
      [
        103.8712747,
        1.3060573
      ],
      [
        103.8707696,
        1.3056888
      ],
      [
        103.8706556,
        1.3056151
      ],
      [
        103.8697104,
        1.3049754
      ],
      [
        103.8664617,
        1.3028935
      ],
      [
        103.8653177,
        1.3021435
      ],
      [
        103.8644309,
        1.301492
      ],
      [
        103.863578,
        1.3008276
      ],
      [
        103.8633847,
        1.3006881
      ],
      [
        103.8627948,
        1.3002555
      ],
      [
        103.862124,
        1.2997661
      ],
      [
        103.8620786,
        1.2997349
      ],
      [
        103.8604936,
        1.2985897
      ],
      [
        103.8603755,
        1.2984992
      ],
      [
        103.8600474,
        1.298256
      ],
      [
        103.8598604,
        1.2980982
      ],
      [
        103.8596201,
        1.297875
      ],
      [
        103.859408,
        1.297675
      ],
      [
        103.8592229,
        1.297491
      ],
      [
        103.8589223,
        1.2971794
      ],
      [
        103.8586156,
        1.2968487
      ],
      [
        103.8584176,
        1.2966396
      ],
      [
        103.8582386,
        1.2964436
      ],
      [
        103.8580287,
        1.2962023
      ],
      [
        103.8578971,
        1.2960495
      ],
      [
        103.8578133,
        1.295947
      ],
      [
        103.8576765,
        1.29577
      ],
      [
        103.857493,
        1.2955215
      ],
      [
        103.8574446,
        1.2954443
      ],
      [
        103.8570723,
        1.2948938
      ],
      [
        103.8569292,
        1.2946814
      ],
      [
        103.8567243,
        1.2943125
      ],
      [
        103.8566525,
        1.2941832
      ],
      [
        103.8564369,
        1.2938238
      ],
      [
        103.8560303,
        1.2931753
      ],
      [
        103.8559769,
        1.2930831
      ],
      [
        103.8562154,
        1.2929484
      ],
      [
        103.856514,
        1.2927809
      ],
      [
        103.8568682,
        1.2925727
      ],
      [
        103.8569856,
        1.2925027
      ],
      [
        103.8570723,
        1.2924516
      ],
      [
        103.857176,
        1.2923891
      ],
      [
        103.8572319,
        1.2923557
      ],
      [
        103.8573318,
        1.2923828
      ],
      [
        103.8573936,
        1.2924033
      ],
      [
        103.8574398,
        1.2924234
      ],
      [
        103.8574874,
        1.2924496
      ],
      [
        103.8575247,
        1.292484
      ],
      [
        103.8576639,
        1.2927167
      ],
      [
        103.8577737,
        1.2928992
      ],
      [
        103.8580556,
        1.2933924
      ],
      [
        103.8582405,
        1.2937113
      ],
      [
        103.858378,
        1.2939486
      ],
      [
        103.8585234,
        1.2941993
      ],
      [
        103.8585949,
        1.2943162
      ],
      [
        103.8586093,
        1.2943574
      ],
      [
        103.8586146,
        1.294403
      ],
      [
        103.8586084,
        1.2944522
      ],
      [
        103.8585826,
        1.2945378
      ],
      [
        103.8585515,
        1.2945931
      ],
      [
        103.8585259,
        1.2946673
      ],
      [
        103.8585155,
        1.294745
      ],
      [
        103.8585207,
        1.2948233
      ],
      [
        103.8585357,
        1.2948837
      ],
      [
        103.8585601,
        1.2949409
      ],
      [
        103.8585931,
        1.2949936
      ],
      [
        103.858634,
        1.2950405
      ],
      [
        103.8586628,
        1.2950661
      ],
      [
        103.8587333,
        1.2951114
      ],
      [
        103.8588117,
        1.2951408
      ],
      [
        103.8588945,
        1.295153
      ],
      [
        103.8589781,
        1.2951475
      ],
      [
        103.8590445,
        1.2951299
      ],
      [
        103.8591068,
        1.2951011
      ],
      [
        103.8591632,
        1.295062
      ],
      [
        103.8592119,
        1.2950136
      ],
      [
        103.8592516,
        1.2949576
      ],
      [
        103.8592762,
        1.294908
      ],
      [
        103.8592965,
        1.2948429
      ],
      [
        103.8593052,
        1.2947752
      ],
      [
        103.859302,
        1.2947068
      ],
      [
        103.8592898,
        1.294648
      ],
      [
        103.8593411,
        1.2945805
      ],
      [
        103.8595942,
        1.2944337
      ],
      [
        103.8598415,
        1.2942903
      ],
      [
        103.8598839,
        1.2942657
      ],
      [
        103.8601112,
        1.2941242
      ],
      [
        103.8605153,
        1.2938794
      ],
      [
        103.8605813,
        1.2938426
      ],
      [
        103.8606524,
        1.2937867
      ],
      [
        103.8606844,
        1.2937562
      ],
      [
        103.8607259,
        1.2937071
      ],
      [
        103.8607869,
        1.2936014
      ],
      [
        103.8608285,
        1.2934982
      ],
      [
        103.8608601,
        1.2933929
      ],
      [
        103.8608853,
        1.2930274
      ],
      [
        103.860903,
        1.2926215
      ],
      [
        103.8609142,
        1.2921903
      ],
      [
        103.8609193,
        1.2920199
      ],
      [
        103.8609199,
        1.2918804
      ],
      [
        103.8609258,
        1.2916996
      ],
      [
        103.8609354,
        1.291417
      ],
      [
        103.8609332,
        1.2913321
      ],
      [
        103.8609361,
        1.2912346
      ],
      [
        103.860962,
        1.29038
      ],
      [
        103.8609834,
        1.2896744
      ],
      [
        103.8609842,
        1.2896462
      ],
      [
        103.8609857,
        1.2895592
      ],
      [
        103.8608765,
        1.289565
      ],
      [
        103.8608347,
        1.2895672
      ],
      [
        103.8605926,
        1.2895801
      ],
      [
        103.8603161,
        1.2895948
      ],
      [
        103.8599725,
        1.289613
      ],
      [
        103.8596687,
        1.2896305
      ],
      [
        103.8595101,
        1.2896398
      ],
      [
        103.8591787,
        1.2896553
      ],
      [
        103.8588597,
        1.2896723
      ],
      [
        103.8587507,
        1.289678
      ],
      [
        103.8586061,
        1.2896858
      ],
      [
        103.858293,
        1.2897023
      ],
      [
        103.8580786,
        1.2897137
      ],
      [
        103.8577561,
        1.2897309
      ],
      [
        103.8575749,
        1.2897405
      ],
      [
        103.8574822,
        1.2897454
      ],
      [
        103.8574561,
        1.2897468
      ],
      [
        103.8573305,
        1.2897535
      ],
      [
        103.8573058,
        1.2897548
      ],
      [
        103.8572552,
        1.2897557
      ],
      [
        103.8571045,
        1.2897751
      ],
      [
        103.8569869,
        1.289794
      ],
      [
        103.8568781,
        1.2898254
      ],
      [
        103.8567861,
        1.2898549
      ],
      [
        103.8567376,
        1.2898782
      ],
      [
        103.8566645,
        1.2899135
      ],
      [
        103.8565763,
        1.2899715
      ],
      [
        103.8565472,
        1.2899906
      ],
      [
        103.8564514,
        1.2900794
      ],
      [
        103.8563522,
        1.2901714
      ],
      [
        103.8562871,
        1.2902257
      ],
      [
        103.8561749,
        1.2903222
      ],
      [
        103.8560384,
        1.2904397
      ],
      [
        103.8559972,
        1.2904752
      ],
      [
        103.8558644,
        1.2905895
      ],
      [
        103.8557948,
        1.2906494
      ],
      [
        103.8554503,
        1.2909459
      ],
      [
        103.8552358,
        1.2911304
      ],
      [
        103.8552168,
        1.2911468
      ],
      [
        103.855059,
        1.2912783
      ],
      [
        103.8550077,
        1.291324
      ],
      [
        103.8548655,
        1.2914505
      ],
      [
        103.8549025,
        1.2915357
      ],
      [
        103.8549246,
        1.2915866
      ],
      [
        103.8550798,
        1.2918822
      ],
      [
        103.8552936,
        1.2922894
      ],
      [
        103.855412,
        1.2924992
      ],
      [
        103.8556295,
        1.2928507
      ],
      [
        103.8558226,
        1.293172
      ],
      [
        103.8558782,
        1.2932629
      ],
      [
        103.8560587,
        1.2935666
      ],
      [
        103.8560902,
        1.2936106
      ],
      [
        103.8563465,
        1.2940077
      ],
      [
        103.8565627,
        1.2943647
      ],
      [
        103.8565824,
        1.2943972
      ],
      [
        103.8567824,
        1.2947274
      ],
      [
        103.8568064,
        1.2947667
      ],
      [
        103.8570184,
        1.2951135
      ],
      [
        103.8570577,
        1.2951778
      ],
      [
        103.8570983,
        1.2952441
      ],
      [
        103.8572918,
        1.2955465
      ],
      [
        103.8573402,
        1.2956223
      ],
      [
        103.8574563,
        1.2957821
      ],
      [
        103.8575544,
        1.295901
      ],
      [
        103.8576815,
        1.2960535
      ],
      [
        103.857877,
        1.2962993
      ],
      [
        103.8583911,
        1.2968643
      ],
      [
        103.8584845,
        1.2969572
      ],
      [
        103.8593114,
        1.2977805
      ],
      [
        103.8595095,
        1.2979655
      ],
      [
        103.8597136,
        1.2981504
      ],
      [
        103.8599249,
        1.2983277
      ],
      [
        103.8599722,
        1.2983674
      ],
      [
        103.8605131,
        1.2987866
      ],
      [
        103.8615617,
        1.299543
      ],
      [
        103.8620786,
        1.2999357
      ],
      [
        103.8621612,
        1.2999924
      ],
      [
        103.8627931,
        1.3004728
      ],
      [
        103.8631535,
        1.3007442
      ],
      [
        103.8631798,
        1.3007631
      ],
      [
        103.8633113,
        1.3008612
      ],
      [
        103.8634966,
        1.300996
      ],
      [
        103.8644332,
        1.3016729
      ],
      [
        103.8652217,
        1.3022387
      ],
      [
        103.86639,
        1.3029812
      ],
      [
        103.8693997,
        1.3049602
      ],
      [
        103.8696242,
        1.3051053
      ],
      [
        103.8698439,
        1.3052472
      ],
      [
        103.8700221,
        1.3053709
      ],
      [
        103.8702145,
        1.3055044
      ],
      [
        103.8706494,
        1.3057745
      ],
      [
        103.8710355,
        1.3060308
      ],
      [
        103.8711847,
        1.3061367
      ],
      [
        103.8714887,
        1.3063273
      ],
      [
        103.8716404,
        1.3064059
      ],
      [
        103.8718622,
        1.3065184
      ],
      [
        103.8720272,
        1.3065919
      ],
      [
        103.8723735,
        1.3067038
      ],
      [
        103.8726042,
        1.3067641
      ],
      [
        103.872853,
        1.3068177
      ],
      [
        103.8731212,
        1.306862
      ],
      [
        103.8741565,
        1.3069049
      ],
      [
        103.8746828,
        1.3069474
      ],
      [
        103.8751355,
        1.306984
      ],
      [
        103.8757912,
        1.3070348
      ],
      [
        103.8759273,
        1.3070567
      ],
      [
        103.8761036,
        1.3071029
      ],
      [
        103.8762266,
        1.3071481
      ],
      [
        103.8763021,
        1.3071787
      ],
      [
        103.8763879,
        1.3072271
      ],
      [
        103.8767029,
        1.307455
      ],
      [
        103.8768241,
        1.3075599
      ],
      [
        103.8770304,
        1.3078127
      ],
      [
        103.877083,
        1.3078926
      ],
      [
        103.8773377,
        1.308298
      ],
      [
        103.8773785,
        1.308366
      ],
      [
        103.8774729,
        1.3085235
      ],
      [
        103.87751,
        1.3085843
      ],
      [
        103.8776021,
        1.3087348
      ],
      [
        103.8778236,
        1.3090654
      ],
      [
        103.8780837,
        1.3093243
      ],
      [
        103.8783489,
        1.3095241
      ],
      [
        103.8786288,
        1.3096983
      ],
      [
        103.8790594,
        1.3098732
      ],
      [
        103.879504,
        1.3099737
      ],
      [
        103.8798866,
        1.3100437
      ],
      [
        103.8800886,
        1.310085
      ],
      [
        103.880809,
        1.3102322
      ],
      [
        103.8811143,
        1.3102946
      ],
      [
        103.8814196,
        1.310357
      ],
      [
        103.8815415,
        1.3103847
      ],
      [
        103.8815473,
        1.310386
      ],
      [
        103.8817303,
        1.3104293
      ],
      [
        103.8820026,
        1.3104903
      ],
      [
        103.882131,
        1.3105215
      ],
      [
        103.8822378,
        1.3105438
      ],
      [
        103.8823274,
        1.3105625
      ],
      [
        103.8826881,
        1.3106377
      ],
      [
        103.8827087,
        1.310642
      ],
      [
        103.8827502,
        1.3106506
      ],
      [
        103.8831116,
        1.3107259
      ],
      [
        103.8833471,
        1.310775
      ],
      [
        103.8833867,
        1.3107832
      ],
      [
        103.8834279,
        1.3107918
      ],
      [
        103.8835705,
        1.3108215
      ],
      [
        103.8838271,
        1.3108749
      ],
      [
        103.8838587,
        1.3108815
      ],
      [
        103.8840506,
        1.3109215
      ],
      [
        103.8840862,
        1.3109257
      ],
      [
        103.8843827,
        1.3109907
      ],
      [
        103.8848875,
        1.3110959
      ],
      [
        103.8849071,
        1.3111
      ],
      [
        103.8849258,
        1.3111039
      ],
      [
        103.8852029,
        1.3111616
      ],
      [
        103.8854214,
        1.3112099
      ],
      [
        103.8856303,
        1.3112497
      ],
      [
        103.8857077,
        1.3112619
      ],
      [
        103.8857291,
        1.3112652
      ],
      [
        103.886202,
        1.311366
      ],
      [
        103.8863671,
        1.3114005
      ],
      [
        103.8864003,
        1.3114071
      ],
      [
        103.8869795,
        1.3115219
      ],
      [
        103.887034,
        1.3115327
      ],
      [
        103.8870647,
        1.3115384
      ],
      [
        103.8872859,
        1.3115796
      ],
      [
        103.8874803,
        1.3116137
      ],
      [
        103.8881247,
        1.3117284
      ],
      [
        103.8882781,
        1.3117581
      ],
      [
        103.8883339,
        1.3117685
      ],
      [
        103.8887119,
        1.3118469
      ],
      [
        103.8887158,
        1.3118479
      ],
      [
        103.8890223,
        1.3119122
      ],
      [
        103.8890353,
        1.3119153
      ],
      [
        103.8893466,
        1.3119804
      ],
      [
        103.8895853,
        1.3120285
      ],
      [
        103.8897344,
        1.3120596
      ],
      [
        103.8900182,
        1.3121193
      ],
      [
        103.8901139,
        1.3121408
      ],
      [
        103.8905101,
        1.3122217
      ],
      [
        103.8909028,
        1.3123063
      ],
      [
        103.8910402,
        1.3123573
      ],
      [
        103.8912156,
        1.312431
      ],
      [
        103.8913065,
        1.3125221
      ],
      [
        103.8913725,
        1.3126281
      ],
      [
        103.8916956,
        1.3132246
      ],
      [
        103.8917935,
        1.3133989
      ],
      [
        103.8919175,
        1.3136275
      ],
      [
        103.8919382,
        1.3137179
      ],
      [
        103.891943,
        1.3137388
      ],
      [
        103.8919645,
        1.3140057
      ],
      [
        103.8919812,
        1.3142034
      ],
      [
        103.8920094,
        1.3144286
      ],
      [
        103.8920403,
        1.3146834
      ],
      [
        103.8920763,
        1.3148946
      ],
      [
        103.8920817,
        1.3149266
      ],
      [
        103.8921061,
        1.3150696
      ],
      [
        103.8921402,
        1.3152378
      ],
      [
        103.8921848,
        1.3154556
      ],
      [
        103.8922682,
        1.3157935
      ],
      [
        103.8922924,
        1.3159081
      ],
      [
        103.8923093,
        1.3160121
      ],
      [
        103.8923192,
        1.3162279
      ],
      [
        103.8923079,
        1.3164787
      ],
      [
        103.8922508,
        1.3167682
      ],
      [
        103.8922266,
        1.3169065
      ],
      [
        103.892217,
        1.3169538
      ],
      [
        103.8921721,
        1.3171757
      ],
      [
        103.8920357,
        1.3177703
      ],
      [
        103.8919981,
        1.3179359
      ],
      [
        103.8919757,
        1.3180549
      ],
      [
        103.8919401,
        1.3182459
      ],
      [
        103.8917841,
        1.3188987
      ],
      [
        103.8917291,
        1.3190817
      ],
      [
        103.8916945,
        1.3192212
      ],
      [
        103.8916476,
        1.3194086
      ],
      [
        103.8915971,
        1.3196621
      ],
      [
        103.8915627,
        1.3198348
      ],
      [
        103.8915519,
        1.3198843
      ],
      [
        103.8915249,
        1.3199982
      ],
      [
        103.8915089,
        1.320071
      ],
      [
        103.8913991,
        1.320572
      ],
      [
        103.8912699,
        1.3211744
      ],
      [
        103.8911546,
        1.3216671
      ],
      [
        103.8910734,
        1.3220541
      ],
      [
        103.8909476,
        1.3226419
      ],
      [
        103.8909257,
        1.3227442
      ],
      [
        103.8908738,
        1.3230307
      ],
      [
        103.8908386,
        1.323181
      ],
      [
        103.8907622,
        1.3235605
      ],
      [
        103.8906549,
        1.3242773
      ],
      [
        103.8906157,
        1.3244525
      ],
      [
        103.8904862,
        1.3250945
      ],
      [
        103.8904285,
        1.3253808
      ],
      [
        103.8903602,
        1.3257191
      ],
      [
        103.8902832,
        1.3260963
      ],
      [
        103.89022,
        1.3264084
      ],
      [
        103.890211,
        1.3264664
      ],
      [
        103.8901917,
        1.326557
      ],
      [
        103.8901767,
        1.3266369
      ],
      [
        103.8901326,
        1.3268722
      ],
      [
        103.8900852,
        1.3271403
      ],
      [
        103.88995,
        1.3278916
      ],
      [
        103.8898316,
        1.3285772
      ],
      [
        103.8897453,
        1.3290583
      ],
      [
        103.8896854,
        1.3293734
      ],
      [
        103.889586,
        1.3298526
      ],
      [
        103.88952,
        1.3301905
      ],
      [
        103.8895092,
        1.3302492
      ],
      [
        103.8894378,
        1.3306165
      ],
      [
        103.8893503,
        1.3309898
      ],
      [
        103.8893227,
        1.3311153
      ],
      [
        103.8892213,
        1.3316027
      ],
      [
        103.8892153,
        1.3316401
      ],
      [
        103.8891998,
        1.331736
      ],
      [
        103.8891406,
        1.3321016
      ],
      [
        103.8891128,
        1.3322634
      ],
      [
        103.8890793,
        1.3324531
      ],
      [
        103.889009,
        1.3328514
      ],
      [
        103.8889932,
        1.332941
      ],
      [
        103.8889367,
        1.3332606
      ],
      [
        103.8889162,
        1.333395
      ],
      [
        103.8888993,
        1.3334729
      ],
      [
        103.8888697,
        1.3336093
      ],
      [
        103.888853,
        1.333686
      ],
      [
        103.8888012,
        1.3338866
      ],
      [
        103.8887084,
        1.3339715
      ],
      [
        103.8885884,
        1.3340551
      ],
      [
        103.8885499,
        1.3340949
      ],
      [
        103.8884443,
        1.3344682
      ],
      [
        103.8883684,
        1.3346717
      ],
      [
        103.8883271,
        1.334767
      ],
      [
        103.8882145,
        1.3349793
      ],
      [
        103.8880558,
        1.3353671
      ],
      [
        103.8879062,
        1.3357437
      ],
      [
        103.8877408,
        1.336149
      ],
      [
        103.8876294,
        1.3363914
      ],
      [
        103.8875197,
        1.3366525
      ],
      [
        103.8873877,
        1.33694
      ],
      [
        103.8873481,
        1.337095
      ],
      [
        103.8873652,
        1.3372467
      ],
      [
        103.8872798,
        1.3374452
      ],
      [
        103.8872242,
        1.3375606
      ],
      [
        103.8872071,
        1.3375755
      ],
      [
        103.8871502,
        1.3376605
      ],
      [
        103.8870851,
        1.3377782
      ],
      [
        103.8869833,
        1.3379657
      ],
      [
        103.886925,
        1.3380677
      ],
      [
        103.8868333,
        1.3382137
      ],
      [
        103.8866923,
        1.3384642
      ],
      [
        103.8865145,
        1.3387273
      ],
      [
        103.8862031,
        1.3391884
      ],
      [
        103.8860305,
        1.3394345
      ],
      [
        103.8857719,
        1.3397567
      ],
      [
        103.8855144,
        1.3400575
      ],
      [
        103.8854068,
        1.3401908
      ],
      [
        103.8852644,
        1.3403643
      ],
      [
        103.8850661,
        1.3406191
      ],
      [
        103.8850218,
        1.3406769
      ],
      [
        103.8849927,
        1.340715
      ],
      [
        103.8848165,
        1.3408806
      ],
      [
        103.8846995,
        1.3409853
      ],
      [
        103.8846049,
        1.3410691
      ],
      [
        103.8845838,
        1.3410882
      ],
      [
        103.8845302,
        1.3411367
      ],
      [
        103.8841679,
        1.3414648
      ],
      [
        103.8838978,
        1.3417032
      ],
      [
        103.8836328,
        1.3419546
      ],
      [
        103.8834516,
        1.3421429
      ],
      [
        103.883384,
        1.3422132
      ],
      [
        103.8831761,
        1.3425065
      ],
      [
        103.8830017,
        1.3427767
      ],
      [
        103.8828667,
        1.3430682
      ],
      [
        103.8827392,
        1.3433901
      ],
      [
        103.8826513,
        1.3436306
      ],
      [
        103.8825834,
        1.3438149
      ],
      [
        103.8825358,
        1.3439378
      ],
      [
        103.8824883,
        1.3440524
      ],
      [
        103.8823915,
        1.3443097
      ],
      [
        103.8822018,
        1.3446331
      ],
      [
        103.8821839,
        1.3446589
      ],
      [
        103.8820063,
        1.3449588
      ],
      [
        103.8819905,
        1.3449855
      ],
      [
        103.8819509,
        1.3450341
      ],
      [
        103.8819358,
        1.3450541
      ],
      [
        103.8817021,
        1.3453647
      ],
      [
        103.8815518,
        1.3455811
      ],
      [
        103.8815142,
        1.3456338
      ],
      [
        103.8813152,
        1.3458715
      ],
      [
        103.8809995,
        1.346219
      ],
      [
        103.8809494,
        1.3462767
      ],
      [
        103.8808608,
        1.3463906
      ],
      [
        103.880716,
        1.3465555
      ],
      [
        103.8806167,
        1.3466815
      ],
      [
        103.8805738,
        1.3467392
      ],
      [
        103.8805376,
        1.3468009
      ],
      [
        103.8804135,
        1.3471391
      ],
      [
        103.8803591,
        1.347427
      ],
      [
        103.8803581,
        1.3474369
      ],
      [
        103.8803543,
        1.3476136
      ],
      [
        103.8803537,
        1.3476328
      ],
      [
        103.8803556,
        1.3476433
      ],
      [
        103.8803498,
        1.3477982
      ],
      [
        103.8803229,
        1.3481166
      ],
      [
        103.8802646,
        1.3484271
      ],
      [
        103.8802324,
        1.3485577
      ],
      [
        103.8801699,
        1.3488013
      ],
      [
        103.8799161,
        1.3493847
      ],
      [
        103.8797506,
        1.3497982
      ],
      [
        103.8796925,
        1.3499339
      ],
      [
        103.8795546,
        1.3502559
      ],
      [
        103.8794591,
        1.3504799
      ],
      [
        103.8794034,
        1.350571
      ],
      [
        103.8793324,
        1.350687
      ],
      [
        103.8792589,
        1.350813
      ],
      [
        103.879241,
        1.3508397
      ],
      [
        103.879187,
        1.3509202
      ],
      [
        103.8791254,
        1.3510071
      ],
      [
        103.8788021,
        1.3513251
      ],
      [
        103.8785902,
        1.3514887
      ],
      [
        103.8784869,
        1.3515691
      ],
      [
        103.8782816,
        1.3516474
      ],
      [
        103.8779251,
        1.3517849
      ],
      [
        103.8777252,
        1.3518329
      ],
      [
        103.8775188,
        1.3518809
      ],
      [
        103.8773416,
        1.3519271
      ],
      [
        103.8771432,
        1.3519927
      ],
      [
        103.8768964,
        1.3521107
      ],
      [
        103.876683,
        1.352276
      ],
      [
        103.8766192,
        1.3523202
      ],
      [
        103.8765149,
        1.3522364
      ],
      [
        103.8762892,
        1.3520427
      ],
      [
        103.8757771,
        1.3516048
      ],
      [
        103.875646,
        1.3514825
      ],
      [
        103.8754211,
        1.3512818
      ],
      [
        103.8747058,
        1.3506029
      ],
      [
        103.8745546,
        1.3504688
      ],
      [
        103.8742457,
        1.3501658
      ],
      [
        103.8741382,
        1.3500604
      ],
      [
        103.8740251,
        1.3499487
      ],
      [
        103.8739955,
        1.3499218
      ],
      [
        103.8739093,
        1.3498263
      ],
      [
        103.8737403,
        1.350005
      ],
      [
        103.8737246,
        1.3500304
      ],
      [
        103.8736011,
        1.3502334
      ],
      [
        103.8733206,
        1.3505587
      ],
      [
        103.8731503,
        1.3507563
      ],
      [
        103.8730991,
        1.350815
      ],
      [
        103.8730181,
        1.3509219
      ],
      [
        103.8729287,
        1.3510334
      ],
      [
        103.8728211,
        1.3511729
      ],
      [
        103.8727357,
        1.3513157
      ],
      [
        103.8726691,
        1.3514354
      ],
      [
        103.8726075,
        1.3516415
      ],
      [
        103.8725855,
        1.3517301
      ],
      [
        103.8725643,
        1.3518769
      ],
      [
        103.872578,
        1.3522227
      ],
      [
        103.8726264,
        1.3526445
      ],
      [
        103.8726289,
        1.3526962
      ],
      [
        103.8726515,
        1.3528757
      ],
      [
        103.872668,
        1.3529739
      ],
      [
        103.8727134,
        1.3533164
      ],
      [
        103.8727512,
        1.3536078
      ],
      [
        103.8727677,
        1.3537082
      ],
      [
        103.8727982,
        1.3538571
      ],
      [
        103.8728785,
        1.354185
      ],
      [
        103.8728957,
        1.3542551
      ],
      [
        103.8729582,
        1.3545393
      ],
      [
        103.8730274,
        1.35486
      ],
      [
        103.8730784,
        1.35499
      ],
      [
        103.8732127,
        1.3552603
      ],
      [
        103.8733258,
        1.3554908
      ],
      [
        103.8733564,
        1.3555599
      ],
      [
        103.8734253,
        1.3556916
      ],
      [
        103.8734581,
        1.3557571
      ],
      [
        103.873655,
        1.3561471
      ],
      [
        103.873765,
        1.3563817
      ],
      [
        103.8738012,
        1.3564917
      ],
      [
        103.8738173,
        1.3565909
      ],
      [
        103.8738334,
        1.3567129
      ],
      [
        103.8738495,
        1.3568416
      ],
      [
        103.8738805,
        1.3571181
      ],
      [
        103.8739099,
        1.3573832
      ],
      [
        103.8739343,
        1.3576028
      ],
      [
        103.8739394,
        1.3576447
      ],
      [
        103.87397,
        1.3578975
      ],
      [
        103.8739833,
        1.3580154
      ],
      [
        103.8740107,
        1.3582289
      ],
      [
        103.8740191,
        1.3582942
      ],
      [
        103.8740282,
        1.3584121
      ],
      [
        103.8740234,
        1.3584878
      ],
      [
        103.8740173,
        1.3585627
      ],
      [
        103.8739919,
        1.358787
      ],
      [
        103.873951,
        1.3590331
      ],
      [
        103.8738927,
        1.3592932
      ],
      [
        103.8738115,
        1.3596523
      ],
      [
        103.8736461,
        1.3603617
      ],
      [
        103.8735558,
        1.3607874
      ],
      [
        103.8735142,
        1.3609697
      ],
      [
        103.8734785,
        1.3611359
      ],
      [
        103.8733031,
        1.3617897
      ],
      [
        103.8732623,
        1.3619622
      ],
      [
        103.8732347,
        1.3620973
      ],
      [
        103.8732286,
        1.3622139
      ],
      [
        103.8732301,
        1.3622551
      ],
      [
        103.8732328,
        1.3623478
      ],
      [
        103.8732362,
        1.3624178
      ],
      [
        103.8732584,
        1.3625872
      ],
      [
        103.8732818,
        1.3626942
      ],
      [
        103.8733222,
        1.3628106
      ],
      [
        103.8733823,
        1.3629157
      ],
      [
        103.8735014,
        1.3631266
      ],
      [
        103.8736313,
        1.3633563
      ],
      [
        103.8737801,
        1.3636436
      ],
      [
        103.8738029,
        1.3636877
      ],
      [
        103.8738611,
        1.3637874
      ],
      [
        103.8739153,
        1.3638951
      ],
      [
        103.8745254,
        1.3650857
      ],
      [
        103.8747491,
        1.3656056
      ],
      [
        103.8751779,
        1.3665704
      ],
      [
        103.875386,
        1.3670398
      ],
      [
        103.875467,
        1.3672226
      ],
      [
        103.8755794,
        1.3674763
      ],
      [
        103.8756064,
        1.3675594
      ],
      [
        103.8756167,
        1.3675852
      ],
      [
        103.8757421,
        1.3678995
      ],
      [
        103.8758916,
        1.368313
      ],
      [
        103.8759779,
        1.368546
      ],
      [
        103.8760335,
        1.3687308
      ],
      [
        103.8760778,
        1.3688858
      ],
      [
        103.8760905,
        1.3689399
      ],
      [
        103.8761695,
        1.3692376
      ],
      [
        103.8761827,
        1.3692901
      ],
      [
        103.8762289,
        1.369542
      ],
      [
        103.8763128,
        1.3698818
      ],
      [
        103.8763606,
        1.3700752
      ],
      [
        103.8763729,
        1.3701383
      ],
      [
        103.8764427,
        1.3704974
      ],
      [
        103.8765174,
        1.371026
      ],
      [
        103.8765973,
        1.3715908
      ],
      [
        103.8765998,
        1.3716086
      ],
      [
        103.8766637,
        1.3720801
      ],
      [
        103.8767411,
        1.3726573
      ],
      [
        103.8768427,
        1.3734003
      ],
      [
        103.8768911,
        1.3738044
      ],
      [
        103.8769312,
        1.3741989
      ],
      [
        103.8769503,
        1.3746768
      ],
      [
        103.8769587,
        1.3749542
      ],
      [
        103.8769595,
        1.3749804
      ],
      [
        103.8769616,
        1.375051
      ],
      [
        103.8769634,
        1.3751107
      ],
      [
        103.8769845,
        1.375467
      ],
      [
        103.8769928,
        1.3755873
      ],
      [
        103.8769806,
        1.375992
      ],
      [
        103.8769677,
        1.3764225
      ],
      [
        103.8768669,
        1.3770456
      ],
      [
        103.8768003,
        1.3774178
      ],
      [
        103.8767367,
        1.3777738
      ],
      [
        103.876712,
        1.3779119
      ],
      [
        103.8766884,
        1.3780799
      ],
      [
        103.8766477,
        1.3783687
      ],
      [
        103.8766301,
        1.3784938
      ],
      [
        103.8765905,
        1.3787751
      ],
      [
        103.8765777,
        1.3788659
      ],
      [
        103.8765719,
        1.3789891
      ],
      [
        103.8765755,
        1.3790601
      ],
      [
        103.8765866,
        1.3792971
      ],
      [
        103.8766078,
        1.3796938
      ],
      [
        103.8766492,
        1.3802367
      ],
      [
        103.8766522,
        1.3802754
      ],
      [
        103.876672,
        1.3806046
      ],
      [
        103.876714,
        1.3811504
      ],
      [
        103.8767449,
        1.3815507
      ],
      [
        103.8767724,
        1.3819069
      ],
      [
        103.8767961,
        1.3822148
      ],
      [
        103.8768369,
        1.3827433
      ],
      [
        103.8768484,
        1.3828926
      ],
      [
        103.8768525,
        1.3829546
      ],
      [
        103.8768273,
        1.3832801
      ],
      [
        103.8767744,
        1.383649
      ],
      [
        103.8766995,
        1.3839166
      ],
      [
        103.8764961,
        1.3843239
      ],
      [
        103.8762984,
        1.3846023
      ],
      [
        103.8757209,
        1.3851598
      ],
      [
        103.8752841,
        1.3855815
      ],
      [
        103.8744731,
        1.3862852
      ],
      [
        103.8742908,
        1.3864311
      ],
      [
        103.8739606,
        1.3866835
      ],
      [
        103.8738419,
        1.3867619
      ],
      [
        103.8737082,
        1.3868486
      ],
      [
        103.8732758,
        1.3870357
      ],
      [
        103.8731187,
        1.3870987
      ],
      [
        103.8730516,
        1.3871255
      ],
      [
        103.8728243,
        1.387212
      ],
      [
        103.8725514,
        1.3872919
      ],
      [
        103.8719286,
        1.387444
      ],
      [
        103.8714176,
        1.3875708
      ],
      [
        103.8708597,
        1.3876707
      ],
      [
        103.8705499,
        1.3877261
      ],
      [
        103.8704055,
        1.3877519
      ],
      [
        103.8697417,
        1.3878913
      ],
      [
        103.8695166,
        1.3879489
      ],
      [
        103.8693246,
        1.3879967
      ],
      [
        103.868963,
        1.3880822
      ],
      [
        103.8689505,
        1.3880852
      ],
      [
        103.868893,
        1.3880991
      ],
      [
        103.8687633,
        1.3881316
      ],
      [
        103.8686715,
        1.3881561
      ],
      [
        103.8683819,
        1.3882334
      ],
      [
        103.8678974,
        1.388366
      ],
      [
        103.8675182,
        1.3884759
      ],
      [
        103.867184,
        1.3885606
      ],
      [
        103.8670997,
        1.3885836
      ],
      [
        103.8670359,
        1.3885971
      ],
      [
        103.8669122,
        1.388634
      ],
      [
        103.8666625,
        1.3887064
      ],
      [
        103.8660229,
        1.3888926
      ],
      [
        103.8658043,
        1.3889547
      ],
      [
        103.8647233,
        1.3892401
      ],
      [
        103.8644535,
        1.389326
      ],
      [
        103.8641734,
        1.3894151
      ],
      [
        103.8639929,
        1.3894698
      ],
      [
        103.8638952,
        1.3894994
      ],
      [
        103.863804,
        1.389524
      ],
      [
        103.8635971,
        1.3895795
      ],
      [
        103.863464,
        1.3896128
      ],
      [
        103.8610323,
        1.3902778
      ],
      [
        103.8605767,
        1.390405
      ],
      [
        103.8603969,
        1.3904521
      ],
      [
        103.8603267,
        1.3904775
      ],
      [
        103.8596475,
        1.3906743
      ],
      [
        103.8594528,
        1.3907303
      ],
      [
        103.8590501,
        1.3908253
      ],
      [
        103.8589247,
        1.3908526
      ],
      [
        103.8587378,
        1.3908975
      ],
      [
        103.8585608,
        1.3909347
      ],
      [
        103.8583531,
        1.3909818
      ],
      [
        103.8582379,
        1.3910097
      ],
      [
        103.8580893,
        1.3910417
      ],
      [
        103.8572348,
        1.3912175
      ],
      [
        103.8569959,
        1.3912654
      ],
      [
        103.8568291,
        1.3912988
      ],
      [
        103.856184,
        1.3914278
      ],
      [
        103.8556223,
        1.3915521
      ],
      [
        103.855153,
        1.3916195
      ],
      [
        103.8551085,
        1.3916292
      ],
      [
        103.8550271,
        1.3916467
      ],
      [
        103.8548394,
        1.3917008
      ],
      [
        103.8545658,
        1.3917566
      ],
      [
        103.8543203,
        1.3918102
      ],
      [
        103.8540617,
        1.3918784
      ],
      [
        103.853729,
        1.3919602
      ],
      [
        103.8535364,
        1.3920057
      ],
      [
        103.8526718,
        1.3922006
      ],
      [
        103.8526332,
        1.3922057
      ],
      [
        103.852129,
        1.3922701
      ],
      [
        103.8514741,
        1.3923485
      ],
      [
        103.8507704,
        1.3923553
      ],
      [
        103.8502519,
        1.3923406
      ],
      [
        103.8494824,
        1.3922582
      ],
      [
        103.8486817,
        1.3920759
      ],
      [
        103.8485546,
        1.3920415
      ],
      [
        103.8484452,
        1.3920092
      ],
      [
        103.8477302,
        1.3917754
      ],
      [
        103.847048,
        1.3914696
      ],
      [
        103.8466299,
        1.3912197
      ],
      [
        103.8463529,
        1.3910324
      ],
      [
        103.8459058,
        1.3907491
      ],
      [
        103.8455843,
        1.3905202
      ],
      [
        103.8452422,
        1.3902521
      ],
      [
        103.8452739,
        1.3902087
      ],
      [
        103.8452892,
        1.3901878
      ],
      [
        103.8455945,
        1.3897717
      ],
      [
        103.8456523,
        1.3896919
      ],
      [
        103.8457054,
        1.3895933
      ],
      [
        103.8457372,
        1.389512
      ],
      [
        103.8457633,
        1.3894449
      ],
      [
        103.8458177,
        1.3892596
      ],
      [
        103.8458825,
        1.388985
      ],
      [
        103.8459061,
        1.3888769
      ],
      [
        103.8459193,
        1.3888207
      ],
      [
        103.8461113,
        1.3880538
      ],
      [
        103.8462003,
        1.3876911
      ],
      [
        103.8462712,
        1.3874261
      ],
      [
        103.84629,
        1.3873702
      ],
      [
        103.8463244,
        1.3873274
      ],
      [
        103.8463696,
        1.3873002
      ],
      [
        103.846428,
        1.3872905
      ],
      [
        103.8464934,
        1.3872967
      ],
      [
        103.8475101,
        1.3875739
      ],
      [
        103.8479332,
        1.387675
      ],
      [
        103.8480761,
        1.3877059
      ],
      [
        103.8480761,
        1.3877059
      ],
      [
        103.8480905,
        1.3875914
      ],
      [
        103.8480855,
        1.3876377
      ],
      [
        103.8481227,
        1.3872963
      ],
      [
        103.8481553,
        1.386985
      ],
      [
        103.848176,
        1.3867628
      ],
      [
        103.8481828,
        1.386682
      ],
      [
        103.8481915,
        1.3865888
      ],
      [
        103.8481982,
        1.3864963
      ],
      [
        103.8482069,
        1.3864186
      ],
      [
        103.8482344,
        1.3861685
      ],
      [
        103.8482496,
        1.3859192
      ],
      [
        103.8482565,
        1.3857469
      ],
      [
        103.8482478,
        1.3856135
      ],
      [
        103.8482498,
        1.3854951
      ],
      [
        103.8482482,
        1.3854217
      ],
      [
        103.8482466,
        1.3853874
      ],
      [
        103.848244,
        1.3853531
      ],
      [
        103.8482391,
        1.3853038
      ],
      [
        103.8482354,
        1.3852608
      ],
      [
        103.8482277,
        1.3851757
      ],
      [
        103.8482029,
        1.385028
      ],
      [
        103.848198,
        1.3849986
      ],
      [
        103.8481705,
        1.3848346
      ],
      [
        103.8481432,
        1.3847152
      ],
      [
        103.8481163,
        1.3846179
      ],
      [
        103.8480581,
        1.3844108
      ],
      [
        103.8480019,
        1.3842209
      ],
      [
        103.8479504,
        1.38407
      ],
      [
        103.8479052,
        1.3839557
      ],
      [
        103.847882,
        1.3839004
      ],
      [
        103.8478649,
        1.3838598
      ],
      [
        103.8478348,
        1.3837854
      ],
      [
        103.8477825,
        1.3838089
      ],
      [
        103.8476235,
        1.3838853
      ],
      [
        103.8474619,
        1.3839604
      ],
      [
        103.8472276,
        1.3840524
      ],
      [
        103.847109,
        1.3840989
      ],
      [
        103.8468448,
        1.3841807
      ],
      [
        103.8466723,
        1.3842167
      ],
      [
        103.8465668,
        1.3842332
      ],
      [
        103.8461405,
        1.384284
      ],
      [
        103.8460727,
        1.3842847
      ],
      [
        103.8456646,
        1.3842695
      ],
      [
        103.8455928,
        1.3842596
      ],
      [
        103.8455233,
        1.3842541
      ],
      [
        103.8454793,
        1.3842479
      ],
      [
        103.845336,
        1.384233
      ],
      [
        103.8452905,
        1.3842262
      ],
      [
        103.8450567,
        1.3841925
      ],
      [
        103.8448216,
        1.3841657
      ],
      [
        103.8447315,
        1.3841471
      ],
      [
        103.8445384,
        1.3841022
      ],
      [
        103.8444983,
        1.3840985
      ],
      [
        103.8444293,
        1.3840922
      ],
      [
        103.844122,
        1.3840633
      ],
      [
        103.8439955,
        1.384045
      ],
      [
        103.8438738,
        1.3840288
      ],
      [
        103.8439044,
        1.3839667
      ],
      [
        103.8439429,
        1.3838739
      ],
      [
        103.8439657,
        1.3838102
      ],
      [
        103.8439999,
        1.3836969
      ],
      [
        103.8440401,
        1.3835675
      ],
      [
        103.8441199,
        1.3832578
      ],
      [
        103.84414,
        1.3831103
      ],
      [
        103.8441575,
        1.382928
      ],
      [
        103.844179,
        1.3823931
      ],
      [
        103.844184,
        1.3823536
      ],
      [
        103.84417,
        1.3822508
      ],
      [
        103.8442566,
        1.3819662
      ],
      [
        103.8442662,
        1.3818803
      ],
      [
        103.8442748,
        1.3817703
      ],
      [
        103.8442755,
        1.3815424
      ],
      [
        103.8442725,
        1.3813425
      ],
      [
        103.8442744,
        1.3812698
      ],
      [
        103.8442752,
        1.3812504
      ],
      [
        103.8442868,
        1.3811666
      ],
      [
        103.8443195,
        1.3811646
      ],
      [
        103.844402,
        1.381149
      ],
      [
        103.8446975,
        1.3811014
      ],
      [
        103.8448401,
        1.3810409
      ],
      [
        103.8450569,
        1.3809207
      ],
      [
        103.8451307,
        1.3808677
      ],
      [
        103.845283,
        1.3807674
      ],
      [
        103.8453202,
        1.3808307
      ],
      [
        103.8453461,
        1.3811434
      ],
      [
        103.8453626,
        1.3812601
      ],
      [
        103.8454957,
        1.3813792
      ]
    ]
  }
}