{
  "type": "Feature",
  "properties": {
    "relation": 12980547,
    "direction": "1",
    "fee": "yes",
    "from": "Ang Mo Kio Interchange",
    "name": "Svc 73T (Ang Mo Kio Interchange → Toa Payoh Interchange)",
    "network": "Land Transport Authority",
    "network:short": "LTA",
    "network:wikidata": "Q3299279",
    "network:wikipedia": "en:Land Transport Authority",
    "operator": "SBS Transit",
    "operator:wikidata": "Q2661305",
    "operator:wikipedia": "en:SBS Transit",
    "public_transport:version": "2",
    "ref": "73T",
    "route": "bus",
    "to": "Toa Payoh Interchange",
    "type": "route",
    "website": "https://www.sbstransit.com.sg/Service/BusService?ServiceType=Basic&ServiceNo=73T"
  },
  "geometry": {
    "type": "LineString",
    "coordinates": [
      [
        103.8489514,
        1.3697347
      ],
      [
        103.8490249,
        1.3696195
      ],
      [
        103.8490203,
        1.3695524
      ],
      [
        103.848986,
        1.3695328
      ],
      [
        103.8488873,
        1.3695059
      ],
      [
        103.8484732,
        1.3694438
      ],
      [
        103.8482927,
        1.3694331
      ],
      [
        103.8482028,
        1.3694596
      ],
      [
        103.8481351,
        1.3696116
      ],
      [
        103.8480878,
        1.3697298
      ],
      [
        103.84805,
        1.3698969
      ],
      [
        103.8480507,
        1.3699117
      ],
      [
        103.8480634,
        1.3699244
      ],
      [
        103.8482049,
        1.3699398
      ],
      [
        103.8482244,
        1.3699324
      ],
      [
        103.8482807,
        1.3698714
      ],
      [
        103.8483068,
        1.3698574
      ],
      [
        103.8483323,
        1.3698533
      ],
      [
        103.8485429,
        1.3698627
      ],
      [
        103.8487223,
        1.3698835
      ],
      [
        103.8489979,
        1.3700299
      ],
      [
        103.849065,
        1.3700672
      ],
      [
        103.8491698,
        1.3701314
      ],
      [
        103.849201,
        1.370086
      ],
      [
        103.8497207,
        1.369151
      ],
      [
        103.8497652,
        1.3690664
      ],
      [
        103.8498972,
        1.3690954
      ],
      [
        103.8502167,
        1.3691765
      ],
      [
        103.8509725,
        1.3694101
      ],
      [
        103.8511927,
        1.3694845
      ],
      [
        103.8516254,
        1.3696007
      ],
      [
        103.8519869,
        1.3696949
      ],
      [
        103.8520505,
        1.3697106
      ],
      [
        103.8522987,
        1.369771
      ],
      [
        103.8532344,
        1.3699285
      ],
      [
        103.8536571,
        1.3699186
      ],
      [
        103.8539149,
        1.3699003
      ],
      [
        103.8539355,
        1.3698979
      ],
      [
        103.8541601,
        1.3698658
      ],
      [
        103.8543452,
        1.3698132
      ],
      [
        103.8549212,
        1.3696455
      ],
      [
        103.855432,
        1.3694937
      ],
      [
        103.8558599,
        1.3693854
      ],
      [
        103.8560131,
        1.369342
      ],
      [
        103.8563484,
        1.3692545
      ],
      [
        103.8565221,
        1.3692193
      ],
      [
        103.8566989,
        1.3691679
      ],
      [
        103.8567822,
        1.3691436
      ],
      [
        103.8568528,
        1.3691273
      ],
      [
        103.8569409,
        1.3691211
      ],
      [
        103.8578081,
        1.3690601
      ],
      [
        103.8580526,
        1.3690636
      ],
      [
        103.858227,
        1.369069
      ],
      [
        103.8583676,
        1.3691189
      ],
      [
        103.8584755,
        1.3692284
      ],
      [
        103.858586,
        1.3693438
      ],
      [
        103.8586678,
        1.3694095
      ],
      [
        103.8588064,
        1.3694941
      ],
      [
        103.8589056,
        1.3695319
      ],
      [
        103.8590055,
        1.3695425
      ],
      [
        103.8591444,
        1.3695398
      ],
      [
        103.8593025,
        1.3694768
      ],
      [
        103.8594518,
        1.3694084
      ],
      [
        103.8596605,
        1.3693212
      ],
      [
        103.8598605,
        1.3693251
      ],
      [
        103.8604291,
        1.3694176
      ],
      [
        103.8612927,
        1.3696428
      ],
      [
        103.8617616,
        1.3697635
      ],
      [
        103.8627817,
        1.3700724
      ],
      [
        103.8631032,
        1.370155
      ],
      [
        103.8634295,
        1.3702734
      ],
      [
        103.8636532,
        1.370353
      ],
      [
        103.8638447,
        1.3704162
      ],
      [
        103.8638975,
        1.370431
      ],
      [
        103.8639929,
        1.3704671
      ],
      [
        103.8640183,
        1.3704755
      ],
      [
        103.8641543,
        1.3705207
      ],
      [
        103.8643093,
        1.3705722
      ],
      [
        103.864668,
        1.3706914
      ],
      [
        103.8647601,
        1.3707368
      ],
      [
        103.8648051,
        1.370759
      ],
      [
        103.8649402,
        1.3708321
      ],
      [
        103.8650277,
        1.3708817
      ],
      [
        103.8652624,
        1.3710286
      ],
      [
        103.8657747,
        1.371379
      ],
      [
        103.8660716,
        1.3715536
      ],
      [
        103.8663857,
        1.3716922
      ],
      [
        103.8665391,
        1.3717598
      ],
      [
        103.8667453,
        1.3718211
      ],
      [
        103.8668203,
        1.3718376
      ],
      [
        103.8670174,
        1.3718809
      ],
      [
        103.8677056,
        1.3719519
      ],
      [
        103.8680682,
        1.3719633
      ],
      [
        103.8681592,
        1.3719661
      ],
      [
        103.8684375,
        1.3719522
      ],
      [
        103.8687882,
        1.3719211
      ],
      [
        103.869283,
        1.3718537
      ],
      [
        103.8694916,
        1.3718193
      ],
      [
        103.8696853,
        1.3717739
      ],
      [
        103.869723,
        1.371765
      ],
      [
        103.8698029,
        1.3717459
      ],
      [
        103.8701638,
        1.3716615
      ],
      [
        103.8702071,
        1.3716506
      ],
      [
        103.8704464,
        1.3715841
      ],
      [
        103.8706148,
        1.3715373
      ],
      [
        103.870954,
        1.3714609
      ],
      [
        103.8712328,
        1.3713932
      ],
      [
        103.8714393,
        1.3714116
      ],
      [
        103.8715519,
        1.3714438
      ],
      [
        103.8716378,
        1.3715001
      ],
      [
        103.8717721,
        1.3716355
      ],
      [
        103.8718031,
        1.3717547
      ],
      [
        103.8718087,
        1.3717772
      ],
      [
        103.8718657,
        1.3720053
      ],
      [
        103.8718818,
        1.3720699
      ],
      [
        103.8719593,
        1.3723797
      ],
      [
        103.8719566,
        1.3725029
      ],
      [
        103.8719271,
        1.3726116
      ],
      [
        103.8718655,
        1.3726933
      ],
      [
        103.8716046,
        1.3730019
      ],
      [
        103.8716615,
        1.3730437
      ],
      [
        103.8716826,
        1.3730613
      ],
      [
        103.8719639,
        1.3732976
      ],
      [
        103.8721584,
        1.3734304
      ],
      [
        103.8721819,
        1.3734625
      ],
      [
        103.8722704,
        1.3735272
      ],
      [
        103.8723907,
        1.3735915
      ],
      [
        103.8724326,
        1.3736094
      ],
      [
        103.8724937,
        1.3736235
      ],
      [
        103.8725661,
        1.3736375
      ],
      [
        103.8726687,
        1.3736375
      ],
      [
        103.8727275,
        1.3736359
      ],
      [
        103.8727579,
        1.3736228
      ],
      [
        103.8728944,
        1.373612
      ],
      [
        103.8729578,
        1.3736085
      ],
      [
        103.8732306,
        1.373602
      ],
      [
        103.8733019,
        1.3735959
      ],
      [
        103.873366,
        1.3735795
      ],
      [
        103.8734453,
        1.3735428
      ],
      [
        103.8735057,
        1.3735014
      ],
      [
        103.8735563,
        1.3734584
      ],
      [
        103.8736003,
        1.3733976
      ],
      [
        103.8736647,
        1.3733308
      ],
      [
        103.8736891,
        1.3732642
      ],
      [
        103.8737033,
        1.373192
      ],
      [
        103.8737049,
        1.3730533
      ],
      [
        103.8736894,
        1.3727035
      ],
      [
        103.8736991,
        1.3726174
      ],
      [
        103.8737195,
        1.3725417
      ],
      [
        103.8737492,
        1.3724808
      ],
      [
        103.8737908,
        1.3724249
      ],
      [
        103.873838,
        1.3723763
      ],
      [
        103.8739112,
        1.3723254
      ],
      [
        103.8739909,
        1.3722923
      ],
      [
        103.8740761,
        1.3722727
      ],
      [
        103.8742641,
        1.3722641
      ],
      [
        103.8745143,
        1.3722526
      ],
      [
        103.874679,
        1.372244
      ],
      [
        103.8748646,
        1.3722352
      ],
      [
        103.8749256,
        1.372236
      ],
      [
        103.8750271,
        1.3722571
      ],
      [
        103.8751149,
        1.3722961
      ],
      [
        103.8752012,
        1.3723602
      ],
      [
        103.8752584,
        1.3724316
      ],
      [
        103.8752876,
        1.3724807
      ],
      [
        103.8753133,
        1.3725456
      ],
      [
        103.8753281,
        1.3726281
      ],
      [
        103.8753504,
        1.372882
      ],
      [
        103.8753696,
        1.3732765
      ],
      [
        103.8753783,
        1.3734449
      ],
      [
        103.87538,
        1.3735098
      ],
      [
        103.875384,
        1.373589
      ],
      [
        103.8753976,
        1.3738504
      ],
      [
        103.8754141,
        1.3741488
      ],
      [
        103.8754235,
        1.3743123
      ],
      [
        103.8754339,
        1.3745714
      ],
      [
        103.8754544,
        1.3749746
      ],
      [
        103.8754569,
        1.3750178
      ],
      [
        103.8754575,
        1.3750558
      ],
      [
        103.8754604,
        1.3750981
      ],
      [
        103.8754843,
        1.3750971
      ],
      [
        103.8755227,
        1.3750958
      ],
      [
        103.8763782,
        1.3750459
      ],
      [
        103.8764991,
        1.3750429
      ],
      [
        103.8766888,
        1.3750415
      ],
      [
        103.8768715,
        1.3750496
      ],
      [
        103.8769616,
        1.375051
      ],
      [
        103.8770978,
        1.3750522
      ],
      [
        103.8770979,
        1.3749737
      ],
      [
        103.8770973,
        1.3749429
      ],
      [
        103.8770892,
        1.3746878
      ],
      [
        103.8770623,
        1.3741813
      ],
      [
        103.8770017,
        1.3735587
      ],
      [
        103.8769589,
        1.3731719
      ],
      [
        103.8769486,
        1.3730971
      ],
      [
        103.8768817,
        1.3726118
      ],
      [
        103.8768751,
        1.3725642
      ],
      [
        103.8767393,
        1.3715791
      ],
      [
        103.876681,
        1.3711775
      ],
      [
        103.8766613,
        1.3710016
      ],
      [
        103.8765905,
        1.3705364
      ],
      [
        103.8765187,
        1.3700988
      ],
      [
        103.8765086,
        1.3700358
      ],
      [
        103.8764775,
        1.3698446
      ],
      [
        103.8764134,
        1.369493
      ],
      [
        103.8763601,
        1.3692507
      ],
      [
        103.8763454,
        1.3692002
      ],
      [
        103.8762811,
        1.3689804
      ],
      [
        103.8762356,
        1.3688227
      ],
      [
        103.8762129,
        1.3687368
      ],
      [
        103.8760887,
        1.368266
      ],
      [
        103.8760171,
        1.3680911
      ],
      [
        103.8759191,
        1.3678517
      ],
      [
        103.8759007,
        1.3678114
      ],
      [
        103.8757102,
        1.3673927
      ],
      [
        103.8756743,
        1.367311
      ],
      [
        103.8755255,
        1.3669729
      ],
      [
        103.875479,
        1.3668673
      ],
      [
        103.8753438,
        1.3665601
      ],
      [
        103.8752209,
        1.3662807
      ],
      [
        103.8751155,
        1.3660309
      ],
      [
        103.8749267,
        1.3656392
      ],
      [
        103.8744017,
        1.3645225
      ],
      [
        103.8743182,
        1.3643507
      ],
      [
        103.8741313,
        1.3639661
      ],
      [
        103.8740519,
        1.3638314
      ],
      [
        103.874024,
        1.3637744
      ],
      [
        103.8739726,
        1.3636801
      ],
      [
        103.873915,
        1.3635748
      ],
      [
        103.8737425,
        1.3632592
      ],
      [
        103.8736148,
        1.3630304
      ],
      [
        103.8735234,
        1.3628832
      ],
      [
        103.8734559,
        1.3627607
      ],
      [
        103.8734005,
        1.3626002
      ],
      [
        103.8733718,
        1.3624141
      ],
      [
        103.8733687,
        1.3623438
      ],
      [
        103.8733653,
        1.3622528
      ],
      [
        103.8732301,
        1.3622551
      ],
      [
        103.8731226,
        1.3622653
      ],
      [
        103.8730166,
        1.3622853
      ],
      [
        103.872974,
        1.3623283
      ],
      [
        103.8729303,
        1.3623793
      ],
      [
        103.8727854,
        1.3625858
      ],
      [
        103.8725835,
        1.3628681
      ],
      [
        103.8724762,
        1.362958
      ],
      [
        103.87233,
        1.3630425
      ],
      [
        103.8720597,
        1.363147
      ],
      [
        103.8720273,
        1.3631551
      ],
      [
        103.8718942,
        1.3631886
      ],
      [
        103.8713173,
        1.3632361
      ],
      [
        103.87125,
        1.3632503
      ],
      [
        103.8705467,
        1.3632939
      ],
      [
        103.8704579,
        1.3633116
      ],
      [
        103.8702484,
        1.3633626
      ],
      [
        103.869821,
        1.3635038
      ],
      [
        103.8697234,
        1.3635407
      ],
      [
        103.8694623,
        1.3636165
      ],
      [
        103.8692689,
        1.3636503
      ],
      [
        103.8689316,
        1.3636511
      ],
      [
        103.8685667,
        1.3636329
      ],
      [
        103.8684088,
        1.3636317
      ],
      [
        103.8681341,
        1.363629
      ],
      [
        103.8680583,
        1.3636171
      ],
      [
        103.8680128,
        1.3635987
      ],
      [
        103.8679635,
        1.3635695
      ],
      [
        103.8679306,
        1.3635525
      ],
      [
        103.8678064,
        1.3635237
      ],
      [
        103.867708,
        1.3635124
      ],
      [
        103.8676323,
        1.3635206
      ],
      [
        103.8675375,
        1.3635425
      ],
      [
        103.8674551,
        1.3635717
      ],
      [
        103.8674026,
        1.3635918
      ],
      [
        103.867338,
        1.3636154
      ],
      [
        103.8672712,
        1.3636344
      ],
      [
        103.8671929,
        1.363644
      ],
      [
        103.8671373,
        1.3636478
      ],
      [
        103.8670005,
        1.363647
      ],
      [
        103.8667754,
        1.3636478
      ],
      [
        103.8666013,
        1.3636485
      ],
      [
        103.8664271,
        1.3636491
      ],
      [
        103.8663527,
        1.3636507
      ],
      [
        103.8662346,
        1.3636522
      ],
      [
        103.8661855,
        1.363661
      ],
      [
        103.8661002,
        1.3636762
      ],
      [
        103.8660704,
        1.3636715
      ],
      [
        103.8660403,
        1.3636724
      ],
      [
        103.8660108,
        1.3636789
      ],
      [
        103.8659831,
        1.3636908
      ],
      [
        103.8659586,
        1.3637015
      ],
      [
        103.8659366,
        1.3637168
      ],
      [
        103.865918,
        1.3637361
      ],
      [
        103.8659021,
        1.3637745
      ],
      [
        103.8658876,
        1.3638115
      ],
      [
        103.8658817,
        1.3638507
      ],
      [
        103.8658846,
        1.3638903
      ],
      [
        103.8658915,
        1.3639161
      ],
      [
        103.8659021,
        1.3639405
      ],
      [
        103.8659163,
        1.363963
      ],
      [
        103.8659336,
        1.3639833
      ],
      [
        103.8659538,
        1.3640006
      ],
      [
        103.8659763,
        1.3640148
      ],
      [
        103.8660007,
        1.3640255
      ],
      [
        103.8660264,
        1.3640324
      ],
      [
        103.8660529,
        1.3640354
      ],
      [
        103.8660918,
        1.3640502
      ],
      [
        103.8661331,
        1.3640808
      ],
      [
        103.8661495,
        1.3641094
      ],
      [
        103.8661656,
        1.3641645
      ],
      [
        103.8661739,
        1.3642199
      ],
      [
        103.8661757,
        1.3642625
      ],
      [
        103.8660968,
        1.3642705
      ],
      [
        103.8659682,
        1.3643213
      ],
      [
        103.8659495,
        1.3643225
      ],
      [
        103.8659308,
        1.364319
      ],
      [
        103.865918,
        1.3643108
      ],
      [
        103.8657242,
        1.3639409
      ],
      [
        103.8656931,
        1.3638711
      ],
      [
        103.8656931,
        1.3638453
      ],
      [
        103.865696,
        1.3638054
      ],
      [
        103.8657719,
        1.363809
      ],
      [
        103.8658376,
        1.3638448
      ],
      [
        103.8658846,
        1.3638903
      ],
      [
        103.8658915,
        1.3639161
      ],
      [
        103.8659021,
        1.3639405
      ],
      [
        103.8659163,
        1.363963
      ],
      [
        103.8659336,
        1.3639833
      ],
      [
        103.8659538,
        1.3640006
      ],
      [
        103.8659763,
        1.3640148
      ],
      [
        103.8660007,
        1.3640255
      ],
      [
        103.8660264,
        1.3640324
      ],
      [
        103.8660529,
        1.3640354
      ],
      [
        103.8660924,
        1.3640326
      ],
      [
        103.8661304,
        1.364021
      ],
      [
        103.8661648,
        1.3640013
      ],
      [
        103.866194,
        1.3639745
      ],
      [
        103.8662139,
        1.363946
      ],
      [
        103.866229,
        1.3639147
      ],
      [
        103.866238,
        1.3638812
      ],
      [
        103.8662406,
        1.3638467
      ],
      [
        103.8662799,
        1.3637793
      ],
      [
        103.8663243,
        1.3637268
      ],
      [
        103.8663983,
        1.3637001
      ],
      [
        103.8664658,
        1.3636996
      ],
      [
        103.866776,
        1.3636973
      ],
      [
        103.8669994,
        1.3636956
      ],
      [
        103.8670372,
        1.3636953
      ],
      [
        103.8672799,
        1.3636935
      ],
      [
        103.8675022,
        1.3636709
      ],
      [
        103.8675939,
        1.3636447
      ],
      [
        103.8676568,
        1.3636195
      ],
      [
        103.8676796,
        1.363608
      ],
      [
        103.8677085,
        1.3635721
      ],
      [
        103.8677085,
        1.3635721
      ],
      [
        103.8677374,
        1.3634048
      ],
      [
        103.8677216,
        1.3634608
      ],
      [
        103.867708,
        1.3635124
      ],
      [
        103.8677697,
        1.3632855
      ],
      [
        103.8677707,
        1.3631931
      ],
      [
        103.8677715,
        1.3631478
      ],
      [
        103.8677731,
        1.3630894
      ],
      [
        103.8677756,
        1.3629185
      ],
      [
        103.8678312,
        1.362287
      ],
      [
        103.867793,
        1.3626072
      ],
      [
        103.8678138,
        1.3626712
      ],
      [
        103.867867,
        1.36222
      ],
      [
        103.8678885,
        1.3620866
      ],
      [
        103.8678997,
        1.3620122
      ],
      [
        103.8679594,
        1.3616892
      ],
      [
        103.8679829,
        1.361568
      ],
      [
        103.8680077,
        1.3614244
      ],
      [
        103.8680383,
        1.3612578
      ],
      [
        103.8681544,
        1.360579
      ],
      [
        103.868201,
        1.3603269
      ],
      [
        103.8682446,
        1.360062
      ],
      [
        103.8682803,
        1.3598445
      ],
      [
        103.8683133,
        1.3596318
      ],
      [
        103.8683144,
        1.3596215
      ],
      [
        103.8683248,
        1.359528
      ],
      [
        103.8683495,
        1.3590949
      ],
      [
        103.8683351,
        1.3593947
      ],
      [
        103.8683383,
        1.358592
      ],
      [
        103.8683341,
        1.3585406
      ],
      [
        103.8683214,
        1.358444
      ],
      [
        103.8683436,
        1.3583311
      ],
      [
        103.8683049,
        1.3581302
      ],
      [
        103.868274,
        1.3580969
      ],
      [
        103.868274,
        1.3580969
      ],
      [
        103.8682536,
        1.3579504
      ],
      [
        103.8682328,
        1.3578087
      ],
      [
        103.8682099,
        1.3576608
      ],
      [
        103.8680818,
        1.3568811
      ],
      [
        103.8681025,
        1.3569986
      ],
      [
        103.86806,
        1.3567629
      ],
      [
        103.8679953,
        1.3564476
      ],
      [
        103.8679848,
        1.3563685
      ],
      [
        103.8679318,
        1.3561409
      ],
      [
        103.8678867,
        1.355843
      ],
      [
        103.867868,
        1.3557062
      ],
      [
        103.8678589,
        1.3555796
      ],
      [
        103.8678607,
        1.3554946
      ],
      [
        103.8678683,
        1.3554022
      ],
      [
        103.8678741,
        1.3552701
      ],
      [
        103.8677935,
        1.3552437
      ],
      [
        103.8677283,
        1.3552227
      ],
      [
        103.867506,
        1.3551512
      ],
      [
        103.8673602,
        1.3551043
      ],
      [
        103.8671466,
        1.3550226
      ],
      [
        103.8668785,
        1.3549201
      ],
      [
        103.866598,
        1.354799
      ],
      [
        103.8662797,
        1.3546518
      ],
      [
        103.8660876,
        1.3545629
      ],
      [
        103.8656068,
        1.3543406
      ],
      [
        103.8654014,
        1.3542451
      ],
      [
        103.8652799,
        1.354199
      ],
      [
        103.8651253,
        1.3541321
      ],
      [
        103.8648154,
        1.3539113
      ],
      [
        103.8646946,
        1.353826
      ],
      [
        103.8646356,
        1.3537835
      ],
      [
        103.8644995,
        1.3536969
      ],
      [
        103.8644378,
        1.3536469
      ],
      [
        103.8643668,
        1.3535861
      ],
      [
        103.8642266,
        1.3534755
      ],
      [
        103.8640103,
        1.3532314
      ],
      [
        103.863928,
        1.3531452
      ],
      [
        103.8636973,
        1.3528945
      ],
      [
        103.8636018,
        1.3527817
      ],
      [
        103.8635571,
        1.352729
      ],
      [
        103.8634199,
        1.3525693
      ],
      [
        103.8633271,
        1.3524689
      ],
      [
        103.8630934,
        1.3522032
      ],
      [
        103.8629986,
        1.3520954
      ],
      [
        103.8628886,
        1.3519694
      ],
      [
        103.8627619,
        1.3518256
      ],
      [
        103.8627431,
        1.3518029
      ],
      [
        103.8626836,
        1.3517292
      ],
      [
        103.8625717,
        1.3515921
      ],
      [
        103.8625089,
        1.3515168
      ],
      [
        103.8624273,
        1.3514225
      ],
      [
        103.8622688,
        1.3512324
      ],
      [
        103.8619392,
        1.3508606
      ],
      [
        103.8616928,
        1.3506073
      ],
      [
        103.8616496,
        1.3505567
      ],
      [
        103.8615968,
        1.3504949
      ],
      [
        103.8615382,
        1.3504322
      ],
      [
        103.8612564,
        1.3501252
      ],
      [
        103.8611832,
        1.3500377
      ],
      [
        103.8610371,
        1.3498534
      ],
      [
        103.8609811,
        1.3497897
      ],
      [
        103.860768,
        1.3495369
      ],
      [
        103.860591,
        1.3493173
      ],
      [
        103.8605581,
        1.3492712
      ],
      [
        103.8605163,
        1.3491954
      ],
      [
        103.8603952,
        1.3489998
      ],
      [
        103.8603231,
        1.348876
      ],
      [
        103.8602909,
        1.3488073
      ],
      [
        103.8602422,
        1.348699
      ],
      [
        103.8601549,
        1.3484234
      ],
      [
        103.8601068,
        1.3482317
      ],
      [
        103.8600852,
        1.348081
      ],
      [
        103.8600722,
        1.3479013
      ],
      [
        103.8600614,
        1.3477614
      ],
      [
        103.8600753,
        1.3474885
      ],
      [
        103.8601049,
        1.3472133
      ],
      [
        103.860156,
        1.346943
      ],
      [
        103.8601769,
        1.3468178
      ],
      [
        103.8602036,
        1.34666
      ],
      [
        103.8602556,
        1.3463762
      ],
      [
        103.8602731,
        1.346295
      ],
      [
        103.8602874,
        1.3462293
      ],
      [
        103.8603344,
        1.3459928
      ],
      [
        103.8604198,
        1.3455127
      ],
      [
        103.8604655,
        1.3452809
      ],
      [
        103.8604939,
        1.3451082
      ],
      [
        103.8604936,
        1.3449655
      ],
      [
        103.8604776,
        1.3448834
      ],
      [
        103.860455,
        1.3447966
      ],
      [
        103.8604262,
        1.3447439
      ],
      [
        103.8604167,
        1.3447047
      ],
      [
        103.8604224,
        1.3446508
      ],
      [
        103.8604882,
        1.3444321
      ],
      [
        103.8605476,
        1.3442199
      ],
      [
        103.8605941,
        1.3439511
      ],
      [
        103.860605,
        1.3438867
      ],
      [
        103.8606154,
        1.343831
      ],
      [
        103.8606178,
        1.3437896
      ],
      [
        103.8606227,
        1.3437482
      ],
      [
        103.8606206,
        1.3437087
      ],
      [
        103.8606173,
        1.3436901
      ],
      [
        103.8606134,
        1.3436748
      ],
      [
        103.8606092,
        1.3436618
      ],
      [
        103.8605939,
        1.3436275
      ],
      [
        103.8605781,
        1.3436023
      ],
      [
        103.8605628,
        1.3435833
      ],
      [
        103.8605465,
        1.3435666
      ],
      [
        103.8605132,
        1.3435409
      ],
      [
        103.8603833,
        1.3434353
      ],
      [
        103.8603129,
        1.3433842
      ],
      [
        103.8602172,
        1.3433118
      ],
      [
        103.8601483,
        1.3432651
      ],
      [
        103.8600689,
        1.3432406
      ],
      [
        103.8599221,
        1.3432164
      ],
      [
        103.8593715,
        1.3432114
      ],
      [
        103.8585251,
        1.3431908
      ],
      [
        103.8582742,
        1.3431902
      ],
      [
        103.8580018,
        1.3431934
      ],
      [
        103.8579257,
        1.3432016
      ],
      [
        103.8578607,
        1.3432307
      ],
      [
        103.8577395,
        1.3432251
      ],
      [
        103.8576926,
        1.3432237
      ],
      [
        103.8573859,
        1.3432082
      ],
      [
        103.8570978,
        1.3431897
      ],
      [
        103.8567844,
        1.3431787
      ],
      [
        103.8556677,
        1.3431466
      ],
      [
        103.8551239,
        1.3431345
      ],
      [
        103.8548427,
        1.3431291
      ],
      [
        103.8546034,
        1.343059
      ],
      [
        103.8543693,
        1.3430428
      ],
      [
        103.8541936,
        1.3429892
      ],
      [
        103.854064,
        1.3429193
      ],
      [
        103.8539559,
        1.3428154
      ],
      [
        103.8538953,
        1.3427204
      ],
      [
        103.8538216,
        1.3425655
      ],
      [
        103.8537716,
        1.3423161
      ],
      [
        103.8537373,
        1.3420753
      ],
      [
        103.8536314,
        1.3415074
      ],
      [
        103.8535528,
        1.3412253
      ],
      [
        103.8533985,
        1.3409442
      ],
      [
        103.853351,
        1.3407989
      ],
      [
        103.8533136,
        1.3407001
      ],
      [
        103.85326,
        1.3405499
      ],
      [
        103.8532297,
        1.340469
      ],
      [
        103.8531637,
        1.3403051
      ],
      [
        103.853102,
        1.3401559
      ],
      [
        103.8530303,
        1.3400259
      ],
      [
        103.8529166,
        1.3398249
      ],
      [
        103.8527987,
        1.3396125
      ],
      [
        103.8527217,
        1.3394873
      ],
      [
        103.8524455,
        1.3391544
      ],
      [
        103.8524087,
        1.33911
      ],
      [
        103.8523436,
        1.3390316
      ],
      [
        103.8522366,
        1.3391217
      ],
      [
        103.8519648,
        1.3393584
      ],
      [
        103.8518335,
        1.3394632
      ],
      [
        103.8517134,
        1.3395448
      ],
      [
        103.8515452,
        1.3396446
      ],
      [
        103.8514244,
        1.3396695
      ],
      [
        103.8512161,
        1.3396622
      ],
      [
        103.851099,
        1.3396344
      ],
      [
        103.8509718,
        1.3395504
      ],
      [
        103.8508537,
        1.3393567
      ],
      [
        103.8507124,
        1.3391336
      ],
      [
        103.8506434,
        1.3390246
      ],
      [
        103.8506229,
        1.3389899
      ],
      [
        103.8505356,
        1.3388418
      ],
      [
        103.8504981,
        1.3387783
      ],
      [
        103.8504828,
        1.3387515
      ],
      [
        103.8504695,
        1.3387274
      ],
      [
        103.8504439,
        1.3386809
      ],
      [
        103.850403,
        1.3386125
      ],
      [
        103.8503868,
        1.3385861
      ],
      [
        103.8503774,
        1.3385708
      ],
      [
        103.8503386,
        1.3385075
      ],
      [
        103.8500405,
        1.3380206
      ],
      [
        103.8498788,
        1.3377101
      ],
      [
        103.8498626,
        1.3376732
      ],
      [
        103.8498496,
        1.3376394
      ],
      [
        103.8498451,
        1.3375726
      ],
      [
        103.849846,
        1.3375593
      ],
      [
        103.8498486,
        1.3375148
      ],
      [
        103.8498525,
        1.3374486
      ],
      [
        103.8498598,
        1.3373259
      ],
      [
        103.8498702,
        1.3372405
      ],
      [
        103.8498893,
        1.3370832
      ],
      [
        103.8499492,
        1.336862
      ],
      [
        103.8500442,
        1.3366716
      ],
      [
        103.8501438,
        1.3364855
      ],
      [
        103.8502979,
        1.3362746
      ],
      [
        103.85048,
        1.3359805
      ],
      [
        103.8507719,
        1.3355834
      ],
      [
        103.8508641,
        1.3354601
      ],
      [
        103.8509673,
        1.3353018
      ],
      [
        103.851064,
        1.3351437
      ],
      [
        103.8511559,
        1.3349594
      ],
      [
        103.851202,
        1.3348601
      ],
      [
        103.8512672,
        1.3346784
      ],
      [
        103.8512942,
        1.3345835
      ],
      [
        103.8513154,
        1.3345089
      ],
      [
        103.8513395,
        1.3344245
      ],
      [
        103.8514161,
        1.3340213
      ],
      [
        103.8514799,
        1.3336298
      ],
      [
        103.8514933,
        1.3335294
      ],
      [
        103.8515051,
        1.3334416
      ],
      [
        103.8515156,
        1.3333628
      ],
      [
        103.8516124,
        1.3325852
      ],
      [
        103.8517332,
        1.3317934
      ],
      [
        103.851752,
        1.3316694
      ],
      [
        103.8518042,
        1.3313377
      ],
      [
        103.8518172,
        1.3312706
      ],
      [
        103.8518313,
        1.3311759
      ],
      [
        103.8517614,
        1.331162
      ],
      [
        103.8508422,
        1.3310289
      ],
      [
        103.850655,
        1.3310014
      ],
      [
        103.8505176,
        1.3309865
      ],
      [
        103.8503556,
        1.3309748
      ],
      [
        103.8502454,
        1.3309736
      ],
      [
        103.8500505,
        1.3309907
      ],
      [
        103.8496967,
        1.3310298
      ],
      [
        103.8495342,
        1.3310502
      ],
      [
        103.8492632,
        1.3310952
      ],
      [
        103.8490063,
        1.3311259
      ],
      [
        103.848657,
        1.3311742
      ],
      [
        103.8484541,
        1.3312029
      ],
      [
        103.847813,
        1.3312841
      ],
      [
        103.8477321,
        1.3312964
      ],
      [
        103.8477079,
        1.3314001
      ],
      [
        103.847692,
        1.3314836
      ],
      [
        103.8476595,
        1.3316694
      ],
      [
        103.8476109,
        1.3319386
      ],
      [
        103.8475897,
        1.3320873
      ],
      [
        103.8475937,
        1.3321261
      ],
      [
        103.8476266,
        1.3321528
      ],
      [
        103.84767,
        1.3321629
      ]
    ]
  }
}