{
  "type": "Feature",
  "properties": {
    "relation": 1151388,
    "direction": "1",
    "fee": "yes",
    "from": "Yio Chu Kang Interchange",
    "name": "Svc 76 (Yio Chu Kang Interchange → Eunos Interchange)",
    "network": "Land Transport Authority",
    "network:short": "LTA",
    "network:wikidata": "Q3299279",
    "network:wikipedia": "en:Land Transport Authority",
    "opening_hours": "Mo-Su,PH 05:30-23:15",
    "operator": "SBS Transit",
    "operator:wikidata": "Q2661305",
    "operator:wikipedia": "en:SBS Transit",
    "public_transport:version": "2",
    "ref": "76",
    "route": "bus",
    "to": "Eunos Interchange",
    "type": "route",
    "website": "https://www.sbstransit.com.sg/Service/BusService?ServiceType=Basic&ServiceNo=76"
  },
  "geometry": {
    "type": "LineString",
    "coordinates": [
      [
        103.8454957,
        1.3813792
      ],
      [
        103.8448769,
        1.3820421
      ],
      [
        103.8448702,
        1.3820766
      ],
      [
        103.8448769,
        1.3821141
      ],
      [
        103.8449482,
        1.3822004
      ],
      [
        103.8450666,
        1.3823782
      ],
      [
        103.8451147,
        1.3825122
      ],
      [
        103.8451506,
        1.3826666
      ],
      [
        103.845105,
        1.3831506
      ],
      [
        103.8450154,
        1.3833863
      ],
      [
        103.8449717,
        1.3834355
      ],
      [
        103.8449187,
        1.3834654
      ],
      [
        103.844856,
        1.3834704
      ],
      [
        103.8446851,
        1.3834031
      ],
      [
        103.8446569,
        1.3833616
      ],
      [
        103.8446561,
        1.3833069
      ],
      [
        103.844647,
        1.3826463
      ],
      [
        103.8446429,
        1.3826088
      ],
      [
        103.8446261,
        1.3825414
      ],
      [
        103.8445975,
        1.3824862
      ],
      [
        103.844509,
        1.3825053
      ],
      [
        103.8444505,
        1.3825521
      ],
      [
        103.8444241,
        1.3826186
      ],
      [
        103.8444271,
        1.3836345
      ],
      [
        103.8444333,
        1.3840209
      ],
      [
        103.8444293,
        1.3840922
      ],
      [
        103.844122,
        1.3840633
      ],
      [
        103.8439955,
        1.384045
      ],
      [
        103.8438738,
        1.3840288
      ],
      [
        103.8437743,
        1.3840156
      ],
      [
        103.8437107,
        1.3840093
      ],
      [
        103.8435778,
        1.3839896
      ],
      [
        103.8426859,
        1.3838768
      ],
      [
        103.8424316,
        1.3838441
      ],
      [
        103.8422554,
        1.3838215
      ],
      [
        103.8422046,
        1.3838151
      ],
      [
        103.8420224,
        1.3837916
      ],
      [
        103.8417631,
        1.3837598
      ],
      [
        103.8415168,
        1.3837245
      ],
      [
        103.8413722,
        1.3836987
      ],
      [
        103.8412408,
        1.3836608
      ],
      [
        103.8411207,
        1.3836269
      ],
      [
        103.8408841,
        1.3835305
      ],
      [
        103.8408201,
        1.3834958
      ],
      [
        103.8404298,
        1.3832841
      ],
      [
        103.8401621,
        1.3831476
      ],
      [
        103.840111,
        1.38312
      ],
      [
        103.840068,
        1.3830955
      ],
      [
        103.8395379,
        1.3827685
      ],
      [
        103.8394626,
        1.382722
      ],
      [
        103.8393783,
        1.3826733
      ],
      [
        103.8393014,
        1.3826249
      ],
      [
        103.8388057,
        1.382313
      ],
      [
        103.8387389,
        1.3822709
      ],
      [
        103.838766,
        1.3822264
      ],
      [
        103.8390425,
        1.3817723
      ],
      [
        103.8392193,
        1.3814902
      ],
      [
        103.8392946,
        1.3813674
      ],
      [
        103.8393596,
        1.3812483
      ],
      [
        103.839421,
        1.3811452
      ],
      [
        103.8395363,
        1.380906
      ],
      [
        103.8396275,
        1.3807169
      ],
      [
        103.8397549,
        1.3803657
      ],
      [
        103.8398174,
        1.3801753
      ],
      [
        103.8398438,
        1.3800704
      ],
      [
        103.8399149,
        1.3795025
      ],
      [
        103.8399171,
        1.3792416
      ],
      [
        103.8398291,
        1.3784954
      ],
      [
        103.8397916,
        1.378245
      ],
      [
        103.8397661,
        1.3780031
      ],
      [
        103.8397501,
        1.3778096
      ],
      [
        103.8397175,
        1.3775152
      ],
      [
        103.8396928,
        1.3772432
      ],
      [
        103.8396805,
        1.3771316
      ],
      [
        103.8396598,
        1.377013
      ],
      [
        103.8396352,
        1.3769155
      ],
      [
        103.8395919,
        1.3767328
      ],
      [
        103.839547,
        1.3765393
      ],
      [
        103.8395021,
        1.3763375
      ],
      [
        103.8394425,
        1.3761356
      ],
      [
        103.839344,
        1.3759256
      ],
      [
        103.8392291,
        1.375717
      ],
      [
        103.8392108,
        1.3756905
      ],
      [
        103.8391133,
        1.3755494
      ],
      [
        103.839038,
        1.3754785
      ],
      [
        103.8389687,
        1.3754097
      ],
      [
        103.8388623,
        1.3753266
      ],
      [
        103.8387384,
        1.375217
      ],
      [
        103.8386964,
        1.3751868
      ],
      [
        103.8385632,
        1.3750911
      ],
      [
        103.8381761,
        1.3748435
      ],
      [
        103.8380943,
        1.3747878
      ],
      [
        103.8380501,
        1.3747578
      ],
      [
        103.837892,
        1.3746308
      ],
      [
        103.8378094,
        1.3745561
      ],
      [
        103.8377335,
        1.3744677
      ],
      [
        103.8376398,
        1.3743464
      ],
      [
        103.8375949,
        1.374278
      ],
      [
        103.8374775,
        1.3740538
      ],
      [
        103.8374001,
        1.3738185
      ],
      [
        103.8373647,
        1.3737012
      ],
      [
        103.8373369,
        1.3736274
      ],
      [
        103.8373254,
        1.3735904
      ],
      [
        103.8373061,
        1.3735281
      ],
      [
        103.8372868,
        1.373466
      ],
      [
        103.8372788,
        1.3734292
      ],
      [
        103.837264,
        1.3733879
      ],
      [
        103.8372411,
        1.3733252
      ],
      [
        103.8371796,
        1.3731694
      ],
      [
        103.8371123,
        1.3729766
      ],
      [
        103.8370716,
        1.3728524
      ],
      [
        103.8370206,
        1.3726969
      ],
      [
        103.8369538,
        1.3724931
      ],
      [
        103.8368594,
        1.3722277
      ],
      [
        103.836726,
        1.3718657
      ],
      [
        103.8367139,
        1.3718284
      ],
      [
        103.8366816,
        1.3717235
      ],
      [
        103.8366453,
        1.3715912
      ],
      [
        103.8366248,
        1.3715001
      ],
      [
        103.8366182,
        1.3714154
      ],
      [
        103.8366331,
        1.371144
      ],
      [
        103.8366433,
        1.3710475
      ],
      [
        103.8366465,
        1.3709628
      ],
      [
        103.8366493,
        1.3709035
      ],
      [
        103.8366565,
        1.3708013
      ],
      [
        103.8366684,
        1.3707147
      ],
      [
        103.8367262,
        1.3704328
      ],
      [
        103.8367808,
        1.3702847
      ],
      [
        103.83681,
        1.3702054
      ],
      [
        103.8369435,
        1.3699198
      ],
      [
        103.8371984,
        1.3694984
      ],
      [
        103.8372625,
        1.3694087
      ],
      [
        103.8373743,
        1.3694937
      ],
      [
        103.8376002,
        1.3696425
      ],
      [
        103.8380837,
        1.3698201
      ],
      [
        103.8383702,
        1.3698706
      ],
      [
        103.8386103,
        1.369902
      ],
      [
        103.8388413,
        1.3699068
      ],
      [
        103.8388693,
        1.3699088
      ],
      [
        103.8392777,
        1.3698631
      ],
      [
        103.8400939,
        1.3697774
      ],
      [
        103.8402862,
        1.3697533
      ],
      [
        103.8403665,
        1.3697356
      ],
      [
        103.8408317,
        1.3696763
      ],
      [
        103.8409074,
        1.36967
      ],
      [
        103.8413887,
        1.3696197
      ],
      [
        103.8416911,
        1.3695818
      ],
      [
        103.8423562,
        1.3695033
      ],
      [
        103.8426048,
        1.3694818
      ],
      [
        103.8427437,
        1.3694659
      ],
      [
        103.8428186,
        1.3694508
      ],
      [
        103.8431051,
        1.3694164
      ],
      [
        103.8432412,
        1.3693978
      ],
      [
        103.8434198,
        1.3693734
      ],
      [
        103.8435984,
        1.3693489
      ],
      [
        103.8439426,
        1.3693471
      ],
      [
        103.8440539,
        1.3693404
      ],
      [
        103.8441489,
        1.3693326
      ],
      [
        103.8444837,
        1.3692943
      ],
      [
        103.8446547,
        1.3692836
      ],
      [
        103.8447645,
        1.3692614
      ],
      [
        103.8454095,
        1.3691548
      ],
      [
        103.8455521,
        1.3691478
      ],
      [
        103.8456547,
        1.3691409
      ],
      [
        103.8457075,
        1.3691439
      ],
      [
        103.8459755,
        1.3690926
      ],
      [
        103.8464119,
        1.3690409
      ],
      [
        103.8468064,
        1.3689874
      ],
      [
        103.8469249,
        1.368967
      ],
      [
        103.8474384,
        1.3688976
      ],
      [
        103.8477057,
        1.3688648
      ],
      [
        103.847981,
        1.3688394
      ],
      [
        103.8482505,
        1.3688259
      ],
      [
        103.8485784,
        1.3688258
      ],
      [
        103.8487989,
        1.3688462
      ],
      [
        103.8490582,
        1.3688914
      ],
      [
        103.8494921,
        1.3689926
      ],
      [
        103.8495785,
        1.3690175
      ],
      [
        103.849639,
        1.369037
      ],
      [
        103.8497652,
        1.3690664
      ],
      [
        103.8498972,
        1.3690954
      ],
      [
        103.8502167,
        1.3691765
      ],
      [
        103.8509725,
        1.3694101
      ],
      [
        103.8511927,
        1.3694845
      ],
      [
        103.8516254,
        1.3696007
      ],
      [
        103.8519869,
        1.3696949
      ],
      [
        103.8520505,
        1.3697106
      ],
      [
        103.8522987,
        1.369771
      ],
      [
        103.8532344,
        1.3699285
      ],
      [
        103.8536571,
        1.3699186
      ],
      [
        103.8539149,
        1.3699003
      ],
      [
        103.8539355,
        1.3698979
      ],
      [
        103.8541601,
        1.3698658
      ],
      [
        103.8543452,
        1.3698132
      ],
      [
        103.8549212,
        1.3696455
      ],
      [
        103.855432,
        1.3694937
      ],
      [
        103.8558599,
        1.3693854
      ],
      [
        103.8560131,
        1.369342
      ],
      [
        103.8563484,
        1.3692545
      ],
      [
        103.8565221,
        1.3692193
      ],
      [
        103.8566989,
        1.3691679
      ],
      [
        103.8567822,
        1.3691436
      ],
      [
        103.8568528,
        1.3691273
      ],
      [
        103.8569409,
        1.3691211
      ],
      [
        103.8578081,
        1.3690601
      ],
      [
        103.8580526,
        1.3690636
      ],
      [
        103.858227,
        1.369069
      ],
      [
        103.8583676,
        1.3691189
      ],
      [
        103.8584755,
        1.3692284
      ],
      [
        103.858586,
        1.3693438
      ],
      [
        103.8586678,
        1.3694095
      ],
      [
        103.8588064,
        1.3694941
      ],
      [
        103.8589056,
        1.3695319
      ],
      [
        103.8590055,
        1.3695425
      ],
      [
        103.8591444,
        1.3695398
      ],
      [
        103.8593025,
        1.3694768
      ],
      [
        103.8594518,
        1.3694084
      ],
      [
        103.8596605,
        1.3693212
      ],
      [
        103.8598605,
        1.3693251
      ],
      [
        103.8604291,
        1.3694176
      ],
      [
        103.8612927,
        1.3696428
      ],
      [
        103.8617616,
        1.3697635
      ],
      [
        103.8627817,
        1.3700724
      ],
      [
        103.8631032,
        1.370155
      ],
      [
        103.8634295,
        1.3702734
      ],
      [
        103.8636532,
        1.370353
      ],
      [
        103.8638447,
        1.3704162
      ],
      [
        103.8638975,
        1.370431
      ],
      [
        103.8639929,
        1.3704671
      ],
      [
        103.8640183,
        1.3704755
      ],
      [
        103.8641543,
        1.3705207
      ],
      [
        103.8643093,
        1.3705722
      ],
      [
        103.864668,
        1.3706914
      ],
      [
        103.8647601,
        1.3707368
      ],
      [
        103.8648051,
        1.370759
      ],
      [
        103.8649402,
        1.3708321
      ],
      [
        103.8650277,
        1.3708817
      ],
      [
        103.8652624,
        1.3710286
      ],
      [
        103.8657747,
        1.371379
      ],
      [
        103.8660716,
        1.3715536
      ],
      [
        103.8663857,
        1.3716922
      ],
      [
        103.8665391,
        1.3717598
      ],
      [
        103.8667453,
        1.3718211
      ],
      [
        103.8668203,
        1.3718376
      ],
      [
        103.8670174,
        1.3718809
      ],
      [
        103.8677056,
        1.3719519
      ],
      [
        103.8680682,
        1.3719633
      ],
      [
        103.8681592,
        1.3719661
      ],
      [
        103.8684375,
        1.3719522
      ],
      [
        103.8687882,
        1.3719211
      ],
      [
        103.869283,
        1.3718537
      ],
      [
        103.8694916,
        1.3718193
      ],
      [
        103.8696853,
        1.3717739
      ],
      [
        103.869723,
        1.371765
      ],
      [
        103.8698029,
        1.3717459
      ],
      [
        103.8701638,
        1.3716615
      ],
      [
        103.8702071,
        1.3716506
      ],
      [
        103.8704464,
        1.3715841
      ],
      [
        103.8706148,
        1.3715373
      ],
      [
        103.870954,
        1.3714609
      ],
      [
        103.8712328,
        1.3713932
      ],
      [
        103.8715652,
        1.3713116
      ],
      [
        103.8716549,
        1.3712896
      ],
      [
        103.8717278,
        1.3712696
      ],
      [
        103.8717595,
        1.3712609
      ],
      [
        103.8721561,
        1.3711524
      ],
      [
        103.8728182,
        1.3709902
      ],
      [
        103.8732697,
        1.3708747
      ],
      [
        103.8740967,
        1.3706611
      ],
      [
        103.8742016,
        1.3706456
      ],
      [
        103.8744398,
        1.3706103
      ],
      [
        103.8748333,
        1.3705113
      ],
      [
        103.8751378,
        1.37044
      ],
      [
        103.8753301,
        1.3703869
      ],
      [
        103.8756773,
        1.3702889
      ],
      [
        103.8760825,
        1.3701594
      ],
      [
        103.8762631,
        1.3701047
      ],
      [
        103.8762756,
        1.3701009
      ],
      [
        103.8763606,
        1.3700752
      ],
      [
        103.8765086,
        1.3700358
      ],
      [
        103.8764775,
        1.3698446
      ],
      [
        103.8764134,
        1.369493
      ],
      [
        103.8763601,
        1.3692507
      ],
      [
        103.8763454,
        1.3692002
      ],
      [
        103.8762811,
        1.3689804
      ],
      [
        103.8762356,
        1.3688227
      ],
      [
        103.8762129,
        1.3687368
      ],
      [
        103.8760887,
        1.368266
      ],
      [
        103.8760171,
        1.3680911
      ],
      [
        103.8759191,
        1.3678517
      ],
      [
        103.8759007,
        1.3678114
      ],
      [
        103.8757102,
        1.3673927
      ],
      [
        103.8756743,
        1.367311
      ],
      [
        103.8755255,
        1.3669729
      ],
      [
        103.875479,
        1.3668673
      ],
      [
        103.8753438,
        1.3665601
      ],
      [
        103.8752209,
        1.3662807
      ],
      [
        103.8751155,
        1.3660309
      ],
      [
        103.8749267,
        1.3656392
      ],
      [
        103.8744017,
        1.3645225
      ],
      [
        103.8743182,
        1.3643507
      ],
      [
        103.8741313,
        1.3639661
      ],
      [
        103.8740519,
        1.3638314
      ],
      [
        103.874024,
        1.3637744
      ],
      [
        103.8739726,
        1.3636801
      ],
      [
        103.873915,
        1.3635748
      ],
      [
        103.8737425,
        1.3632592
      ],
      [
        103.8736148,
        1.3630304
      ],
      [
        103.8735234,
        1.3628832
      ],
      [
        103.8734559,
        1.3627607
      ],
      [
        103.8734005,
        1.3626002
      ],
      [
        103.8733718,
        1.3624141
      ],
      [
        103.8733687,
        1.3623438
      ],
      [
        103.8733653,
        1.3622528
      ],
      [
        103.8733655,
        1.3622102
      ],
      [
        103.8733689,
        1.3620773
      ],
      [
        103.8733889,
        1.3619227
      ],
      [
        103.8734552,
        1.3616362
      ],
      [
        103.873496,
        1.3614947
      ],
      [
        103.8736009,
        1.3611118
      ],
      [
        103.8736084,
        1.3610859
      ],
      [
        103.8736679,
        1.360819
      ],
      [
        103.8736778,
        1.3607739
      ],
      [
        103.8737446,
        1.3604734
      ],
      [
        103.8737616,
        1.3603803
      ],
      [
        103.873913,
        1.3597183
      ],
      [
        103.87401,
        1.3593194
      ],
      [
        103.8741016,
        1.358973
      ],
      [
        103.8741624,
        1.3586926
      ],
      [
        103.8741787,
        1.3586187
      ],
      [
        103.8742052,
        1.358399
      ],
      [
        103.8742048,
        1.3582824
      ],
      [
        103.8741983,
        1.3582153
      ],
      [
        103.8741773,
        1.3579991
      ],
      [
        103.8741546,
        1.3577647
      ],
      [
        103.8741154,
        1.3573164
      ],
      [
        103.8740841,
        1.3570799
      ],
      [
        103.8740683,
        1.3569957
      ],
      [
        103.8740033,
        1.356643
      ],
      [
        103.8739317,
        1.3563613
      ],
      [
        103.8738953,
        1.3562556
      ],
      [
        103.8737945,
        1.3560351
      ],
      [
        103.8737676,
        1.3558472
      ],
      [
        103.8737817,
        1.3556986
      ],
      [
        103.8737856,
        1.3556779
      ],
      [
        103.8738521,
        1.3555458
      ],
      [
        103.873982,
        1.355383
      ],
      [
        103.8740928,
        1.3552731
      ],
      [
        103.8743058,
        1.3550647
      ],
      [
        103.8743502,
        1.3550153
      ],
      [
        103.8743678,
        1.3549954
      ],
      [
        103.8745584,
        1.3547823
      ],
      [
        103.8746456,
        1.354689
      ],
      [
        103.8749298,
        1.3543572
      ],
      [
        103.8752315,
        1.354006
      ],
      [
        103.8753605,
        1.3538445
      ],
      [
        103.8754909,
        1.3536975
      ],
      [
        103.8760743,
        1.3530378
      ],
      [
        103.8760945,
        1.353015
      ],
      [
        103.8762306,
        1.3528611
      ],
      [
        103.8763757,
        1.3527072
      ],
      [
        103.8764365,
        1.3526386
      ],
      [
        103.876717,
        1.3524061
      ],
      [
        103.8768007,
        1.3523648
      ],
      [
        103.8770561,
        1.3522228
      ],
      [
        103.8771783,
        1.352164
      ],
      [
        103.8773839,
        1.3520819
      ],
      [
        103.8777132,
        1.3519948
      ],
      [
        103.8779954,
        1.351909
      ],
      [
        103.8780471,
        1.3518942
      ],
      [
        103.8783215,
        1.3518158
      ],
      [
        103.878375,
        1.351791
      ],
      [
        103.8785721,
        1.3517132
      ],
      [
        103.8787572,
        1.3515804
      ],
      [
        103.8789476,
        1.3514317
      ],
      [
        103.8792769,
        1.3510663
      ],
      [
        103.8793533,
        1.3509859
      ],
      [
        103.8794001,
        1.3508995
      ],
      [
        103.8794753,
        1.3507606
      ],
      [
        103.8795583,
        1.3506029
      ],
      [
        103.879596,
        1.3505314
      ],
      [
        103.8796551,
        1.3503886
      ],
      [
        103.8797637,
        1.350126
      ],
      [
        103.8800615,
        1.3494086
      ],
      [
        103.8800977,
        1.3493161
      ],
      [
        103.8802361,
        1.3489867
      ],
      [
        103.8802822,
        1.3488797
      ],
      [
        103.8803225,
        1.3487698
      ],
      [
        103.8804001,
        1.3484654
      ],
      [
        103.8804771,
        1.3480928
      ],
      [
        103.8805112,
        1.3477535
      ],
      [
        103.8805328,
        1.3475379
      ],
      [
        103.8805415,
        1.3474511
      ],
      [
        103.8805774,
        1.3473237
      ],
      [
        103.8807874,
        1.3467856
      ],
      [
        103.8808726,
        1.346676
      ],
      [
        103.8810964,
        1.3463917
      ],
      [
        103.8812035,
        1.3462696
      ],
      [
        103.8812209,
        1.3462478
      ],
      [
        103.8814239,
        1.3460229
      ],
      [
        103.8816501,
        1.3457347
      ],
      [
        103.8816847,
        1.3456908
      ],
      [
        103.8817575,
        1.3456047
      ],
      [
        103.8817766,
        1.3455793
      ],
      [
        103.8820418,
        1.3451434
      ],
      [
        103.8820607,
        1.3451113
      ],
      [
        103.8822877,
        1.3447587
      ],
      [
        103.882349,
        1.3446701
      ],
      [
        103.8827585,
        1.3439796
      ],
      [
        103.88286,
        1.3437758
      ],
      [
        103.88305,
        1.3433943
      ],
      [
        103.8832084,
        1.3430763
      ],
      [
        103.8833111,
        1.3428989
      ],
      [
        103.8834363,
        1.3426826
      ],
      [
        103.8836517,
        1.3424094
      ],
      [
        103.883694,
        1.3423664
      ],
      [
        103.8838655,
        1.3421922
      ],
      [
        103.8842855,
        1.3418357
      ],
      [
        103.8843678,
        1.3417644
      ],
      [
        103.884605,
        1.3415633
      ],
      [
        103.884804,
        1.3413847
      ],
      [
        103.8848842,
        1.3413063
      ],
      [
        103.8849007,
        1.3412899
      ],
      [
        103.8850829,
        1.3410762
      ],
      [
        103.885152,
        1.3409871
      ],
      [
        103.8854065,
        1.3407312
      ],
      [
        103.8854479,
        1.3406863
      ],
      [
        103.8856526,
        1.3404593
      ],
      [
        103.8858348,
        1.3402341
      ],
      [
        103.886057,
        1.3399528
      ],
      [
        103.8860673,
        1.3399404
      ],
      [
        103.8862669,
        1.3397005
      ],
      [
        103.8864978,
        1.3393306
      ],
      [
        103.8866939,
        1.3390165
      ],
      [
        103.8870071,
        1.3383822
      ],
      [
        103.887045,
        1.3382885
      ],
      [
        103.8870523,
        1.3382664
      ],
      [
        103.8870592,
        1.3381901
      ],
      [
        103.8874377,
        1.3374491
      ],
      [
        103.8878667,
        1.3365603
      ],
      [
        103.8880713,
        1.336111
      ],
      [
        103.8882017,
        1.3358229
      ],
      [
        103.8882917,
        1.3356301
      ],
      [
        103.8886024,
        1.3349711
      ],
      [
        103.8886797,
        1.3347897
      ],
      [
        103.8887744,
        1.3345232
      ],
      [
        103.8888367,
        1.3343164
      ],
      [
        103.8888977,
        1.334102
      ],
      [
        103.8889454,
        1.3339342
      ],
      [
        103.8889527,
        1.3339085
      ],
      [
        103.8890031,
        1.3337163
      ],
      [
        103.8890214,
        1.3336466
      ],
      [
        103.8890498,
        1.333507
      ],
      [
        103.8890657,
        1.3334283
      ],
      [
        103.8891044,
        1.3332068
      ],
      [
        103.8891261,
        1.3330888
      ],
      [
        103.8891597,
        1.3329079
      ],
      [
        103.8892712,
        1.3322658
      ],
      [
        103.8893741,
        1.3316586
      ],
      [
        103.8894919,
        1.3310522
      ],
      [
        103.8895508,
        1.3307498
      ],
      [
        103.8895948,
        1.3305452
      ],
      [
        103.8896534,
        1.3302724
      ],
      [
        103.8896641,
        1.3302193
      ],
      [
        103.8897028,
        1.3300478
      ],
      [
        103.8897596,
        1.3297087
      ],
      [
        103.8897655,
        1.3296749
      ],
      [
        103.889818,
        1.3294021
      ],
      [
        103.8899189,
        1.3289197
      ],
      [
        103.8899696,
        1.3286835
      ],
      [
        103.890059,
        1.328263
      ],
      [
        103.8901654,
        1.327805
      ],
      [
        103.8902038,
        1.3276053
      ],
      [
        103.890345,
        1.3269244
      ],
      [
        103.8903857,
        1.3267146
      ],
      [
        103.8903998,
        1.3266416
      ],
      [
        103.8904187,
        1.3265397
      ],
      [
        103.8904274,
        1.3264874
      ],
      [
        103.8904625,
        1.3263026
      ],
      [
        103.8905141,
        1.3259644
      ],
      [
        103.8905503,
        1.3256917
      ],
      [
        103.8905779,
        1.3255365
      ],
      [
        103.8906053,
        1.3253825
      ],
      [
        103.8906259,
        1.3252622
      ],
      [
        103.8906643,
        1.3250374
      ],
      [
        103.890708,
        1.3247814
      ],
      [
        103.8907487,
        1.3245497
      ],
      [
        103.8907919,
        1.3242905
      ],
      [
        103.8908963,
        1.3237683
      ],
      [
        103.8910022,
        1.3232199
      ],
      [
        103.8910338,
        1.3230596
      ],
      [
        103.8910913,
        1.3227865
      ],
      [
        103.8911138,
        1.3226823
      ],
      [
        103.8912633,
        1.3219893
      ],
      [
        103.8913157,
        1.321736
      ],
      [
        103.8914014,
        1.3213221
      ],
      [
        103.8914636,
        1.3210117
      ],
      [
        103.8915315,
        1.3207093
      ],
      [
        103.8915916,
        1.3204698
      ],
      [
        103.8916696,
        1.3201068
      ],
      [
        103.891684,
        1.320045
      ],
      [
        103.8917087,
        1.3199218
      ],
      [
        103.8917211,
        1.3198702
      ],
      [
        103.8918142,
        1.3194833
      ],
      [
        103.8918257,
        1.3194296
      ],
      [
        103.8919594,
        1.3188786
      ],
      [
        103.8920273,
        1.3185071
      ],
      [
        103.8920627,
        1.3182923
      ],
      [
        103.8920781,
        1.3181625
      ],
      [
        103.8921409,
        1.3178516
      ],
      [
        103.8922766,
        1.3173167
      ],
      [
        103.8923538,
        1.3169757
      ],
      [
        103.8923629,
        1.3169357
      ],
      [
        103.8924634,
        1.3169472
      ],
      [
        103.892712,
        1.3169828
      ],
      [
        103.8927954,
        1.316995
      ],
      [
        103.8928912,
        1.3170109
      ],
      [
        103.8931312,
        1.3170404
      ],
      [
        103.8933148,
        1.3170664
      ],
      [
        103.8933724,
        1.3170745
      ],
      [
        103.8935253,
        1.3170912
      ],
      [
        103.8936257,
        1.3171021
      ],
      [
        103.8936918,
        1.3171093
      ],
      [
        103.893709,
        1.3171129
      ],
      [
        103.8938035,
        1.3171273
      ],
      [
        103.8939496,
        1.3171442
      ],
      [
        103.8945848,
        1.3172481
      ],
      [
        103.8947655,
        1.3172769
      ],
      [
        103.8949655,
        1.3173059
      ],
      [
        103.8951993,
        1.3173399
      ],
      [
        103.8955131,
        1.3173866
      ],
      [
        103.8956038,
        1.3174008
      ],
      [
        103.8957052,
        1.3174166
      ],
      [
        103.8964048,
        1.317524
      ],
      [
        103.8965732,
        1.3175486
      ],
      [
        103.8966982,
        1.3175674
      ],
      [
        103.8967271,
        1.3175718
      ],
      [
        103.896764,
        1.317579
      ],
      [
        103.8967966,
        1.3175854
      ],
      [
        103.8971958,
        1.3176546
      ],
      [
        103.8972908,
        1.3176819
      ],
      [
        103.8973417,
        1.3176917
      ],
      [
        103.8975633,
        1.3177341
      ],
      [
        103.8975884,
        1.3177389
      ],
      [
        103.8979881,
        1.3178213
      ],
      [
        103.8980094,
        1.3178254
      ],
      [
        103.8980267,
        1.3178287
      ],
      [
        103.8980801,
        1.3178389
      ],
      [
        103.8982957,
        1.3178802
      ],
      [
        103.8986597,
        1.3179529
      ],
      [
        103.8989778,
        1.3180164
      ],
      [
        103.8991872,
        1.3180606
      ],
      [
        103.8997118,
        1.3181712
      ],
      [
        103.899828,
        1.3181937
      ],
      [
        103.8998752,
        1.3182028
      ],
      [
        103.9003472,
        1.3182941
      ],
      [
        103.9003269,
        1.3183878
      ],
      [
        103.9003472,
        1.3182941
      ],
      [
        103.9001431,
        1.319162
      ],
      [
        103.900165,
        1.319067
      ],
      [
        103.9001325,
        1.3192084
      ],
      [
        103.9001714,
        1.3194638
      ],
      [
        103.9003948,
        1.3195093
      ],
      [
        103.9012983,
        1.3196935
      ],
      [
        103.9020756,
        1.319848
      ],
      [
        103.9021223,
        1.3198397
      ],
      [
        103.9021587,
        1.3198131
      ],
      [
        103.9021926,
        1.3197085
      ],
      [
        103.9022135,
        1.319602
      ],
      [
        103.9021849,
        1.3195632
      ],
      [
        103.9021377,
        1.3195418
      ],
      [
        103.9013363,
        1.3194386
      ],
      [
        103.9011682,
        1.319419
      ],
      [
        103.9004412,
        1.3192715
      ]
    ]
  }
}