{
  "type": "Feature",
  "properties": {
    "relation": 1147212,
    "direction": "1",
    "fee": "yes",
    "from": "Bedok Interchange",
    "name": "Svc 7 (Bedok Interchange → Clementi Interchange)",
    "network": "Land Transport Authority",
    "network:short": "LTA",
    "network:wikidata": "Q3299279",
    "network:wikipedia": "en:Land Transport Authority",
    "opening_hours": "Mo-Su,PH 05:30-23:30",
    "operator": "SBS Transit",
    "operator:wikidata": "Q2661305",
    "operator:wikipedia": "en:SBS Transit",
    "public_transport:version": "2",
    "ref": "7",
    "route": "bus",
    "to": "Clementi Interchange",
    "type": "route",
    "website": "https://www.sbstransit.com.sg/Service/BusService?ServiceNo=7"
  },
  "geometry": {
    "type": "LineString",
    "coordinates": [
      [
        103.9287434,
        1.3243349
      ],
      [
        103.9286633,
        1.3246525
      ],
      [
        103.9285775,
        1.3249788
      ],
      [
        103.9285491,
        1.3251158
      ],
      [
        103.9285131,
        1.3252416
      ],
      [
        103.9284172,
        1.3252366
      ],
      [
        103.9283348,
        1.3252398
      ],
      [
        103.9282486,
        1.3252485
      ],
      [
        103.9276671,
        1.3252993
      ],
      [
        103.927546,
        1.3253044
      ],
      [
        103.9274511,
        1.325303
      ],
      [
        103.9274078,
        1.3252998
      ],
      [
        103.9272941,
        1.3252093
      ],
      [
        103.9272575,
        1.3251745
      ],
      [
        103.9272211,
        1.3251347
      ],
      [
        103.9271983,
        1.325103
      ],
      [
        103.927176,
        1.3250554
      ],
      [
        103.9272367,
        1.3245927
      ],
      [
        103.9273092,
        1.324041
      ],
      [
        103.9273508,
        1.3237243
      ],
      [
        103.9273632,
        1.3236293
      ],
      [
        103.9273909,
        1.3234185
      ],
      [
        103.9272539,
        1.3233973
      ],
      [
        103.9271734,
        1.3233877
      ],
      [
        103.9270032,
        1.3233508
      ],
      [
        103.9269103,
        1.3233339
      ],
      [
        103.9264879,
        1.3232668
      ],
      [
        103.9262733,
        1.3232306
      ],
      [
        103.926044,
        1.3231904
      ],
      [
        103.9258588,
        1.3231625
      ],
      [
        103.9255278,
        1.3231127
      ],
      [
        103.9254799,
        1.3231055
      ],
      [
        103.9252071,
        1.3230644
      ],
      [
        103.9246264,
        1.3229464
      ],
      [
        103.9241627,
        1.3228312
      ],
      [
        103.9235257,
        1.3226399
      ],
      [
        103.9234396,
        1.3226141
      ],
      [
        103.9234095,
        1.322605
      ],
      [
        103.9233,
        1.3225672
      ],
      [
        103.9232304,
        1.3225431
      ],
      [
        103.9225392,
        1.3223044
      ],
      [
        103.9224119,
        1.3222604
      ],
      [
        103.9214951,
        1.3219454
      ],
      [
        103.9211454,
        1.3218232
      ],
      [
        103.9209518,
        1.3217531
      ],
      [
        103.9205262,
        1.3215997
      ],
      [
        103.9202779,
        1.32152
      ],
      [
        103.9202215,
        1.3215005
      ],
      [
        103.9199838,
        1.3214184
      ],
      [
        103.919872,
        1.3213798
      ],
      [
        103.9197728,
        1.3213389
      ],
      [
        103.9197304,
        1.3213296
      ],
      [
        103.919548,
        1.3212801
      ],
      [
        103.9190662,
        1.3211793
      ],
      [
        103.9189555,
        1.3211568
      ],
      [
        103.918806,
        1.3211237
      ],
      [
        103.9185449,
        1.3210411
      ],
      [
        103.9183171,
        1.320969
      ],
      [
        103.9178282,
        1.3208113
      ],
      [
        103.9174415,
        1.3206794
      ],
      [
        103.9163355,
        1.3203014
      ],
      [
        103.9161667,
        1.3202415
      ],
      [
        103.9160286,
        1.3201952
      ],
      [
        103.9159646,
        1.3201713
      ],
      [
        103.9158878,
        1.3201429
      ],
      [
        103.9155956,
        1.3200273
      ],
      [
        103.9148955,
        1.3197813
      ],
      [
        103.9147857,
        1.3197402
      ],
      [
        103.9142978,
        1.3195845
      ],
      [
        103.9141327,
        1.3195191
      ],
      [
        103.9140921,
        1.3195037
      ],
      [
        103.9140555,
        1.3194898
      ],
      [
        103.9133179,
        1.319225
      ],
      [
        103.9133039,
        1.31922
      ],
      [
        103.9132505,
        1.3192091
      ],
      [
        103.9131588,
        1.3191859
      ],
      [
        103.912999,
        1.3191534
      ],
      [
        103.9129616,
        1.3191457
      ],
      [
        103.9129212,
        1.3191373
      ],
      [
        103.9127594,
        1.3191044
      ],
      [
        103.9125783,
        1.3190691
      ],
      [
        103.9124342,
        1.3190362
      ],
      [
        103.9123696,
        1.3190214
      ],
      [
        103.9122107,
        1.3189863
      ],
      [
        103.9121576,
        1.3189746
      ],
      [
        103.9120775,
        1.3189582
      ],
      [
        103.9119044,
        1.3189232
      ],
      [
        103.9118547,
        1.3189131
      ],
      [
        103.9118428,
        1.3189107
      ],
      [
        103.9118013,
        1.3189015
      ],
      [
        103.9117595,
        1.3188923
      ],
      [
        103.9116667,
        1.3188742
      ],
      [
        103.9115054,
        1.3188428
      ],
      [
        103.9114848,
        1.3188388
      ],
      [
        103.9114445,
        1.3188291
      ],
      [
        103.911383,
        1.3188142
      ],
      [
        103.9112269,
        1.3187876
      ],
      [
        103.9111187,
        1.3187691
      ],
      [
        103.9110088,
        1.3187536
      ],
      [
        103.9107785,
        1.3187106
      ],
      [
        103.9105727,
        1.3186709
      ],
      [
        103.9104598,
        1.3186503
      ],
      [
        103.9104244,
        1.3186429
      ],
      [
        103.9102892,
        1.3186154
      ],
      [
        103.910244,
        1.3186048
      ],
      [
        103.9100507,
        1.318564
      ],
      [
        103.9099944,
        1.3185518
      ],
      [
        103.9099,
        1.318535
      ],
      [
        103.909752,
        1.3185085
      ],
      [
        103.9096515,
        1.3184905
      ],
      [
        103.9096081,
        1.3184827
      ],
      [
        103.9095764,
        1.318477
      ],
      [
        103.9095111,
        1.3184653
      ],
      [
        103.9094463,
        1.3184494
      ],
      [
        103.9092617,
        1.3184196
      ],
      [
        103.9091237,
        1.3183943
      ],
      [
        103.9090274,
        1.3183734
      ],
      [
        103.9087969,
        1.3183235
      ],
      [
        103.9086582,
        1.3182886
      ],
      [
        103.908563,
        1.3182647
      ],
      [
        103.9085056,
        1.3182511
      ],
      [
        103.9083534,
        1.3182151
      ],
      [
        103.9083274,
        1.3182091
      ],
      [
        103.908269,
        1.3181948
      ],
      [
        103.907958,
        1.3181232
      ],
      [
        103.9077708,
        1.3180886
      ],
      [
        103.9077187,
        1.3180787
      ],
      [
        103.9076989,
        1.3180749
      ],
      [
        103.9075787,
        1.318052
      ],
      [
        103.9075433,
        1.3180452
      ],
      [
        103.9072939,
        1.3179976
      ],
      [
        103.907257,
        1.3179906
      ],
      [
        103.9071909,
        1.317978
      ],
      [
        103.9070882,
        1.3179583
      ],
      [
        103.9070386,
        1.3179489
      ],
      [
        103.9069602,
        1.3179339
      ],
      [
        103.906852,
        1.3179132
      ],
      [
        103.9066367,
        1.3178752
      ],
      [
        103.9065011,
        1.317854
      ],
      [
        103.9061485,
        1.3177993
      ],
      [
        103.9059104,
        1.3177701
      ],
      [
        103.9057837,
        1.3177517
      ],
      [
        103.90553,
        1.3177093
      ],
      [
        103.9054064,
        1.3176821
      ],
      [
        103.9053014,
        1.3176633
      ],
      [
        103.9051829,
        1.3176431
      ],
      [
        103.9050407,
        1.3176134
      ],
      [
        103.904962,
        1.3175957
      ],
      [
        103.904717,
        1.3175457
      ],
      [
        103.9044064,
        1.3174807
      ],
      [
        103.9042826,
        1.3174548
      ],
      [
        103.9042498,
        1.3174486
      ],
      [
        103.9041315,
        1.3174232
      ],
      [
        103.9040381,
        1.3174037
      ],
      [
        103.9037911,
        1.3173521
      ],
      [
        103.9036274,
        1.3173119
      ],
      [
        103.9032769,
        1.3172365
      ],
      [
        103.9032062,
        1.3172213
      ],
      [
        103.9028281,
        1.3171524
      ],
      [
        103.9025597,
        1.3170971
      ],
      [
        103.9024471,
        1.3170786
      ],
      [
        103.9023701,
        1.3170659
      ],
      [
        103.9022736,
        1.3170475
      ],
      [
        103.90213,
        1.3170224
      ],
      [
        103.9019665,
        1.3169939
      ],
      [
        103.9019162,
        1.3169855
      ],
      [
        103.9013243,
        1.3168755
      ],
      [
        103.9009374,
        1.3168027
      ],
      [
        103.9007228,
        1.3167649
      ],
      [
        103.900643,
        1.3167499
      ],
      [
        103.9001882,
        1.3166598
      ],
      [
        103.8999264,
        1.3166079
      ],
      [
        103.8998629,
        1.3165953
      ],
      [
        103.8995744,
        1.3165358
      ],
      [
        103.8994174,
        1.3165088
      ],
      [
        103.899132,
        1.3164572
      ],
      [
        103.8988598,
        1.3164022
      ],
      [
        103.8986883,
        1.3163673
      ],
      [
        103.8986671,
        1.3163633
      ],
      [
        103.8985835,
        1.3163473
      ],
      [
        103.8985349,
        1.3163379
      ],
      [
        103.8983399,
        1.3163043
      ],
      [
        103.8981947,
        1.3162753
      ],
      [
        103.8981203,
        1.3162616
      ],
      [
        103.8979907,
        1.316238
      ],
      [
        103.8976895,
        1.3161858
      ],
      [
        103.8975891,
        1.3161684
      ],
      [
        103.8974305,
        1.3161346
      ],
      [
        103.8969067,
        1.3160229
      ],
      [
        103.8968612,
        1.3160174
      ],
      [
        103.8967207,
        1.3159826
      ],
      [
        103.896425,
        1.3159295
      ],
      [
        103.8959671,
        1.3158546
      ],
      [
        103.8956083,
        1.3157821
      ],
      [
        103.8954245,
        1.3157421
      ],
      [
        103.8950585,
        1.3156699
      ],
      [
        103.894863,
        1.3156285
      ],
      [
        103.8947697,
        1.3156085
      ],
      [
        103.8945907,
        1.3155734
      ],
      [
        103.8944118,
        1.3155382
      ],
      [
        103.8942396,
        1.315502
      ],
      [
        103.8941159,
        1.31548
      ],
      [
        103.8940282,
        1.3154631
      ],
      [
        103.8939457,
        1.3154479
      ],
      [
        103.893669,
        1.3153883
      ],
      [
        103.8934132,
        1.3153356
      ],
      [
        103.8931662,
        1.3152838
      ],
      [
        103.8930914,
        1.3152682
      ],
      [
        103.892931,
        1.3152355
      ],
      [
        103.8926019,
        1.3151609
      ],
      [
        103.8924077,
        1.3151205
      ],
      [
        103.8923351,
        1.3151054
      ],
      [
        103.8922684,
        1.315095
      ],
      [
        103.8922368,
        1.3149338
      ],
      [
        103.8921986,
        1.3147384
      ],
      [
        103.8921696,
        1.3145713
      ],
      [
        103.8921296,
        1.3143409
      ],
      [
        103.8921262,
        1.3143214
      ],
      [
        103.8920879,
        1.3140512
      ],
      [
        103.8920585,
        1.3138105
      ],
      [
        103.8920067,
        1.3136034
      ],
      [
        103.8919893,
        1.3135592
      ],
      [
        103.8918257,
        1.313236
      ],
      [
        103.8917935,
        1.3131772
      ],
      [
        103.8915226,
        1.312683
      ],
      [
        103.8914445,
        1.312531
      ],
      [
        103.8913007,
        1.312354
      ],
      [
        103.8911422,
        1.3122812
      ],
      [
        103.8909024,
        1.3122124
      ],
      [
        103.8900341,
        1.3120301
      ],
      [
        103.8893091,
        1.3118807
      ],
      [
        103.889055,
        1.3118304
      ],
      [
        103.8890439,
        1.3118277
      ],
      [
        103.8887383,
        1.3117623
      ],
      [
        103.8885886,
        1.3117281
      ],
      [
        103.8884185,
        1.3116945
      ],
      [
        103.8883523,
        1.3116807
      ],
      [
        103.8881651,
        1.3116459
      ],
      [
        103.8872928,
        1.3114878
      ],
      [
        103.8870442,
        1.3114412
      ],
      [
        103.8868251,
        1.3113996
      ],
      [
        103.8864525,
        1.3113214
      ],
      [
        103.8863267,
        1.3112977
      ],
      [
        103.8857742,
        1.3111801
      ],
      [
        103.8857356,
        1.3111723
      ],
      [
        103.8856511,
        1.311155
      ],
      [
        103.8848671,
        1.3109938
      ],
      [
        103.8840515,
        1.3108252
      ],
      [
        103.8838931,
        1.3107925
      ],
      [
        103.8835405,
        1.3107196
      ],
      [
        103.8833728,
        1.3106849
      ],
      [
        103.8831318,
        1.3106351
      ],
      [
        103.8827864,
        1.3105637
      ],
      [
        103.8827534,
        1.310557
      ],
      [
        103.8827115,
        1.3105489
      ],
      [
        103.8823448,
        1.3104723
      ],
      [
        103.8822436,
        1.310451
      ],
      [
        103.8821375,
        1.3104295
      ],
      [
        103.88201,
        1.3104031
      ],
      [
        103.8815615,
        1.3102881
      ],
      [
        103.8814304,
        1.3102581
      ],
      [
        103.8808461,
        1.310138
      ],
      [
        103.8801747,
        1.3099999
      ],
      [
        103.8799109,
        1.3099513
      ],
      [
        103.8794221,
        1.3098472
      ],
      [
        103.8793269,
        1.3098191
      ],
      [
        103.8790444,
        1.3097427
      ],
      [
        103.8786711,
        1.3095628
      ],
      [
        103.8784119,
        1.3094021
      ],
      [
        103.8781749,
        1.3092075
      ],
      [
        103.8780901,
        1.3090938
      ],
      [
        103.8779717,
        1.3089285
      ],
      [
        103.8778319,
        1.3087188
      ],
      [
        103.8775253,
        1.3083201
      ],
      [
        103.8774692,
        1.3082471
      ],
      [
        103.8773947,
        1.3081305
      ],
      [
        103.8772558,
        1.3078895
      ],
      [
        103.877083,
        1.3078926
      ],
      [
        103.8768763,
        1.3078938
      ],
      [
        103.8766695,
        1.3079256
      ],
      [
        103.8765648,
        1.3079506
      ],
      [
        103.8764645,
        1.3079896
      ],
      [
        103.8763783,
        1.3080394
      ],
      [
        103.8763261,
        1.3080748
      ],
      [
        103.8762852,
        1.3081127
      ],
      [
        103.8762171,
        1.3081949
      ],
      [
        103.8761463,
        1.3082968
      ],
      [
        103.8760998,
        1.3083826
      ],
      [
        103.8760295,
        1.308587
      ],
      [
        103.8758841,
        1.3090873
      ],
      [
        103.8758213,
        1.3093688
      ],
      [
        103.8757363,
        1.3097525
      ],
      [
        103.8756588,
        1.310117
      ],
      [
        103.8756041,
        1.3103464
      ],
      [
        103.8754466,
        1.3110063
      ],
      [
        103.8752955,
        1.3112521
      ],
      [
        103.8751989,
        1.311346
      ],
      [
        103.8751362,
        1.3113808
      ],
      [
        103.8751238,
        1.3113862
      ],
      [
        103.8750541,
        1.3113996
      ],
      [
        103.8749227,
        1.3113782
      ],
      [
        103.8748215,
        1.3113755
      ],
      [
        103.8745898,
        1.3112805
      ],
      [
        103.8744162,
        1.311207
      ],
      [
        103.8740793,
        1.3110626
      ],
      [
        103.8738901,
        1.3109815
      ],
      [
        103.8737468,
        1.3109178
      ],
      [
        103.8734455,
        1.3107892
      ],
      [
        103.8732255,
        1.3106941
      ],
      [
        103.8730731,
        1.3106324
      ],
      [
        103.8729789,
        1.3105949
      ],
      [
        103.8727397,
        1.3104971
      ],
      [
        103.8726957,
        1.3104791
      ],
      [
        103.8725966,
        1.3104349
      ],
      [
        103.8725118,
        1.310399
      ],
      [
        103.8723705,
        1.3103425
      ],
      [
        103.8720604,
        1.3102235
      ],
      [
        103.8718604,
        1.3101509
      ],
      [
        103.8717641,
        1.3101216
      ],
      [
        103.8716547,
        1.3100999
      ],
      [
        103.8714831,
        1.3100739
      ],
      [
        103.8714409,
        1.3100718
      ],
      [
        103.8711666,
        1.3100698
      ],
      [
        103.8711017,
        1.3100706
      ],
      [
        103.8709768,
        1.3100741
      ],
      [
        103.8709243,
        1.3100775
      ],
      [
        103.8708087,
        1.3100863
      ],
      [
        103.8706278,
        1.3101014
      ],
      [
        103.8699564,
        1.3101418
      ],
      [
        103.8697958,
        1.3101416
      ],
      [
        103.8695117,
        1.3101058
      ],
      [
        103.8693983,
        1.3100801
      ],
      [
        103.8693626,
        1.3100715
      ],
      [
        103.8687679,
        1.3098751
      ],
      [
        103.8686624,
        1.3098389
      ],
      [
        103.8685385,
        1.3097978
      ],
      [
        103.8684035,
        1.3097547
      ],
      [
        103.8683594,
        1.3097406
      ],
      [
        103.8673237,
        1.3094316
      ],
      [
        103.8669173,
        1.3093472
      ],
      [
        103.866252,
        1.3091985
      ],
      [
        103.8658262,
        1.3091019
      ],
      [
        103.8657314,
        1.3090793
      ],
      [
        103.8650599,
        1.3089074
      ],
      [
        103.8648923,
        1.3088632
      ],
      [
        103.8646809,
        1.3088071
      ],
      [
        103.8646367,
        1.3087421
      ],
      [
        103.8645636,
        1.3086797
      ],
      [
        103.8644275,
        1.3085966
      ],
      [
        103.8643121,
        1.3085021
      ],
      [
        103.8642115,
        1.3083814
      ],
      [
        103.8641814,
        1.3083452
      ],
      [
        103.8641127,
        1.3081906
      ],
      [
        103.8641871,
        1.3078755
      ],
      [
        103.8642334,
        1.3075747
      ],
      [
        103.8643091,
        1.3072958
      ],
      [
        103.8643266,
        1.3072429
      ],
      [
        103.8644823,
        1.3069466
      ],
      [
        103.8645068,
        1.3069038
      ],
      [
        103.864604,
        1.3066916
      ],
      [
        103.8647037,
        1.3065556
      ],
      [
        103.8647651,
        1.3064733
      ],
      [
        103.8648858,
        1.306294
      ],
      [
        103.8649021,
        1.3062638
      ],
      [
        103.8648983,
        1.3062192
      ],
      [
        103.8648659,
        1.3061787
      ],
      [
        103.8648084,
        1.3061238
      ],
      [
        103.8646624,
        1.3059843
      ],
      [
        103.8644858,
        1.3058157
      ],
      [
        103.8644023,
        1.305736
      ],
      [
        103.8640258,
        1.3054239
      ],
      [
        103.863825,
        1.3052509
      ],
      [
        103.8636811,
        1.3051249
      ],
      [
        103.863413,
        1.3048827
      ],
      [
        103.86325,
        1.3047889
      ],
      [
        103.8631623,
        1.3047284
      ],
      [
        103.8630352,
        1.3046683
      ],
      [
        103.862985,
        1.304654
      ],
      [
        103.8628551,
        1.3046143
      ],
      [
        103.8626456,
        1.3045574
      ],
      [
        103.8623948,
        1.3045158
      ],
      [
        103.8619144,
        1.3044268
      ],
      [
        103.8616676,
        1.3043811
      ],
      [
        103.8610576,
        1.3042681
      ],
      [
        103.8608568,
        1.3042104
      ],
      [
        103.86081,
        1.304197
      ],
      [
        103.8606779,
        1.3041384
      ],
      [
        103.860611,
        1.3041048
      ],
      [
        103.8605002,
        1.3040492
      ],
      [
        103.8601099,
        1.3038192
      ],
      [
        103.8596217,
        1.3034653
      ],
      [
        103.8595325,
        1.3033929
      ],
      [
        103.8593169,
        1.3032097
      ],
      [
        103.8592295,
        1.3031354
      ],
      [
        103.8591765,
        1.3030838
      ],
      [
        103.8589981,
        1.3029095
      ],
      [
        103.8589458,
        1.3028552
      ],
      [
        103.8589063,
        1.3027721
      ],
      [
        103.858779,
        1.302512
      ],
      [
        103.8587353,
        1.3024228
      ],
      [
        103.8586243,
        1.3021809
      ],
      [
        103.8585676,
        1.3020575
      ],
      [
        103.8585234,
        1.301971
      ],
      [
        103.858506,
        1.3019485
      ],
      [
        103.8583376,
        1.3017303
      ],
      [
        103.858107,
        1.3014709
      ],
      [
        103.8579212,
        1.3012747
      ],
      [
        103.8579024,
        1.3012549
      ],
      [
        103.857824,
        1.3011683
      ],
      [
        103.8575417,
        1.3008568
      ],
      [
        103.8575331,
        1.3008473
      ],
      [
        103.8572261,
        1.3005086
      ],
      [
        103.8572012,
        1.3004811
      ],
      [
        103.8570701,
        1.3003365
      ],
      [
        103.8569985,
        1.3002575
      ],
      [
        103.8569917,
        1.3002498
      ],
      [
        103.8566812,
        1.2999002
      ],
      [
        103.8566322,
        1.2998451
      ],
      [
        103.8565799,
        1.2997737
      ],
      [
        103.8564237,
        1.2995603
      ],
      [
        103.8563854,
        1.2995117
      ],
      [
        103.8562942,
        1.2993929
      ],
      [
        103.8561106,
        1.2991556
      ],
      [
        103.8560806,
        1.2991136
      ],
      [
        103.8560617,
        1.2990881
      ],
      [
        103.8559114,
        1.298885
      ],
      [
        103.8557717,
        1.2986961
      ],
      [
        103.8557628,
        1.2986826
      ],
      [
        103.8556017,
        1.2984781
      ],
      [
        103.8555139,
        1.298361
      ],
      [
        103.8554277,
        1.2982396
      ],
      [
        103.8551856,
        1.2978911
      ],
      [
        103.8551063,
        1.2977841
      ],
      [
        103.8550693,
        1.2977343
      ],
      [
        103.8549985,
        1.2976349
      ],
      [
        103.854955,
        1.2975771
      ],
      [
        103.8545664,
        1.297061
      ],
      [
        103.8545293,
        1.2970117
      ],
      [
        103.8545048,
        1.2969792
      ],
      [
        103.8543669,
        1.2967965
      ],
      [
        103.8541357,
        1.2964999
      ],
      [
        103.8541193,
        1.2964783
      ],
      [
        103.8540899,
        1.2964392
      ],
      [
        103.8538448,
        1.2961139
      ],
      [
        103.8536796,
        1.2958947
      ],
      [
        103.8535599,
        1.2957359
      ],
      [
        103.8535416,
        1.2957115
      ],
      [
        103.8534764,
        1.2956251
      ],
      [
        103.8531443,
        1.2951842
      ],
      [
        103.8531036,
        1.2951261
      ],
      [
        103.8530213,
        1.2950085
      ],
      [
        103.8529472,
        1.2949025
      ],
      [
        103.8526534,
        1.294486
      ],
      [
        103.8526368,
        1.2944621
      ],
      [
        103.8524064,
        1.2940995
      ],
      [
        103.8523864,
        1.2940681
      ],
      [
        103.8522579,
        1.2938721
      ],
      [
        103.8522229,
        1.2938187
      ],
      [
        103.8520677,
        1.293652
      ],
      [
        103.8520622,
        1.2936443
      ],
      [
        103.8520179,
        1.293583
      ],
      [
        103.8519693,
        1.2936139
      ],
      [
        103.8519427,
        1.2936308
      ],
      [
        103.8514419,
        1.2939483
      ],
      [
        103.8512127,
        1.2940937
      ],
      [
        103.8507394,
        1.2943939
      ],
      [
        103.8506392,
        1.2944574
      ],
      [
        103.850537,
        1.2945195
      ],
      [
        103.8504482,
        1.2945744
      ],
      [
        103.8500724,
        1.2947904
      ],
      [
        103.8498643,
        1.2949103
      ],
      [
        103.8497726,
        1.2949616
      ],
      [
        103.8498427,
        1.2950632
      ],
      [
        103.8499071,
        1.2951595
      ],
      [
        103.8500682,
        1.295408
      ],
      [
        103.8501005,
        1.2954538
      ],
      [
        103.8501542,
        1.2956288
      ],
      [
        103.850167,
        1.2957264
      ],
      [
        103.8501551,
        1.2957919
      ],
      [
        103.8501379,
        1.2958404
      ],
      [
        103.8500815,
        1.2959029
      ],
      [
        103.8499393,
        1.2960308
      ],
      [
        103.8498669,
        1.2960857
      ],
      [
        103.8497607,
        1.2961709
      ],
      [
        103.8496626,
        1.296267
      ],
      [
        103.8496288,
        1.2962958
      ],
      [
        103.8495715,
        1.2963588
      ],
      [
        103.8495213,
        1.2964195
      ],
      [
        103.8494384,
        1.2965304
      ],
      [
        103.8492526,
        1.2968242
      ],
      [
        103.8491267,
        1.2970113
      ],
      [
        103.8490578,
        1.2971187
      ],
      [
        103.8489855,
        1.2972167
      ],
      [
        103.8489258,
        1.2972882
      ],
      [
        103.8488639,
        1.2973425
      ],
      [
        103.8487422,
        1.2974409
      ],
      [
        103.8486291,
        1.2975236
      ],
      [
        103.8483977,
        1.2976929
      ],
      [
        103.8481278,
        1.2979092
      ],
      [
        103.8480569,
        1.2979702
      ],
      [
        103.8479612,
        1.298048
      ],
      [
        103.847712,
        1.2982594
      ],
      [
        103.8476785,
        1.2982819
      ],
      [
        103.8476472,
        1.2982994
      ],
      [
        103.8476202,
        1.2983082
      ],
      [
        103.8475925,
        1.2983147
      ],
      [
        103.8475616,
        1.2983173
      ],
      [
        103.8475318,
        1.2983164
      ],
      [
        103.8474774,
        1.2983158
      ],
      [
        103.8474447,
        1.2983154
      ],
      [
        103.8473864,
        1.2983067
      ],
      [
        103.847315,
        1.2982863
      ],
      [
        103.8472539,
        1.2982572
      ],
      [
        103.8472,
        1.2982179
      ],
      [
        103.8470101,
        1.298026
      ],
      [
        103.8469634,
        1.2979805
      ],
      [
        103.846857,
        1.2979174
      ],
      [
        103.8467533,
        1.2978736
      ],
      [
        103.8466612,
        1.297858
      ],
      [
        103.8465491,
        1.2978528
      ],
      [
        103.8463648,
        1.2979067
      ],
      [
        103.8459222,
        1.2980223
      ],
      [
        103.8456438,
        1.2981218
      ],
      [
        103.845528,
        1.2982164
      ],
      [
        103.8453722,
        1.2983141
      ],
      [
        103.8453384,
        1.2983289
      ],
      [
        103.845117,
        1.2983968
      ],
      [
        103.8449889,
        1.2983988
      ],
      [
        103.8448834,
        1.2983585
      ],
      [
        103.8447787,
        1.2983861
      ],
      [
        103.8445262,
        1.2984601
      ],
      [
        103.844475,
        1.2984751
      ],
      [
        103.8443111,
        1.2985359
      ],
      [
        103.8441591,
        1.2985922
      ],
      [
        103.843808,
        1.2987681
      ],
      [
        103.8436442,
        1.2988513
      ],
      [
        103.8433675,
        1.2990247
      ],
      [
        103.8431461,
        1.2991707
      ],
      [
        103.8429945,
        1.2992651
      ],
      [
        103.8427006,
        1.2994319
      ],
      [
        103.8425245,
        1.2995386
      ],
      [
        103.8425042,
        1.2995482
      ],
      [
        103.8423939,
        1.2996002
      ],
      [
        103.8422907,
        1.2996393
      ],
      [
        103.8421078,
        1.2996735
      ],
      [
        103.8419558,
        1.2997034
      ],
      [
        103.8416714,
        1.2997552
      ],
      [
        103.8416394,
        1.2997589
      ],
      [
        103.8415857,
        1.2997687
      ],
      [
        103.8414658,
        1.2997943
      ],
      [
        103.8409955,
        1.2998956
      ],
      [
        103.8406914,
        1.2999586
      ],
      [
        103.8405432,
        1.2999911
      ],
      [
        103.8404913,
        1.3000021
      ],
      [
        103.8404144,
        1.3000213
      ],
      [
        103.8403176,
        1.3000465
      ],
      [
        103.8402867,
        1.3000532
      ],
      [
        103.8401977,
        1.3000711
      ],
      [
        103.840108,
        1.3000912
      ],
      [
        103.8398887,
        1.3001362
      ],
      [
        103.8394433,
        1.3002335
      ],
      [
        103.8391674,
        1.3002938
      ],
      [
        103.8390588,
        1.3003175
      ],
      [
        103.8386463,
        1.3004076
      ],
      [
        103.8384943,
        1.3004403
      ],
      [
        103.8383906,
        1.3004626
      ],
      [
        103.8381287,
        1.3005188
      ],
      [
        103.8379596,
        1.3005587
      ],
      [
        103.8378941,
        1.300573
      ],
      [
        103.8376267,
        1.3006332
      ],
      [
        103.8373671,
        1.3006861
      ],
      [
        103.8372326,
        1.3007142
      ],
      [
        103.8369933,
        1.3007768
      ],
      [
        103.8368637,
        1.3008075
      ],
      [
        103.8368154,
        1.3008166
      ],
      [
        103.8368029,
        1.3008102
      ],
      [
        103.8367205,
        1.3008021
      ],
      [
        103.8365659,
        1.3007726
      ],
      [
        103.8364751,
        1.3007427
      ],
      [
        103.8363012,
        1.3006655
      ],
      [
        103.8361168,
        1.3004766
      ],
      [
        103.8360495,
        1.3003827
      ],
      [
        103.8359432,
        1.3002864
      ],
      [
        103.8357684,
        1.3001968
      ],
      [
        103.8357486,
        1.3001932
      ],
      [
        103.8355448,
        1.3001582
      ],
      [
        103.8354594,
        1.3001868
      ],
      [
        103.8352477,
        1.3002555
      ],
      [
        103.8351245,
        1.3002963
      ],
      [
        103.8349172,
        1.3003675
      ],
      [
        103.8348361,
        1.3004088
      ],
      [
        103.8347585,
        1.3004512
      ],
      [
        103.8346068,
        1.3005663
      ],
      [
        103.8343688,
        1.3007583
      ],
      [
        103.8335171,
        1.3016338
      ],
      [
        103.8329462,
        1.3021969
      ],
      [
        103.8328781,
        1.3022697
      ],
      [
        103.8322002,
        1.3028788
      ],
      [
        103.8321743,
        1.302902
      ],
      [
        103.8321285,
        1.3029446
      ],
      [
        103.8318567,
        1.3031763
      ],
      [
        103.8317984,
        1.3032199
      ],
      [
        103.8316434,
        1.303334
      ],
      [
        103.8314278,
        1.303472
      ],
      [
        103.830943,
        1.303797
      ],
      [
        103.8308472,
        1.3038595
      ],
      [
        103.8306784,
        1.303956
      ],
      [
        103.830597,
        1.3040179
      ],
      [
        103.8302992,
        1.3041993
      ],
      [
        103.8301436,
        1.3042724
      ],
      [
        103.8298908,
        1.3043897
      ],
      [
        103.829671,
        1.3044875
      ],
      [
        103.8295508,
        1.3045292
      ],
      [
        103.8294563,
        1.3045587
      ],
      [
        103.8293657,
        1.3045835
      ],
      [
        103.8292685,
        1.3046076
      ],
      [
        103.8290559,
        1.3046418
      ],
      [
        103.82884,
        1.3046586
      ],
      [
        103.8286073,
        1.3046565
      ],
      [
        103.8283539,
        1.3046478
      ],
      [
        103.8280916,
        1.304623
      ],
      [
        103.827963,
        1.3045905
      ],
      [
        103.8278691,
        1.3045667
      ],
      [
        103.8276484,
        1.3044977
      ],
      [
        103.8272528,
        1.3043046
      ],
      [
        103.8271281,
        1.3042174
      ],
      [
        103.8268834,
        1.3040238
      ],
      [
        103.8263818,
        1.3035947
      ],
      [
        103.8262573,
        1.30349
      ],
      [
        103.8262063,
        1.3034487
      ],
      [
        103.8259152,
        1.3032359
      ],
      [
        103.8258661,
        1.3031998
      ],
      [
        103.8257401,
        1.3031173
      ],
      [
        103.825561,
        1.3030416
      ],
      [
        103.8254656,
        1.3030133
      ],
      [
        103.8252338,
        1.3029444
      ],
      [
        103.8245458,
        1.302813
      ],
      [
        103.8244499,
        1.3027942
      ],
      [
        103.8243309,
        1.3027738
      ],
      [
        103.8242042,
        1.3027521
      ],
      [
        103.8239414,
        1.3027226
      ],
      [
        103.8238684,
        1.3027517
      ],
      [
        103.8237993,
        1.3027833
      ],
      [
        103.8237332,
        1.3028205
      ],
      [
        103.8236704,
        1.3028632
      ],
      [
        103.8235541,
        1.3029566
      ],
      [
        103.8234345,
        1.3029738
      ],
      [
        103.8234958,
        1.3033815
      ],
      [
        103.8235163,
        1.3036057
      ],
      [
        103.8235042,
        1.3038385
      ],
      [
        103.8234842,
        1.3039414
      ],
      [
        103.8234325,
        1.3040959
      ],
      [
        103.8233154,
        1.3043113
      ],
      [
        103.8232415,
        1.304424
      ],
      [
        103.8230262,
        1.304687
      ],
      [
        103.822837,
        1.3048664
      ],
      [
        103.822787,
        1.3049086
      ],
      [
        103.8227121,
        1.3049859
      ],
      [
        103.8226308,
        1.3050409
      ],
      [
        103.8223414,
        1.3052364
      ],
      [
        103.8219365,
        1.3054549
      ],
      [
        103.8218115,
        1.3055099
      ],
      [
        103.8217161,
        1.3055516
      ],
      [
        103.8214513,
        1.3056518
      ],
      [
        103.8211814,
        1.3057704
      ],
      [
        103.8209802,
        1.3058637
      ],
      [
        103.8207768,
        1.3059632
      ],
      [
        103.8204044,
        1.306164
      ],
      [
        103.8203444,
        1.306197
      ],
      [
        103.8201474,
        1.3063052
      ],
      [
        103.8200161,
        1.3063695
      ],
      [
        103.8198783,
        1.3064256
      ],
      [
        103.8197884,
        1.3064632
      ],
      [
        103.8196748,
        1.3065002
      ],
      [
        103.8195118,
        1.3065523
      ],
      [
        103.8193053,
        1.3065997
      ],
      [
        103.8191055,
        1.3066467
      ],
      [
        103.8189817,
        1.3066573
      ],
      [
        103.8188495,
        1.3066584
      ],
      [
        103.8186843,
        1.3066598
      ],
      [
        103.8185568,
        1.3066571
      ],
      [
        103.8182179,
        1.3066228
      ],
      [
        103.8180408,
        1.3065772
      ],
      [
        103.8178772,
        1.3065624
      ],
      [
        103.8175701,
        1.3065128
      ],
      [
        103.8173434,
        1.3064716
      ],
      [
        103.8172765,
        1.3064662
      ],
      [
        103.8172092,
        1.3064545
      ],
      [
        103.817083,
        1.3064416
      ],
      [
        103.8168511,
        1.3064567
      ],
      [
        103.8165563,
        1.3064919
      ],
      [
        103.8159492,
        1.3065476
      ],
      [
        103.8155097,
        1.3065833
      ],
      [
        103.8149729,
        1.3065296
      ],
      [
        103.8148329,
        1.3065055
      ],
      [
        103.8146961,
        1.3064873
      ],
      [
        103.8143967,
        1.3064509
      ],
      [
        103.8142894,
        1.3064335
      ],
      [
        103.8140378,
        1.3063911
      ],
      [
        103.813662,
        1.306332
      ],
      [
        103.8134364,
        1.3063229
      ],
      [
        103.8132181,
        1.3063407
      ],
      [
        103.8130149,
        1.3063842
      ],
      [
        103.8127713,
        1.3064783
      ],
      [
        103.8122989,
        1.306834
      ],
      [
        103.8121199,
        1.306926
      ],
      [
        103.8116013,
        1.3072306
      ],
      [
        103.8114752,
        1.3072989
      ],
      [
        103.8110873,
        1.3075176
      ],
      [
        103.8107667,
        1.3077098
      ],
      [
        103.8107403,
        1.3077258
      ],
      [
        103.8099886,
        1.3081778
      ],
      [
        103.8098894,
        1.3082374
      ],
      [
        103.8098079,
        1.3082927
      ],
      [
        103.8092329,
        1.3086589
      ],
      [
        103.809092,
        1.3087486
      ],
      [
        103.8090654,
        1.3087662
      ],
      [
        103.8083143,
        1.3092293
      ],
      [
        103.8080238,
        1.3093567
      ],
      [
        103.807827,
        1.3094252
      ],
      [
        103.8075645,
        1.309508
      ],
      [
        103.8072572,
        1.3096126
      ],
      [
        103.8064642,
        1.3098235
      ],
      [
        103.8061568,
        1.309903
      ],
      [
        103.8058394,
        1.3099974
      ],
      [
        103.805511,
        1.3100891
      ],
      [
        103.8049638,
        1.3102473
      ],
      [
        103.8047377,
        1.3103101
      ],
      [
        103.8041728,
        1.3104612
      ],
      [
        103.8037359,
        1.3105674
      ],
      [
        103.8036655,
        1.3105866
      ],
      [
        103.8033705,
        1.3106721
      ],
      [
        103.8033116,
        1.3106881
      ],
      [
        103.8029379,
        1.3107878
      ],
      [
        103.8027732,
        1.3108306
      ],
      [
        103.802423,
        1.3109255
      ],
      [
        103.8021803,
        1.3109913
      ],
      [
        103.8019315,
        1.3110583
      ],
      [
        103.8018855,
        1.3110718
      ],
      [
        103.8017822,
        1.3111024
      ],
      [
        103.8011815,
        1.3112807
      ],
      [
        103.8010179,
        1.3113389
      ],
      [
        103.8008599,
        1.3113952
      ],
      [
        103.8007445,
        1.3114447
      ],
      [
        103.8007252,
        1.311453
      ],
      [
        103.8006881,
        1.3114689
      ],
      [
        103.8006788,
        1.3114728
      ],
      [
        103.8005565,
        1.3115253
      ],
      [
        103.8003632,
        1.3116283
      ],
      [
        103.8003195,
        1.3116516
      ],
      [
        103.8001406,
        1.3117682
      ],
      [
        103.7999596,
        1.3119
      ],
      [
        103.7998939,
        1.3119478
      ],
      [
        103.7997186,
        1.3120591
      ],
      [
        103.7993082,
        1.3123089
      ],
      [
        103.7990073,
        1.3125103
      ],
      [
        103.7986484,
        1.3127059
      ],
      [
        103.7985348,
        1.3127621
      ],
      [
        103.7984286,
        1.3128016
      ],
      [
        103.7983194,
        1.3128351
      ],
      [
        103.7982099,
        1.3128589
      ],
      [
        103.7980839,
        1.3128755
      ],
      [
        103.7979841,
        1.3128798
      ],
      [
        103.7978844,
        1.312876
      ],
      [
        103.7977769,
        1.3128625
      ],
      [
        103.7976394,
        1.3128343
      ],
      [
        103.7975194,
        1.3127945
      ],
      [
        103.7972821,
        1.3126895
      ],
      [
        103.7971135,
        1.3126148
      ],
      [
        103.7970072,
        1.3125678
      ],
      [
        103.7967174,
        1.3124127
      ],
      [
        103.796415,
        1.3122493
      ],
      [
        103.7960525,
        1.312054
      ],
      [
        103.7959705,
        1.3120301
      ],
      [
        103.7959247,
        1.3120141
      ],
      [
        103.7958126,
        1.3119921
      ],
      [
        103.7956856,
        1.3119734
      ],
      [
        103.7955279,
        1.3119541
      ],
      [
        103.7953152,
        1.311964
      ],
      [
        103.7951044,
        1.3120019
      ],
      [
        103.7949316,
        1.3120619
      ],
      [
        103.7947672,
        1.3121446
      ],
      [
        103.7946148,
        1.3122438
      ],
      [
        103.7943385,
        1.312457
      ],
      [
        103.7941477,
        1.3126042
      ],
      [
        103.7937332,
        1.3129064
      ],
      [
        103.7933743,
        1.3131983
      ],
      [
        103.7932678,
        1.3132639
      ],
      [
        103.7931902,
        1.3133125
      ],
      [
        103.7931524,
        1.3133316
      ],
      [
        103.7930791,
        1.3133715
      ],
      [
        103.7930315,
        1.3133963
      ],
      [
        103.79285,
        1.3134779
      ],
      [
        103.7927027,
        1.3135286
      ],
      [
        103.7923142,
        1.3136448
      ],
      [
        103.791788,
        1.3138191
      ],
      [
        103.7914819,
        1.3139513
      ],
      [
        103.7908937,
        1.3142398
      ],
      [
        103.7907801,
        1.3143119
      ],
      [
        103.7905972,
        1.3144197
      ],
      [
        103.7904479,
        1.314513
      ],
      [
        103.7902187,
        1.3147081
      ],
      [
        103.7900257,
        1.3148857
      ],
      [
        103.7898893,
        1.3150101
      ],
      [
        103.7898299,
        1.3150643
      ],
      [
        103.7895927,
        1.3153284
      ],
      [
        103.7893659,
        1.3155809
      ],
      [
        103.7890863,
        1.3158565
      ],
      [
        103.7888791,
        1.3160462
      ],
      [
        103.7883311,
        1.3164951
      ],
      [
        103.7880651,
        1.3167233
      ],
      [
        103.7874865,
        1.3172385
      ],
      [
        103.7874275,
        1.3172927
      ],
      [
        103.7873467,
        1.3173626
      ],
      [
        103.7872965,
        1.3174061
      ],
      [
        103.7871366,
        1.3175344
      ],
      [
        103.7868879,
        1.3177151
      ],
      [
        103.7866912,
        1.3178244
      ],
      [
        103.7864929,
        1.317899
      ],
      [
        103.7863435,
        1.3179356
      ],
      [
        103.7862022,
        1.3179572
      ],
      [
        103.7858377,
        1.3180046
      ],
      [
        103.7857632,
        1.318016
      ],
      [
        103.7856661,
        1.318029
      ],
      [
        103.7853264,
        1.3180712
      ],
      [
        103.7849518,
        1.3181135
      ],
      [
        103.7846352,
        1.3181482
      ],
      [
        103.7843506,
        1.3181855
      ],
      [
        103.7842194,
        1.3182008
      ],
      [
        103.7841382,
        1.3182113
      ],
      [
        103.7839652,
        1.3182362
      ],
      [
        103.7838649,
        1.3182558
      ],
      [
        103.7837812,
        1.3182783
      ],
      [
        103.7836127,
        1.3183304
      ],
      [
        103.7832942,
        1.3184635
      ],
      [
        103.7830233,
        1.318625
      ],
      [
        103.7828917,
        1.3187317
      ],
      [
        103.7827597,
        1.3188527
      ],
      [
        103.7826084,
        1.3189874
      ],
      [
        103.7823441,
        1.3192588
      ],
      [
        103.782304,
        1.3192982
      ],
      [
        103.7821131,
        1.3195028
      ],
      [
        103.7818823,
        1.3197498
      ],
      [
        103.781666,
        1.3199858
      ],
      [
        103.7815802,
        1.3200824
      ],
      [
        103.781515,
        1.3201571
      ],
      [
        103.7814197,
        1.3202309
      ],
      [
        103.7812666,
        1.3203297
      ],
      [
        103.7811659,
        1.3203924
      ],
      [
        103.7810797,
        1.3204403
      ],
      [
        103.7809605,
        1.3205012
      ],
      [
        103.7808176,
        1.3205702
      ],
      [
        103.7807216,
        1.3206149
      ],
      [
        103.7806244,
        1.3206578
      ],
      [
        103.7805091,
        1.3207085
      ],
      [
        103.7803961,
        1.3207553
      ],
      [
        103.7803063,
        1.32079
      ],
      [
        103.7802594,
        1.320806
      ],
      [
        103.7802135,
        1.3208198
      ],
      [
        103.7801599,
        1.3208348
      ],
      [
        103.7801102,
        1.3208485
      ],
      [
        103.7800202,
        1.3208687
      ],
      [
        103.7799184,
        1.3208888
      ],
      [
        103.7798161,
        1.3209056
      ],
      [
        103.7796304,
        1.3209281
      ],
      [
        103.7795233,
        1.3209347
      ],
      [
        103.7794681,
        1.3209356
      ],
      [
        103.7794129,
        1.3209348
      ],
      [
        103.7793592,
        1.3209331
      ],
      [
        103.7793132,
        1.3209307
      ],
      [
        103.7792192,
        1.3209243
      ],
      [
        103.7790548,
        1.3209065
      ],
      [
        103.7788952,
        1.3208854
      ],
      [
        103.7783392,
        1.3208122
      ],
      [
        103.7778686,
        1.320743
      ],
      [
        103.7775945,
        1.3206929
      ],
      [
        103.7774545,
        1.3206714
      ],
      [
        103.777317,
        1.3206494
      ],
      [
        103.7771607,
        1.3206338
      ],
      [
        103.7770525,
        1.320624
      ],
      [
        103.7769399,
        1.3206199
      ],
      [
        103.7767575,
        1.3206137
      ],
      [
        103.776539,
        1.320635
      ],
      [
        103.7758799,
        1.3207121
      ],
      [
        103.7756603,
        1.3207
      ],
      [
        103.7753892,
        1.320636
      ],
      [
        103.7748324,
        1.3204046
      ],
      [
        103.7741876,
        1.3200642
      ],
      [
        103.7739924,
        1.3199763
      ],
      [
        103.7738312,
        1.3199036
      ],
      [
        103.7736987,
        1.3198439
      ],
      [
        103.7734744,
        1.3197428
      ],
      [
        103.7728267,
        1.3194491
      ],
      [
        103.7727165,
        1.3193858
      ],
      [
        103.7725391,
        1.3192929
      ],
      [
        103.7724042,
        1.3192343
      ],
      [
        103.7722955,
        1.3192015
      ],
      [
        103.7721666,
        1.3191607
      ],
      [
        103.7720685,
        1.3191389
      ],
      [
        103.7719738,
        1.3191199
      ],
      [
        103.7718961,
        1.3190824
      ],
      [
        103.7718089,
        1.3190475
      ],
      [
        103.7717043,
        1.3190233
      ],
      [
        103.7716198,
        1.3189899
      ],
      [
        103.7715102,
        1.3189153
      ],
      [
        103.7714481,
        1.3188598
      ],
      [
        103.7714039,
        1.3187954
      ],
      [
        103.7713905,
        1.3187431
      ],
      [
        103.7713785,
        1.318632
      ],
      [
        103.7714299,
        1.31842
      ],
      [
        103.7714558,
        1.3183132
      ],
      [
        103.7715336,
        1.3179889
      ],
      [
        103.7715695,
        1.3178163
      ],
      [
        103.7716157,
        1.3175938
      ],
      [
        103.7716495,
        1.317431
      ],
      [
        103.7718173,
        1.3167204
      ],
      [
        103.7718236,
        1.3166927
      ],
      [
        103.7718378,
        1.3166123
      ],
      [
        103.7718587,
        1.3164885
      ],
      [
        103.771677,
        1.3164555
      ],
      [
        103.7716109,
        1.3164442
      ],
      [
        103.7715466,
        1.3164327
      ],
      [
        103.771393,
        1.3164053
      ],
      [
        103.7712247,
        1.3163752
      ],
      [
        103.7710892,
        1.316351
      ],
      [
        103.7709579,
        1.3163177
      ],
      [
        103.7707701,
        1.3162566
      ],
      [
        103.7706195,
        1.3161977
      ],
      [
        103.7704552,
        1.3161167
      ],
      [
        103.7703988,
        1.316086
      ],
      [
        103.7703548,
        1.316062
      ],
      [
        103.7702885,
        1.3160195
      ],
      [
        103.7702322,
        1.3161184
      ],
      [
        103.7701978,
        1.3161774
      ],
      [
        103.7700919,
        1.3163597
      ],
      [
        103.7698585,
        1.3167224
      ],
      [
        103.7696712,
        1.3169305
      ],
      [
        103.7694727,
        1.3170806
      ],
      [
        103.7693359,
        1.3171644
      ],
      [
        103.7692435,
        1.3172119
      ],
      [
        103.7691535,
        1.3172563
      ],
      [
        103.7690046,
        1.3173059
      ],
      [
        103.7688169,
        1.3173394
      ],
      [
        103.7685742,
        1.3173461
      ],
      [
        103.768432,
        1.3173407
      ],
      [
        103.7683227,
        1.3173166
      ],
      [
        103.7682094,
        1.3172918
      ],
      [
        103.768084,
        1.3172523
      ],
      [
        103.7679083,
        1.3171812
      ],
      [
        103.7677549,
        1.3171074
      ],
      [
        103.7675513,
        1.3170143
      ],
      [
        103.7673739,
        1.3169331
      ],
      [
        103.7673297,
        1.3169144
      ],
      [
        103.7671862,
        1.3168621
      ],
      [
        103.7670655,
        1.3168447
      ],
      [
        103.7669895,
        1.3168408
      ],
      [
        103.7669312,
        1.3168385
      ],
      [
        103.7668891,
        1.3168398
      ],
      [
        103.7667674,
        1.3168456
      ],
      [
        103.766695,
        1.3168525
      ],
      [
        103.7666397,
        1.3168416
      ],
      [
        103.7666068,
        1.3168197
      ],
      [
        103.7665692,
        1.3167877
      ],
      [
        103.7664809,
        1.3166982
      ],
      [
        103.7663799,
        1.3166073
      ],
      [
        103.7661396,
        1.3164829
      ],
      [
        103.7659272,
        1.3164039
      ],
      [
        103.765696,
        1.3163387
      ],
      [
        103.7651942,
        1.3162165
      ],
      [
        103.7650906,
        1.3161547
      ],
      [
        103.7650292,
        1.3161149
      ],
      [
        103.7649704,
        1.3160769
      ],
      [
        103.7648672,
        1.31601
      ],
      [
        103.7647301,
        1.3159212
      ],
      [
        103.7646314,
        1.3158573
      ],
      [
        103.764383,
        1.315667
      ],
      [
        103.7643638,
        1.3156326
      ],
      [
        103.7643514,
        1.3155965
      ],
      [
        103.7643439,
        1.3155664
      ],
      [
        103.7643526,
        1.3155357
      ],
      [
        103.7644758,
        1.315297
      ],
      [
        103.76452,
        1.3152116
      ],
      [
        103.76452,
        1.3151815
      ],
      [
        103.7645106,
        1.315156
      ],
      [
        103.7644894,
        1.3151387
      ],
      [
        103.7641303,
        1.3149397
      ],
      [
        103.764107,
        1.3149216
      ],
      [
        103.7640907,
        1.3149021
      ],
      [
        103.7639237,
        1.3146836
      ]
    ]
  }
}