{
  "type": "Feature",
  "properties": {
    "relation": 6623081,
    "direction": "1",
    "distance": "6.5",
    "fee": "yes",
    "from": "Yishun Interchange",
    "name": "Svc 805 (Yishun Interchange ↺ Yishun Avenue 1)",
    "name:en": "Svc 805 (Yishun Interchange ↺ Yishun Avenue 1)",
    "network": "Land Transport Authority",
    "network:wikidata": "Q3299279",
    "network:wikipedia": "en:Land Transport Authority",
    "operator": "SBS Transit",
    "operator:wikidata": "Q2661305",
    "operator:wikipedia": "en:SBS Transit",
    "public_transport:version": "2",
    "ref": "805",
    "roundtrip": "yes",
    "route": "bus",
    "to": "Yishun Interchange",
    "type": "route",
    "via": "Yishun Avenue 1",
    "website": "https://www.sbstransit.com.sg/",
    "wheelchair": "yes"
  },
  "geometry": {
    "type": "LineString",
    "coordinates": [
      [
        103.836179,
        1.428124
      ],
      [
        103.8362365,
        1.4280181
      ],
      [
        103.8361808,
        1.4278117
      ],
      [
        103.8360569,
        1.4273524
      ],
      [
        103.8360313,
        1.4272574
      ],
      [
        103.8358923,
        1.4267081
      ],
      [
        103.8357197,
        1.4267176
      ],
      [
        103.8355699,
        1.4267291
      ],
      [
        103.8354295,
        1.4267369
      ],
      [
        103.835413,
        1.4267375
      ],
      [
        103.8352648,
        1.426744
      ],
      [
        103.8352507,
        1.4265215
      ],
      [
        103.8352406,
        1.426362
      ],
      [
        103.8352263,
        1.4261371
      ],
      [
        103.835216,
        1.4256942
      ],
      [
        103.8352114,
        1.4250832
      ],
      [
        103.8352035,
        1.4248635
      ],
      [
        103.8352019,
        1.4248178
      ],
      [
        103.8351946,
        1.4247236
      ],
      [
        103.8351922,
        1.424694
      ],
      [
        103.8351724,
        1.4244521
      ],
      [
        103.8351426,
        1.4240621
      ],
      [
        103.8351106,
        1.4236025
      ],
      [
        103.8350918,
        1.4232746
      ],
      [
        103.8351823,
        1.423118
      ],
      [
        103.8352084,
        1.4230919
      ],
      [
        103.8352831,
        1.4230172
      ],
      [
        103.8353729,
        1.4229443
      ],
      [
        103.8358681,
        1.4229445
      ],
      [
        103.8360219,
        1.4229446
      ],
      [
        103.8366424,
        1.4229557
      ],
      [
        103.8367294,
        1.4229577
      ],
      [
        103.8367902,
        1.4229601
      ],
      [
        103.8368496,
        1.4229618
      ],
      [
        103.8374109,
        1.4229746
      ],
      [
        103.8375712,
        1.422979
      ],
      [
        103.8376003,
        1.4229839
      ],
      [
        103.8378716,
        1.4230556
      ],
      [
        103.8379501,
        1.4230842
      ],
      [
        103.8380243,
        1.4231198
      ],
      [
        103.838184,
        1.4231989
      ],
      [
        103.8383397,
        1.4233027
      ],
      [
        103.8388599,
        1.4237144
      ],
      [
        103.8391279,
        1.4239075
      ],
      [
        103.8394112,
        1.4241109
      ],
      [
        103.8397332,
        1.4243852
      ],
      [
        103.8397546,
        1.424406
      ],
      [
        103.8397742,
        1.4244244
      ],
      [
        103.8398256,
        1.4244727
      ],
      [
        103.8398737,
        1.424518
      ],
      [
        103.8398971,
        1.42454
      ],
      [
        103.8399701,
        1.424475
      ],
      [
        103.840001,
        1.4244379
      ],
      [
        103.8400364,
        1.4243955
      ],
      [
        103.84011,
        1.4242869
      ],
      [
        103.8403895,
        1.4239019
      ],
      [
        103.8405648,
        1.4236742
      ],
      [
        103.8406004,
        1.4236145
      ],
      [
        103.8406713,
        1.4234682
      ],
      [
        103.8407347,
        1.4233071
      ],
      [
        103.8408446,
        1.4229865
      ],
      [
        103.8408611,
        1.4229459
      ],
      [
        103.8411085,
        1.4223321
      ],
      [
        103.8411174,
        1.4223106
      ],
      [
        103.8411278,
        1.4222854
      ],
      [
        103.8411638,
        1.4221988
      ],
      [
        103.841238,
        1.4220149
      ],
      [
        103.8415972,
        1.4210889
      ],
      [
        103.8416186,
        1.4209486
      ],
      [
        103.8416198,
        1.4208072
      ],
      [
        103.8415913,
        1.4206265
      ],
      [
        103.8415162,
        1.4204029
      ],
      [
        103.8414996,
        1.4203644
      ],
      [
        103.8413977,
        1.4201252
      ],
      [
        103.8413663,
        1.4200516
      ],
      [
        103.841157,
        1.4195681
      ],
      [
        103.8409991,
        1.4191989
      ],
      [
        103.8408174,
        1.4187506
      ],
      [
        103.8407242,
        1.4184835
      ],
      [
        103.8406393,
        1.4182664
      ],
      [
        103.8405526,
        1.4180198
      ],
      [
        103.8405225,
        1.4179479
      ],
      [
        103.8404925,
        1.4178753
      ],
      [
        103.8404589,
        1.4177952
      ],
      [
        103.8404109,
        1.417681
      ],
      [
        103.8402434,
        1.4173103
      ],
      [
        103.840008,
        1.4167715
      ],
      [
        103.8399552,
        1.4166261
      ],
      [
        103.8399351,
        1.4165707
      ],
      [
        103.8398979,
        1.4164859
      ],
      [
        103.839879,
        1.416441
      ],
      [
        103.8398303,
        1.4163254
      ],
      [
        103.8397203,
        1.4160578
      ],
      [
        103.839492,
        1.4155022
      ],
      [
        103.8394208,
        1.415329
      ],
      [
        103.8393693,
        1.4152038
      ],
      [
        103.8391919,
        1.4147844
      ],
      [
        103.839011,
        1.4143781
      ],
      [
        103.8389707,
        1.4142877
      ],
      [
        103.8389551,
        1.414234
      ],
      [
        103.8389461,
        1.4141645
      ],
      [
        103.8389337,
        1.4140825
      ],
      [
        103.8389498,
        1.4138572
      ],
      [
        103.8390044,
        1.4136507
      ],
      [
        103.8390812,
        1.4134319
      ],
      [
        103.8391592,
        1.4133307
      ],
      [
        103.8392026,
        1.4132963
      ],
      [
        103.8392232,
        1.4132799
      ],
      [
        103.8392913,
        1.4132595
      ],
      [
        103.8394347,
        1.413215
      ],
      [
        103.840224,
        1.4134867
      ],
      [
        103.84089,
        1.4137446
      ],
      [
        103.8409294,
        1.4137575
      ],
      [
        103.8415624,
        1.4140283
      ],
      [
        103.841792,
        1.4141303
      ],
      [
        103.8418856,
        1.4141718
      ],
      [
        103.8427573,
        1.4145593
      ],
      [
        103.8431822,
        1.4147409
      ],
      [
        103.843381,
        1.414822
      ],
      [
        103.8434211,
        1.4148381
      ],
      [
        103.8435287,
        1.4148793
      ],
      [
        103.8435692,
        1.4148974
      ],
      [
        103.843789,
        1.4149877
      ],
      [
        103.8444657,
        1.4153055
      ],
      [
        103.8448171,
        1.4155482
      ],
      [
        103.8450911,
        1.4158357
      ],
      [
        103.8453882,
        1.4161968
      ],
      [
        103.84554,
        1.4164482
      ],
      [
        103.8456673,
        1.4167192
      ],
      [
        103.8458242,
        1.4170848
      ],
      [
        103.8459164,
        1.417291
      ],
      [
        103.8460521,
        1.4175917
      ],
      [
        103.846137,
        1.4177571
      ],
      [
        103.8462643,
        1.4179619
      ],
      [
        103.8464144,
        1.4181717
      ],
      [
        103.8465963,
        1.4183681
      ],
      [
        103.8466421,
        1.4184188
      ],
      [
        103.8465573,
        1.4184937
      ],
      [
        103.846402,
        1.4186317
      ],
      [
        103.8460327,
        1.4189997
      ],
      [
        103.8458833,
        1.4191485
      ],
      [
        103.8457722,
        1.4192492
      ],
      [
        103.8457212,
        1.4192954
      ],
      [
        103.8456525,
        1.4193466
      ],
      [
        103.8455895,
        1.4193793
      ],
      [
        103.8454397,
        1.419457
      ],
      [
        103.8453565,
        1.4195001
      ],
      [
        103.8452277,
        1.4195613
      ],
      [
        103.8451147,
        1.4196063
      ],
      [
        103.844899,
        1.4196385
      ],
      [
        103.8447945,
        1.41964
      ],
      [
        103.8447501,
        1.419641
      ],
      [
        103.8444273,
        1.4196354
      ],
      [
        103.8441743,
        1.4196342
      ],
      [
        103.8440412,
        1.4196371
      ],
      [
        103.8438584,
        1.4196498
      ],
      [
        103.8438289,
        1.4196543
      ],
      [
        103.8438071,
        1.4195688
      ],
      [
        103.8437582,
        1.4194266
      ],
      [
        103.8436003,
        1.4190922
      ],
      [
        103.8433768,
        1.4187328
      ],
      [
        103.8431392,
        1.4184613
      ],
      [
        103.8428787,
        1.4181729
      ],
      [
        103.8426613,
        1.4179737
      ],
      [
        103.8426015,
        1.4179293
      ],
      [
        103.8423973,
        1.4177776
      ],
      [
        103.8423592,
        1.4177565
      ],
      [
        103.8422873,
        1.4177168
      ],
      [
        103.8421822,
        1.4176588
      ],
      [
        103.8420512,
        1.4176036
      ],
      [
        103.8419229,
        1.4175622
      ],
      [
        103.8417687,
        1.4175364
      ],
      [
        103.8416942,
        1.4175343
      ],
      [
        103.8415596,
        1.4175367
      ],
      [
        103.8415234,
        1.4175374
      ],
      [
        103.8414355,
        1.4175425
      ],
      [
        103.8411932,
        1.417585
      ],
      [
        103.8408299,
        1.4177392
      ],
      [
        103.840704,
        1.4177889
      ],
      [
        103.8405419,
        1.4178548
      ],
      [
        103.8404925,
        1.4178753
      ],
      [
        103.8403973,
        1.4179201
      ],
      [
        103.8404105,
        1.4179551
      ],
      [
        103.840423,
        1.417993
      ],
      [
        103.8404476,
        1.418063
      ],
      [
        103.8406692,
        1.4186718
      ],
      [
        103.8407685,
        1.4189125
      ],
      [
        103.8409107,
        1.4192227
      ],
      [
        103.8410148,
        1.4194696
      ],
      [
        103.8410771,
        1.4196004
      ],
      [
        103.8413222,
        1.4201575
      ],
      [
        103.8414771,
        1.4205097
      ],
      [
        103.8414939,
        1.4206125
      ],
      [
        103.8415214,
        1.42078
      ],
      [
        103.8415205,
        1.420911
      ],
      [
        103.8415064,
        1.4210331
      ],
      [
        103.8414722,
        1.4211521
      ],
      [
        103.8411198,
        1.4220238
      ],
      [
        103.8410343,
        1.4222529
      ],
      [
        103.840802,
        1.4228756
      ],
      [
        103.8407632,
        1.4229681
      ],
      [
        103.8406564,
        1.423272
      ],
      [
        103.8406039,
        1.4234213
      ],
      [
        103.8405203,
        1.4235966
      ],
      [
        103.8399536,
        1.4243261
      ],
      [
        103.8399182,
        1.4243666
      ],
      [
        103.8398904,
        1.4243985
      ],
      [
        103.8398375,
        1.4243527
      ],
      [
        103.8397814,
        1.4243021
      ],
      [
        103.8397439,
        1.4242726
      ],
      [
        103.8388566,
        1.423592
      ],
      [
        103.8386567,
        1.4234387
      ],
      [
        103.8383951,
        1.4232426
      ],
      [
        103.8382325,
        1.4231277
      ],
      [
        103.8381403,
        1.4230788
      ],
      [
        103.8380062,
        1.4230131
      ],
      [
        103.8378724,
        1.422963
      ],
      [
        103.8376373,
        1.4228989
      ],
      [
        103.8376141,
        1.4228963
      ],
      [
        103.8375624,
        1.4228937
      ],
      [
        103.8374477,
        1.4228917
      ],
      [
        103.8368504,
        1.4228784
      ],
      [
        103.8367979,
        1.4228779
      ],
      [
        103.8367389,
        1.4228763
      ],
      [
        103.8366458,
        1.4228763
      ],
      [
        103.8366227,
        1.4228772
      ],
      [
        103.83597,
        1.4228581
      ],
      [
        103.8357537,
        1.4228488
      ],
      [
        103.8353719,
        1.4228378
      ],
      [
        103.8351395,
        1.4228407
      ],
      [
        103.8350759,
        1.4228415
      ],
      [
        103.8350432,
        1.4228398
      ],
      [
        103.8350125,
        1.4228371
      ],
      [
        103.8349336,
        1.4228355
      ],
      [
        103.8349407,
        1.4229603
      ],
      [
        103.8349452,
        1.4230272
      ],
      [
        103.8349595,
        1.42324
      ],
      [
        103.8350058,
        1.4237671
      ],
      [
        103.8350339,
        1.4240916
      ],
      [
        103.8350655,
        1.4247049
      ],
      [
        103.8350669,
        1.4247316
      ],
      [
        103.8350704,
        1.4248212
      ],
      [
        103.8350717,
        1.4248739
      ],
      [
        103.8351006,
        1.4260113
      ],
      [
        103.8351146,
        1.4262553
      ],
      [
        103.8351412,
        1.4267538
      ],
      [
        103.8351412,
        1.4267538
      ],
      [
        103.835413,
        1.4267375
      ],
      [
        103.8352648,
        1.426744
      ],
      [
        103.8354295,
        1.4267369
      ],
      [
        103.8356667,
        1.4281367
      ],
      [
        103.8358401,
        1.4281287
      ],
      [
        103.8360252,
        1.4281252
      ],
      [
        103.836179,
        1.428124
      ]
    ]
  }
}