{
  "type": "Feature",
  "properties": {
    "relation": 1151760,
    "direction": "1",
    "fee": "yes",
    "from": "Tampines Interchange",
    "name": "Svc 81 (Tampines Interchange ↺ Serangoon Central)",
    "name:en": "Svc 81 (Tampines Interchange ↺ Serangoon Central)",
    "network": "Land Transport Authority",
    "network:short": "LTA",
    "network:wikidata": "Q3299279",
    "network:wikipedia": "en:Land Transport Authority",
    "operator": "Go-Ahead Singapore",
    "operator:wikidata": "Q24698874",
    "operator:wikipedia": "en:Go-Ahead Singapore",
    "public_transport:version": "2",
    "ref": "81",
    "roundtrip": "yes",
    "route": "bus",
    "to": "Tampines Interchange",
    "type": "route",
    "via": "Serangoon Central",
    "website": "https://go-aheadsingapore.com/bus-services/"
  },
  "geometry": {
    "type": "LineString",
    "coordinates": [
      [
        103.9434895,
        1.3548843
      ],
      [
        103.9435506,
        1.3547662
      ],
      [
        103.9436213,
        1.3546287
      ],
      [
        103.9436472,
        1.354583
      ],
      [
        103.943647,
        1.3545493
      ],
      [
        103.9436302,
        1.3545253
      ],
      [
        103.9434061,
        1.3543026
      ],
      [
        103.9431003,
        1.3539963
      ],
      [
        103.9430264,
        1.3540247
      ],
      [
        103.9430019,
        1.3540914
      ],
      [
        103.9429956,
        1.3542446
      ],
      [
        103.9429853,
        1.3544914
      ],
      [
        103.9430158,
        1.3546427
      ],
      [
        103.9430903,
        1.3547532
      ],
      [
        103.9431709,
        1.354833
      ],
      [
        103.9432027,
        1.3548645
      ],
      [
        103.942933,
        1.355131
      ],
      [
        103.9428826,
        1.3551813
      ],
      [
        103.9428309,
        1.355241
      ],
      [
        103.9428883,
        1.3552961
      ],
      [
        103.9429256,
        1.355328
      ],
      [
        103.9430585,
        1.3554419
      ],
      [
        103.943125,
        1.3554858
      ],
      [
        103.9432223,
        1.3555186
      ],
      [
        103.9433207,
        1.355541
      ],
      [
        103.9435892,
        1.3555457
      ],
      [
        103.9437787,
        1.3555505
      ],
      [
        103.9440337,
        1.3555602
      ],
      [
        103.9440352,
        1.3556192
      ],
      [
        103.9440432,
        1.355973
      ],
      [
        103.9440548,
        1.3565917
      ],
      [
        103.9440589,
        1.3566557
      ],
      [
        103.9440631,
        1.3567752
      ],
      [
        103.9441334,
        1.3567737
      ],
      [
        103.9451045,
        1.3567929
      ],
      [
        103.9455045,
        1.3568008
      ],
      [
        103.9460439,
        1.3567971
      ],
      [
        103.9461144,
        1.3567961
      ],
      [
        103.946241,
        1.3567963
      ],
      [
        103.9463231,
        1.3567952
      ],
      [
        103.9464113,
        1.3567952
      ],
      [
        103.9465265,
        1.3567953
      ],
      [
        103.9472669,
        1.3567955
      ],
      [
        103.9474286,
        1.3567961
      ],
      [
        103.9488575,
        1.3567926
      ],
      [
        103.949204,
        1.3567961
      ],
      [
        103.9495045,
        1.3567936
      ],
      [
        103.9499076,
        1.3567768
      ],
      [
        103.9500015,
        1.3567729
      ],
      [
        103.9501436,
        1.3567649
      ],
      [
        103.9502447,
        1.356756
      ],
      [
        103.9503435,
        1.3567457
      ],
      [
        103.9505306,
        1.3567296
      ],
      [
        103.9508128,
        1.3566934
      ],
      [
        103.9511398,
        1.3566394
      ],
      [
        103.9514584,
        1.3565891
      ],
      [
        103.951544,
        1.3565703
      ],
      [
        103.9518107,
        1.3565167
      ],
      [
        103.9519228,
        1.3564953
      ],
      [
        103.9519874,
        1.3564852
      ],
      [
        103.9520111,
        1.3564815
      ],
      [
        103.9526821,
        1.356377
      ],
      [
        103.9531473,
        1.3563436
      ],
      [
        103.9533713,
        1.3563298
      ],
      [
        103.9537127,
        1.3563064
      ],
      [
        103.9540629,
        1.3562951
      ],
      [
        103.9547119,
        1.3562963
      ],
      [
        103.9550037,
        1.3562998
      ],
      [
        103.9553399,
        1.3563144
      ],
      [
        103.9554027,
        1.3563141
      ],
      [
        103.955507,
        1.3563137
      ],
      [
        103.9555609,
        1.3563117
      ],
      [
        103.955869,
        1.3563001
      ],
      [
        103.9563155,
        1.3563026
      ],
      [
        103.9564418,
        1.3563053
      ],
      [
        103.9566537,
        1.3563251
      ],
      [
        103.9568226,
        1.3563559
      ],
      [
        103.9569974,
        1.3564069
      ],
      [
        103.9571264,
        1.3564553
      ],
      [
        103.9572339,
        1.3565081
      ],
      [
        103.9573701,
        1.3565825
      ],
      [
        103.9574768,
        1.3566524
      ],
      [
        103.9575664,
        1.3567205
      ],
      [
        103.9576694,
        1.3568074
      ],
      [
        103.9578177,
        1.3569406
      ],
      [
        103.9579593,
        1.3570819
      ],
      [
        103.9581836,
        1.3573057
      ],
      [
        103.9584037,
        1.3575307
      ],
      [
        103.9584666,
        1.3575996
      ],
      [
        103.9585264,
        1.3576631
      ],
      [
        103.9586756,
        1.3578232
      ],
      [
        103.9589748,
        1.3581139
      ],
      [
        103.9594679,
        1.3585917
      ],
      [
        103.9595549,
        1.3586761
      ],
      [
        103.9599373,
        1.3590326
      ],
      [
        103.960187,
        1.3592962
      ],
      [
        103.9604057,
        1.3595271
      ],
      [
        103.9604876,
        1.3596172
      ],
      [
        103.9608249,
        1.3599834
      ],
      [
        103.9609406,
        1.360109
      ],
      [
        103.9611106,
        1.3602828
      ],
      [
        103.9611525,
        1.3603249
      ],
      [
        103.9613723,
        1.3605353
      ],
      [
        103.9617726,
        1.3609413
      ],
      [
        103.9619896,
        1.3611614
      ],
      [
        103.9623079,
        1.361477
      ],
      [
        103.9624969,
        1.3616678
      ],
      [
        103.9631956,
        1.3623637
      ],
      [
        103.9636219,
        1.3627929
      ],
      [
        103.9640489,
        1.3632485
      ],
      [
        103.964077,
        1.3633348
      ],
      [
        103.9640713,
        1.3634009
      ],
      [
        103.9640567,
        1.3634606
      ],
      [
        103.9640169,
        1.3635288
      ],
      [
        103.9639508,
        1.3636365
      ],
      [
        103.9631615,
        1.3644469
      ],
      [
        103.9629624,
        1.3646484
      ],
      [
        103.9624013,
        1.3652138
      ],
      [
        103.9623731,
        1.3652428
      ],
      [
        103.9623094,
        1.3651789
      ],
      [
        103.9621606,
        1.3650261
      ],
      [
        103.9621206,
        1.3649876
      ],
      [
        103.9618619,
        1.3647391
      ],
      [
        103.9616484,
        1.3645332
      ],
      [
        103.961545,
        1.3644335
      ],
      [
        103.9614332,
        1.3643156
      ],
      [
        103.9612221,
        1.3640894
      ],
      [
        103.961139,
        1.3640004
      ],
      [
        103.960941,
        1.3638025
      ],
      [
        103.9608929,
        1.363765
      ],
      [
        103.9608438,
        1.3637359
      ],
      [
        103.9607958,
        1.363712
      ],
      [
        103.9607464,
        1.363694
      ],
      [
        103.9606538,
        1.3636659
      ],
      [
        103.960572,
        1.3636514
      ],
      [
        103.9604849,
        1.3636511
      ],
      [
        103.9603601,
        1.3636619
      ],
      [
        103.9601979,
        1.363708
      ],
      [
        103.9601418,
        1.36374
      ],
      [
        103.9600824,
        1.3637855
      ],
      [
        103.9599837,
        1.3638627
      ],
      [
        103.9596084,
        1.3641545
      ],
      [
        103.9591599,
        1.3644983
      ],
      [
        103.9590324,
        1.3645937
      ],
      [
        103.958863,
        1.3647133
      ],
      [
        103.9585852,
        1.3649095
      ],
      [
        103.9585208,
        1.364955
      ],
      [
        103.9580223,
        1.3652754
      ],
      [
        103.9579878,
        1.3652954
      ],
      [
        103.9579244,
        1.3653319
      ],
      [
        103.9578659,
        1.365363
      ],
      [
        103.9579024,
        1.3654284
      ],
      [
        103.9579345,
        1.3654832
      ],
      [
        103.9581474,
        1.3657795
      ],
      [
        103.9585674,
        1.3663761
      ],
      [
        103.9587454,
        1.3666289
      ],
      [
        103.9590175,
        1.3670096
      ],
      [
        103.9590995,
        1.3671276
      ],
      [
        103.9593997,
        1.3675707
      ],
      [
        103.959485,
        1.3677015
      ],
      [
        103.9595385,
        1.3677836
      ],
      [
        103.9594772,
        1.3678228
      ],
      [
        103.959261,
        1.3679611
      ],
      [
        103.9590411,
        1.3680818
      ],
      [
        103.9587796,
        1.3682224
      ],
      [
        103.9585807,
        1.3683079
      ],
      [
        103.95843,
        1.3683727
      ],
      [
        103.9581893,
        1.3684788
      ],
      [
        103.9580568,
        1.3685372
      ],
      [
        103.9577383,
        1.3686494
      ],
      [
        103.9576084,
        1.3686955
      ],
      [
        103.9575265,
        1.3687245
      ],
      [
        103.9574965,
        1.3687333
      ],
      [
        103.9570193,
        1.3688679
      ],
      [
        103.9569822,
        1.3688771
      ],
      [
        103.9568806,
        1.3689094
      ],
      [
        103.9568115,
        1.3689232
      ],
      [
        103.9566553,
        1.3689539
      ],
      [
        103.9562927,
        1.3690452
      ],
      [
        103.9559514,
        1.3691069
      ],
      [
        103.955602,
        1.369155
      ],
      [
        103.9552009,
        1.3692008
      ],
      [
        103.9548322,
        1.3692155
      ],
      [
        103.9546422,
        1.3691751
      ],
      [
        103.954447,
        1.3691127
      ],
      [
        103.9542942,
        1.3690853
      ],
      [
        103.9539486,
        1.3690827
      ],
      [
        103.9530339,
        1.3690857
      ],
      [
        103.9527563,
        1.3690976
      ],
      [
        103.9524029,
        1.3691515
      ],
      [
        103.9521982,
        1.3691811
      ],
      [
        103.9519615,
        1.3692275
      ],
      [
        103.9518292,
        1.3692674
      ],
      [
        103.9516841,
        1.3693082
      ],
      [
        103.951214,
        1.3694394
      ],
      [
        103.9510826,
        1.3694901
      ],
      [
        103.9508477,
        1.36957
      ],
      [
        103.9506387,
        1.3696584
      ],
      [
        103.9503687,
        1.369772
      ],
      [
        103.9501331,
        1.3698894
      ],
      [
        103.9499331,
        1.3700069
      ],
      [
        103.9497288,
        1.3701114
      ],
      [
        103.9495345,
        1.3702261
      ],
      [
        103.9492235,
        1.3704099
      ],
      [
        103.948993,
        1.3705257
      ],
      [
        103.9489205,
        1.3705546
      ],
      [
        103.9488462,
        1.3705975
      ],
      [
        103.9488921,
        1.3706778
      ],
      [
        103.9489507,
        1.370796
      ],
      [
        103.9489956,
        1.3710094
      ],
      [
        103.9490258,
        1.3712896
      ],
      [
        103.9490699,
        1.3714916
      ],
      [
        103.9490975,
        1.3715701
      ],
      [
        103.9491738,
        1.3717474
      ],
      [
        103.9492445,
        1.3719474
      ],
      [
        103.9492687,
        1.3720213
      ],
      [
        103.9492068,
        1.3720361
      ],
      [
        103.9489428,
        1.3721207
      ],
      [
        103.9489038,
        1.3721326
      ],
      [
        103.9487912,
        1.3721755
      ],
      [
        103.9486711,
        1.3722341
      ],
      [
        103.9485827,
        1.3722825
      ],
      [
        103.9482599,
        1.3724774
      ],
      [
        103.9478927,
        1.3727124
      ],
      [
        103.947858,
        1.3727104
      ],
      [
        103.9478029,
        1.3727001
      ],
      [
        103.9476935,
        1.3725978
      ],
      [
        103.9475542,
        1.3724961
      ],
      [
        103.9473769,
        1.372272
      ],
      [
        103.9473094,
        1.3721271
      ],
      [
        103.9472937,
        1.3720781
      ],
      [
        103.9472771,
        1.3720224
      ],
      [
        103.9471564,
        1.3720646
      ],
      [
        103.9470583,
        1.3720994
      ],
      [
        103.9470222,
        1.3721087
      ],
      [
        103.9466985,
        1.3722431
      ],
      [
        103.9457782,
        1.3726165
      ],
      [
        103.9455688,
        1.3727207
      ],
      [
        103.9454157,
        1.3727883
      ],
      [
        103.9451998,
        1.3728595
      ],
      [
        103.9450719,
        1.3729134
      ],
      [
        103.9450335,
        1.3729296
      ],
      [
        103.9449494,
        1.3729628
      ],
      [
        103.9448801,
        1.3729917
      ],
      [
        103.9447973,
        1.3730261
      ],
      [
        103.943947,
        1.3733553
      ],
      [
        103.9436755,
        1.3734652
      ],
      [
        103.9431436,
        1.3736808
      ],
      [
        103.9425441,
        1.3739212
      ],
      [
        103.9424084,
        1.3739756
      ],
      [
        103.9420971,
        1.3741156
      ],
      [
        103.9419358,
        1.3742086
      ],
      [
        103.9418494,
        1.3742646
      ],
      [
        103.9417615,
        1.3743226
      ],
      [
        103.941645,
        1.3744023
      ],
      [
        103.9413253,
        1.3746482
      ],
      [
        103.9411319,
        1.3748132
      ],
      [
        103.9410641,
        1.3748553
      ],
      [
        103.9409951,
        1.3748979
      ],
      [
        103.9409368,
        1.3749369
      ],
      [
        103.9407872,
        1.3750435
      ],
      [
        103.9406411,
        1.3751523
      ],
      [
        103.9402693,
        1.3754257
      ],
      [
        103.9399627,
        1.3756555
      ],
      [
        103.9398881,
        1.3757115
      ],
      [
        103.9396852,
        1.3758636
      ],
      [
        103.9389317,
        1.3764284
      ],
      [
        103.9377907,
        1.3772863
      ],
      [
        103.9370469,
        1.3778433
      ],
      [
        103.9369611,
        1.3779071
      ],
      [
        103.9368535,
        1.3779886
      ],
      [
        103.9362752,
        1.3784339
      ],
      [
        103.9360348,
        1.3786076
      ],
      [
        103.9357572,
        1.3788091
      ],
      [
        103.9355647,
        1.3789442
      ],
      [
        103.9355312,
        1.3789695
      ],
      [
        103.9353922,
        1.3790794
      ],
      [
        103.9351788,
        1.3792405
      ],
      [
        103.935016,
        1.3793674
      ],
      [
        103.9345937,
        1.3796869
      ],
      [
        103.9345036,
        1.3796911
      ],
      [
        103.9344575,
        1.3797035
      ],
      [
        103.9344137,
        1.3797074
      ],
      [
        103.9343766,
        1.3797042
      ],
      [
        103.9343105,
        1.3796943
      ],
      [
        103.9342067,
        1.3796584
      ],
      [
        103.9339762,
        1.3793208
      ],
      [
        103.933857,
        1.3791575
      ],
      [
        103.933361,
        1.3784686
      ],
      [
        103.9331681,
        1.3782007
      ],
      [
        103.9329317,
        1.3778347
      ],
      [
        103.9328813,
        1.3777566
      ],
      [
        103.9326958,
        1.3773158
      ],
      [
        103.9324548,
        1.37685
      ],
      [
        103.9323004,
        1.3765147
      ],
      [
        103.932199,
        1.3762945
      ],
      [
        103.9320453,
        1.3759608
      ],
      [
        103.9319941,
        1.375917
      ],
      [
        103.9319256,
        1.3758585
      ],
      [
        103.9318307,
        1.3757996
      ],
      [
        103.931774,
        1.3757802
      ],
      [
        103.9316683,
        1.3757646
      ],
      [
        103.9313208,
        1.375783
      ],
      [
        103.93098,
        1.3758535
      ],
      [
        103.9306537,
        1.3759744
      ],
      [
        103.9303492,
        1.3761429
      ],
      [
        103.9300619,
        1.3763265
      ],
      [
        103.929402,
        1.3766347
      ],
      [
        103.9288074,
        1.3768904
      ],
      [
        103.9287261,
        1.3769238
      ],
      [
        103.9283746,
        1.3770771
      ],
      [
        103.9279799,
        1.3772289
      ],
      [
        103.9270692,
        1.3775292
      ],
      [
        103.9263805,
        1.3776969
      ],
      [
        103.9254981,
        1.3779036
      ],
      [
        103.9253205,
        1.377948
      ],
      [
        103.9239857,
        1.3782818
      ],
      [
        103.9234629,
        1.3784317
      ],
      [
        103.9229582,
        1.3785939
      ],
      [
        103.9221235,
        1.3789247
      ],
      [
        103.9211569,
        1.3793547
      ],
      [
        103.9207979,
        1.3795144
      ],
      [
        103.9207225,
        1.3795213
      ],
      [
        103.9206871,
        1.3795346
      ],
      [
        103.9202352,
        1.3797537
      ],
      [
        103.9200351,
        1.3798572
      ],
      [
        103.919619,
        1.3800723
      ],
      [
        103.9192112,
        1.3802977
      ],
      [
        103.918675,
        1.3805666
      ],
      [
        103.9181404,
        1.3808815
      ],
      [
        103.9180674,
        1.3809284
      ],
      [
        103.9178872,
        1.3810646
      ],
      [
        103.917738,
        1.3811954
      ],
      [
        103.9175895,
        1.3812884
      ],
      [
        103.9173899,
        1.3813614
      ],
      [
        103.9172204,
        1.3813714
      ],
      [
        103.9170155,
        1.3813378
      ],
      [
        103.9168692,
        1.381279
      ],
      [
        103.916712,
        1.3811741
      ],
      [
        103.916565,
        1.3810094
      ],
      [
        103.9162012,
        1.3805121
      ],
      [
        103.9159094,
        1.3802329
      ],
      [
        103.915777,
        1.3800894
      ],
      [
        103.9154687,
        1.379796
      ],
      [
        103.9151971,
        1.3795706
      ],
      [
        103.9127496,
        1.3780451
      ],
      [
        103.9121672,
        1.3776783
      ],
      [
        103.9117287,
        1.3774002
      ],
      [
        103.911062,
        1.3769023
      ],
      [
        103.9109649,
        1.376817
      ],
      [
        103.9106979,
        1.3765729
      ],
      [
        103.9104615,
        1.3763091
      ],
      [
        103.9101942,
        1.3759399
      ],
      [
        103.9099639,
        1.375581
      ],
      [
        103.9097913,
        1.3752471
      ],
      [
        103.9097611,
        1.3751807
      ],
      [
        103.9094463,
        1.374494
      ],
      [
        103.9092206,
        1.3738403
      ],
      [
        103.9087794,
        1.372505
      ],
      [
        103.9085651,
        1.3716353
      ],
      [
        103.9080113,
        1.3700499
      ],
      [
        103.907381,
        1.3679452
      ],
      [
        103.9073292,
        1.3677916
      ],
      [
        103.9070771,
        1.367084
      ],
      [
        103.9069784,
        1.3667927
      ],
      [
        103.9069869,
        1.3666959
      ],
      [
        103.9069837,
        1.366632
      ],
      [
        103.9068426,
        1.3659864
      ],
      [
        103.9067495,
        1.3656697
      ],
      [
        103.9067009,
        1.3655043
      ],
      [
        103.9063545,
        1.3646238
      ],
      [
        103.9059786,
        1.3638242
      ],
      [
        103.9056466,
        1.3633083
      ],
      [
        103.9055739,
        1.3632243
      ],
      [
        103.9054806,
        1.3630759
      ],
      [
        103.9054419,
        1.3630078
      ],
      [
        103.9052326,
        1.3629797
      ],
      [
        103.9048525,
        1.3629185
      ],
      [
        103.9048181,
        1.3629134
      ],
      [
        103.9041025,
        1.3627973
      ],
      [
        103.9034301,
        1.3627004
      ],
      [
        103.9030718,
        1.3626488
      ],
      [
        103.9026508,
        1.3624275
      ],
      [
        103.9020451,
        1.3622949
      ],
      [
        103.9017351,
        1.3622438
      ],
      [
        103.9014262,
        1.3621928
      ],
      [
        103.9011825,
        1.3621549
      ],
      [
        103.9009407,
        1.362122
      ],
      [
        103.9007142,
        1.3620862
      ],
      [
        103.8998126,
        1.3619292
      ],
      [
        103.8972345,
        1.3616058
      ],
      [
        103.8965866,
        1.3616899
      ],
      [
        103.896335,
        1.3617304
      ],
      [
        103.8961848,
        1.3617366
      ],
      [
        103.8958125,
        1.3617131
      ],
      [
        103.895501,
        1.3616717
      ],
      [
        103.8954667,
        1.3616675
      ],
      [
        103.8953588,
        1.3616562
      ],
      [
        103.8952832,
        1.361648
      ],
      [
        103.8951098,
        1.3616291
      ],
      [
        103.8945048,
        1.3615602
      ],
      [
        103.8941552,
        1.3615127
      ],
      [
        103.8940008,
        1.3614879
      ],
      [
        103.8937727,
        1.3614561
      ],
      [
        103.8931795,
        1.3614071
      ],
      [
        103.8931295,
        1.3614013
      ],
      [
        103.8929514,
        1.3613763
      ],
      [
        103.8929389,
        1.3615059
      ],
      [
        103.8929316,
        1.3615761
      ],
      [
        103.8928194,
        1.3626523
      ],
      [
        103.8927918,
        1.3628953
      ],
      [
        103.8927817,
        1.3629435
      ],
      [
        103.8927305,
        1.3631494
      ],
      [
        103.8926577,
        1.3633512
      ],
      [
        103.8926076,
        1.3634899
      ],
      [
        103.8923614,
        1.363919
      ],
      [
        103.8921936,
        1.3641673
      ],
      [
        103.8918381,
        1.3645556
      ],
      [
        103.8915676,
        1.3648854
      ],
      [
        103.8913103,
        1.3651329
      ],
      [
        103.8911458,
        1.3653211
      ],
      [
        103.8910157,
        1.3653642
      ],
      [
        103.8909232,
        1.365379
      ],
      [
        103.890832,
        1.3653723
      ],
      [
        103.8906989,
        1.3653353
      ],
      [
        103.8902915,
        1.3649342
      ],
      [
        103.8901392,
        1.3647861
      ],
      [
        103.8901213,
        1.3647693
      ],
      [
        103.8898092,
        1.3644753
      ],
      [
        103.8897848,
        1.3644502
      ],
      [
        103.8897158,
        1.3643828
      ],
      [
        103.8896627,
        1.3643332
      ],
      [
        103.8896482,
        1.3643191
      ],
      [
        103.8896334,
        1.3643048
      ],
      [
        103.8892946,
        1.363976
      ],
      [
        103.8890214,
        1.3637115
      ],
      [
        103.8888329,
        1.3635362
      ],
      [
        103.8886741,
        1.3633763
      ],
      [
        103.8886288,
        1.3633307
      ],
      [
        103.8882422,
        1.3629514
      ],
      [
        103.888202,
        1.3629101
      ],
      [
        103.8881084,
        1.3628233
      ],
      [
        103.8880661,
        1.3627841
      ],
      [
        103.8880327,
        1.3627517
      ],
      [
        103.8880085,
        1.3627298
      ],
      [
        103.8876696,
        1.362423
      ],
      [
        103.8873272,
        1.3621162
      ],
      [
        103.8872724,
        1.3620655
      ],
      [
        103.8869033,
        1.3617255
      ],
      [
        103.8868626,
        1.3616895
      ],
      [
        103.8866834,
        1.3615104
      ],
      [
        103.8865556,
        1.3613701
      ],
      [
        103.8863548,
        1.3611551
      ],
      [
        103.8862845,
        1.3610811
      ],
      [
        103.8861904,
        1.360998
      ],
      [
        103.8861256,
        1.3609471
      ],
      [
        103.8858161,
        1.3607039
      ],
      [
        103.8852291,
        1.3602086
      ],
      [
        103.8850316,
        1.3600419
      ],
      [
        103.8848907,
        1.3599131
      ],
      [
        103.8840107,
        1.3590831
      ],
      [
        103.8837804,
        1.3588701
      ],
      [
        103.8836571,
        1.3587791
      ],
      [
        103.883589,
        1.3587212
      ],
      [
        103.8833123,
        1.3584455
      ],
      [
        103.8830521,
        1.3581866
      ],
      [
        103.8829768,
        1.3581091
      ],
      [
        103.882911,
        1.3580437
      ],
      [
        103.8826421,
        1.3577717
      ],
      [
        103.8824937,
        1.3576146
      ],
      [
        103.8821719,
        1.3573267
      ],
      [
        103.8815349,
        1.3567321
      ],
      [
        103.8812863,
        1.3565102
      ],
      [
        103.8808984,
        1.35616
      ],
      [
        103.8807558,
        1.3560323
      ],
      [
        103.8806659,
        1.3559577
      ],
      [
        103.8805259,
        1.3558405
      ],
      [
        103.8804523,
        1.3557789
      ],
      [
        103.8801979,
        1.3555666
      ],
      [
        103.87995,
        1.3553498
      ],
      [
        103.8798883,
        1.3552955
      ],
      [
        103.8798564,
        1.3552675
      ],
      [
        103.8791876,
        1.3546963
      ],
      [
        103.8790822,
        1.3545994
      ],
      [
        103.8789375,
        1.3544838
      ],
      [
        103.878916,
        1.354468
      ],
      [
        103.8786882,
        1.3542673
      ],
      [
        103.8784773,
        1.354079
      ],
      [
        103.8783072,
        1.3539272
      ],
      [
        103.8779459,
        1.3535526
      ],
      [
        103.877485,
        1.3530825
      ],
      [
        103.87737,
        1.3529753
      ],
      [
        103.8770673,
        1.3526968
      ],
      [
        103.876808,
        1.3524798
      ],
      [
        103.876717,
        1.3524061
      ],
      [
        103.8766192,
        1.3523202
      ],
      [
        103.8765149,
        1.3522364
      ],
      [
        103.8762892,
        1.3520427
      ],
      [
        103.8757771,
        1.3516048
      ],
      [
        103.875646,
        1.3514825
      ],
      [
        103.8754211,
        1.3512818
      ],
      [
        103.8747058,
        1.3506029
      ],
      [
        103.8745546,
        1.3504688
      ],
      [
        103.8742457,
        1.3501658
      ],
      [
        103.8741382,
        1.3500604
      ],
      [
        103.8740251,
        1.3499487
      ],
      [
        103.8739955,
        1.3499218
      ],
      [
        103.8739093,
        1.3498263
      ],
      [
        103.8737403,
        1.350005
      ],
      [
        103.8737246,
        1.3500304
      ],
      [
        103.8736011,
        1.3502334
      ],
      [
        103.8733206,
        1.3505587
      ],
      [
        103.8731503,
        1.3507563
      ],
      [
        103.8730991,
        1.350815
      ],
      [
        103.8730181,
        1.3509219
      ],
      [
        103.8729287,
        1.3510334
      ],
      [
        103.8728211,
        1.3511729
      ],
      [
        103.8727357,
        1.3513157
      ],
      [
        103.8726691,
        1.3514354
      ],
      [
        103.8726075,
        1.3516415
      ],
      [
        103.8725855,
        1.3517301
      ],
      [
        103.8725643,
        1.3518769
      ],
      [
        103.872578,
        1.3522227
      ],
      [
        103.8726264,
        1.3526445
      ],
      [
        103.8726289,
        1.3526962
      ],
      [
        103.8726515,
        1.3528757
      ],
      [
        103.872668,
        1.3529739
      ],
      [
        103.8727134,
        1.3533164
      ],
      [
        103.8727512,
        1.3536078
      ],
      [
        103.8727677,
        1.3537082
      ],
      [
        103.8727982,
        1.3538571
      ],
      [
        103.8728785,
        1.354185
      ],
      [
        103.8728957,
        1.3542551
      ],
      [
        103.8729582,
        1.3545393
      ],
      [
        103.8730274,
        1.35486
      ],
      [
        103.8730784,
        1.35499
      ],
      [
        103.8732127,
        1.3552603
      ],
      [
        103.8733258,
        1.3554908
      ],
      [
        103.8733564,
        1.3555599
      ],
      [
        103.8734253,
        1.3556916
      ],
      [
        103.8735732,
        1.3556228
      ],
      [
        103.8736161,
        1.3555956
      ],
      [
        103.8737763,
        1.355494
      ],
      [
        103.8740928,
        1.3552731
      ],
      [
        103.8743058,
        1.3550647
      ],
      [
        103.8743502,
        1.3550153
      ],
      [
        103.8743678,
        1.3549954
      ],
      [
        103.8745584,
        1.3547823
      ],
      [
        103.8746456,
        1.354689
      ],
      [
        103.8749298,
        1.3543572
      ],
      [
        103.8752315,
        1.354006
      ],
      [
        103.8753605,
        1.3538445
      ],
      [
        103.8754909,
        1.3536975
      ],
      [
        103.8760743,
        1.3530378
      ],
      [
        103.8760945,
        1.353015
      ],
      [
        103.8762306,
        1.3528611
      ],
      [
        103.8763757,
        1.3527072
      ],
      [
        103.8764365,
        1.3526386
      ],
      [
        103.8765181,
        1.3527218
      ],
      [
        103.8767221,
        1.3529088
      ],
      [
        103.8767578,
        1.3529384
      ],
      [
        103.8770917,
        1.3532337
      ],
      [
        103.8773067,
        1.353436
      ],
      [
        103.8775828,
        1.3536626
      ],
      [
        103.8776887,
        1.3537574
      ],
      [
        103.8778561,
        1.3539053
      ],
      [
        103.8780733,
        1.3540575
      ],
      [
        103.8783637,
        1.3542551
      ],
      [
        103.8785133,
        1.354337
      ],
      [
        103.8787304,
        1.3544986
      ],
      [
        103.8788545,
        1.354591
      ],
      [
        103.8789085,
        1.3546288
      ],
      [
        103.8789722,
        1.3546735
      ],
      [
        103.8792019,
        1.35486
      ],
      [
        103.8793233,
        1.3549609
      ],
      [
        103.8795102,
        1.3551255
      ],
      [
        103.8797025,
        1.3553095
      ],
      [
        103.8797978,
        1.3554006
      ],
      [
        103.8798517,
        1.3554522
      ],
      [
        103.8799432,
        1.3555295
      ],
      [
        103.8801113,
        1.3556715
      ],
      [
        103.8802022,
        1.3557472
      ],
      [
        103.8802296,
        1.3557701
      ],
      [
        103.8803445,
        1.3558657
      ],
      [
        103.880417,
        1.3559272
      ],
      [
        103.8806519,
        1.3561481
      ],
      [
        103.8807886,
        1.3562773
      ],
      [
        103.8808972,
        1.3563775
      ],
      [
        103.881061,
        1.3565422
      ],
      [
        103.8812093,
        1.3566913
      ],
      [
        103.8813604,
        1.3568131
      ],
      [
        103.8816331,
        1.3570133
      ],
      [
        103.8817034,
        1.3570825
      ],
      [
        103.8819401,
        1.3572964
      ],
      [
        103.8820919,
        1.3574336
      ],
      [
        103.88219,
        1.3575154
      ],
      [
        103.8823244,
        1.3576273
      ],
      [
        103.8824904,
        1.35779
      ],
      [
        103.8826052,
        1.3579167
      ],
      [
        103.8827243,
        1.3580644
      ],
      [
        103.8827991,
        1.3581549
      ],
      [
        103.8828639,
        1.358222
      ],
      [
        103.8829299,
        1.3582967
      ],
      [
        103.8830473,
        1.3584245
      ],
      [
        103.8831578,
        1.3585295
      ],
      [
        103.8834675,
        1.358785
      ],
      [
        103.8839708,
        1.3592212
      ],
      [
        103.8843303,
        1.359582
      ],
      [
        103.8847769,
        1.3599984
      ],
      [
        103.885039,
        1.3602106
      ],
      [
        103.8853241,
        1.3604457
      ],
      [
        103.8855749,
        1.3606621
      ],
      [
        103.8858594,
        1.3609081
      ],
      [
        103.886018,
        1.3610561
      ],
      [
        103.886072,
        1.3611065
      ],
      [
        103.8861528,
        1.3611841
      ],
      [
        103.8862292,
        1.3612561
      ],
      [
        103.886452,
        1.3614631
      ],
      [
        103.8866739,
        1.3616723
      ],
      [
        103.8867084,
        1.3617039
      ],
      [
        103.8867925,
        1.3617808
      ],
      [
        103.8870165,
        1.3619873
      ],
      [
        103.8872021,
        1.3621691
      ],
      [
        103.8872197,
        1.3621864
      ],
      [
        103.8872599,
        1.3622266
      ],
      [
        103.8873129,
        1.3622796
      ],
      [
        103.8876464,
        1.3625883
      ],
      [
        103.8879103,
        1.3628369
      ],
      [
        103.8879364,
        1.3628614
      ],
      [
        103.8879674,
        1.3628909
      ],
      [
        103.8880083,
        1.3629296
      ],
      [
        103.8881574,
        1.3630715
      ],
      [
        103.8885456,
        1.3634629
      ],
      [
        103.8886698,
        1.3635845
      ],
      [
        103.8888514,
        1.363753
      ],
      [
        103.8891322,
        1.3639882
      ],
      [
        103.8892468,
        1.3641043
      ],
      [
        103.8893527,
        1.3642062
      ],
      [
        103.8894711,
        1.3643151
      ],
      [
        103.889575,
        1.3644157
      ],
      [
        103.8896391,
        1.364477
      ],
      [
        103.8901952,
        1.3650318
      ],
      [
        103.890259,
        1.3650925
      ],
      [
        103.8903375,
        1.365167
      ],
      [
        103.8905507,
        1.3653669
      ],
      [
        103.8907973,
        1.3656008
      ],
      [
        103.8908415,
        1.3656405
      ],
      [
        103.8909289,
        1.3657275
      ],
      [
        103.8910133,
        1.3656374
      ],
      [
        103.8910567,
        1.3655939
      ],
      [
        103.8912417,
        1.3653917
      ],
      [
        103.8917128,
        1.3648802
      ],
      [
        103.8919791,
        1.3645994
      ],
      [
        103.8921683,
        1.3643854
      ],
      [
        103.8922924,
        1.3642277
      ],
      [
        103.8924472,
        1.3639962
      ],
      [
        103.8924683,
        1.3639589
      ],
      [
        103.8927047,
        1.3635414
      ],
      [
        103.8927665,
        1.363408
      ],
      [
        103.8928678,
        1.3631896
      ],
      [
        103.8929794,
        1.3626833
      ],
      [
        103.8929994,
        1.3625135
      ],
      [
        103.8930455,
        1.3621229
      ],
      [
        103.8930516,
        1.3620715
      ],
      [
        103.8932127,
        1.3618149
      ],
      [
        103.8932834,
        1.3617061
      ],
      [
        103.8933294,
        1.361661
      ],
      [
        103.893394,
        1.3616274
      ],
      [
        103.8934622,
        1.3616044
      ],
      [
        103.893565,
        1.3615766
      ],
      [
        103.8939965,
        1.3616245
      ],
      [
        103.8940261,
        1.3616262
      ],
      [
        103.8941495,
        1.3616403
      ],
      [
        103.8948184,
        1.3617147
      ],
      [
        103.895037,
        1.3617431
      ],
      [
        103.8952711,
        1.3617742
      ],
      [
        103.8953482,
        1.3617838
      ],
      [
        103.8954543,
        1.3617969
      ],
      [
        103.8954835,
        1.3618019
      ],
      [
        103.8958223,
        1.3618424
      ],
      [
        103.896259,
        1.3619064
      ],
      [
        103.8965116,
        1.3619261
      ],
      [
        103.8969684,
        1.361785
      ],
      [
        103.8972529,
        1.3617596
      ],
      [
        103.8979294,
        1.3618535
      ],
      [
        103.8986819,
        1.3619382
      ],
      [
        103.8990736,
        1.3619842
      ],
      [
        103.8994078,
        1.3620356
      ],
      [
        103.9000433,
        1.3621391
      ],
      [
        103.9005039,
        1.3621913
      ],
      [
        103.9007424,
        1.3622859
      ],
      [
        103.9010905,
        1.3623293
      ],
      [
        103.9013977,
        1.3623489
      ],
      [
        103.9017204,
        1.3624001
      ],
      [
        103.9018599,
        1.3624322
      ],
      [
        103.9022415,
        1.3625036
      ],
      [
        103.9026269,
        1.3626242
      ],
      [
        103.9029125,
        1.3628167
      ],
      [
        103.9030265,
        1.3628343
      ],
      [
        103.9032484,
        1.362866
      ],
      [
        103.9037032,
        1.3629308
      ],
      [
        103.9038032,
        1.3629451
      ],
      [
        103.9044152,
        1.3630318
      ],
      [
        103.9046373,
        1.3631232
      ],
      [
        103.9047663,
        1.3631972
      ],
      [
        103.9048556,
        1.3633094
      ],
      [
        103.904927,
        1.36342
      ],
      [
        103.905042,
        1.3636043
      ],
      [
        103.9053232,
        1.3640387
      ],
      [
        103.9057264,
        1.3647308
      ],
      [
        103.9060263,
        1.3653101
      ],
      [
        103.906226,
        1.3657847
      ],
      [
        103.9063838,
        1.3662623
      ],
      [
        103.906488,
        1.3666276
      ],
      [
        103.9066384,
        1.3671566
      ],
      [
        103.9067225,
        1.3673143
      ],
      [
        103.9069237,
        1.3679658
      ],
      [
        103.9070374,
        1.3684036
      ],
      [
        103.9071713,
        1.3689407
      ],
      [
        103.9072398,
        1.369197
      ],
      [
        103.907316,
        1.3694422
      ],
      [
        103.9073935,
        1.3696883
      ],
      [
        103.9075123,
        1.3699481
      ],
      [
        103.9076556,
        1.3702416
      ],
      [
        103.9077873,
        1.3705695
      ],
      [
        103.908013,
        1.371257
      ],
      [
        103.9081857,
        1.3717242
      ],
      [
        103.9082677,
        1.3719313
      ],
      [
        103.9083909,
        1.3722706
      ],
      [
        103.9085137,
        1.3726024
      ],
      [
        103.9086458,
        1.3730213
      ],
      [
        103.9088106,
        1.3734214
      ],
      [
        103.909134,
        1.3741949
      ],
      [
        103.9094679,
        1.3749071
      ],
      [
        103.909656,
        1.3753225
      ],
      [
        103.9098336,
        1.3756553
      ],
      [
        103.9101052,
        1.3760878
      ],
      [
        103.9103259,
        1.3763892
      ],
      [
        103.9105679,
        1.376666
      ],
      [
        103.9108581,
        1.3769548
      ],
      [
        103.9110265,
        1.3771008
      ],
      [
        103.9112268,
        1.3772576
      ],
      [
        103.9116641,
        1.3775726
      ],
      [
        103.911985,
        1.3777887
      ],
      [
        103.9122408,
        1.3779124
      ],
      [
        103.9129709,
        1.3783324
      ],
      [
        103.9140178,
        1.3789827
      ],
      [
        103.9146494,
        1.3793571
      ],
      [
        103.9150937,
        1.3796617
      ],
      [
        103.9152721,
        1.3798316
      ],
      [
        103.9155008,
        1.3800409
      ],
      [
        103.9159153,
        1.3804781
      ],
      [
        103.9161737,
        1.3808395
      ],
      [
        103.9162711,
        1.3809807
      ],
      [
        103.9163759,
        1.3811548
      ],
      [
        103.916546,
        1.3814308
      ],
      [
        103.9166606,
        1.3815813
      ],
      [
        103.9168027,
        1.3817416
      ],
      [
        103.9172239,
        1.3822003
      ],
      [
        103.9174331,
        1.3824199
      ],
      [
        103.9175805,
        1.3825776
      ],
      [
        103.9177076,
        1.382753
      ],
      [
        103.9178107,
        1.3829176
      ],
      [
        103.9179067,
        1.3830949
      ],
      [
        103.917965,
        1.3832412
      ],
      [
        103.9180385,
        1.3835175
      ],
      [
        103.9180527,
        1.3836531
      ],
      [
        103.918045,
        1.3838152
      ],
      [
        103.9179983,
        1.3839847
      ],
      [
        103.9179077,
        1.3841221
      ],
      [
        103.9177871,
        1.3842268
      ],
      [
        103.917655,
        1.3842957
      ],
      [
        103.9174851,
        1.3843204
      ],
      [
        103.9173554,
        1.3843134
      ],
      [
        103.9172783,
        1.3842871
      ],
      [
        103.9171367,
        1.3842092
      ],
      [
        103.9170144,
        1.3840853
      ],
      [
        103.9169399,
        1.383943
      ],
      [
        103.9169074,
        1.3837859
      ],
      [
        103.9169168,
        1.3836217
      ],
      [
        103.9169819,
        1.3834033
      ],
      [
        103.9170687,
        1.3832329
      ],
      [
        103.9172572,
        1.3829743
      ],
      [
        103.9173788,
        1.3828246
      ],
      [
        103.9175196,
        1.3826589
      ],
      [
        103.9177959,
        1.3823347
      ],
      [
        103.9180265,
        1.3820618
      ],
      [
        103.9181936,
        1.3818229
      ],
      [
        103.9184251,
        1.3815926
      ],
      [
        103.9188484,
        1.3811631
      ],
      [
        103.9195864,
        1.3805479
      ],
      [
        103.920098,
        1.3801797
      ],
      [
        103.9202763,
        1.3800685
      ],
      [
        103.9204621,
        1.3799573
      ],
      [
        103.9207032,
        1.3798298
      ],
      [
        103.921643,
        1.3793294
      ],
      [
        103.9221225,
        1.3791235
      ],
      [
        103.9230225,
        1.3787723
      ],
      [
        103.9235173,
        1.3786074
      ],
      [
        103.9240149,
        1.3784639
      ],
      [
        103.9255255,
        1.378103
      ],
      [
        103.9271998,
        1.3776671
      ],
      [
        103.9281991,
        1.3773868
      ],
      [
        103.9284515,
        1.3773129
      ],
      [
        103.9285183,
        1.3773265
      ],
      [
        103.9285322,
        1.3773294
      ],
      [
        103.9285487,
        1.3773274
      ],
      [
        103.928584,
        1.3773158
      ],
      [
        103.9286497,
        1.3772985
      ],
      [
        103.9289803,
        1.3772159
      ],
      [
        103.9292931,
        1.377128
      ],
      [
        103.9308066,
        1.3766507
      ],
      [
        103.9310569,
        1.3765779
      ],
      [
        103.9312733,
        1.3765232
      ],
      [
        103.9315867,
        1.3764531
      ],
      [
        103.9317034,
        1.3764407
      ],
      [
        103.9317536,
        1.3764353
      ],
      [
        103.9319432,
        1.3764763
      ],
      [
        103.9321221,
        1.3765808
      ],
      [
        103.9322219,
        1.3766803
      ],
      [
        103.9325454,
        1.3773731
      ],
      [
        103.9327555,
        1.3777422
      ],
      [
        103.9327889,
        1.3778008
      ],
      [
        103.9331015,
        1.378286
      ],
      [
        103.9337868,
        1.3792585
      ],
      [
        103.9338452,
        1.379347
      ],
      [
        103.9340782,
        1.3796943
      ],
      [
        103.9342066,
        1.3798804
      ],
      [
        103.9342421,
        1.3799314
      ],
      [
        103.9343023,
        1.3800171
      ],
      [
        103.9344029,
        1.3799428
      ],
      [
        103.9344613,
        1.3799011
      ],
      [
        103.9346372,
        1.3797762
      ],
      [
        103.9351694,
        1.3793626
      ],
      [
        103.9354276,
        1.3791815
      ],
      [
        103.9355262,
        1.3791058
      ],
      [
        103.9360983,
        1.3786792
      ],
      [
        103.9363007,
        1.3785324
      ],
      [
        103.9369216,
        1.3780841
      ],
      [
        103.9370039,
        1.3780247
      ],
      [
        103.9370742,
        1.3779731
      ],
      [
        103.937122,
        1.3779372
      ],
      [
        103.9378017,
        1.3774271
      ],
      [
        103.9386891,
        1.376761
      ],
      [
        103.9389601,
        1.3765566
      ],
      [
        103.9391979,
        1.376378
      ],
      [
        103.9401028,
        1.3756891
      ],
      [
        103.9404264,
        1.3754266
      ],
      [
        103.9405941,
        1.3753045
      ],
      [
        103.9409651,
        1.3750442
      ],
      [
        103.9410147,
        1.3750066
      ],
      [
        103.9410862,
        1.374951
      ],
      [
        103.9411423,
        1.3749091
      ],
      [
        103.9417077,
        1.37449
      ],
      [
        103.9418207,
        1.3744135
      ],
      [
        103.9419642,
        1.3743155
      ],
      [
        103.9421606,
        1.3742072
      ],
      [
        103.9424715,
        1.3740652
      ],
      [
        103.9425928,
        1.3740129
      ],
      [
        103.9431028,
        1.3738138
      ],
      [
        103.9431843,
        1.3737825
      ],
      [
        103.9441864,
        1.3733982
      ],
      [
        103.9446129,
        1.3732226
      ],
      [
        103.9449244,
        1.3730963
      ],
      [
        103.9449919,
        1.3730689
      ],
      [
        103.9450801,
        1.3730333
      ],
      [
        103.9451156,
        1.3730191
      ],
      [
        103.9453246,
        1.3729488
      ],
      [
        103.9454915,
        1.3728656
      ],
      [
        103.9457938,
        1.3726637
      ],
      [
        103.9464526,
        1.3724029
      ],
      [
        103.9468894,
        1.3722318
      ],
      [
        103.9470159,
        1.3721843
      ],
      [
        103.9470879,
        1.3721748
      ],
      [
        103.947161,
        1.3721949
      ],
      [
        103.9472285,
        1.3722333
      ],
      [
        103.9473487,
        1.3724356
      ],
      [
        103.9474721,
        1.372575
      ],
      [
        103.9476919,
        1.3727698
      ],
      [
        103.9477909,
        1.372796
      ],
      [
        103.9478931,
        1.3727901
      ],
      [
        103.9479325,
        1.3727737
      ],
      [
        103.948208,
        1.3725995
      ],
      [
        103.9486933,
        1.3723047
      ],
      [
        103.9489643,
        1.3722075
      ],
      [
        103.9491639,
        1.3721478
      ],
      [
        103.949238,
        1.3721228
      ],
      [
        103.9493,
        1.3721071
      ],
      [
        103.9493684,
        1.3720872
      ],
      [
        103.949387,
        1.3720834
      ],
      [
        103.9493543,
        1.3719994
      ],
      [
        103.9493264,
        1.371919
      ],
      [
        103.9491507,
        1.3715374
      ],
      [
        103.9491059,
        1.3713766
      ],
      [
        103.9490777,
        1.3711726
      ],
      [
        103.9490463,
        1.3708815
      ],
      [
        103.9489671,
        1.3706404
      ],
      [
        103.9490341,
        1.3706013
      ],
      [
        103.9491557,
        1.370534
      ],
      [
        103.9492867,
        1.3704454
      ],
      [
        103.9493994,
        1.3703692
      ],
      [
        103.9495698,
        1.3702617
      ],
      [
        103.9497373,
        1.3701594
      ],
      [
        103.9499921,
        1.3700245
      ],
      [
        103.9502166,
        1.3699015
      ],
      [
        103.9504462,
        1.3698076
      ],
      [
        103.9507008,
        1.3696975
      ],
      [
        103.9509198,
        1.3696125
      ],
      [
        103.9511382,
        1.3695327
      ],
      [
        103.9512464,
        1.3694978
      ],
      [
        103.9514573,
        1.3694342
      ],
      [
        103.9515817,
        1.3693924
      ],
      [
        103.9517099,
        1.3693509
      ],
      [
        103.9518398,
        1.3693104
      ],
      [
        103.9519131,
        1.3692921
      ],
      [
        103.9519796,
        1.3692725
      ],
      [
        103.9521773,
        1.3692303
      ],
      [
        103.95248,
        1.3691705
      ],
      [
        103.9527707,
        1.3691382
      ],
      [
        103.9530158,
        1.3691164
      ],
      [
        103.9536217,
        1.3691259
      ],
      [
        103.9539471,
        1.3691166
      ],
      [
        103.9542928,
        1.3691147
      ],
      [
        103.9544424,
        1.3691521
      ],
      [
        103.9546325,
        1.3692243
      ],
      [
        103.954724,
        1.3692779
      ],
      [
        103.9548764,
        1.3693326
      ],
      [
        103.9550601,
        1.3693367
      ],
      [
        103.9556207,
        1.3692696
      ],
      [
        103.9557512,
        1.3692505
      ],
      [
        103.9560656,
        1.3692044
      ],
      [
        103.956346,
        1.369153
      ],
      [
        103.9567098,
        1.3690911
      ],
      [
        103.956839,
        1.3690624
      ],
      [
        103.9569055,
        1.3690476
      ],
      [
        103.9570106,
        1.3690179
      ],
      [
        103.9570492,
        1.3690065
      ],
      [
        103.957548,
        1.3688593
      ],
      [
        103.9578148,
        1.3687715
      ],
      [
        103.9579747,
        1.3687108
      ],
      [
        103.9581105,
        1.3686593
      ],
      [
        103.9584998,
        1.3684983
      ],
      [
        103.9588428,
        1.3683245
      ],
      [
        103.9591089,
        1.3681779
      ],
      [
        103.959312,
        1.368063
      ],
      [
        103.9594147,
        1.3680005
      ],
      [
        103.9595446,
        1.3679265
      ],
      [
        103.9596057,
        1.367891
      ],
      [
        103.9597008,
        1.3678368
      ],
      [
        103.9596378,
        1.3677284
      ],
      [
        103.9595827,
        1.3676522
      ],
      [
        103.9594784,
        1.3675079
      ],
      [
        103.9592738,
        1.3672282
      ],
      [
        103.9590847,
        1.3669633
      ],
      [
        103.9588811,
        1.3666817
      ],
      [
        103.9588166,
        1.3665875
      ],
      [
        103.9584247,
        1.3660484
      ],
      [
        103.9580733,
        1.3655657
      ],
      [
        103.9579928,
        1.365447
      ],
      [
        103.9579598,
        1.3653966
      ],
      [
        103.9580223,
        1.3653515
      ],
      [
        103.9586534,
        1.364945
      ],
      [
        103.9590374,
        1.3646763
      ],
      [
        103.9591428,
        1.3645972
      ],
      [
        103.9593953,
        1.364402
      ],
      [
        103.9596522,
        1.3642066
      ],
      [
        103.9600863,
        1.3638665
      ],
      [
        103.9602323,
        1.3637711
      ],
      [
        103.9603364,
        1.3637493
      ],
      [
        103.9604897,
        1.3637386
      ],
      [
        103.9606015,
        1.3637471
      ],
      [
        103.960726,
        1.3637854
      ],
      [
        103.9607876,
        1.3638166
      ],
      [
        103.9608304,
        1.363848
      ],
      [
        103.9609644,
        1.3639695
      ],
      [
        103.9613633,
        1.3643898
      ],
      [
        103.9614743,
        1.3645069
      ],
      [
        103.9615727,
        1.3646034
      ],
      [
        103.9616141,
        1.364644
      ],
      [
        103.9618219,
        1.3648444
      ],
      [
        103.9620805,
        1.3651034
      ],
      [
        103.962235,
        1.3652614
      ],
      [
        103.9622973,
        1.3653205
      ],
      [
        103.962378,
        1.3654022
      ],
      [
        103.9624544,
        1.3653207
      ],
      [
        103.9624831,
        1.3652915
      ],
      [
        103.9631879,
        1.3645735
      ],
      [
        103.9636017,
        1.3641518
      ],
      [
        103.9637081,
        1.3640434
      ],
      [
        103.9641267,
        1.3636508
      ],
      [
        103.9642414,
        1.3635451
      ],
      [
        103.9642986,
        1.3634927
      ],
      [
        103.9643986,
        1.3633892
      ],
      [
        103.9643002,
        1.363294
      ],
      [
        103.9635775,
        1.3625448
      ],
      [
        103.9631852,
        1.3621381
      ],
      [
        103.9629217,
        1.361865
      ],
      [
        103.9627169,
        1.3616537
      ],
      [
        103.962548,
        1.3614747
      ],
      [
        103.9624379,
        1.3613799
      ],
      [
        103.9622429,
        1.3611937
      ],
      [
        103.9619561,
        1.3609199
      ],
      [
        103.9618505,
        1.3608191
      ],
      [
        103.9617055,
        1.3606806
      ],
      [
        103.9614403,
        1.3604271
      ],
      [
        103.9613737,
        1.3603653
      ],
      [
        103.9612315,
        1.3602273
      ],
      [
        103.9611848,
        1.3601857
      ],
      [
        103.9610296,
        1.3600246
      ],
      [
        103.9605067,
        1.3594665
      ],
      [
        103.9603758,
        1.3593305
      ],
      [
        103.9600287,
        1.3589789
      ],
      [
        103.9597889,
        1.358736
      ],
      [
        103.9596353,
        1.3585778
      ],
      [
        103.9591483,
        1.3581125
      ],
      [
        103.9589531,
        1.3579213
      ],
      [
        103.9586207,
        1.3575992
      ],
      [
        103.958549,
        1.3575335
      ],
      [
        103.9584879,
        1.3574728
      ],
      [
        103.9583606,
        1.3573536
      ],
      [
        103.9577498,
        1.3567461
      ],
      [
        103.9576228,
        1.3566399
      ],
      [
        103.9574168,
        1.3564911
      ],
      [
        103.9572582,
        1.3564013
      ],
      [
        103.9570512,
        1.3563163
      ],
      [
        103.9569554,
        1.3562888
      ],
      [
        103.9568341,
        1.3562497
      ],
      [
        103.9566622,
        1.356225
      ],
      [
        103.9564086,
        1.3562028
      ],
      [
        103.9560113,
        1.3562093
      ],
      [
        103.9555595,
        1.3562141
      ],
      [
        103.955509,
        1.356214
      ],
      [
        103.9554046,
        1.3562134
      ],
      [
        103.955341,
        1.356213
      ],
      [
        103.9550661,
        1.3562116
      ],
      [
        103.9540924,
        1.3561915
      ],
      [
        103.95388,
        1.3561978
      ],
      [
        103.9537569,
        1.3561997
      ],
      [
        103.9534604,
        1.3562149
      ],
      [
        103.9532318,
        1.3562255
      ],
      [
        103.9531352,
        1.356234
      ],
      [
        103.952715,
        1.3562794
      ],
      [
        103.9523202,
        1.3563321
      ],
      [
        103.9519948,
        1.3563782
      ],
      [
        103.9519085,
        1.3563949
      ],
      [
        103.9517932,
        1.3564148
      ],
      [
        103.9513908,
        1.3564809
      ],
      [
        103.9511136,
        1.3565228
      ],
      [
        103.9507866,
        1.3565794
      ],
      [
        103.950523,
        1.3566107
      ],
      [
        103.9503359,
        1.356632
      ],
      [
        103.950241,
        1.3566394
      ],
      [
        103.9501376,
        1.3566515
      ],
      [
        103.9499942,
        1.3566571
      ],
      [
        103.949472,
        1.3566791
      ],
      [
        103.9492083,
        1.356687
      ],
      [
        103.9488574,
        1.3566892
      ],
      [
        103.9486872,
        1.3566824
      ],
      [
        103.9470498,
        1.3566679
      ],
      [
        103.9465321,
        1.3566634
      ],
      [
        103.9464151,
        1.3566625
      ],
      [
        103.9463234,
        1.3566616
      ],
      [
        103.9462362,
        1.3566594
      ],
      [
        103.9461147,
        1.3566608
      ],
      [
        103.9460532,
        1.3566597
      ],
      [
        103.9451057,
        1.3566572
      ],
      [
        103.9441307,
        1.3566516
      ],
      [
        103.9441292,
        1.3565915
      ],
      [
        103.9441048,
        1.3556207
      ],
      [
        103.9441035,
        1.3555579
      ],
      [
        103.9441042,
        1.3554823
      ],
      [
        103.9441033,
        1.3554164
      ],
      [
        103.944093,
        1.3553368
      ],
      [
        103.9440376,
        1.3552495
      ],
      [
        103.9439547,
        1.355217
      ],
      [
        103.9435583,
        1.3550477
      ],
      [
        103.9435021,
        1.3549931
      ],
      [
        103.9434895,
        1.3548843
      ]
    ]
  }
}