{
  "type": "Feature",
  "properties": {
    "relation": 1151873,
    "direction": "1",
    "fee": "yes",
    "from": "Punggol Interchange",
    "name": "Svc 83 (Punggol Interchange ↺ Sengkang Interchange)",
    "name:en": "Svc 83 (Punggol Interchange ↺ Sengkang Interchange)",
    "network": "Land Transport Authority",
    "network:short": "LTA",
    "network:wikidata": "Q3299279",
    "network:wikipedia": "en:Land Transport Authority",
    "operator": "Go-Ahead Singapore",
    "operator:wikidata": "Q24698874",
    "operator:wikipedia": "en:Go-Ahead Singapore",
    "public_transport:version": "2",
    "ref": "83",
    "roundtrip": "yes",
    "route": "bus",
    "to": "Punggol Interchange",
    "type": "route",
    "via": "Sengkang Intechange",
    "website": "https://go-aheadsingapore.com/bus-services/"
  },
  "geometry": {
    "type": "LineString",
    "coordinates": [
      [
        103.9026277,
        1.4033195
      ],
      [
        103.9024746,
        1.4034101
      ],
      [
        103.9023181,
        1.4034969
      ],
      [
        103.9022789,
        1.4035419
      ],
      [
        103.9022574,
        1.4035923
      ],
      [
        103.9022324,
        1.4036635
      ],
      [
        103.9022109,
        1.4037547
      ],
      [
        103.9022109,
        1.403819
      ],
      [
        103.9024009,
        1.4041775
      ],
      [
        103.9026193,
        1.4045984
      ],
      [
        103.9026671,
        1.4046228
      ],
      [
        103.9028788,
        1.4044948
      ],
      [
        103.9030541,
        1.4043904
      ],
      [
        103.9032301,
        1.4042818
      ],
      [
        103.9032565,
        1.4041477
      ],
      [
        103.9028245,
        1.4033906
      ],
      [
        103.9027784,
        1.403318
      ],
      [
        103.9029504,
        1.4032212
      ],
      [
        103.9030205,
        1.4031773
      ],
      [
        103.9030673,
        1.4032543
      ],
      [
        103.9033552,
        1.4037387
      ],
      [
        103.9034688,
        1.4039509
      ],
      [
        103.9035771,
        1.4041735
      ],
      [
        103.903607,
        1.4043057
      ],
      [
        103.9036257,
        1.404364
      ],
      [
        103.903782,
        1.4047135
      ],
      [
        103.9038565,
        1.4046759
      ],
      [
        103.9039153,
        1.4046405
      ],
      [
        103.9042177,
        1.4043294
      ],
      [
        103.9044553,
        1.404106
      ],
      [
        103.9045947,
        1.4039928
      ],
      [
        103.9048992,
        1.4038111
      ],
      [
        103.905179,
        1.4036215
      ],
      [
        103.9054338,
        1.4034671
      ],
      [
        103.9055952,
        1.4033781
      ],
      [
        103.9058865,
        1.4031907
      ],
      [
        103.9061751,
        1.4030206
      ],
      [
        103.9062514,
        1.4029677
      ],
      [
        103.9063671,
        1.4028932
      ],
      [
        103.9064201,
        1.4028613
      ],
      [
        103.9065893,
        1.4027593
      ],
      [
        103.9068528,
        1.4025747
      ],
      [
        103.9071187,
        1.4023885
      ],
      [
        103.9072405,
        1.4023032
      ],
      [
        103.9077716,
        1.40193
      ],
      [
        103.9083671,
        1.4014838
      ],
      [
        103.9085667,
        1.4013343
      ],
      [
        103.9088331,
        1.4011585
      ],
      [
        103.9089952,
        1.4010455
      ],
      [
        103.9090336,
        1.4010187
      ],
      [
        103.909135,
        1.4009476
      ],
      [
        103.909179,
        1.4009171
      ],
      [
        103.9093751,
        1.4007812
      ],
      [
        103.9098412,
        1.4004414
      ],
      [
        103.909965,
        1.4003511
      ],
      [
        103.9105697,
        1.3999102
      ],
      [
        103.9106753,
        1.3998332
      ],
      [
        103.9109904,
        1.3996086
      ],
      [
        103.9114342,
        1.3992919
      ],
      [
        103.9115393,
        1.3992137
      ],
      [
        103.9121032,
        1.398794
      ],
      [
        103.912406,
        1.3985878
      ],
      [
        103.9129057,
        1.3982444
      ],
      [
        103.9129423,
        1.3982171
      ],
      [
        103.913025,
        1.398153
      ],
      [
        103.9130814,
        1.3981119
      ],
      [
        103.9132785,
        1.397973
      ],
      [
        103.9136436,
        1.3977083
      ],
      [
        103.9138835,
        1.3975343
      ],
      [
        103.914429,
        1.3972102
      ],
      [
        103.9152295,
        1.396621
      ],
      [
        103.9154047,
        1.3965294
      ],
      [
        103.9156028,
        1.3964687
      ],
      [
        103.91574,
        1.3964326
      ],
      [
        103.9163162,
        1.3962658
      ],
      [
        103.916606,
        1.3961025
      ],
      [
        103.9167812,
        1.3959106
      ],
      [
        103.9169282,
        1.3956557
      ],
      [
        103.9169885,
        1.3955488
      ],
      [
        103.9170371,
        1.3954651
      ],
      [
        103.9169556,
        1.3952777
      ],
      [
        103.9169005,
        1.3951707
      ],
      [
        103.9167256,
        1.3949532
      ],
      [
        103.9166063,
        1.3948359
      ],
      [
        103.9163392,
        1.3945868
      ],
      [
        103.9160857,
        1.3942638
      ],
      [
        103.9158851,
        1.3940106
      ],
      [
        103.9156652,
        1.3937098
      ],
      [
        103.9155213,
        1.3935261
      ],
      [
        103.9153166,
        1.3932389
      ],
      [
        103.9152363,
        1.3931292
      ],
      [
        103.9150269,
        1.3928444
      ],
      [
        103.9149275,
        1.3927085
      ],
      [
        103.9147644,
        1.3924798
      ],
      [
        103.9146592,
        1.3923414
      ],
      [
        103.9146395,
        1.3923108
      ],
      [
        103.9145629,
        1.3922106
      ],
      [
        103.914456,
        1.392289
      ],
      [
        103.9143884,
        1.3923436
      ],
      [
        103.9142458,
        1.3924648
      ],
      [
        103.9138589,
        1.3928
      ],
      [
        103.91348,
        1.393085
      ],
      [
        103.9134577,
        1.3931018
      ],
      [
        103.9133432,
        1.3931923
      ],
      [
        103.9118152,
        1.3944473
      ],
      [
        103.9115131,
        1.3946928
      ],
      [
        103.9112259,
        1.3949263
      ],
      [
        103.9109597,
        1.3951605
      ],
      [
        103.9109232,
        1.3951908
      ],
      [
        103.9108526,
        1.3952463
      ],
      [
        103.9108219,
        1.3952724
      ],
      [
        103.9106172,
        1.3954307
      ],
      [
        103.9096382,
        1.3962145
      ],
      [
        103.9085799,
        1.3970694
      ],
      [
        103.9085066,
        1.3971286
      ],
      [
        103.9084619,
        1.3971647
      ],
      [
        103.9079136,
        1.3976289
      ],
      [
        103.9077352,
        1.3977763
      ],
      [
        103.9073965,
        1.3980253
      ],
      [
        103.9072214,
        1.3981925
      ],
      [
        103.9071799,
        1.3982322
      ],
      [
        103.907127,
        1.3982718
      ],
      [
        103.9070745,
        1.3983124
      ],
      [
        103.906943,
        1.3984143
      ],
      [
        103.9064168,
        1.3988554
      ],
      [
        103.9060467,
        1.3991345
      ],
      [
        103.9058912,
        1.3992605
      ],
      [
        103.9056954,
        1.3994
      ],
      [
        103.9053896,
        1.3996064
      ],
      [
        103.9052124,
        1.3996301
      ],
      [
        103.9051339,
        1.3996233
      ],
      [
        103.9050864,
        1.3996116
      ],
      [
        103.9050412,
        1.3995953
      ],
      [
        103.9049717,
        1.3995537
      ],
      [
        103.9046416,
        1.3988584
      ],
      [
        103.9044522,
        1.3984454
      ],
      [
        103.9042792,
        1.3980713
      ],
      [
        103.9041011,
        1.3977284
      ],
      [
        103.9038596,
        1.3972899
      ],
      [
        103.903827,
        1.397235
      ],
      [
        103.9037356,
        1.39706
      ],
      [
        103.9036968,
        1.3969854
      ],
      [
        103.9034905,
        1.3965845
      ],
      [
        103.9034385,
        1.3964837
      ],
      [
        103.9033987,
        1.3964133
      ],
      [
        103.9031597,
        1.3959894
      ],
      [
        103.9029764,
        1.3957584
      ],
      [
        103.9028127,
        1.39558
      ],
      [
        103.902782,
        1.3955494
      ],
      [
        103.9026103,
        1.3953753
      ],
      [
        103.9025277,
        1.3952894
      ],
      [
        103.9023653,
        1.3951367
      ],
      [
        103.9020945,
        1.3948764
      ],
      [
        103.9019589,
        1.3947467
      ],
      [
        103.9018514,
        1.3946438
      ],
      [
        103.9017211,
        1.3945087
      ],
      [
        103.9015934,
        1.3943584
      ],
      [
        103.9015339,
        1.3942597
      ],
      [
        103.9014832,
        1.3941835
      ],
      [
        103.9014472,
        1.3940845
      ],
      [
        103.9013277,
        1.3941232
      ],
      [
        103.9012738,
        1.3941404
      ],
      [
        103.9010627,
        1.3942271
      ],
      [
        103.9009543,
        1.3942662
      ],
      [
        103.9006381,
        1.3943804
      ],
      [
        103.9001821,
        1.39454
      ],
      [
        103.8998275,
        1.3946529
      ],
      [
        103.899409,
        1.3947905
      ],
      [
        103.8991556,
        1.3948601
      ],
      [
        103.8990981,
        1.3948759
      ],
      [
        103.8990196,
        1.3948975
      ],
      [
        103.8989885,
        1.394906
      ],
      [
        103.8987337,
        1.394976
      ],
      [
        103.8981927,
        1.3951242
      ],
      [
        103.8975696,
        1.395268
      ],
      [
        103.8972831,
        1.3953267
      ],
      [
        103.8965316,
        1.3955003
      ],
      [
        103.8962974,
        1.3955515
      ],
      [
        103.8958494,
        1.3956252
      ],
      [
        103.8954756,
        1.3957173
      ],
      [
        103.8951623,
        1.3957961
      ],
      [
        103.8949201,
        1.3958628
      ],
      [
        103.8948351,
        1.3958485
      ],
      [
        103.894765,
        1.3958283
      ],
      [
        103.8947041,
        1.3958028
      ],
      [
        103.8946111,
        1.3957148
      ],
      [
        103.8945288,
        1.3956358
      ],
      [
        103.8944401,
        1.3953898
      ],
      [
        103.8943843,
        1.3952348
      ],
      [
        103.894244,
        1.3948317
      ],
      [
        103.8940895,
        1.3944018
      ],
      [
        103.8939848,
        1.3940855
      ],
      [
        103.8938566,
        1.3937252
      ],
      [
        103.8938098,
        1.3935859
      ],
      [
        103.893763,
        1.3934465
      ],
      [
        103.8937421,
        1.3933843
      ],
      [
        103.8937054,
        1.3932743
      ],
      [
        103.8936775,
        1.3931944
      ],
      [
        103.8935915,
        1.392948
      ],
      [
        103.8935135,
        1.3927166
      ],
      [
        103.8934112,
        1.3924223
      ],
      [
        103.8933751,
        1.3923158
      ],
      [
        103.8933036,
        1.392105
      ],
      [
        103.8932379,
        1.3919027
      ],
      [
        103.8931373,
        1.3916144
      ],
      [
        103.8931773,
        1.3914299
      ],
      [
        103.8931959,
        1.391371
      ],
      [
        103.8932075,
        1.3913343
      ],
      [
        103.8932449,
        1.3912751
      ],
      [
        103.8933002,
        1.3912072
      ],
      [
        103.8933492,
        1.3911935
      ],
      [
        103.893758,
        1.3910495
      ],
      [
        103.8940094,
        1.3909627
      ],
      [
        103.8940527,
        1.3909479
      ],
      [
        103.8941499,
        1.3909141
      ],
      [
        103.8942243,
        1.3908886
      ],
      [
        103.894409,
        1.3908254
      ],
      [
        103.8948529,
        1.3906695
      ],
      [
        103.8953104,
        1.3905088
      ],
      [
        103.8954372,
        1.3904642
      ],
      [
        103.8957243,
        1.3903703
      ],
      [
        103.8959074,
        1.390315
      ],
      [
        103.8960043,
        1.3903208
      ],
      [
        103.8961189,
        1.3903348
      ],
      [
        103.8961752,
        1.3903572
      ],
      [
        103.8962299,
        1.3903789
      ],
      [
        103.896277,
        1.3904178
      ],
      [
        103.8963373,
        1.3904763
      ],
      [
        103.8965064,
        1.3909798
      ],
      [
        103.896634,
        1.3913598
      ],
      [
        103.8965522,
        1.3913914
      ],
      [
        103.896634,
        1.3913598
      ],
      [
        103.896412,
        1.3914452
      ],
      [
        103.8962871,
        1.3914387
      ],
      [
        103.8960398,
        1.3915269
      ],
      [
        103.8957387,
        1.3916343
      ],
      [
        103.8958771,
        1.3920223
      ],
      [
        103.8961876,
        1.3919116
      ],
      [
        103.8964955,
        1.3918018
      ],
      [
        103.8963687,
        1.3914621
      ],
      [
        103.896412,
        1.3914452
      ],
      [
        103.8965522,
        1.3913914
      ],
      [
        103.896634,
        1.3913598
      ],
      [
        103.8967205,
        1.3913296
      ],
      [
        103.896591,
        1.390943
      ],
      [
        103.8965308,
        1.3907631
      ],
      [
        103.8964402,
        1.3904928
      ],
      [
        103.896345,
        1.3902198
      ],
      [
        103.8963244,
        1.3901605
      ],
      [
        103.8962948,
        1.3900757
      ],
      [
        103.8962076,
        1.3901059
      ],
      [
        103.8961485,
        1.3901265
      ],
      [
        103.8956705,
        1.3902938
      ],
      [
        103.8949478,
        1.3905419
      ],
      [
        103.8941957,
        1.3908033
      ],
      [
        103.8941221,
        1.3908289
      ],
      [
        103.8940238,
        1.390863
      ],
      [
        103.893979,
        1.3908764
      ],
      [
        103.8936102,
        1.3910046
      ],
      [
        103.8932835,
        1.3911164
      ],
      [
        103.8930856,
        1.3911892
      ],
      [
        103.8930012,
        1.3912131
      ],
      [
        103.8928828,
        1.3912536
      ],
      [
        103.8929123,
        1.3913408
      ],
      [
        103.8929382,
        1.3914157
      ],
      [
        103.8930157,
        1.3916394
      ],
      [
        103.8931242,
        1.3919526
      ],
      [
        103.8931899,
        1.3921424
      ],
      [
        103.8932554,
        1.3923317
      ],
      [
        103.8933549,
        1.392619
      ],
      [
        103.8934691,
        1.3929748
      ],
      [
        103.893557,
        1.3932352
      ],
      [
        103.893583,
        1.3933122
      ],
      [
        103.8936212,
        1.3934247
      ],
      [
        103.8936431,
        1.3934872
      ],
      [
        103.8937255,
        1.3937341
      ],
      [
        103.894017,
        1.3946275
      ],
      [
        103.8940756,
        1.394807
      ],
      [
        103.894165,
        1.3950491
      ],
      [
        103.8943101,
        1.3954473
      ],
      [
        103.8943849,
        1.395654
      ],
      [
        103.8944705,
        1.3959231
      ],
      [
        103.8944939,
        1.3960007
      ],
      [
        103.8945352,
        1.3961382
      ],
      [
        103.8946892,
        1.396094
      ],
      [
        103.8947648,
        1.3960706
      ],
      [
        103.8949545,
        1.3960139
      ],
      [
        103.8958398,
        1.3957998
      ],
      [
        103.8961033,
        1.3957355
      ],
      [
        103.8962876,
        1.3956931
      ],
      [
        103.8965749,
        1.3956181
      ],
      [
        103.8973995,
        1.3954019
      ],
      [
        103.8974694,
        1.3953836
      ],
      [
        103.89759,
        1.395352
      ],
      [
        103.8981912,
        1.3952167
      ],
      [
        103.8983786,
        1.3951777
      ],
      [
        103.8987004,
        1.3951133
      ],
      [
        103.8990279,
        1.3950294
      ],
      [
        103.8990629,
        1.3950205
      ],
      [
        103.8991386,
        1.3950011
      ],
      [
        103.899193,
        1.3949871
      ],
      [
        103.8994258,
        1.3949275
      ],
      [
        103.900126,
        1.3946883
      ],
      [
        103.9002547,
        1.3946378
      ],
      [
        103.9006823,
        1.3944823
      ],
      [
        103.900848,
        1.3944239
      ],
      [
        103.901093,
        1.3943457
      ],
      [
        103.9012444,
        1.3943343
      ],
      [
        103.9013274,
        1.394342
      ],
      [
        103.9013504,
        1.3943528
      ],
      [
        103.9014042,
        1.3943779
      ],
      [
        103.9015132,
        1.3944413
      ],
      [
        103.9016164,
        1.3945697
      ],
      [
        103.9016937,
        1.3946449
      ],
      [
        103.9018717,
        1.3948181
      ],
      [
        103.902069,
        1.3950117
      ],
      [
        103.9021273,
        1.3950689
      ],
      [
        103.902262,
        1.3952039
      ],
      [
        103.9023761,
        1.3953012
      ],
      [
        103.9025148,
        1.3954326
      ],
      [
        103.902686,
        1.3955679
      ],
      [
        103.9027628,
        1.3956382
      ],
      [
        103.902865,
        1.3957589
      ],
      [
        103.9030989,
        1.3960945
      ],
      [
        103.9033057,
        1.3964639
      ],
      [
        103.9033475,
        1.3965386
      ],
      [
        103.9033995,
        1.3966378
      ],
      [
        103.9036491,
        1.3971141
      ],
      [
        103.9037373,
        1.3972956
      ],
      [
        103.9037638,
        1.3973458
      ],
      [
        103.9040473,
        1.3979103
      ],
      [
        103.9043652,
        1.3985837
      ],
      [
        103.9045152,
        1.3988851
      ],
      [
        103.9046225,
        1.3991291
      ],
      [
        103.9046956,
        1.3993276
      ],
      [
        103.9047925,
        1.3995645
      ],
      [
        103.9048079,
        1.399602
      ],
      [
        103.9049256,
        1.3998483
      ],
      [
        103.9049553,
        1.39991
      ],
      [
        103.9050242,
        1.4000698
      ],
      [
        103.9051577,
        1.3999848
      ],
      [
        103.9052081,
        1.3999511
      ],
      [
        103.9053684,
        1.3998526
      ],
      [
        103.9055662,
        1.3997175
      ],
      [
        103.905726,
        1.399607
      ],
      [
        103.9059006,
        1.3994739
      ],
      [
        103.9059815,
        1.3994123
      ],
      [
        103.906024,
        1.3993799
      ],
      [
        103.9060865,
        1.3993322
      ],
      [
        103.9064941,
        1.3990216
      ],
      [
        103.9067428,
        1.3988174
      ],
      [
        103.9068988,
        1.3986895
      ],
      [
        103.906992,
        1.3986124
      ],
      [
        103.9071685,
        1.3984418
      ],
      [
        103.907206,
        1.3984056
      ],
      [
        103.9072689,
        1.3983566
      ],
      [
        103.9073123,
        1.3983263
      ],
      [
        103.9075169,
        1.3981835
      ],
      [
        103.9088727,
        1.3970902
      ],
      [
        103.9090782,
        1.3969215
      ],
      [
        103.9095473,
        1.3965363
      ],
      [
        103.909883,
        1.3962606
      ],
      [
        103.9099627,
        1.3961952
      ],
      [
        103.9100441,
        1.3961286
      ],
      [
        103.9103712,
        1.3958608
      ],
      [
        103.9107319,
        1.3955562
      ],
      [
        103.910918,
        1.3954114
      ],
      [
        103.9109556,
        1.3953772
      ],
      [
        103.9110173,
        1.3953288
      ],
      [
        103.9110603,
        1.395294
      ],
      [
        103.9111878,
        1.3951772
      ],
      [
        103.9116892,
        1.3947573
      ],
      [
        103.9124775,
        1.3941053
      ],
      [
        103.9131073,
        1.3935689
      ],
      [
        103.9132299,
        1.3934668
      ],
      [
        103.9134501,
        1.3932949
      ],
      [
        103.91356,
        1.3932143
      ],
      [
        103.9135943,
        1.3931891
      ],
      [
        103.9137282,
        1.3930647
      ],
      [
        103.9138962,
        1.3929069
      ],
      [
        103.9141667,
        1.3926882
      ],
      [
        103.9143273,
        1.3926064
      ],
      [
        103.9143918,
        1.3925774
      ],
      [
        103.9144689,
        1.3925645
      ],
      [
        103.9145537,
        1.3925844
      ],
      [
        103.9146295,
        1.3926309
      ],
      [
        103.9147461,
        1.3926905
      ],
      [
        103.9153271,
        1.3935515
      ],
      [
        103.9155445,
        1.393849
      ],
      [
        103.9156837,
        1.3940721
      ],
      [
        103.9159073,
        1.3942451
      ],
      [
        103.9161295,
        1.3943921
      ],
      [
        103.9163175,
        1.3946397
      ],
      [
        103.9164714,
        1.3948419
      ],
      [
        103.9167334,
        1.3951001
      ],
      [
        103.9167382,
        1.3952746
      ],
      [
        103.9167174,
        1.3954086
      ],
      [
        103.9167019,
        1.3954863
      ],
      [
        103.9166858,
        1.3955929
      ],
      [
        103.9166421,
        1.3957797
      ],
      [
        103.9164173,
        1.3960358
      ],
      [
        103.9161724,
        1.3961926
      ],
      [
        103.9155418,
        1.3963788
      ],
      [
        103.9153515,
        1.3964351
      ],
      [
        103.9151659,
        1.396546
      ],
      [
        103.9149132,
        1.396723
      ],
      [
        103.9143477,
        1.3971375
      ],
      [
        103.9138013,
        1.3974184
      ],
      [
        103.9135175,
        1.3976194
      ],
      [
        103.9132109,
        1.3978237
      ],
      [
        103.9130093,
        1.3979801
      ],
      [
        103.9129379,
        1.3980309
      ],
      [
        103.9128445,
        1.3980923
      ],
      [
        103.9128072,
        1.3981168
      ],
      [
        103.912612,
        1.3982546
      ],
      [
        103.9110447,
        1.3993851
      ],
      [
        103.910597,
        1.3997045
      ],
      [
        103.9102403,
        1.3999723
      ],
      [
        103.9098166,
        1.4002906
      ],
      [
        103.9096852,
        1.4003773
      ],
      [
        103.9095672,
        1.4004617
      ],
      [
        103.90948,
        1.4005201
      ],
      [
        103.9092798,
        1.4006592
      ],
      [
        103.9090972,
        1.4007989
      ],
      [
        103.9090579,
        1.4008299
      ],
      [
        103.908953,
        1.4009033
      ],
      [
        103.9089148,
        1.4009306
      ],
      [
        103.9087462,
        1.4010518
      ],
      [
        103.9082113,
        1.4014434
      ],
      [
        103.9076905,
        1.4018223
      ],
      [
        103.9073659,
        1.4020244
      ],
      [
        103.9069848,
        1.4023043
      ],
      [
        103.9066905,
        1.4025138
      ],
      [
        103.9063737,
        1.4027457
      ],
      [
        103.9063242,
        1.4027819
      ],
      [
        103.9062096,
        1.4028509
      ],
      [
        103.9061309,
        1.4029033
      ],
      [
        103.9059567,
        1.4030193
      ],
      [
        103.9056054,
        1.4032395
      ],
      [
        103.9052554,
        1.403459
      ],
      [
        103.9048547,
        1.4037063
      ],
      [
        103.9046099,
        1.4038621
      ],
      [
        103.9045247,
        1.4039163
      ],
      [
        103.9044693,
        1.4039491
      ],
      [
        103.9040647,
        1.4041416
      ],
      [
        103.9039011,
        1.4041586
      ],
      [
        103.9037693,
        1.4041393
      ],
      [
        103.9036748,
        1.4040981
      ],
      [
        103.9035828,
        1.4040178
      ],
      [
        103.9034978,
        1.403825
      ],
      [
        103.9031556,
        1.4032029
      ],
      [
        103.9031037,
        1.4031252
      ],
      [
        103.9030591,
        1.403051
      ],
      [
        103.9029701,
        1.4031003
      ],
      [
        103.9029022,
        1.4031373
      ],
      [
        103.902696,
        1.4032531
      ],
      [
        103.9026277,
        1.4033195
      ]
    ]
  }
}