{
  "type": "Feature",
  "properties": {
    "relation": 17744377,
    "direction": "1",
    "fee": "yes",
    "from": "Punggol Interchange",
    "name": "Svc 84G (Punggol Interchange ↺ New Punggol Road)",
    "name:en": "Svc 84G (Punggol Interchange ↺ New Punggol Road)",
    "network": "Land Transport Authority",
    "network:short": "LTA",
    "network:wikidata": "Q3299279",
    "network:wikipedia": "en:Land Transport Authority",
    "opening_hours": "Mo-Su 05:30-00:35",
    "operator": "Go-Ahead Singapore",
    "operator:wikidata": "Q24698874",
    "operator:wikipedia": "en:Go-Ahead Singapore",
    "public_transport:version": "2",
    "ref": "84G",
    "roundtrip": "yes",
    "route": "bus",
    "to": "Punggol Interchange",
    "type": "route",
    "via": "New Punggol Road",
    "website": "https://go-aheadsingapore.com/bus-services/",
    "wheelchair": "yes"
  },
  "geometry": {
    "type": "LineString",
    "coordinates": [
      [
        103.9026277,
        1.4033195
      ],
      [
        103.9024746,
        1.4034101
      ],
      [
        103.9023181,
        1.4034969
      ],
      [
        103.9022789,
        1.4035419
      ],
      [
        103.9022574,
        1.4035923
      ],
      [
        103.9022324,
        1.4036635
      ],
      [
        103.9022109,
        1.4037547
      ],
      [
        103.9022109,
        1.403819
      ],
      [
        103.9024009,
        1.4041775
      ],
      [
        103.9026193,
        1.4045984
      ],
      [
        103.9026671,
        1.4046228
      ],
      [
        103.9028788,
        1.4044948
      ],
      [
        103.9030541,
        1.4043904
      ],
      [
        103.9032301,
        1.4042818
      ],
      [
        103.9032565,
        1.4041477
      ],
      [
        103.9028245,
        1.4033906
      ],
      [
        103.9027784,
        1.403318
      ],
      [
        103.9029504,
        1.4032212
      ],
      [
        103.9030205,
        1.4031773
      ],
      [
        103.9030673,
        1.4032543
      ],
      [
        103.9033552,
        1.4037387
      ],
      [
        103.9034688,
        1.4039509
      ],
      [
        103.9035771,
        1.4041735
      ],
      [
        103.903607,
        1.4043057
      ],
      [
        103.9036257,
        1.404364
      ],
      [
        103.903782,
        1.4047135
      ],
      [
        103.9038565,
        1.4046759
      ],
      [
        103.9039153,
        1.4046405
      ],
      [
        103.9042177,
        1.4043294
      ],
      [
        103.9044553,
        1.404106
      ],
      [
        103.9045947,
        1.4039928
      ],
      [
        103.9048992,
        1.4038111
      ],
      [
        103.905179,
        1.4036215
      ],
      [
        103.9054338,
        1.4034671
      ],
      [
        103.9055952,
        1.4033781
      ],
      [
        103.9058865,
        1.4031907
      ],
      [
        103.9061013,
        1.403212
      ],
      [
        103.9061393,
        1.403215
      ],
      [
        103.9061821,
        1.4032183
      ],
      [
        103.9062553,
        1.4032447
      ],
      [
        103.9062952,
        1.4032763
      ],
      [
        103.9063394,
        1.4033136
      ],
      [
        103.9064076,
        1.4033855
      ],
      [
        103.9066478,
        1.4039485
      ],
      [
        103.9068223,
        1.4043447
      ],
      [
        103.9070385,
        1.4047263
      ],
      [
        103.907075,
        1.4047976
      ],
      [
        103.9071906,
        1.4050285
      ],
      [
        103.9073233,
        1.4052785
      ],
      [
        103.9074815,
        1.4055871
      ],
      [
        103.9074638,
        1.4057882
      ],
      [
        103.9074562,
        1.4058273
      ],
      [
        103.9074439,
        1.4058657
      ],
      [
        103.907413,
        1.4059282
      ],
      [
        103.9073345,
        1.4060506
      ],
      [
        103.9070096,
        1.4062736
      ],
      [
        103.9069341,
        1.4063212
      ],
      [
        103.9068436,
        1.4063782
      ],
      [
        103.906618,
        1.4065203
      ],
      [
        103.9062081,
        1.4067734
      ],
      [
        103.9057551,
        1.4070061
      ],
      [
        103.905449,
        1.4071742
      ],
      [
        103.905411,
        1.4071957
      ],
      [
        103.9053337,
        1.4072355
      ],
      [
        103.9053915,
        1.4073627
      ],
      [
        103.90541,
        1.4074119
      ],
      [
        103.9055053,
        1.4076498
      ],
      [
        103.9058277,
        1.4084072
      ],
      [
        103.9059056,
        1.4086046
      ],
      [
        103.905955,
        1.4087872
      ],
      [
        103.9059707,
        1.4089517
      ],
      [
        103.9059532,
        1.4090819
      ],
      [
        103.9059317,
        1.4092014
      ],
      [
        103.9058867,
        1.4093375
      ],
      [
        103.9058106,
        1.4094795
      ],
      [
        103.9056508,
        1.4096691
      ],
      [
        103.9055454,
        1.4097527
      ],
      [
        103.9054379,
        1.4098268
      ],
      [
        103.9052188,
        1.4099366
      ],
      [
        103.905158,
        1.4099688
      ],
      [
        103.9050682,
        1.4100132
      ],
      [
        103.9049223,
        1.4100881
      ],
      [
        103.9041427,
        1.4105082
      ],
      [
        103.9039617,
        1.4106006
      ],
      [
        103.90387,
        1.4106374
      ],
      [
        103.9037656,
        1.4106692
      ],
      [
        103.9036599,
        1.4106831
      ],
      [
        103.903504,
        1.4106818
      ],
      [
        103.9033965,
        1.4106698
      ],
      [
        103.9032596,
        1.4106368
      ],
      [
        103.9031205,
        1.4105747
      ],
      [
        103.9030249,
        1.410519
      ],
      [
        103.9029164,
        1.4104387
      ],
      [
        103.9028108,
        1.4103302
      ],
      [
        103.9027892,
        1.4102999
      ],
      [
        103.9027186,
        1.4101889
      ],
      [
        103.9024261,
        1.4095743
      ],
      [
        103.9022834,
        1.4092715
      ],
      [
        103.9022653,
        1.4092301
      ],
      [
        103.9022198,
        1.4091294
      ],
      [
        103.9021464,
        1.4091768
      ],
      [
        103.9021,
        1.4092054
      ],
      [
        103.9019195,
        1.4093231
      ],
      [
        103.9011139,
        1.4098257
      ],
      [
        103.9004772,
        1.4102234
      ],
      [
        103.9001697,
        1.4104262
      ],
      [
        103.899896,
        1.4105927
      ],
      [
        103.8998302,
        1.4106317
      ],
      [
        103.8996556,
        1.4107265
      ],
      [
        103.8996971,
        1.4108128
      ],
      [
        103.8997215,
        1.4108558
      ],
      [
        103.8998682,
        1.4111178
      ],
      [
        103.9002076,
        1.4117478
      ],
      [
        103.9005569,
        1.4124125
      ],
      [
        103.9007424,
        1.4128243
      ],
      [
        103.9008674,
        1.4130775
      ],
      [
        103.9008914,
        1.4131572
      ],
      [
        103.9009283,
        1.4132799
      ],
      [
        103.9009493,
        1.4133491
      ],
      [
        103.9010157,
        1.4135697
      ],
      [
        103.9012643,
        1.4144266
      ],
      [
        103.9013536,
        1.4147078
      ],
      [
        103.9013852,
        1.4148064
      ],
      [
        103.9015437,
        1.4152475
      ],
      [
        103.9015662,
        1.4152833
      ],
      [
        103.9017027,
        1.4154877
      ],
      [
        103.9019525,
        1.4157839
      ],
      [
        103.9021283,
        1.4160006
      ],
      [
        103.9023119,
        1.4162159
      ],
      [
        103.9025279,
        1.4164264
      ],
      [
        103.902694,
        1.416552
      ],
      [
        103.9028838,
        1.4166767
      ],
      [
        103.9034244,
        1.4169897
      ],
      [
        103.9038289,
        1.4172856
      ],
      [
        103.9040688,
        1.4173901
      ],
      [
        103.9041342,
        1.4174115
      ],
      [
        103.9041927,
        1.4174334
      ],
      [
        103.904245,
        1.4174507
      ],
      [
        103.9044066,
        1.4174983
      ],
      [
        103.9046235,
        1.4175414
      ],
      [
        103.9048744,
        1.4175664
      ],
      [
        103.9050634,
        1.4175542
      ],
      [
        103.9052461,
        1.4175203
      ],
      [
        103.9055349,
        1.4174384
      ],
      [
        103.9057151,
        1.4173752
      ],
      [
        103.9059864,
        1.417313
      ],
      [
        103.9060673,
        1.4173229
      ],
      [
        103.9061188,
        1.4173428
      ],
      [
        103.9061922,
        1.4173866
      ],
      [
        103.906489,
        1.4181046
      ],
      [
        103.9066274,
        1.4184213
      ],
      [
        103.906657,
        1.4184918
      ],
      [
        103.9066928,
        1.4185731
      ],
      [
        103.9067941,
        1.4185565
      ],
      [
        103.9068558,
        1.4185463
      ],
      [
        103.9071276,
        1.4185015
      ],
      [
        103.9074289,
        1.4184401
      ],
      [
        103.9081776,
        1.4183127
      ],
      [
        103.9097032,
        1.4181303
      ],
      [
        103.909835,
        1.4181145
      ],
      [
        103.9099618,
        1.4181016
      ],
      [
        103.9105172,
        1.4180453
      ],
      [
        103.9111761,
        1.4179623
      ],
      [
        103.9114888,
        1.4180139
      ],
      [
        103.911602,
        1.4180532
      ],
      [
        103.9116624,
        1.4180959
      ],
      [
        103.9117537,
        1.418246
      ],
      [
        103.9117803,
        1.4183534
      ],
      [
        103.9118467,
        1.4185609
      ],
      [
        103.9119576,
        1.4188806
      ],
      [
        103.9119803,
        1.418944
      ],
      [
        103.9121081,
        1.4192712
      ],
      [
        103.9121459,
        1.4194912
      ],
      [
        103.9121438,
        1.419639
      ],
      [
        103.912118,
        1.4197681
      ],
      [
        103.9120164,
        1.4199631
      ],
      [
        103.9118424,
        1.4201484
      ],
      [
        103.9117028,
        1.420257
      ],
      [
        103.9115911,
        1.4203376
      ],
      [
        103.91151,
        1.4203925
      ],
      [
        103.9113815,
        1.4204536
      ],
      [
        103.9112686,
        1.4204821
      ],
      [
        103.9112066,
        1.4204838
      ],
      [
        103.9111651,
        1.4204691
      ],
      [
        103.911127,
        1.4204421
      ],
      [
        103.9110907,
        1.4204346
      ],
      [
        103.911046,
        1.4204552
      ],
      [
        103.9110233,
        1.4204885
      ],
      [
        103.911013,
        1.4205348
      ],
      [
        103.911034,
        1.4205747
      ],
      [
        103.9110683,
        1.4205998
      ],
      [
        103.9111219,
        1.4205964
      ],
      [
        103.9112232,
        1.4205728
      ],
      [
        103.9113839,
        1.4205314
      ],
      [
        103.9114883,
        1.420493
      ],
      [
        103.9115869,
        1.4204324
      ],
      [
        103.9117475,
        1.4203162
      ],
      [
        103.9118286,
        1.4202645
      ],
      [
        103.912077,
        1.4200179
      ],
      [
        103.9121604,
        1.4198427
      ],
      [
        103.9122057,
        1.4196634
      ],
      [
        103.9122201,
        1.4194867
      ],
      [
        103.9121789,
        1.4192525
      ],
      [
        103.912156,
        1.4191746
      ],
      [
        103.9120636,
        1.4188871
      ],
      [
        103.9120066,
        1.4187321
      ],
      [
        103.9119633,
        1.4185982
      ],
      [
        103.9119248,
        1.4185027
      ],
      [
        103.9118173,
        1.4179802
      ],
      [
        103.9117991,
        1.4178918
      ],
      [
        103.911787,
        1.4178144
      ],
      [
        103.9117773,
        1.4177318
      ],
      [
        103.9116352,
        1.4165243
      ],
      [
        103.9116123,
        1.4163491
      ],
      [
        103.9116143,
        1.4162582
      ],
      [
        103.9116154,
        1.4161866
      ],
      [
        103.9116174,
        1.4160537
      ],
      [
        103.9116183,
        1.4159941
      ],
      [
        103.9116162,
        1.4157541
      ],
      [
        103.9115714,
        1.4150244
      ],
      [
        103.9115341,
        1.4144834
      ],
      [
        103.9114276,
        1.4135529
      ],
      [
        103.9113929,
        1.4133387
      ],
      [
        103.9113835,
        1.4132811
      ],
      [
        103.9113635,
        1.4131397
      ],
      [
        103.9113482,
        1.4130634
      ],
      [
        103.9112898,
        1.4128017
      ],
      [
        103.9109489,
        1.4115711
      ],
      [
        103.9100338,
        1.4098829
      ],
      [
        103.9098665,
        1.4096077
      ],
      [
        103.9098234,
        1.4095182
      ],
      [
        103.9097488,
        1.4093713
      ],
      [
        103.9097131,
        1.4092999
      ],
      [
        103.9095909,
        1.4090546
      ],
      [
        103.9094824,
        1.4088675
      ],
      [
        103.9093559,
        1.4086475
      ],
      [
        103.9091494,
        1.4082901
      ],
      [
        103.9086925,
        1.4074994
      ],
      [
        103.9082115,
        1.4066559
      ],
      [
        103.9081271,
        1.4065147
      ],
      [
        103.9079364,
        1.4061953
      ],
      [
        103.9078137,
        1.4059823
      ],
      [
        103.9077909,
        1.4059376
      ],
      [
        103.9077126,
        1.4057836
      ],
      [
        103.9076793,
        1.4057145
      ],
      [
        103.9075586,
        1.4054585
      ],
      [
        103.9071795,
        1.4047394
      ],
      [
        103.9070945,
        1.4045507
      ],
      [
        103.9069612,
        1.4042545
      ],
      [
        103.9067807,
        1.4038508
      ],
      [
        103.9066672,
        1.4035961
      ],
      [
        103.9065025,
        1.4032279
      ],
      [
        103.9063989,
        1.4029718
      ],
      [
        103.9063671,
        1.4028932
      ],
      [
        103.9063242,
        1.4027819
      ],
      [
        103.9062096,
        1.4028509
      ],
      [
        103.9061309,
        1.4029033
      ],
      [
        103.9059567,
        1.4030193
      ],
      [
        103.9056054,
        1.4032395
      ],
      [
        103.9052554,
        1.403459
      ],
      [
        103.9048547,
        1.4037063
      ],
      [
        103.9046099,
        1.4038621
      ],
      [
        103.9045247,
        1.4039163
      ],
      [
        103.9044693,
        1.4039491
      ],
      [
        103.9040647,
        1.4041416
      ],
      [
        103.9039011,
        1.4041586
      ],
      [
        103.9037693,
        1.4041393
      ],
      [
        103.9036748,
        1.4040981
      ],
      [
        103.9035828,
        1.4040178
      ],
      [
        103.9034978,
        1.403825
      ],
      [
        103.9031556,
        1.4032029
      ],
      [
        103.9031037,
        1.4031252
      ],
      [
        103.9030591,
        1.403051
      ],
      [
        103.9029701,
        1.4031003
      ],
      [
        103.9029022,
        1.4031373
      ],
      [
        103.902696,
        1.4032531
      ],
      [
        103.9026277,
        1.4033195
      ]
    ]
  }
}