{
  "type": "Feature",
  "properties": {
    "relation": 2353781,
    "direction": "1",
    "distance": "22.2",
    "fee": "yes",
    "from": "Yishun Interchange",
    "name": "Svc 854 (Yishun Interchange → Bedok Interchange)",
    "name:en": "Svc 854 (Yishun Interchange → Bedok Interchange)",
    "network": "Land Transport Authority",
    "network:short": "LTA",
    "network:wikidata": "Q3299279",
    "network:wikipedia": "en:Land Transport Authority",
    "opening_hours": "Mo-Su 05:35-23:40",
    "operator": "Tower Transit Singapore",
    "operator:wikidata": "Q19898668",
    "operator:wikipedia": "en:Tower Transit Singapore",
    "public_transport:version": "2",
    "ref": "854",
    "route": "bus",
    "to": "Bedok Interchange",
    "type": "route",
    "website": "https://towertransit.sg/"
  },
  "geometry": {
    "type": "LineString",
    "coordinates": [
      [
        103.836179,
        1.428124
      ],
      [
        103.8362365,
        1.4280181
      ],
      [
        103.8361808,
        1.4278117
      ],
      [
        103.8360569,
        1.4273524
      ],
      [
        103.8360313,
        1.4272574
      ],
      [
        103.8358923,
        1.4267081
      ],
      [
        103.8357197,
        1.4267176
      ],
      [
        103.8355699,
        1.4267291
      ],
      [
        103.8354295,
        1.4267369
      ],
      [
        103.835413,
        1.4267375
      ],
      [
        103.8352648,
        1.426744
      ],
      [
        103.8352507,
        1.4265215
      ],
      [
        103.8352406,
        1.426362
      ],
      [
        103.8352263,
        1.4261371
      ],
      [
        103.835216,
        1.4256942
      ],
      [
        103.8352114,
        1.4250832
      ],
      [
        103.8352035,
        1.4248635
      ],
      [
        103.8352019,
        1.4248178
      ],
      [
        103.8351946,
        1.4247236
      ],
      [
        103.8351922,
        1.424694
      ],
      [
        103.8351724,
        1.4244521
      ],
      [
        103.8351426,
        1.4240621
      ],
      [
        103.8351106,
        1.4236025
      ],
      [
        103.8350918,
        1.4232746
      ],
      [
        103.83508,
        1.4230298
      ],
      [
        103.8350764,
        1.4229559
      ],
      [
        103.8350759,
        1.4228415
      ],
      [
        103.8350744,
        1.4227765
      ],
      [
        103.8350723,
        1.4225083
      ],
      [
        103.8350713,
        1.4224709
      ],
      [
        103.8350366,
        1.4211105
      ],
      [
        103.8348841,
        1.4204341
      ],
      [
        103.8347409,
        1.4200088
      ],
      [
        103.8342561,
        1.4190104
      ],
      [
        103.8341451,
        1.4187989
      ],
      [
        103.8338871,
        1.4182815
      ],
      [
        103.8338508,
        1.418208
      ],
      [
        103.8338015,
        1.4181158
      ],
      [
        103.8337747,
        1.4180553
      ],
      [
        103.833548,
        1.4176093
      ],
      [
        103.8332542,
        1.4170211
      ],
      [
        103.8332284,
        1.4169727
      ],
      [
        103.8330919,
        1.4167023
      ],
      [
        103.8326135,
        1.4157726
      ],
      [
        103.8324219,
        1.4153873
      ],
      [
        103.8316326,
        1.4138255
      ],
      [
        103.8315918,
        1.4137442
      ],
      [
        103.8313588,
        1.4132653
      ],
      [
        103.8312581,
        1.4130716
      ],
      [
        103.8311072,
        1.4127721
      ],
      [
        103.8305627,
        1.4116848
      ],
      [
        103.8304862,
        1.4115027
      ],
      [
        103.8303468,
        1.4112303
      ],
      [
        103.8302636,
        1.4110641
      ],
      [
        103.830041,
        1.4106176
      ],
      [
        103.8298618,
        1.4102434
      ],
      [
        103.8298149,
        1.4101398
      ],
      [
        103.8297553,
        1.4099855
      ],
      [
        103.8296164,
        1.4096756
      ],
      [
        103.8295332,
        1.4094978
      ],
      [
        103.8294639,
        1.4093755
      ],
      [
        103.8294458,
        1.4093404
      ],
      [
        103.829383,
        1.4092296
      ],
      [
        103.8287962,
        1.4080488
      ],
      [
        103.828449,
        1.4073388
      ],
      [
        103.8283688,
        1.4071734
      ],
      [
        103.8278824,
        1.4059445
      ],
      [
        103.8276158,
        1.4049144
      ],
      [
        103.8275007,
        1.4036542
      ],
      [
        103.8274998,
        1.4031285
      ],
      [
        103.8275117,
        1.4026928
      ],
      [
        103.8275678,
        1.4021563
      ],
      [
        103.8276751,
        1.4016507
      ],
      [
        103.8278291,
        1.4009865
      ],
      [
        103.8278886,
        1.4007808
      ],
      [
        103.8280154,
        1.4003424
      ],
      [
        103.828113,
        1.4000851
      ],
      [
        103.8281181,
        1.4000719
      ],
      [
        103.8282594,
        1.3996995
      ],
      [
        103.8284833,
        1.399162
      ],
      [
        103.8285913,
        1.3989695
      ],
      [
        103.8291118,
        1.3981623
      ],
      [
        103.8293915,
        1.3978
      ],
      [
        103.8299537,
        1.3971811
      ],
      [
        103.8302811,
        1.396841
      ],
      [
        103.8307333,
        1.3964178
      ],
      [
        103.8311295,
        1.3960909
      ],
      [
        103.8316155,
        1.3957925
      ],
      [
        103.831796,
        1.3956793
      ],
      [
        103.8320499,
        1.39552
      ],
      [
        103.8335751,
        1.3945633
      ],
      [
        103.8336938,
        1.3944899
      ],
      [
        103.8345636,
        1.3939315
      ],
      [
        103.8348575,
        1.3937354
      ],
      [
        103.8351818,
        1.3935096
      ],
      [
        103.8355379,
        1.3932786
      ],
      [
        103.83585,
        1.3930791
      ],
      [
        103.8363736,
        1.3927971
      ],
      [
        103.8368482,
        1.3925239
      ],
      [
        103.8373179,
        1.3922332
      ],
      [
        103.8375762,
        1.3920681
      ],
      [
        103.8378275,
        1.3918987
      ],
      [
        103.8381234,
        1.3916963
      ],
      [
        103.8381632,
        1.3916706
      ],
      [
        103.8382242,
        1.3916313
      ],
      [
        103.8382784,
        1.3915971
      ],
      [
        103.8383735,
        1.3915409
      ],
      [
        103.8386617,
        1.3913721
      ],
      [
        103.8399248,
        1.3905642
      ],
      [
        103.8402387,
        1.3903119
      ],
      [
        103.840405,
        1.3900813
      ],
      [
        103.8406507,
        1.3896905
      ],
      [
        103.8408591,
        1.3892893
      ],
      [
        103.8410395,
        1.3889514
      ],
      [
        103.8411303,
        1.388819
      ],
      [
        103.8412099,
        1.3887455
      ],
      [
        103.8412405,
        1.3887243
      ],
      [
        103.8413866,
        1.3886242
      ],
      [
        103.8415109,
        1.3885456
      ],
      [
        103.8417578,
        1.3884042
      ],
      [
        103.8418891,
        1.3883372
      ],
      [
        103.8419929,
        1.3882706
      ],
      [
        103.8421069,
        1.3881973
      ],
      [
        103.8423596,
        1.3883823
      ],
      [
        103.8425726,
        1.3885509
      ],
      [
        103.842747,
        1.3886775
      ],
      [
        103.8428076,
        1.3887239
      ],
      [
        103.8428515,
        1.3887565
      ],
      [
        103.8429612,
        1.3888379
      ],
      [
        103.8431597,
        1.3889907
      ],
      [
        103.8434072,
        1.3891867
      ],
      [
        103.8438088,
        1.3894975
      ],
      [
        103.8439966,
        1.3896441
      ],
      [
        103.8443912,
        1.389936
      ],
      [
        103.8448457,
        1.3902679
      ],
      [
        103.845062,
        1.3904192
      ],
      [
        103.8450941,
        1.3904422
      ],
      [
        103.845218,
        1.3905273
      ],
      [
        103.8456305,
        1.3908296
      ],
      [
        103.8460282,
        1.3911053
      ],
      [
        103.846551,
        1.3914092
      ],
      [
        103.8470828,
        1.3916789
      ],
      [
        103.8477768,
        1.3919688
      ],
      [
        103.8483985,
        1.3921732
      ],
      [
        103.8485217,
        1.3922084
      ],
      [
        103.8486465,
        1.3922444
      ],
      [
        103.8494578,
        1.3924137
      ],
      [
        103.8500804,
        1.392486
      ],
      [
        103.8501254,
        1.3924889
      ],
      [
        103.8503747,
        1.3925058
      ],
      [
        103.8508908,
        1.3925188
      ],
      [
        103.8514774,
        1.3925133
      ],
      [
        103.8516615,
        1.3925059
      ],
      [
        103.8517937,
        1.392498
      ],
      [
        103.8525185,
        1.3923959
      ],
      [
        103.8527067,
        1.3923595
      ],
      [
        103.8535267,
        1.3921844
      ],
      [
        103.853615,
        1.3921722
      ],
      [
        103.8543266,
        1.3920423
      ],
      [
        103.8548904,
        1.3919377
      ],
      [
        103.8549225,
        1.3919302
      ],
      [
        103.8549658,
        1.3919179
      ],
      [
        103.8551069,
        1.3918843
      ],
      [
        103.8553091,
        1.391841
      ],
      [
        103.8553437,
        1.3918336
      ],
      [
        103.8556874,
        1.3917608
      ],
      [
        103.8561227,
        1.3916573
      ],
      [
        103.8565144,
        1.3915568
      ],
      [
        103.8567638,
        1.3914925
      ],
      [
        103.8569892,
        1.3914387
      ],
      [
        103.8580998,
        1.3911761
      ],
      [
        103.8582407,
        1.3911497
      ],
      [
        103.8590051,
        1.3909886
      ],
      [
        103.8594803,
        1.3908744
      ],
      [
        103.8597317,
        1.3908087
      ],
      [
        103.8599262,
        1.3907578
      ],
      [
        103.8600207,
        1.3907283
      ],
      [
        103.8601287,
        1.3906948
      ],
      [
        103.8603443,
        1.3906392
      ],
      [
        103.8604185,
        1.3906217
      ],
      [
        103.8605156,
        1.3905951
      ],
      [
        103.8605272,
        1.3905928
      ],
      [
        103.8607997,
        1.390516
      ],
      [
        103.8631788,
        1.3898483
      ],
      [
        103.8636199,
        1.3897225
      ],
      [
        103.8638027,
        1.3896705
      ],
      [
        103.8638443,
        1.3896587
      ],
      [
        103.8639726,
        1.3896219
      ],
      [
        103.8640398,
        1.3896024
      ],
      [
        103.864285,
        1.3895322
      ],
      [
        103.8650411,
        1.38935
      ],
      [
        103.8654394,
        1.3892401
      ],
      [
        103.8658387,
        1.3891255
      ],
      [
        103.8659011,
        1.3891083
      ],
      [
        103.866238,
        1.3890252
      ],
      [
        103.8674256,
        1.3886823
      ],
      [
        103.8676241,
        1.388633
      ],
      [
        103.8679393,
        1.388547
      ],
      [
        103.8681326,
        1.388503
      ],
      [
        103.8683317,
        1.38845
      ],
      [
        103.8686829,
        1.3883385
      ],
      [
        103.8687017,
        1.3883325
      ],
      [
        103.8687964,
        1.3883024
      ],
      [
        103.8689205,
        1.3882761
      ],
      [
        103.8689802,
        1.3882623
      ],
      [
        103.8692856,
        1.3881827
      ],
      [
        103.8696304,
        1.3880857
      ],
      [
        103.870658,
        1.3878511
      ],
      [
        103.8708754,
        1.3878014
      ],
      [
        103.8714246,
        1.3876963
      ],
      [
        103.871925,
        1.3875867
      ],
      [
        103.8724469,
        1.3874548
      ],
      [
        103.8727089,
        1.38739
      ],
      [
        103.8728636,
        1.3873485
      ],
      [
        103.8731164,
        1.3872544
      ],
      [
        103.8731878,
        1.3872261
      ],
      [
        103.8733295,
        1.3871687
      ],
      [
        103.8736063,
        1.387055
      ],
      [
        103.8738803,
        1.3868925
      ],
      [
        103.874063,
        1.3867841
      ],
      [
        103.8744577,
        1.3864748
      ],
      [
        103.8753508,
        1.3856951
      ],
      [
        103.8764051,
        1.3847202
      ],
      [
        103.8766164,
        1.3843858
      ],
      [
        103.8768308,
        1.3839361
      ],
      [
        103.8768872,
        1.3836778
      ],
      [
        103.8769566,
        1.3832782
      ],
      [
        103.8769711,
        1.3829517
      ],
      [
        103.8769669,
        1.3828926
      ],
      [
        103.8769573,
        1.3827349
      ],
      [
        103.8769063,
        1.382096
      ],
      [
        103.8768716,
        1.3814812
      ],
      [
        103.876864,
        1.3814125
      ],
      [
        103.8768523,
        1.3812423
      ],
      [
        103.8768215,
        1.380795
      ],
      [
        103.8767968,
        1.3804628
      ],
      [
        103.8767922,
        1.3804158
      ],
      [
        103.8767428,
        1.3799133
      ],
      [
        103.8767357,
        1.3797391
      ],
      [
        103.8767248,
        1.379537
      ],
      [
        103.8767155,
        1.3793111
      ],
      [
        103.8767017,
        1.3790685
      ],
      [
        103.8766988,
        1.3789933
      ],
      [
        103.8767091,
        1.3788711
      ],
      [
        103.8767206,
        1.378785
      ],
      [
        103.8767544,
        1.3785333
      ],
      [
        103.87685,
        1.3778269
      ],
      [
        103.8769143,
        1.3774329
      ],
      [
        103.8770274,
        1.3767407
      ],
      [
        103.8770664,
        1.3764286
      ],
      [
        103.8770697,
        1.3763933
      ],
      [
        103.8771092,
        1.3759253
      ],
      [
        103.8771111,
        1.3757431
      ],
      [
        103.8771161,
        1.3755725
      ],
      [
        103.877114,
        1.3754774
      ],
      [
        103.8771001,
        1.3751114
      ],
      [
        103.8770978,
        1.3750522
      ],
      [
        103.8770979,
        1.3749737
      ],
      [
        103.8770973,
        1.3749429
      ],
      [
        103.8770892,
        1.3746878
      ],
      [
        103.8770623,
        1.3741813
      ],
      [
        103.8770017,
        1.3735587
      ],
      [
        103.8769589,
        1.3731719
      ],
      [
        103.8769486,
        1.3730971
      ],
      [
        103.8768817,
        1.3726118
      ],
      [
        103.8768751,
        1.3725642
      ],
      [
        103.8767393,
        1.3715791
      ],
      [
        103.876681,
        1.3711775
      ],
      [
        103.8766613,
        1.3710016
      ],
      [
        103.8765905,
        1.3705364
      ],
      [
        103.8766461,
        1.3703121
      ],
      [
        103.8767004,
        1.3701878
      ],
      [
        103.8767287,
        1.3701506
      ],
      [
        103.8767311,
        1.3701433
      ],
      [
        103.8767823,
        1.3701002
      ],
      [
        103.8769675,
        1.369999
      ],
      [
        103.8772202,
        1.3699083
      ],
      [
        103.8776696,
        1.3698547
      ],
      [
        103.8780166,
        1.3698141
      ],
      [
        103.8783714,
        1.3697327
      ],
      [
        103.8787442,
        1.3696442
      ],
      [
        103.8790574,
        1.3695336
      ],
      [
        103.8795589,
        1.3694456
      ],
      [
        103.8798725,
        1.3693845
      ],
      [
        103.8799923,
        1.3693583
      ],
      [
        103.880058,
        1.369344
      ],
      [
        103.8802579,
        1.3693004
      ],
      [
        103.8803542,
        1.3692794
      ],
      [
        103.8812824,
        1.3690771
      ],
      [
        103.8819337,
        1.3689282
      ],
      [
        103.8829825,
        1.3687454
      ],
      [
        103.883645,
        1.368585
      ],
      [
        103.8841042,
        1.3684623
      ],
      [
        103.8843806,
        1.3684021
      ],
      [
        103.8849096,
        1.368287
      ],
      [
        103.8854428,
        1.3681678
      ],
      [
        103.8858657,
        1.3680737
      ],
      [
        103.8861287,
        1.3680198
      ],
      [
        103.8863517,
        1.3679825
      ],
      [
        103.8863959,
        1.3679733
      ],
      [
        103.8864578,
        1.3679602
      ],
      [
        103.886789,
        1.3678907
      ],
      [
        103.8868855,
        1.367868
      ],
      [
        103.8869761,
        1.3678481
      ],
      [
        103.887189,
        1.3677971
      ],
      [
        103.8882331,
        1.3675612
      ],
      [
        103.8884392,
        1.3675047
      ],
      [
        103.8889274,
        1.3673637
      ],
      [
        103.8891038,
        1.3672896
      ],
      [
        103.8896115,
        1.3670516
      ],
      [
        103.8897087,
        1.3669916
      ],
      [
        103.8898757,
        1.3668777
      ],
      [
        103.890109,
        1.3666353
      ],
      [
        103.8901898,
        1.3665351
      ],
      [
        103.8904234,
        1.3662836
      ],
      [
        103.8904993,
        1.3662023
      ],
      [
        103.8905516,
        1.3661462
      ],
      [
        103.8906847,
        1.3659975
      ],
      [
        103.8908763,
        1.3657857
      ],
      [
        103.8909289,
        1.3657275
      ],
      [
        103.8910133,
        1.3656374
      ],
      [
        103.8910567,
        1.3655939
      ],
      [
        103.8912417,
        1.3653917
      ],
      [
        103.8917128,
        1.3648802
      ],
      [
        103.8919791,
        1.3645994
      ],
      [
        103.8921683,
        1.3643854
      ],
      [
        103.8922924,
        1.3642277
      ],
      [
        103.8924472,
        1.3639962
      ],
      [
        103.8924683,
        1.3639589
      ],
      [
        103.8927047,
        1.3635414
      ],
      [
        103.8927665,
        1.363408
      ],
      [
        103.8928678,
        1.3631896
      ],
      [
        103.8929794,
        1.3626833
      ],
      [
        103.8929994,
        1.3625135
      ],
      [
        103.8930455,
        1.3621229
      ],
      [
        103.8930516,
        1.3620715
      ],
      [
        103.8931082,
        1.3615918
      ],
      [
        103.8931157,
        1.3615283
      ],
      [
        103.8931295,
        1.3614013
      ],
      [
        103.8931346,
        1.3613446
      ],
      [
        103.8931707,
        1.3609403
      ],
      [
        103.8932495,
        1.3599966
      ],
      [
        103.8932272,
        1.3597427
      ],
      [
        103.8932238,
        1.3596767
      ],
      [
        103.8932111,
        1.359559
      ],
      [
        103.8932042,
        1.3594948
      ],
      [
        103.8931663,
        1.3592584
      ],
      [
        103.8931033,
        1.3589535
      ],
      [
        103.89306,
        1.3587485
      ],
      [
        103.893029,
        1.3586224
      ],
      [
        103.8929169,
        1.3581724
      ],
      [
        103.8928941,
        1.3580989
      ],
      [
        103.8926506,
        1.3572564
      ],
      [
        103.8925084,
        1.3568301
      ],
      [
        103.8921346,
        1.3557093
      ],
      [
        103.8921024,
        1.3556129
      ],
      [
        103.8912554,
        1.3535727
      ],
      [
        103.8911055,
        1.3532117
      ],
      [
        103.8910619,
        1.3531067
      ],
      [
        103.8910422,
        1.3530616
      ],
      [
        103.89096,
        1.3528739
      ],
      [
        103.8907807,
        1.3524643
      ],
      [
        103.8907566,
        1.3524071
      ],
      [
        103.8906963,
        1.3522666
      ],
      [
        103.8906701,
        1.3522031
      ],
      [
        103.8906159,
        1.3520768
      ],
      [
        103.8905009,
        1.3518011
      ],
      [
        103.8901786,
        1.3510959
      ],
      [
        103.8900318,
        1.350677
      ],
      [
        103.8899345,
        1.3503274
      ],
      [
        103.8898821,
        1.3500768
      ],
      [
        103.8898402,
        1.3498828
      ],
      [
        103.8898151,
        1.3497202
      ],
      [
        103.8898005,
        1.3496179
      ],
      [
        103.8897876,
        1.3494971
      ],
      [
        103.8897676,
        1.3493056
      ],
      [
        103.8897596,
        1.3491254
      ],
      [
        103.8897561,
        1.3489605
      ],
      [
        103.8898121,
        1.3486021
      ],
      [
        103.889868,
        1.3484131
      ],
      [
        103.8899475,
        1.3481978
      ],
      [
        103.8903729,
        1.3474298
      ],
      [
        103.8905913,
        1.346978
      ],
      [
        103.890684,
        1.3467432
      ],
      [
        103.8907644,
        1.3464114
      ],
      [
        103.8908125,
        1.3462038
      ],
      [
        103.8908433,
        1.346073
      ],
      [
        103.8908587,
        1.345975
      ],
      [
        103.8908849,
        1.3458837
      ],
      [
        103.8909129,
        1.3457263
      ],
      [
        103.890947,
        1.3454754
      ],
      [
        103.8911037,
        1.3448491
      ],
      [
        103.8911551,
        1.3446349
      ],
      [
        103.8912052,
        1.3444188
      ],
      [
        103.8913511,
        1.3438401
      ],
      [
        103.8914445,
        1.3434221
      ],
      [
        103.8914609,
        1.3433656
      ],
      [
        103.8915093,
        1.3431224
      ],
      [
        103.8915251,
        1.343011
      ],
      [
        103.8915839,
        1.3425844
      ],
      [
        103.8916247,
        1.3421809
      ],
      [
        103.8917132,
        1.3417988
      ],
      [
        103.8918271,
        1.3414152
      ],
      [
        103.8920478,
        1.340991
      ],
      [
        103.8921524,
        1.3408127
      ],
      [
        103.8923831,
        1.3404936
      ],
      [
        103.8926084,
        1.3402563
      ],
      [
        103.8927754,
        1.3401197
      ],
      [
        103.8928887,
        1.340027
      ],
      [
        103.8931676,
        1.3398661
      ],
      [
        103.893304,
        1.339803
      ],
      [
        103.8937825,
        1.339571
      ],
      [
        103.8942319,
        1.3393753
      ],
      [
        103.8944168,
        1.3392948
      ],
      [
        103.8946291,
        1.3391822
      ],
      [
        103.8948278,
        1.3390418
      ],
      [
        103.8951618,
        1.3388112
      ],
      [
        103.8953353,
        1.338676
      ],
      [
        103.8954759,
        1.3385676
      ],
      [
        103.8956791,
        1.3383936
      ],
      [
        103.8958458,
        1.3382316
      ],
      [
        103.8960551,
        1.3380236
      ],
      [
        103.8961297,
        1.3379495
      ],
      [
        103.896315,
        1.3377523
      ],
      [
        103.896383,
        1.3376917
      ],
      [
        103.8967463,
        1.3373684
      ],
      [
        103.8968782,
        1.3372273
      ],
      [
        103.8973175,
        1.3367883
      ],
      [
        103.8977414,
        1.3363565
      ],
      [
        103.8986043,
        1.3355568
      ],
      [
        103.8988106,
        1.3353517
      ],
      [
        103.899102,
        1.3350708
      ],
      [
        103.8993643,
        1.3348183
      ],
      [
        103.8994342,
        1.3347511
      ],
      [
        103.8995073,
        1.3346804
      ],
      [
        103.8997114,
        1.3344835
      ],
      [
        103.9006598,
        1.333578
      ],
      [
        103.9007378,
        1.3334931
      ],
      [
        103.9008733,
        1.3333623
      ],
      [
        103.9010658,
        1.3331766
      ],
      [
        103.9017023,
        1.3325503
      ],
      [
        103.9018689,
        1.3323969
      ],
      [
        103.9020499,
        1.3322269
      ],
      [
        103.9022714,
        1.3320131
      ],
      [
        103.9023263,
        1.3319602
      ],
      [
        103.9024014,
        1.331893
      ],
      [
        103.9024321,
        1.3318617
      ],
      [
        103.9026287,
        1.3316585
      ],
      [
        103.9031951,
        1.3310741
      ],
      [
        103.9035885,
        1.3307107
      ],
      [
        103.9036879,
        1.3306196
      ],
      [
        103.9039049,
        1.3304206
      ],
      [
        103.9042177,
        1.3301132
      ],
      [
        103.9043679,
        1.3299758
      ],
      [
        103.9045229,
        1.3298309
      ],
      [
        103.9047559,
        1.3296132
      ],
      [
        103.9048186,
        1.3295581
      ],
      [
        103.9048762,
        1.3294999
      ],
      [
        103.9050245,
        1.3293395
      ],
      [
        103.9052851,
        1.3290077
      ],
      [
        103.9054392,
        1.3287624
      ],
      [
        103.9055834,
        1.328444
      ],
      [
        103.9057215,
        1.3280706
      ],
      [
        103.9057949,
        1.3278657
      ],
      [
        103.9058693,
        1.3275955
      ],
      [
        103.9058888,
        1.327504
      ],
      [
        103.9059068,
        1.327363
      ],
      [
        103.9059286,
        1.3271445
      ],
      [
        103.905937,
        1.3270305
      ],
      [
        103.9059482,
        1.3267762
      ],
      [
        103.9059444,
        1.32658
      ],
      [
        103.9059389,
        1.3263512
      ],
      [
        103.905926,
        1.326112
      ],
      [
        103.9058883,
        1.3258047
      ],
      [
        103.9058484,
        1.3254844
      ],
      [
        103.9057993,
        1.32508
      ],
      [
        103.9057423,
        1.3247216
      ],
      [
        103.9056954,
        1.3243606
      ],
      [
        103.9056314,
        1.3239636
      ],
      [
        103.9056036,
        1.3237708
      ],
      [
        103.9055538,
        1.323413
      ],
      [
        103.9055108,
        1.3231165
      ],
      [
        103.9055047,
        1.3230773
      ],
      [
        103.9054926,
        1.3229988
      ],
      [
        103.9054541,
        1.3227498
      ],
      [
        103.9054213,
        1.3225084
      ],
      [
        103.9053947,
        1.3223124
      ],
      [
        103.9053799,
        1.3222061
      ],
      [
        103.9053323,
        1.321816
      ],
      [
        103.9053093,
        1.3216228
      ],
      [
        103.9052938,
        1.3214984
      ],
      [
        103.9052236,
        1.3208761
      ],
      [
        103.905168,
        1.3203728
      ],
      [
        103.9051551,
        1.3202563
      ],
      [
        103.9051503,
        1.3202083
      ],
      [
        103.9051371,
        1.320099
      ],
      [
        103.9050978,
        1.3197569
      ],
      [
        103.9050669,
        1.3193774
      ],
      [
        103.905065,
        1.3192761
      ],
      [
        103.9051748,
        1.3192975
      ],
      [
        103.905568,
        1.319374
      ],
      [
        103.9057935,
        1.3194032
      ],
      [
        103.906374,
        1.3194819
      ],
      [
        103.9064353,
        1.3194928
      ],
      [
        103.9066999,
        1.3195262
      ],
      [
        103.907302,
        1.3196066
      ],
      [
        103.9076429,
        1.3196713
      ],
      [
        103.9077296,
        1.3196902
      ],
      [
        103.9077856,
        1.3197023
      ],
      [
        103.9078827,
        1.3197232
      ],
      [
        103.9083443,
        1.3198078
      ],
      [
        103.908756,
        1.319888
      ],
      [
        103.9088589,
        1.319908
      ],
      [
        103.9093812,
        1.3200265
      ],
      [
        103.9095101,
        1.3200551
      ],
      [
        103.9100459,
        1.3201711
      ],
      [
        103.9103588,
        1.3202363
      ],
      [
        103.9104197,
        1.320249
      ],
      [
        103.910494,
        1.3202644
      ],
      [
        103.910642,
        1.3202944
      ],
      [
        103.9109343,
        1.3203524
      ],
      [
        103.9110269,
        1.3203735
      ],
      [
        103.9114479,
        1.3204702
      ],
      [
        103.9114616,
        1.3204729
      ],
      [
        103.9117995,
        1.320538
      ],
      [
        103.9122607,
        1.3206288
      ],
      [
        103.9127885,
        1.3207374
      ],
      [
        103.9128147,
        1.3207427
      ],
      [
        103.9132933,
        1.3208475
      ],
      [
        103.9136531,
        1.3209239
      ],
      [
        103.9137008,
        1.3209333
      ],
      [
        103.9137826,
        1.3209499
      ],
      [
        103.9138344,
        1.32096
      ],
      [
        103.914,
        1.320989
      ],
      [
        103.9146225,
        1.3211036
      ],
      [
        103.915265,
        1.3211843
      ],
      [
        103.9153688,
        1.3211987
      ],
      [
        103.915924,
        1.3212524
      ],
      [
        103.9161533,
        1.3212651
      ],
      [
        103.9163506,
        1.3212635
      ],
      [
        103.9167726,
        1.3212705
      ],
      [
        103.9177407,
        1.3212333
      ],
      [
        103.9183777,
        1.3211981
      ],
      [
        103.9183917,
        1.3211996
      ],
      [
        103.9187916,
        1.3212412
      ],
      [
        103.9190083,
        1.321288
      ],
      [
        103.9191237,
        1.3213209
      ],
      [
        103.9194575,
        1.3214478
      ],
      [
        103.919655,
        1.3215277
      ],
      [
        103.9197422,
        1.3215631
      ],
      [
        103.9199103,
        1.3216231
      ],
      [
        103.919958,
        1.3216405
      ],
      [
        103.9201361,
        1.3217028
      ],
      [
        103.9203797,
        1.3217898
      ],
      [
        103.9209601,
        1.321997
      ],
      [
        103.922334,
        1.3224642
      ],
      [
        103.922459,
        1.3225061
      ],
      [
        103.9228387,
        1.3226367
      ],
      [
        103.9231669,
        1.3227437
      ],
      [
        103.9232156,
        1.322758
      ],
      [
        103.9233461,
        1.3228038
      ],
      [
        103.9233764,
        1.3228123
      ],
      [
        103.9234736,
        1.3228411
      ],
      [
        103.9235978,
        1.322878
      ],
      [
        103.9240693,
        1.3230069
      ],
      [
        103.924267,
        1.3230523
      ],
      [
        103.9244804,
        1.3231038
      ],
      [
        103.9246667,
        1.3231461
      ],
      [
        103.9253801,
        1.3232816
      ],
      [
        103.9258342,
        1.3233774
      ],
      [
        103.9261942,
        1.3234317
      ],
      [
        103.9266508,
        1.3235189
      ],
      [
        103.9268585,
        1.323553
      ],
      [
        103.9269277,
        1.3235886
      ],
      [
        103.9269962,
        1.3236327
      ],
      [
        103.9270578,
        1.3236808
      ],
      [
        103.9271042,
        1.3237237
      ],
      [
        103.9271506,
        1.3237878
      ],
      [
        103.9271934,
        1.3238583
      ],
      [
        103.9270988,
        1.3245788
      ],
      [
        103.9270167,
        1.3251943
      ],
      [
        103.927008,
        1.3252704
      ],
      [
        103.9269974,
        1.3253553
      ],
      [
        103.9271353,
        1.3253656
      ],
      [
        103.9271946,
        1.3253698
      ],
      [
        103.9273465,
        1.3253795
      ],
      [
        103.9274482,
        1.3253853
      ],
      [
        103.9275428,
        1.3253862
      ],
      [
        103.9276252,
        1.3253822
      ],
      [
        103.9277196,
        1.3253771
      ],
      [
        103.9280581,
        1.3253459
      ],
      [
        103.9283411,
        1.325322
      ],
      [
        103.9284124,
        1.3253188
      ],
      [
        103.9284986,
        1.3253227
      ],
      [
        103.9286722,
        1.3253554
      ],
      [
        103.928857,
        1.3253939
      ],
      [
        103.9289667,
        1.3254191
      ],
      [
        103.9290742,
        1.3254496
      ],
      [
        103.9292107,
        1.3254998
      ],
      [
        103.9293081,
        1.3255439
      ],
      [
        103.929396,
        1.3255854
      ],
      [
        103.9295489,
        1.3256598
      ],
      [
        103.9295888,
        1.3255832
      ],
      [
        103.9296512,
        1.3254801
      ],
      [
        103.9297341,
        1.3252769
      ],
      [
        103.9298191,
        1.3249358
      ],
      [
        103.9298956,
        1.3246112
      ],
      [
        103.929609,
        1.3245425
      ],
      [
        103.9287434,
        1.3243349
      ]
    ]
  }
}