{
  "type": "Feature",
  "properties": {
    "relation": 20038263,
    "direction": "1",
    "fee": "yes",
    "from": "Tengah Interchange",
    "name": "Svc 872A (Tengah Interchange → Chinese Garden Station)",
    "name:en": "Svc 872A (Tengah Interchange → Chinese Garden Station)",
    "network": "Land Transport Authority",
    "network:short": "LTA",
    "network:wikidata": "Q3299279",
    "network:wikipedia": "en:Land Transport Authority",
    "operator": "Tower Transit Singapore",
    "operator:wikidata": "Q19898668",
    "operator:wikipedia": "en:Tower Transit Singapore",
    "public_transport:version": "2",
    "ref": "872A",
    "roundtrip": "yes",
    "route": "bus",
    "to": "Chinese Garden Station",
    "type": "route",
    "website": "https://towertransit.sg/"
  },
  "geometry": {
    "type": "LineString",
    "coordinates": [
      [
        103.7358081,
        1.3626133
      ],
      [
        103.7355603,
        1.3628504
      ],
      [
        103.7352425,
        1.3631555
      ],
      [
        103.7347936,
        1.3634071
      ],
      [
        103.7347474,
        1.3634703
      ],
      [
        103.7347335,
        1.363553
      ],
      [
        103.7347424,
        1.3635883
      ],
      [
        103.7348408,
        1.3637433
      ],
      [
        103.7349512,
        1.3638597
      ],
      [
        103.7350621,
        1.3638337
      ],
      [
        103.7354125,
        1.3635918
      ],
      [
        103.7358702,
        1.3632594
      ],
      [
        103.7359868,
        1.3631638
      ],
      [
        103.736116,
        1.3630215
      ],
      [
        103.7361566,
        1.3629544
      ],
      [
        103.7361782,
        1.3627569
      ],
      [
        103.7360834,
        1.362567
      ],
      [
        103.7360658,
        1.3624759
      ],
      [
        103.7361562,
        1.3623718
      ],
      [
        103.7362132,
        1.3623249
      ],
      [
        103.7362811,
        1.3622692
      ],
      [
        103.7363884,
        1.3621767
      ],
      [
        103.7363147,
        1.3621023
      ],
      [
        103.7362508,
        1.3620365
      ],
      [
        103.7353078,
        1.3610971
      ],
      [
        103.7350775,
        1.3608632
      ],
      [
        103.7350195,
        1.3608043
      ],
      [
        103.7349214,
        1.360703
      ],
      [
        103.7348679,
        1.3606456
      ],
      [
        103.73473,
        1.3604977
      ],
      [
        103.7338353,
        1.3595784
      ],
      [
        103.7328738,
        1.3586019
      ],
      [
        103.7326473,
        1.3583814
      ],
      [
        103.7325895,
        1.3583251
      ],
      [
        103.732511,
        1.3582488
      ],
      [
        103.7324352,
        1.3581749
      ],
      [
        103.7322773,
        1.3580213
      ],
      [
        103.7315336,
        1.357267
      ],
      [
        103.7307745,
        1.3564598
      ],
      [
        103.7307317,
        1.3562994
      ],
      [
        103.7307157,
        1.3561936
      ],
      [
        103.7307165,
        1.356093
      ],
      [
        103.7307382,
        1.3559801
      ],
      [
        103.7313984,
        1.3552503
      ],
      [
        103.7316093,
        1.35503
      ],
      [
        103.7319639,
        1.3546598
      ],
      [
        103.7341045,
        1.3524259
      ],
      [
        103.7342357,
        1.3523375
      ],
      [
        103.7343594,
        1.3522877
      ],
      [
        103.7344343,
        1.3522703
      ],
      [
        103.7344832,
        1.3522589
      ],
      [
        103.7345809,
        1.3522794
      ],
      [
        103.7348994,
        1.3525972
      ],
      [
        103.7351065,
        1.35284
      ],
      [
        103.7352926,
        1.3531368
      ],
      [
        103.7353012,
        1.3531587
      ],
      [
        103.7353744,
        1.3533455
      ],
      [
        103.7354349,
        1.3535039
      ],
      [
        103.7354868,
        1.3537196
      ],
      [
        103.7355203,
        1.3539884
      ],
      [
        103.7355231,
        1.3540633
      ],
      [
        103.7355301,
        1.354249
      ],
      [
        103.7355106,
        1.3544947
      ],
      [
        103.7354659,
        1.3547337
      ],
      [
        103.7353962,
        1.3549752
      ],
      [
        103.7353349,
        1.3551275
      ],
      [
        103.7352997,
        1.3552177
      ],
      [
        103.7353698,
        1.3552538
      ],
      [
        103.7354693,
        1.3552745
      ],
      [
        103.7356229,
        1.3552667
      ],
      [
        103.7361259,
        1.3551973
      ],
      [
        103.7363573,
        1.3551627
      ],
      [
        103.73646,
        1.3551502
      ],
      [
        103.7366115,
        1.3551339
      ],
      [
        103.7366089,
        1.355071
      ],
      [
        103.7366165,
        1.3545554
      ],
      [
        103.7367336,
        1.3539304
      ],
      [
        103.7369434,
        1.3532856
      ],
      [
        103.7374405,
        1.3521003
      ],
      [
        103.7376897,
        1.3516375
      ],
      [
        103.7377958,
        1.3513352
      ],
      [
        103.7378853,
        1.35102
      ],
      [
        103.7379782,
        1.3507265
      ],
      [
        103.7380893,
        1.3503133
      ],
      [
        103.7381247,
        1.3501737
      ],
      [
        103.7381988,
        1.3498842
      ],
      [
        103.7382089,
        1.3498423
      ],
      [
        103.7382138,
        1.3498318
      ],
      [
        103.7382441,
        1.3497255
      ],
      [
        103.7383115,
        1.3494137
      ],
      [
        103.7384335,
        1.3488204
      ],
      [
        103.7384325,
        1.3483868
      ],
      [
        103.7383989,
        1.3480646
      ],
      [
        103.7383362,
        1.3478059
      ],
      [
        103.7382098,
        1.3475267
      ],
      [
        103.7381651,
        1.3474279
      ],
      [
        103.738064,
        1.3472045
      ],
      [
        103.7379614,
        1.3469778
      ],
      [
        103.7378968,
        1.346835
      ],
      [
        103.7377569,
        1.3465743
      ],
      [
        103.7375321,
        1.3461837
      ],
      [
        103.7373727,
        1.3459027
      ],
      [
        103.7372365,
        1.3456451
      ],
      [
        103.7371713,
        1.3455218
      ],
      [
        103.7369292,
        1.3450638
      ],
      [
        103.7366386,
        1.3444879
      ],
      [
        103.7365377,
        1.3442625
      ],
      [
        103.7364303,
        1.3439381
      ],
      [
        103.7363301,
        1.3436355
      ],
      [
        103.7362376,
        1.3433212
      ],
      [
        103.7362216,
        1.3432624
      ],
      [
        103.7362008,
        1.3431865
      ],
      [
        103.7361808,
        1.3431098
      ],
      [
        103.7361155,
        1.3428978
      ],
      [
        103.7360179,
        1.3426599
      ],
      [
        103.7357911,
        1.3421904
      ],
      [
        103.7355065,
        1.3417038
      ],
      [
        103.7353738,
        1.3415183
      ],
      [
        103.73524,
        1.341324
      ],
      [
        103.735052,
        1.3410872
      ],
      [
        103.7350281,
        1.3410589
      ],
      [
        103.7349543,
        1.3409582
      ],
      [
        103.7348197,
        1.3410567
      ],
      [
        103.7347235,
        1.3411153
      ],
      [
        103.7343653,
        1.3413838
      ],
      [
        103.7338754,
        1.3417365
      ],
      [
        103.7336124,
        1.3419258
      ],
      [
        103.7333048,
        1.3421472
      ],
      [
        103.7327366,
        1.3425562
      ],
      [
        103.7326793,
        1.3425975
      ],
      [
        103.7323446,
        1.3428484
      ],
      [
        103.7320926,
        1.3430372
      ],
      [
        103.731556,
        1.3434378
      ],
      [
        103.7314507,
        1.3435184
      ],
      [
        103.7310994,
        1.3436963
      ],
      [
        103.7308059,
        1.3438313
      ]
    ]
  }
}