{
  "type": "Feature",
  "properties": {
    "relation": 1151986,
    "direction": "1",
    "fee": "yes",
    "from": "Hougang Central Interchange",
    "name": "Svc 89 (Hougang Central Interchange ↺ Airport Cargo Road)",
    "name:en": "Svc 89 (Hougang Central Interchange ↺ Airport Cargo Road)",
    "network": "Land Transport Authority",
    "network:short": "LTA",
    "network:wikidata": "Q3299279",
    "network:wikipedia": "en:Land Transport Authority",
    "operator": "SBS Transit",
    "operator:wikidata": "Q2661305",
    "operator:wikipedia": "en:SBS Transit",
    "public_transport:version": "2",
    "ref": "89",
    "roundtrip": "yes",
    "route": "bus",
    "to": "Hougang Central Interchange",
    "type": "route",
    "via": "Airport Cargo Road",
    "website": "https://www.sbstransit.com.sg/"
  },
  "geometry": {
    "type": "LineString",
    "coordinates": [
      [
        103.8920408,
        1.3708381
      ],
      [
        103.8925391,
        1.3710094
      ],
      [
        103.8928442,
        1.3710118
      ],
      [
        103.8928812,
        1.3710002
      ],
      [
        103.8928981,
        1.3709805
      ],
      [
        103.8929055,
        1.3709381
      ],
      [
        103.892904,
        1.3707869
      ],
      [
        103.8929028,
        1.3706501
      ],
      [
        103.8928884,
        1.3706247
      ],
      [
        103.8928621,
        1.3706079
      ],
      [
        103.8928155,
        1.3705961
      ],
      [
        103.8917973,
        1.3705948
      ],
      [
        103.8916485,
        1.3706126
      ],
      [
        103.8915955,
        1.3706672
      ],
      [
        103.8915925,
        1.3709755
      ],
      [
        103.891561,
        1.3711067
      ],
      [
        103.8915485,
        1.3711349
      ],
      [
        103.8915096,
        1.3711138
      ],
      [
        103.8914213,
        1.3709943
      ],
      [
        103.8913312,
        1.3708614
      ],
      [
        103.8913011,
        1.3708086
      ],
      [
        103.8912518,
        1.3707638
      ],
      [
        103.8911728,
        1.370689
      ],
      [
        103.8910583,
        1.3705692
      ],
      [
        103.8908875,
        1.3703866
      ],
      [
        103.8908113,
        1.3703142
      ],
      [
        103.8907824,
        1.3702829
      ],
      [
        103.8907122,
        1.3702074
      ],
      [
        103.8906261,
        1.3701154
      ],
      [
        103.8905602,
        1.3700037
      ],
      [
        103.8904884,
        1.3698525
      ],
      [
        103.8904148,
        1.3696951
      ],
      [
        103.8903585,
        1.3696093
      ],
      [
        103.8901895,
        1.3694913
      ],
      [
        103.8899047,
        1.3693291
      ],
      [
        103.8898376,
        1.3692867
      ],
      [
        103.8897474,
        1.3692363
      ],
      [
        103.8897142,
        1.369295
      ],
      [
        103.8896959,
        1.3693383
      ],
      [
        103.8894775,
        1.3697309
      ],
      [
        103.8893463,
        1.3700232
      ],
      [
        103.8892736,
        1.370173
      ],
      [
        103.8891959,
        1.3702917
      ],
      [
        103.8891664,
        1.3703305
      ],
      [
        103.8890042,
        1.3704798
      ],
      [
        103.8889703,
        1.3705107
      ],
      [
        103.8888921,
        1.3705749
      ],
      [
        103.8889477,
        1.3706502
      ],
      [
        103.8889784,
        1.3706937
      ],
      [
        103.8891073,
        1.3708778
      ],
      [
        103.8892481,
        1.3710828
      ],
      [
        103.889549,
        1.3714502
      ],
      [
        103.8896579,
        1.3715724
      ],
      [
        103.8899001,
        1.3718366
      ],
      [
        103.8899305,
        1.3718699
      ],
      [
        103.889973,
        1.3719164
      ],
      [
        103.8900352,
        1.3719848
      ],
      [
        103.8905149,
        1.372521
      ],
      [
        103.8908934,
        1.3729122
      ],
      [
        103.890998,
        1.3729792
      ],
      [
        103.8911267,
        1.3730449
      ],
      [
        103.8912353,
        1.3730771
      ],
      [
        103.8913603,
        1.3730783
      ],
      [
        103.8914161,
        1.3730788
      ],
      [
        103.8917398,
        1.3730773
      ],
      [
        103.8923409,
        1.3730723
      ],
      [
        103.8926357,
        1.3730731
      ],
      [
        103.892656,
        1.3730732
      ],
      [
        103.8926992,
        1.373073
      ],
      [
        103.8928206,
        1.3730715
      ],
      [
        103.892859,
        1.3730709
      ],
      [
        103.893182,
        1.3730647
      ],
      [
        103.8932754,
        1.3730635
      ],
      [
        103.8936844,
        1.3730563
      ],
      [
        103.89396,
        1.3730543
      ],
      [
        103.8940673,
        1.3731118
      ],
      [
        103.8941142,
        1.37316
      ],
      [
        103.8941504,
        1.3732177
      ],
      [
        103.8942205,
        1.3733115
      ],
      [
        103.8942396,
        1.3736402
      ],
      [
        103.8942651,
        1.3738244
      ],
      [
        103.8942906,
        1.3739036
      ],
      [
        103.8943166,
        1.3739566
      ],
      [
        103.8945528,
        1.374269
      ],
      [
        103.8946353,
        1.3743796
      ],
      [
        103.8947303,
        1.374501
      ],
      [
        103.8947935,
        1.37458
      ],
      [
        103.8948524,
        1.3746497
      ],
      [
        103.8953078,
        1.3751883
      ],
      [
        103.8953856,
        1.3752881
      ],
      [
        103.8955419,
        1.3754884
      ],
      [
        103.8957878,
        1.3758141
      ],
      [
        103.8958222,
        1.3758678
      ],
      [
        103.8959084,
        1.3759888
      ],
      [
        103.8961094,
        1.3762828
      ],
      [
        103.8961322,
        1.3763161
      ],
      [
        103.8961843,
        1.3763969
      ],
      [
        103.8962291,
        1.3764735
      ],
      [
        103.8963414,
        1.3766654
      ],
      [
        103.8966641,
        1.3771953
      ],
      [
        103.8967152,
        1.3774914
      ],
      [
        103.8967188,
        1.3781454
      ],
      [
        103.8967307,
        1.3783098
      ],
      [
        103.8967604,
        1.3786547
      ],
      [
        103.8967922,
        1.3789588
      ],
      [
        103.8968382,
        1.3792554
      ],
      [
        103.8968473,
        1.3793196
      ],
      [
        103.8968656,
        1.3794646
      ],
      [
        103.8968725,
        1.37952
      ],
      [
        103.8969004,
        1.3797488
      ],
      [
        103.8969263,
        1.3798939
      ],
      [
        103.8969993,
        1.3803062
      ],
      [
        103.8970294,
        1.3804511
      ],
      [
        103.8970531,
        1.3805666
      ],
      [
        103.8970976,
        1.3807829
      ],
      [
        103.8971211,
        1.3809332
      ],
      [
        103.8971243,
        1.3809448
      ],
      [
        103.8971255,
        1.3809509
      ],
      [
        103.8971312,
        1.3809728
      ],
      [
        103.8971663,
        1.3811105
      ],
      [
        103.8972907,
        1.3815824
      ],
      [
        103.8973217,
        1.3816838
      ],
      [
        103.8973597,
        1.3818038
      ],
      [
        103.8974061,
        1.381912
      ],
      [
        103.8975352,
        1.382125
      ],
      [
        103.8976673,
        1.3822955
      ],
      [
        103.8977429,
        1.3823914
      ],
      [
        103.8977882,
        1.3824484
      ],
      [
        103.8978714,
        1.3825392
      ],
      [
        103.8980052,
        1.3826608
      ],
      [
        103.8981444,
        1.382775
      ],
      [
        103.8981755,
        1.3828599
      ],
      [
        103.8981993,
        1.3829608
      ],
      [
        103.898201,
        1.3829712
      ],
      [
        103.8981996,
        1.3830852
      ],
      [
        103.8981826,
        1.3831592
      ],
      [
        103.8978023,
        1.38352
      ],
      [
        103.897566,
        1.3837443
      ],
      [
        103.8975313,
        1.3837772
      ],
      [
        103.8973403,
        1.3839631
      ],
      [
        103.8968685,
        1.3844344
      ],
      [
        103.8968258,
        1.3844811
      ],
      [
        103.8967703,
        1.3845478
      ],
      [
        103.8966174,
        1.3847279
      ],
      [
        103.8961561,
        1.3852367
      ],
      [
        103.8959732,
        1.3854353
      ],
      [
        103.8957923,
        1.3856314
      ],
      [
        103.8957639,
        1.3856622
      ],
      [
        103.8957193,
        1.3857062
      ],
      [
        103.8958003,
        1.3858153
      ],
      [
        103.8958186,
        1.3858487
      ],
      [
        103.8958886,
        1.3859762
      ],
      [
        103.8959677,
        1.3861491
      ],
      [
        103.8960799,
        1.3864331
      ],
      [
        103.8961182,
        1.3865488
      ],
      [
        103.896313,
        1.3871285
      ],
      [
        103.8963801,
        1.3873363
      ],
      [
        103.896484,
        1.3876523
      ],
      [
        103.8965797,
        1.3879385
      ],
      [
        103.896597,
        1.3879904
      ],
      [
        103.8966216,
        1.3880641
      ],
      [
        103.8966471,
        1.3881402
      ],
      [
        103.89672,
        1.3883582
      ],
      [
        103.8969044,
        1.3888473
      ],
      [
        103.8969639,
        1.3890007
      ],
      [
        103.8970197,
        1.3891624
      ],
      [
        103.8970974,
        1.3894132
      ],
      [
        103.8971972,
        1.3897002
      ],
      [
        103.8972176,
        1.3897571
      ],
      [
        103.897239,
        1.389826
      ],
      [
        103.8972652,
        1.3899023
      ],
      [
        103.8973084,
        1.390029
      ],
      [
        103.8973468,
        1.3901389
      ],
      [
        103.8975594,
        1.3907775
      ],
      [
        103.8976096,
        1.3909185
      ],
      [
        103.8976302,
        1.3909736
      ],
      [
        103.8976913,
        1.3911643
      ],
      [
        103.8977807,
        1.391432
      ],
      [
        103.8978542,
        1.3916536
      ],
      [
        103.8978827,
        1.3917589
      ],
      [
        103.8978996,
        1.3918212
      ],
      [
        103.8979284,
        1.3919003
      ],
      [
        103.8979523,
        1.3919794
      ],
      [
        103.8979907,
        1.3921061
      ],
      [
        103.8980833,
        1.3923659
      ],
      [
        103.8981664,
        1.3925972
      ],
      [
        103.8983715,
        1.3931762
      ],
      [
        103.8984347,
        1.3933542
      ],
      [
        103.8986182,
        1.3938711
      ],
      [
        103.8986787,
        1.3940278
      ],
      [
        103.8987605,
        1.3942222
      ],
      [
        103.8989189,
        1.3946193
      ],
      [
        103.8989988,
        1.3948386
      ],
      [
        103.8990196,
        1.3948975
      ],
      [
        103.8990629,
        1.3950205
      ],
      [
        103.8991386,
        1.3950011
      ],
      [
        103.899193,
        1.3949871
      ],
      [
        103.8994258,
        1.3949275
      ],
      [
        103.900126,
        1.3946883
      ],
      [
        103.9002547,
        1.3946378
      ],
      [
        103.9006823,
        1.3944823
      ],
      [
        103.900848,
        1.3944239
      ],
      [
        103.901093,
        1.3943457
      ],
      [
        103.9012444,
        1.3943343
      ],
      [
        103.9013274,
        1.394342
      ],
      [
        103.9013504,
        1.3943528
      ],
      [
        103.9014042,
        1.3943779
      ],
      [
        103.9015132,
        1.3944413
      ],
      [
        103.9016164,
        1.3945697
      ],
      [
        103.9016937,
        1.3946449
      ],
      [
        103.9018717,
        1.3948181
      ],
      [
        103.902069,
        1.3950117
      ],
      [
        103.9021273,
        1.3950689
      ],
      [
        103.902262,
        1.3952039
      ],
      [
        103.9023761,
        1.3953012
      ],
      [
        103.9025148,
        1.3954326
      ],
      [
        103.902686,
        1.3955679
      ],
      [
        103.9027628,
        1.3956382
      ],
      [
        103.902865,
        1.3957589
      ],
      [
        103.9030989,
        1.3960945
      ],
      [
        103.9033057,
        1.3964639
      ],
      [
        103.9033475,
        1.3965386
      ],
      [
        103.9033995,
        1.3966378
      ],
      [
        103.9036491,
        1.3971141
      ],
      [
        103.9037373,
        1.3972956
      ],
      [
        103.903827,
        1.397235
      ],
      [
        103.903889,
        1.3971932
      ],
      [
        103.9042112,
        1.3969641
      ],
      [
        103.9043574,
        1.3968283
      ],
      [
        103.9045343,
        1.3966667
      ],
      [
        103.904897,
        1.396363
      ],
      [
        103.9053372,
        1.3959463
      ],
      [
        103.9059416,
        1.3953595
      ],
      [
        103.9060462,
        1.3951853
      ],
      [
        103.9064441,
        1.3948354
      ],
      [
        103.9069777,
        1.3943434
      ],
      [
        103.907186,
        1.3941345
      ],
      [
        103.9082255,
        1.393071
      ],
      [
        103.9088331,
        1.3923736
      ],
      [
        103.9095217,
        1.3915719
      ],
      [
        103.9097173,
        1.391345
      ],
      [
        103.9097619,
        1.3912943
      ],
      [
        103.9100165,
        1.391
      ],
      [
        103.9105877,
        1.3903421
      ],
      [
        103.9111708,
        1.3896819
      ],
      [
        103.9121552,
        1.3885384
      ],
      [
        103.9129309,
        1.3876257
      ],
      [
        103.9131814,
        1.3873309
      ],
      [
        103.9137876,
        1.3866261
      ],
      [
        103.9144594,
        1.3858453
      ],
      [
        103.9148964,
        1.3853374
      ],
      [
        103.9151807,
        1.3850111
      ],
      [
        103.9158047,
        1.3842662
      ],
      [
        103.9164311,
        1.38358
      ],
      [
        103.9168516,
        1.3831384
      ],
      [
        103.9174174,
        1.3825638
      ],
      [
        103.9178167,
        1.3821509
      ],
      [
        103.9181936,
        1.3818229
      ],
      [
        103.9184251,
        1.3815926
      ],
      [
        103.9188484,
        1.3811631
      ],
      [
        103.9195864,
        1.3805479
      ],
      [
        103.920098,
        1.3801797
      ],
      [
        103.9202763,
        1.3800685
      ],
      [
        103.9204621,
        1.3799573
      ],
      [
        103.9207032,
        1.3798298
      ],
      [
        103.921643,
        1.3793294
      ],
      [
        103.9221225,
        1.3791235
      ],
      [
        103.9230225,
        1.3787723
      ],
      [
        103.9235173,
        1.3786074
      ],
      [
        103.9240149,
        1.3784639
      ],
      [
        103.9255255,
        1.378103
      ],
      [
        103.9271998,
        1.3776671
      ],
      [
        103.9281991,
        1.3773868
      ],
      [
        103.9284515,
        1.3773129
      ],
      [
        103.9285183,
        1.3773265
      ],
      [
        103.9285322,
        1.3773294
      ],
      [
        103.9285487,
        1.3773274
      ],
      [
        103.928584,
        1.3773158
      ],
      [
        103.9286497,
        1.3772985
      ],
      [
        103.9289803,
        1.3772159
      ],
      [
        103.9292931,
        1.377128
      ],
      [
        103.9308066,
        1.3766507
      ],
      [
        103.9310569,
        1.3765779
      ],
      [
        103.9312733,
        1.3765232
      ],
      [
        103.9315867,
        1.3764531
      ],
      [
        103.9317034,
        1.3764407
      ],
      [
        103.9317536,
        1.3764353
      ],
      [
        103.9319432,
        1.3764763
      ],
      [
        103.9321221,
        1.3765808
      ],
      [
        103.9322219,
        1.3766803
      ],
      [
        103.9325454,
        1.3773731
      ],
      [
        103.9327555,
        1.3777422
      ],
      [
        103.9327889,
        1.3778008
      ],
      [
        103.9331015,
        1.378286
      ],
      [
        103.9337868,
        1.3792585
      ],
      [
        103.9338452,
        1.379347
      ],
      [
        103.9340782,
        1.3796943
      ],
      [
        103.9342066,
        1.3798804
      ],
      [
        103.9342421,
        1.3799314
      ],
      [
        103.9343023,
        1.3800171
      ],
      [
        103.9344029,
        1.3799428
      ],
      [
        103.9344613,
        1.3799011
      ],
      [
        103.9346372,
        1.3797762
      ],
      [
        103.9351694,
        1.3793626
      ],
      [
        103.9354276,
        1.3791815
      ],
      [
        103.9355262,
        1.3791058
      ],
      [
        103.9360983,
        1.3786792
      ],
      [
        103.9363007,
        1.3785324
      ],
      [
        103.9369216,
        1.3780841
      ],
      [
        103.9370039,
        1.3780247
      ],
      [
        103.9370742,
        1.3779731
      ],
      [
        103.937122,
        1.3779372
      ],
      [
        103.9378017,
        1.3774271
      ],
      [
        103.9386891,
        1.376761
      ],
      [
        103.9389601,
        1.3765566
      ],
      [
        103.9391979,
        1.376378
      ],
      [
        103.9401028,
        1.3756891
      ],
      [
        103.9404264,
        1.3754266
      ],
      [
        103.9405941,
        1.3753045
      ],
      [
        103.9409651,
        1.3750442
      ],
      [
        103.9410147,
        1.3750066
      ],
      [
        103.9410862,
        1.374951
      ],
      [
        103.9411423,
        1.3749091
      ],
      [
        103.9417077,
        1.37449
      ],
      [
        103.9418207,
        1.3744135
      ],
      [
        103.9419642,
        1.3743155
      ],
      [
        103.9421606,
        1.3742072
      ],
      [
        103.9424715,
        1.3740652
      ],
      [
        103.9425928,
        1.3740129
      ],
      [
        103.9431028,
        1.3738138
      ],
      [
        103.9431843,
        1.3737825
      ],
      [
        103.9441864,
        1.3733982
      ],
      [
        103.9446129,
        1.3732226
      ],
      [
        103.9449244,
        1.3730963
      ],
      [
        103.9449919,
        1.3730689
      ],
      [
        103.9450801,
        1.3730333
      ],
      [
        103.9451156,
        1.3730191
      ],
      [
        103.9453246,
        1.3729488
      ],
      [
        103.9454915,
        1.3728656
      ],
      [
        103.9457938,
        1.3726637
      ],
      [
        103.9464526,
        1.3724029
      ],
      [
        103.9468894,
        1.3722318
      ],
      [
        103.9470159,
        1.3721843
      ],
      [
        103.9470879,
        1.3721748
      ],
      [
        103.947161,
        1.3721949
      ],
      [
        103.9472285,
        1.3722333
      ],
      [
        103.9473487,
        1.3724356
      ],
      [
        103.9474721,
        1.372575
      ],
      [
        103.9476919,
        1.3727698
      ],
      [
        103.9477909,
        1.372796
      ],
      [
        103.9478931,
        1.3727901
      ],
      [
        103.9479325,
        1.3727737
      ],
      [
        103.948208,
        1.3725995
      ],
      [
        103.9486933,
        1.3723047
      ],
      [
        103.9489643,
        1.3722075
      ],
      [
        103.9491639,
        1.3721478
      ],
      [
        103.949238,
        1.3721228
      ],
      [
        103.9493,
        1.3721071
      ],
      [
        103.9493684,
        1.3720872
      ],
      [
        103.949387,
        1.3720834
      ],
      [
        103.9494451,
        1.3720676
      ],
      [
        103.949756,
        1.3719998
      ],
      [
        103.9498593,
        1.3719864
      ],
      [
        103.9499491,
        1.3719958
      ],
      [
        103.950031,
        1.3720253
      ],
      [
        103.9500859,
        1.3720628
      ],
      [
        103.9501356,
        1.3721178
      ],
      [
        103.9503289,
        1.3723194
      ],
      [
        103.9503837,
        1.3723766
      ],
      [
        103.9506033,
        1.372604
      ],
      [
        103.9507364,
        1.3727419
      ],
      [
        103.9508885,
        1.3728999
      ],
      [
        103.9509641,
        1.3729785
      ],
      [
        103.9510193,
        1.3730436
      ],
      [
        103.9510596,
        1.373114
      ],
      [
        103.9510864,
        1.3731736
      ],
      [
        103.9511166,
        1.3732554
      ],
      [
        103.9511394,
        1.3733419
      ],
      [
        103.9511514,
        1.3734498
      ],
      [
        103.9511541,
        1.3735792
      ],
      [
        103.9511554,
        1.3736433
      ],
      [
        103.9511521,
        1.3737737
      ],
      [
        103.951151,
        1.373828
      ],
      [
        103.9511474,
        1.3739975
      ],
      [
        103.9511452,
        1.3741055
      ],
      [
        103.9511421,
        1.3742517
      ],
      [
        103.9511351,
        1.3747391
      ],
      [
        103.9511344,
        1.3748107
      ],
      [
        103.9511345,
        1.374929
      ],
      [
        103.9512397,
        1.3749286
      ],
      [
        103.951308,
        1.3749314
      ],
      [
        103.951636,
        1.3749591
      ],
      [
        103.9521098,
        1.3750272
      ],
      [
        103.9524404,
        1.375074
      ],
      [
        103.9524826,
        1.37508
      ],
      [
        103.9525104,
        1.3750846
      ],
      [
        103.9525853,
        1.3750945
      ],
      [
        103.9526076,
        1.3750985
      ],
      [
        103.9529046,
        1.3751402
      ],
      [
        103.9533163,
        1.3751923
      ],
      [
        103.9534092,
        1.3752015
      ],
      [
        103.9541549,
        1.3752684
      ],
      [
        103.9543404,
        1.375286
      ],
      [
        103.9547851,
        1.3753562
      ],
      [
        103.9552504,
        1.3754303
      ],
      [
        103.9553757,
        1.3754426
      ],
      [
        103.9554675,
        1.3754568
      ],
      [
        103.956017,
        1.3755297
      ],
      [
        103.9561145,
        1.3755424
      ],
      [
        103.95621,
        1.3755501
      ],
      [
        103.9562898,
        1.3755541
      ],
      [
        103.9565241,
        1.3755676
      ],
      [
        103.9566552,
        1.3755792
      ],
      [
        103.9571159,
        1.3756034
      ],
      [
        103.9575938,
        1.3756061
      ],
      [
        103.9585597,
        1.3755916
      ],
      [
        103.95879,
        1.3755819
      ],
      [
        103.9589911,
        1.3755717
      ],
      [
        103.9590806,
        1.3755658
      ],
      [
        103.9591579,
        1.3755577
      ],
      [
        103.9593324,
        1.3755333
      ],
      [
        103.9597406,
        1.375483
      ],
      [
        103.9604602,
        1.375335
      ],
      [
        103.9607196,
        1.3752883
      ],
      [
        103.9611352,
        1.375215
      ],
      [
        103.9612816,
        1.375185
      ],
      [
        103.9613897,
        1.3751661
      ],
      [
        103.961522,
        1.3751436
      ],
      [
        103.9621552,
        1.3750359
      ],
      [
        103.9624917,
        1.3749599
      ],
      [
        103.9627223,
        1.3748866
      ],
      [
        103.9629355,
        1.3747835
      ],
      [
        103.963263,
        1.374565
      ],
      [
        103.9634601,
        1.374399
      ],
      [
        103.9636177,
        1.3742197
      ],
      [
        103.9636938,
        1.3740986
      ],
      [
        103.9637428,
        1.3740011
      ],
      [
        103.963773,
        1.3739276
      ],
      [
        103.9638527,
        1.3737499
      ],
      [
        103.963897,
        1.3736103
      ],
      [
        103.9639391,
        1.3733758
      ],
      [
        103.9639454,
        1.3731584
      ],
      [
        103.9639278,
        1.3729705
      ],
      [
        103.9638799,
        1.3722499
      ],
      [
        103.9638304,
        1.3715061
      ],
      [
        103.9638341,
        1.3713847
      ],
      [
        103.963832,
        1.3712904
      ],
      [
        103.9637887,
        1.3706099
      ],
      [
        103.9637961,
        1.3704257
      ],
      [
        103.9638387,
        1.3701674
      ],
      [
        103.9639068,
        1.3699463
      ],
      [
        103.9640369,
        1.3696741
      ],
      [
        103.964667,
        1.3686265
      ],
      [
        103.9647335,
        1.3685046
      ],
      [
        103.9649051,
        1.3682324
      ],
      [
        103.9650371,
        1.3680181
      ],
      [
        103.9650883,
        1.3679303
      ],
      [
        103.9651402,
        1.3678483
      ],
      [
        103.9651783,
        1.3677867
      ],
      [
        103.9652537,
        1.3676402
      ],
      [
        103.9653307,
        1.367499
      ],
      [
        103.9655047,
        1.3672302
      ],
      [
        103.9655993,
        1.3670977
      ],
      [
        103.9657846,
        1.3668028
      ],
      [
        103.9660185,
        1.3664754
      ],
      [
        103.9661144,
        1.3663483
      ],
      [
        103.966315,
        1.3661348
      ],
      [
        103.9664167,
        1.3660936
      ],
      [
        103.9665274,
        1.3660804
      ],
      [
        103.9666147,
        1.3660652
      ],
      [
        103.9667661,
        1.366049
      ],
      [
        103.9668347,
        1.3660784
      ],
      [
        103.96691,
        1.3661273
      ],
      [
        103.9693942,
        1.3686302
      ],
      [
        103.9695129,
        1.3689521
      ],
      [
        103.9695718,
        1.3691506
      ],
      [
        103.9695959,
        1.3692979
      ],
      [
        103.9695907,
        1.3694159
      ],
      [
        103.9695498,
        1.3695631
      ],
      [
        103.9694954,
        1.3696567
      ],
      [
        103.9694672,
        1.3697541
      ],
      [
        103.9689206,
        1.3703301
      ],
      [
        103.9688524,
        1.3704048
      ],
      [
        103.968814,
        1.3704439
      ],
      [
        103.9687594,
        1.3704979
      ],
      [
        103.9689938,
        1.3707317
      ],
      [
        103.9692135,
        1.3709508
      ],
      [
        103.9692928,
        1.3710299
      ],
      [
        103.969389,
        1.3711258
      ],
      [
        103.9696874,
        1.3714235
      ],
      [
        103.9697326,
        1.3714685
      ],
      [
        103.9698523,
        1.3715879
      ],
      [
        103.96993,
        1.3716659
      ],
      [
        103.9702378,
        1.3719751
      ],
      [
        103.9706091,
        1.3723479
      ],
      [
        103.9706972,
        1.3724364
      ],
      [
        103.9707603,
        1.3724997
      ],
      [
        103.9714904,
        1.3732328
      ],
      [
        103.9716911,
        1.3734343
      ],
      [
        103.9719741,
        1.3737185
      ],
      [
        103.9721267,
        1.3738717
      ],
      [
        103.9726155,
        1.3743625
      ],
      [
        103.9731557,
        1.3749049
      ],
      [
        103.9732848,
        1.3750346
      ],
      [
        103.9734592,
        1.3752097
      ],
      [
        103.9735302,
        1.375281
      ],
      [
        103.9735896,
        1.3753406
      ],
      [
        103.9736561,
        1.3754074
      ],
      [
        103.9737052,
        1.3753534
      ],
      [
        103.9737715,
        1.3752881
      ],
      [
        103.9743833,
        1.3746188
      ],
      [
        103.9745564,
        1.3744293
      ],
      [
        103.9745852,
        1.3743958
      ],
      [
        103.9746947,
        1.3743624
      ],
      [
        103.9747948,
        1.3743635
      ],
      [
        103.9748894,
        1.3743897
      ],
      [
        103.974995,
        1.3744277
      ],
      [
        103.9750522,
        1.374443
      ],
      [
        103.9754962,
        1.3749502
      ],
      [
        103.9763848,
        1.375836
      ],
      [
        103.9768778,
        1.3763687
      ],
      [
        103.9772521,
        1.3767412
      ],
      [
        103.9773167,
        1.3768055
      ],
      [
        103.9778658,
        1.377312
      ],
      [
        103.977989,
        1.3773962
      ],
      [
        103.9781314,
        1.3775081
      ],
      [
        103.9782464,
        1.377667
      ],
      [
        103.9783653,
        1.3779119
      ],
      [
        103.9784745,
        1.3783256
      ],
      [
        103.9785202,
        1.3787801
      ],
      [
        103.9785028,
        1.3793013
      ],
      [
        103.9784991,
        1.3794742
      ],
      [
        103.9784366,
        1.3804479
      ],
      [
        103.9783741,
        1.3815408
      ],
      [
        103.9783488,
        1.3819927
      ],
      [
        103.9783051,
        1.3827589
      ],
      [
        103.9782264,
        1.3841167
      ],
      [
        103.978222,
        1.3845661
      ],
      [
        103.978237,
        1.3847903
      ],
      [
        103.9782658,
        1.384984
      ],
      [
        103.978353,
        1.385284
      ],
      [
        103.9784318,
        1.3855022
      ],
      [
        103.9785383,
        1.3857331
      ],
      [
        103.9786246,
        1.3858876
      ],
      [
        103.9787064,
        1.386014
      ],
      [
        103.9788363,
        1.3861959
      ],
      [
        103.9789397,
        1.3863165
      ],
      [
        103.9790737,
        1.3864546
      ],
      [
        103.9791846,
        1.3865566
      ],
      [
        103.9794835,
        1.3867994
      ],
      [
        103.9797719,
        1.3869909
      ],
      [
        103.9799796,
        1.3871035
      ],
      [
        103.980023,
        1.3871262
      ],
      [
        103.9801152,
        1.3871681
      ],
      [
        103.9801773,
        1.3871986
      ],
      [
        103.9801871,
        1.3872031
      ],
      [
        103.9803622,
        1.387283
      ],
      [
        103.9811203,
        1.3875882
      ],
      [
        103.981223,
        1.3876235
      ],
      [
        103.9816055,
        1.3877551
      ],
      [
        103.9819653,
        1.3878746
      ],
      [
        103.9821846,
        1.3879282
      ],
      [
        103.9823516,
        1.387955
      ],
      [
        103.9824387,
        1.3879631
      ],
      [
        103.9825232,
        1.3879677
      ],
      [
        103.9826455,
        1.3879619
      ],
      [
        103.9829803,
        1.3879505
      ],
      [
        103.9839195,
        1.3878827
      ],
      [
        103.9842972,
        1.3878376
      ],
      [
        103.9851441,
        1.387746
      ],
      [
        103.9851625,
        1.3877425
      ],
      [
        103.9860566,
        1.3876518
      ],
      [
        103.9864086,
        1.387616
      ],
      [
        103.9865725,
        1.3875999
      ],
      [
        103.9869374,
        1.3875753
      ],
      [
        103.9872411,
        1.387566
      ],
      [
        103.9872886,
        1.3875645
      ],
      [
        103.9874022,
        1.3875608
      ],
      [
        103.9874488,
        1.387562
      ],
      [
        103.9877513,
        1.3875707
      ],
      [
        103.9878596,
        1.387578
      ],
      [
        103.9880023,
        1.3875877
      ],
      [
        103.9880539,
        1.3875983
      ],
      [
        103.9883208,
        1.3876668
      ],
      [
        103.9884381,
        1.3877056
      ],
      [
        103.9886443,
        1.3878067
      ],
      [
        103.9887248,
        1.3878488
      ],
      [
        103.9888706,
        1.3879418
      ],
      [
        103.9889914,
        1.3880123
      ],
      [
        103.9891523,
        1.3881338
      ],
      [
        103.9891963,
        1.3881664
      ],
      [
        103.9893572,
        1.3882937
      ],
      [
        103.9895049,
        1.3884504
      ],
      [
        103.9896614,
        1.3886506
      ],
      [
        103.9897892,
        1.3888723
      ],
      [
        103.9898735,
        1.3890653
      ],
      [
        103.9899266,
        1.3892257
      ],
      [
        103.9900806,
        1.3897
      ],
      [
        103.9901318,
        1.3898403
      ],
      [
        103.9901627,
        1.3901031
      ],
      [
        103.9902076,
        1.3902964
      ],
      [
        103.9902089,
        1.3903021
      ],
      [
        103.990307,
        1.3907658
      ],
      [
        103.9903358,
        1.3910434
      ],
      [
        103.9903326,
        1.3910452
      ],
      [
        103.9903295,
        1.3910472
      ],
      [
        103.9903264,
        1.3910494
      ],
      [
        103.9903235,
        1.3910516
      ],
      [
        103.9903206,
        1.391054
      ],
      [
        103.9903179,
        1.3910564
      ],
      [
        103.9903152,
        1.391059
      ],
      [
        103.9903127,
        1.3910617
      ],
      [
        103.9903102,
        1.3910644
      ],
      [
        103.9903079,
        1.3910673
      ],
      [
        103.9903057,
        1.3910702
      ],
      [
        103.9903036,
        1.3910733
      ],
      [
        103.9903016,
        1.3910764
      ],
      [
        103.9902997,
        1.3910796
      ],
      [
        103.990298,
        1.3910829
      ],
      [
        103.9902964,
        1.3910862
      ],
      [
        103.9902949,
        1.3910896
      ],
      [
        103.9902936,
        1.391093
      ],
      [
        103.9902924,
        1.3910965
      ],
      [
        103.9902913,
        1.3911001
      ],
      [
        103.9902904,
        1.3911037
      ],
      [
        103.9902896,
        1.3911076
      ],
      [
        103.9902889,
        1.3911117
      ],
      [
        103.9902884,
        1.3911157
      ],
      [
        103.9902881,
        1.3911197
      ],
      [
        103.9902879,
        1.3911238
      ],
      [
        103.9902879,
        1.3911279
      ],
      [
        103.9902881,
        1.3911319
      ],
      [
        103.9902885,
        1.391136
      ],
      [
        103.9902891,
        1.39114
      ],
      [
        103.9902898,
        1.391144
      ],
      [
        103.9902907,
        1.391148
      ],
      [
        103.9902918,
        1.3911519
      ],
      [
        103.990293,
        1.3911558
      ],
      [
        103.9902944,
        1.3911596
      ],
      [
        103.990296,
        1.3911633
      ],
      [
        103.9902977,
        1.391167
      ],
      [
        103.9902996,
        1.3911706
      ],
      [
        103.9903017,
        1.3911741
      ],
      [
        103.9903039,
        1.3911776
      ],
      [
        103.9903062,
        1.3911809
      ],
      [
        103.9903087,
        1.3911841
      ],
      [
        103.9903113,
        1.3911872
      ],
      [
        103.9903141,
        1.3911902
      ],
      [
        103.990317,
        1.3911931
      ],
      [
        103.99032,
        1.3911958
      ],
      [
        103.9903231,
        1.3911984
      ],
      [
        103.9903263,
        1.3912009
      ],
      [
        103.9903296,
        1.3912033
      ],
      [
        103.9903331,
        1.3912054
      ],
      [
        103.9903366,
        1.3912075
      ],
      [
        103.9903402,
        1.3912094
      ],
      [
        103.9903439,
        1.3912111
      ],
      [
        103.9903476,
        1.3912126
      ],
      [
        103.9903514,
        1.391214
      ],
      [
        103.9903553,
        1.3912153
      ],
      [
        103.9903593,
        1.3912163
      ],
      [
        103.9903632,
        1.3912172
      ],
      [
        103.9903672,
        1.391218
      ],
      [
        103.9903713,
        1.3912185
      ],
      [
        103.9903753,
        1.3912189
      ],
      [
        103.9903794,
        1.3912191
      ],
      [
        103.9903834,
        1.3912191
      ],
      [
        103.9903875,
        1.3912189
      ],
      [
        103.9903916,
        1.3912186
      ],
      [
        103.9903956,
        1.3912181
      ],
      [
        103.9903996,
        1.3912174
      ],
      [
        103.9904036,
        1.3912166
      ],
      [
        103.9904075,
        1.3912155
      ],
      [
        103.9904114,
        1.3912143
      ],
      [
        103.9904152,
        1.391213
      ],
      [
        103.990419,
        1.3912114
      ],
      [
        103.9904227,
        1.3912098
      ],
      [
        103.9904263,
        1.3912079
      ],
      [
        103.9904299,
        1.3912059
      ],
      [
        103.9904333,
        1.3912037
      ],
      [
        103.9904367,
        1.3912014
      ],
      [
        103.9904399,
        1.391199
      ],
      [
        103.9904431,
        1.3911964
      ],
      [
        103.9904461,
        1.3911937
      ],
      [
        103.990449,
        1.3911909
      ],
      [
        103.9904518,
        1.3911879
      ],
      [
        103.9907075,
        1.3911545
      ],
      [
        103.9908056,
        1.3911427
      ],
      [
        103.9909278,
        1.3911136
      ],
      [
        103.9911383,
        1.3910554
      ],
      [
        103.9913831,
        1.3909504
      ],
      [
        103.9915523,
        1.3908778
      ],
      [
        103.9916389,
        1.3908342
      ],
      [
        103.991693,
        1.3908214
      ],
      [
        103.9917587,
        1.390796
      ],
      [
        103.9917943,
        1.3907645
      ],
      [
        103.9918064,
        1.3907363
      ],
      [
        103.9918096,
        1.3907106
      ],
      [
        103.9918985,
        1.3906759
      ],
      [
        103.9920065,
        1.3906413
      ],
      [
        103.9921099,
        1.3905974
      ],
      [
        103.992213,
        1.3905453
      ],
      [
        103.9923422,
        1.3904808
      ],
      [
        103.9924973,
        1.3903988
      ],
      [
        103.9929426,
        1.3901883
      ],
      [
        103.993164,
        1.3901036
      ],
      [
        103.9935907,
        1.390006
      ],
      [
        103.9937764,
        1.3899876
      ],
      [
        103.994496,
        1.3899123
      ],
      [
        103.994569,
        1.3899057
      ],
      [
        103.994806,
        1.3898859
      ],
      [
        103.9953038,
        1.3898396
      ],
      [
        103.9953996,
        1.3898297
      ],
      [
        103.9957601,
        1.3897925
      ],
      [
        103.9959898,
        1.3897711
      ],
      [
        103.9962104,
        1.3897463
      ],
      [
        103.9964446,
        1.389721
      ],
      [
        103.9969764,
        1.3896538
      ],
      [
        103.9972492,
        1.3896195
      ],
      [
        103.9974292,
        1.3895767
      ],
      [
        103.9976665,
        1.3894976
      ],
      [
        103.997835,
        1.3894126
      ],
      [
        103.997878,
        1.3893909
      ],
      [
        103.9980757,
        1.3892684
      ],
      [
        103.9983322,
        1.3890732
      ],
      [
        103.9984039,
        1.3890108
      ],
      [
        103.9985763,
        1.3888124
      ],
      [
        103.9987727,
        1.3885436
      ],
      [
        103.9989126,
        1.3883271
      ],
      [
        103.9990725,
        1.388071
      ],
      [
        103.999226,
        1.387827
      ],
      [
        103.9992808,
        1.3877424
      ],
      [
        103.9994301,
        1.3875121
      ],
      [
        103.999594,
        1.3872486
      ],
      [
        103.9997833,
        1.3869403
      ],
      [
        103.9998306,
        1.3868584
      ],
      [
        104.0000522,
        1.3865201
      ],
      [
        104.0001219,
        1.3864137
      ],
      [
        104.00018,
        1.3863223
      ],
      [
        104.0000581,
        1.3862843
      ],
      [
        103.9999989,
        1.3862645
      ],
      [
        103.9998944,
        1.3862296
      ],
      [
        103.9997777,
        1.3861953
      ],
      [
        103.9997436,
        1.3861649
      ],
      [
        103.9997089,
        1.3861168
      ],
      [
        103.9996946,
        1.3860679
      ],
      [
        103.9996946,
        1.3859986
      ],
      [
        103.9997164,
        1.3859102
      ],
      [
        103.9997749,
        1.3857386
      ],
      [
        103.999857,
        1.3854928
      ],
      [
        103.9998585,
        1.3854665
      ],
      [
        103.9998556,
        1.3854391
      ],
      [
        103.9998303,
        1.3853365
      ],
      [
        103.999601,
        1.3847611
      ],
      [
        103.999506,
        1.384538
      ],
      [
        103.9991231,
        1.3836627
      ],
      [
        103.998709,
        1.3827591
      ],
      [
        103.9984751,
        1.3822222
      ],
      [
        103.9983542,
        1.3819654
      ],
      [
        103.9979741,
        1.3810778
      ],
      [
        103.997021,
        1.378754
      ],
      [
        103.9964961,
        1.3775213
      ],
      [
        103.9959517,
        1.3762428
      ],
      [
        103.9957589,
        1.3757899
      ],
      [
        103.9956712,
        1.3755839
      ],
      [
        103.9956494,
        1.3755205
      ],
      [
        103.9956555,
        1.3754407
      ],
      [
        103.9956795,
        1.3753744
      ],
      [
        103.9957485,
        1.3753122
      ],
      [
        103.996365,
        1.3750526
      ],
      [
        103.9966337,
        1.3749394
      ],
      [
        103.9966979,
        1.3749124
      ],
      [
        103.9967402,
        1.3748676
      ],
      [
        103.9967672,
        1.3748119
      ],
      [
        103.9967765,
        1.3747485
      ],
      [
        103.9967537,
        1.3746759
      ],
      [
        103.9963601,
        1.373717
      ],
      [
        103.9963122,
        1.3736372
      ],
      [
        103.9962505,
        1.3735627
      ],
      [
        103.9961334,
        1.373485
      ],
      [
        103.9960394,
        1.3734137
      ],
      [
        103.9959673,
        1.3733531
      ],
      [
        103.9958892,
        1.3732528
      ],
      [
        103.9957842,
        1.373054
      ],
      [
        103.9954507,
        1.3722428
      ],
      [
        103.9953766,
        1.3720335
      ],
      [
        103.9953564,
        1.3719844
      ],
      [
        103.9953052,
        1.3720016
      ],
      [
        103.9942994,
        1.372422
      ],
      [
        103.9940817,
        1.372513
      ],
      [
        103.9942714,
        1.3729497
      ],
      [
        103.9947629,
        1.3741147
      ],
      [
        103.9953998,
        1.3757001
      ],
      [
        103.9956448,
        1.3761943
      ],
      [
        103.9958373,
        1.3764992
      ],
      [
        103.9959269,
        1.3766412
      ],
      [
        103.996011,
        1.3767817
      ],
      [
        103.996341,
        1.377596
      ],
      [
        103.9968426,
        1.3788335
      ],
      [
        103.9969982,
        1.3791941
      ],
      [
        103.9979984,
        1.3815734
      ],
      [
        103.9983113,
        1.382318
      ],
      [
        103.9984229,
        1.3823882
      ],
      [
        103.9984915,
        1.3825357
      ],
      [
        103.9987493,
        1.3831345
      ],
      [
        103.9990333,
        1.3837589
      ],
      [
        103.999044,
        1.3838057
      ],
      [
        103.9990419,
        1.3838589
      ],
      [
        103.999028,
        1.383927
      ],
      [
        103.9990262,
        1.3839617
      ],
      [
        103.9990323,
        1.3839946
      ],
      [
        103.9992341,
        1.3845013
      ],
      [
        103.999313,
        1.384697
      ],
      [
        103.9993445,
        1.3847748
      ],
      [
        103.9993896,
        1.3848811
      ],
      [
        103.9994151,
        1.3849565
      ],
      [
        103.9994264,
        1.3849993
      ],
      [
        103.9994272,
        1.3850302
      ],
      [
        103.9994144,
        1.3850752
      ],
      [
        103.9993863,
        1.3851087
      ],
      [
        103.9993521,
        1.3851357
      ],
      [
        103.999267,
        1.3851489
      ],
      [
        103.9991771,
        1.3851777
      ],
      [
        103.9991057,
        1.3852114
      ],
      [
        103.999066,
        1.3852477
      ],
      [
        103.9990331,
        1.3852984
      ],
      [
        103.9990229,
        1.3853592
      ],
      [
        103.9990263,
        1.3854082
      ],
      [
        103.9990474,
        1.3854918
      ],
      [
        103.9993228,
        1.386083
      ],
      [
        103.9993575,
        1.3861556
      ],
      [
        103.9994099,
        1.3861962
      ],
      [
        103.9994766,
        1.3862165
      ],
      [
        103.999627,
        1.3862688
      ],
      [
        103.9997613,
        1.3863063
      ],
      [
        103.9998112,
        1.386371
      ],
      [
        103.9998399,
        1.3864234
      ],
      [
        103.9998432,
        1.3864349
      ],
      [
        103.9998543,
        1.3864741
      ],
      [
        103.9998475,
        1.3865509
      ],
      [
        103.9997982,
        1.3866894
      ],
      [
        103.9995843,
        1.3870587
      ],
      [
        103.9991954,
        1.3876878
      ],
      [
        103.9991429,
        1.3877727
      ],
      [
        103.999067,
        1.3878848
      ],
      [
        103.998811,
        1.3882634
      ],
      [
        103.9986313,
        1.3885539
      ],
      [
        103.9984998,
        1.3887326
      ],
      [
        103.9983261,
        1.3889404
      ],
      [
        103.9982005,
        1.3890617
      ],
      [
        103.9980504,
        1.3891766
      ],
      [
        103.997796,
        1.3893266
      ],
      [
        103.9976236,
        1.3894118
      ],
      [
        103.9973937,
        1.389499
      ],
      [
        103.9971542,
        1.3895459
      ],
      [
        103.9962164,
        1.3896455
      ],
      [
        103.9953871,
        1.3897359
      ],
      [
        103.9949547,
        1.3897771
      ],
      [
        103.9948114,
        1.3897908
      ],
      [
        103.9944701,
        1.3898254
      ],
      [
        103.9937469,
        1.3898955
      ],
      [
        103.9935027,
        1.3899251
      ],
      [
        103.9931141,
        1.3900222
      ],
      [
        103.9927736,
        1.3901514
      ],
      [
        103.9924532,
        1.3903018
      ],
      [
        103.9923327,
        1.3903596
      ],
      [
        103.9922214,
        1.3904199
      ],
      [
        103.9921147,
        1.3904756
      ],
      [
        103.991868,
        1.3905915
      ],
      [
        103.991809,
        1.3906089
      ],
      [
        103.9917299,
        1.3906297
      ],
      [
        103.991669,
        1.3906447
      ],
      [
        103.9915583,
        1.3906565
      ],
      [
        103.9913765,
        1.3906532
      ],
      [
        103.9911894,
        1.3906291
      ],
      [
        103.9910191,
        1.3905781
      ],
      [
        103.9908709,
        1.3905164
      ],
      [
        103.9907303,
        1.3904387
      ],
      [
        103.9906155,
        1.3903549
      ],
      [
        103.990523,
        1.3902722
      ],
      [
        103.9904404,
        1.390186
      ],
      [
        103.9903603,
        1.3900747
      ],
      [
        103.9902741,
        1.3899366
      ],
      [
        103.9901512,
        1.3896666
      ],
      [
        103.9900904,
        1.3894986
      ],
      [
        103.9899138,
        1.3889763
      ],
      [
        103.989851,
        1.3888374
      ],
      [
        103.9897706,
        1.3886946
      ],
      [
        103.9896722,
        1.3885285
      ],
      [
        103.9895604,
        1.3884011
      ],
      [
        103.9894436,
        1.388278
      ],
      [
        103.989243,
        1.3880872
      ],
      [
        103.9891995,
        1.3880568
      ],
      [
        103.9890209,
        1.3879322
      ],
      [
        103.9889214,
        1.3878675
      ],
      [
        103.9887641,
        1.3877666
      ],
      [
        103.9887354,
        1.3877487
      ],
      [
        103.9886875,
        1.3877162
      ],
      [
        103.9886262,
        1.3876747
      ],
      [
        103.9884553,
        1.3876062
      ],
      [
        103.9880756,
        1.3875008
      ],
      [
        103.9874537,
        1.3874523
      ],
      [
        103.9874,
        1.3874477
      ],
      [
        103.9872927,
        1.3874445
      ],
      [
        103.9872375,
        1.3874479
      ],
      [
        103.9869824,
        1.3874634
      ],
      [
        103.9865098,
        1.3874698
      ],
      [
        103.985973,
        1.3875297
      ],
      [
        103.985251,
        1.3876227
      ],
      [
        103.9851402,
        1.3876306
      ],
      [
        103.9834559,
        1.3878102
      ],
      [
        103.9828754,
        1.3878457
      ],
      [
        103.9826429,
        1.387856
      ],
      [
        103.9824719,
        1.3878512
      ],
      [
        103.9823527,
        1.3878422
      ],
      [
        103.9822143,
        1.3878209
      ],
      [
        103.9820546,
        1.3877853
      ],
      [
        103.9815831,
        1.3876366
      ],
      [
        103.9809705,
        1.3874108
      ],
      [
        103.9808016,
        1.3873434
      ],
      [
        103.9807122,
        1.3873016
      ],
      [
        103.9802426,
        1.3870925
      ],
      [
        103.9801644,
        1.3870566
      ],
      [
        103.9800809,
        1.3870116
      ],
      [
        103.9800401,
        1.3869898
      ],
      [
        103.9799162,
        1.386923
      ],
      [
        103.9797521,
        1.386822
      ],
      [
        103.979562,
        1.3866945
      ],
      [
        103.9793034,
        1.3865028
      ],
      [
        103.9790441,
        1.3862435
      ],
      [
        103.9788363,
        1.3859834
      ],
      [
        103.9786555,
        1.3856776
      ],
      [
        103.9785161,
        1.3853592
      ],
      [
        103.9784223,
        1.3850653
      ],
      [
        103.9783792,
        1.3848803
      ],
      [
        103.9783598,
        1.3847165
      ],
      [
        103.9783488,
        1.3845019
      ],
      [
        103.9783509,
        1.3841124
      ],
      [
        103.9784518,
        1.3823381
      ],
      [
        103.9786144,
        1.379474
      ],
      [
        103.9786335,
        1.3791942
      ],
      [
        103.9786474,
        1.3787316
      ],
      [
        103.9786468,
        1.3786301
      ],
      [
        103.9786128,
        1.3783885
      ],
      [
        103.9785659,
        1.3781725
      ],
      [
        103.9785212,
        1.3780012
      ],
      [
        103.9784563,
        1.3778155
      ],
      [
        103.9783797,
        1.3776372
      ],
      [
        103.9783009,
        1.3774851
      ],
      [
        103.9782051,
        1.3773308
      ],
      [
        103.9780999,
        1.3771835
      ],
      [
        103.9779603,
        1.3770126
      ],
      [
        103.9775317,
        1.3765695
      ],
      [
        103.9773551,
        1.3763835
      ],
      [
        103.9757529,
        1.3746961
      ],
      [
        103.9754912,
        1.3744071
      ],
      [
        103.9752635,
        1.3741555
      ],
      [
        103.9750858,
        1.3739713
      ],
      [
        103.9750486,
        1.3739351
      ],
      [
        103.9749661,
        1.3738513
      ],
      [
        103.9747669,
        1.3740465
      ],
      [
        103.9747077,
        1.3741068
      ],
      [
        103.9746488,
        1.3741692
      ],
      [
        103.9736517,
        1.3751582
      ],
      [
        103.9735806,
        1.3752308
      ],
      [
        103.9735086,
        1.3751583
      ],
      [
        103.9729177,
        1.3745635
      ],
      [
        103.9726713,
        1.3743154
      ],
      [
        103.9721862,
        1.3738271
      ],
      [
        103.9717435,
        1.3733815
      ],
      [
        103.9715413,
        1.3731779
      ],
      [
        103.9706766,
        1.3723075
      ],
      [
        103.9703373,
        1.3719589
      ],
      [
        103.9699863,
        1.3716126
      ],
      [
        103.9699085,
        1.3715343
      ],
      [
        103.9697887,
        1.3714149
      ],
      [
        103.9692668,
        1.370895
      ],
      [
        103.9689187,
        1.3705482
      ],
      [
        103.9688955,
        1.3704499
      ],
      [
        103.9689003,
        1.3703923
      ],
      [
        103.9689206,
        1.3703301
      ],
      [
        103.9689206,
        1.3703301
      ],
      [
        103.9695427,
        1.369671
      ],
      [
        103.969591,
        1.3695718
      ],
      [
        103.9696231,
        1.3694163
      ],
      [
        103.9696285,
        1.3692929
      ],
      [
        103.9696017,
        1.3691441
      ],
      [
        103.9695461,
        1.3689415
      ],
      [
        103.9694743,
        1.3687432
      ],
      [
        103.9693942,
        1.3686302
      ],
      [
        103.9693942,
        1.3686302
      ],
      [
        103.9668659,
        1.3660258
      ],
      [
        103.9666786,
        1.3658507
      ],
      [
        103.9666186,
        1.3657946
      ],
      [
        103.9665627,
        1.3657424
      ],
      [
        103.9664706,
        1.36584
      ],
      [
        103.9663994,
        1.3659155
      ],
      [
        103.966206,
        1.3661205
      ],
      [
        103.9660991,
        1.3662626
      ],
      [
        103.9658878,
        1.3665218
      ],
      [
        103.9657684,
        1.3666823
      ],
      [
        103.9654837,
        1.3671276
      ],
      [
        103.9653298,
        1.3673575
      ],
      [
        103.9650792,
        1.3677241
      ],
      [
        103.9650374,
        1.3677936
      ],
      [
        103.9649842,
        1.3678745
      ],
      [
        103.9649368,
        1.367945
      ],
      [
        103.9648547,
        1.3680712
      ],
      [
        103.964712,
        1.3683137
      ],
      [
        103.9639371,
        1.369631
      ],
      [
        103.9637884,
        1.3699452
      ],
      [
        103.9637033,
        1.3702858
      ],
      [
        103.9636873,
        1.3706446
      ],
      [
        103.963724,
        1.3711564
      ],
      [
        103.9637335,
        1.3713273
      ],
      [
        103.9637426,
        1.3715054
      ],
      [
        103.9637518,
        1.3716854
      ],
      [
        103.9638247,
        1.3729693
      ],
      [
        103.9638293,
        1.3732231
      ],
      [
        103.9638234,
        1.3734007
      ],
      [
        103.9637586,
        1.373622
      ],
      [
        103.9636642,
        1.3738735
      ],
      [
        103.9636269,
        1.3739541
      ],
      [
        103.9635714,
        1.3740476
      ],
      [
        103.9633884,
        1.3742854
      ],
      [
        103.9631495,
        1.3745138
      ],
      [
        103.9628514,
        1.3746864
      ],
      [
        103.9627164,
        1.374744
      ],
      [
        103.9626255,
        1.3747828
      ],
      [
        103.9621519,
        1.374928
      ],
      [
        103.9619112,
        1.3749679
      ],
      [
        103.9618527,
        1.3749812
      ],
      [
        103.9614998,
        1.3750387
      ],
      [
        103.9613631,
        1.375061
      ],
      [
        103.961254,
        1.3750791
      ],
      [
        103.961113,
        1.3751075
      ],
      [
        103.9599789,
        1.375318
      ],
      [
        103.9597104,
        1.3753682
      ],
      [
        103.9591506,
        1.3754419
      ],
      [
        103.9590723,
        1.375447
      ],
      [
        103.9589871,
        1.375451
      ],
      [
        103.9587111,
        1.3754649
      ],
      [
        103.9577144,
        1.375484
      ],
      [
        103.9570113,
        1.3754687
      ],
      [
        103.9565421,
        1.3754415
      ],
      [
        103.9562995,
        1.3754274
      ],
      [
        103.9562206,
        1.3754241
      ],
      [
        103.9561376,
        1.3754176
      ],
      [
        103.9560443,
        1.3754067
      ],
      [
        103.9558663,
        1.3753881
      ],
      [
        103.9554423,
        1.3753436
      ],
      [
        103.9543768,
        1.3752075
      ],
      [
        103.954349,
        1.3752045
      ],
      [
        103.9534852,
        1.3751118
      ],
      [
        103.9533817,
        1.3751007
      ],
      [
        103.9532637,
        1.3750885
      ],
      [
        103.9529224,
        1.3750339
      ],
      [
        103.9526203,
        1.3749926
      ],
      [
        103.9525978,
        1.374989
      ],
      [
        103.952494,
        1.3749767
      ],
      [
        103.9524502,
        1.3749705
      ],
      [
        103.9524276,
        1.3749673
      ],
      [
        103.9521351,
        1.374926
      ],
      [
        103.9519254,
        1.3748977
      ],
      [
        103.9516278,
        1.3748575
      ],
      [
        103.9513023,
        1.3748181
      ],
      [
        103.951244,
        1.3748161
      ],
      [
        103.9512427,
        1.3747378
      ],
      [
        103.9512411,
        1.3743555
      ],
      [
        103.9512413,
        1.3741396
      ],
      [
        103.9512417,
        1.3739157
      ],
      [
        103.9512405,
        1.3736533
      ],
      [
        103.9512239,
        1.3732862
      ],
      [
        103.9511803,
        1.3731414
      ],
      [
        103.9510958,
        1.3729799
      ],
      [
        103.9510286,
        1.3729005
      ],
      [
        103.9509851,
        1.3728492
      ],
      [
        103.9508369,
        1.372697
      ],
      [
        103.9504649,
        1.3722974
      ],
      [
        103.9504119,
        1.3722412
      ],
      [
        103.9503627,
        1.372189
      ],
      [
        103.950186,
        1.3720057
      ],
      [
        103.9501355,
        1.3719692
      ],
      [
        103.9500675,
        1.3719332
      ],
      [
        103.9500561,
        1.3719271
      ],
      [
        103.9499677,
        1.3719016
      ],
      [
        103.9498666,
        1.3718963
      ],
      [
        103.9496889,
        1.3719207
      ],
      [
        103.9494187,
        1.3719829
      ],
      [
        103.9493543,
        1.3719994
      ],
      [
        103.9492687,
        1.3720213
      ],
      [
        103.9492068,
        1.3720361
      ],
      [
        103.9489428,
        1.3721207
      ],
      [
        103.9489038,
        1.3721326
      ],
      [
        103.9487912,
        1.3721755
      ],
      [
        103.9486711,
        1.3722341
      ],
      [
        103.9485827,
        1.3722825
      ],
      [
        103.9482599,
        1.3724774
      ],
      [
        103.9478927,
        1.3727124
      ],
      [
        103.947858,
        1.3727104
      ],
      [
        103.9478029,
        1.3727001
      ],
      [
        103.9476935,
        1.3725978
      ],
      [
        103.9475542,
        1.3724961
      ],
      [
        103.9473769,
        1.372272
      ],
      [
        103.9473094,
        1.3721271
      ],
      [
        103.9472937,
        1.3720781
      ],
      [
        103.9472771,
        1.3720224
      ],
      [
        103.9471564,
        1.3720646
      ],
      [
        103.9470583,
        1.3720994
      ],
      [
        103.9470222,
        1.3721087
      ],
      [
        103.9466985,
        1.3722431
      ],
      [
        103.9457782,
        1.3726165
      ],
      [
        103.9455688,
        1.3727207
      ],
      [
        103.9454157,
        1.3727883
      ],
      [
        103.9451998,
        1.3728595
      ],
      [
        103.9450719,
        1.3729134
      ],
      [
        103.9450335,
        1.3729296
      ],
      [
        103.9449494,
        1.3729628
      ],
      [
        103.9448801,
        1.3729917
      ],
      [
        103.9447973,
        1.3730261
      ],
      [
        103.943947,
        1.3733553
      ],
      [
        103.9436755,
        1.3734652
      ],
      [
        103.9431436,
        1.3736808
      ],
      [
        103.9425441,
        1.3739212
      ],
      [
        103.9424084,
        1.3739756
      ],
      [
        103.9420971,
        1.3741156
      ],
      [
        103.9419358,
        1.3742086
      ],
      [
        103.9418494,
        1.3742646
      ],
      [
        103.9417615,
        1.3743226
      ],
      [
        103.941645,
        1.3744023
      ],
      [
        103.9413253,
        1.3746482
      ],
      [
        103.9411319,
        1.3748132
      ],
      [
        103.9410641,
        1.3748553
      ],
      [
        103.9409951,
        1.3748979
      ],
      [
        103.9409368,
        1.3749369
      ],
      [
        103.9407872,
        1.3750435
      ],
      [
        103.9406411,
        1.3751523
      ],
      [
        103.9402693,
        1.3754257
      ],
      [
        103.9399627,
        1.3756555
      ],
      [
        103.9398881,
        1.3757115
      ],
      [
        103.9396852,
        1.3758636
      ],
      [
        103.9389317,
        1.3764284
      ],
      [
        103.9377907,
        1.3772863
      ],
      [
        103.9370469,
        1.3778433
      ],
      [
        103.9369611,
        1.3779071
      ],
      [
        103.9368535,
        1.3779886
      ],
      [
        103.9362752,
        1.3784339
      ],
      [
        103.9360348,
        1.3786076
      ],
      [
        103.9357572,
        1.3788091
      ],
      [
        103.9355647,
        1.3789442
      ],
      [
        103.9355312,
        1.3789695
      ],
      [
        103.9353922,
        1.3790794
      ],
      [
        103.9351788,
        1.3792405
      ],
      [
        103.935016,
        1.3793674
      ],
      [
        103.9345937,
        1.3796869
      ],
      [
        103.9345036,
        1.3796911
      ],
      [
        103.9344575,
        1.3797035
      ],
      [
        103.9344137,
        1.3797074
      ],
      [
        103.9343766,
        1.3797042
      ],
      [
        103.9343105,
        1.3796943
      ],
      [
        103.9342067,
        1.3796584
      ],
      [
        103.9339762,
        1.3793208
      ],
      [
        103.933857,
        1.3791575
      ],
      [
        103.933361,
        1.3784686
      ],
      [
        103.9331681,
        1.3782007
      ],
      [
        103.9329317,
        1.3778347
      ],
      [
        103.9328813,
        1.3777566
      ],
      [
        103.9326958,
        1.3773158
      ],
      [
        103.9324548,
        1.37685
      ],
      [
        103.9323004,
        1.3765147
      ],
      [
        103.932199,
        1.3762945
      ],
      [
        103.9320453,
        1.3759608
      ],
      [
        103.9319941,
        1.375917
      ],
      [
        103.9319256,
        1.3758585
      ],
      [
        103.9318307,
        1.3757996
      ],
      [
        103.931774,
        1.3757802
      ],
      [
        103.9316683,
        1.3757646
      ],
      [
        103.9313208,
        1.375783
      ],
      [
        103.93098,
        1.3758535
      ],
      [
        103.9306537,
        1.3759744
      ],
      [
        103.9303492,
        1.3761429
      ],
      [
        103.9300619,
        1.3763265
      ],
      [
        103.929402,
        1.3766347
      ],
      [
        103.9288074,
        1.3768904
      ],
      [
        103.9287261,
        1.3769238
      ],
      [
        103.9283746,
        1.3770771
      ],
      [
        103.9279799,
        1.3772289
      ],
      [
        103.9270692,
        1.3775292
      ],
      [
        103.9263805,
        1.3776969
      ],
      [
        103.9254981,
        1.3779036
      ],
      [
        103.9253205,
        1.377948
      ],
      [
        103.9239857,
        1.3782818
      ],
      [
        103.9234629,
        1.3784317
      ],
      [
        103.9229582,
        1.3785939
      ],
      [
        103.9221235,
        1.3789247
      ],
      [
        103.9211569,
        1.3793547
      ],
      [
        103.9207979,
        1.3795144
      ],
      [
        103.9201725,
        1.3799206
      ],
      [
        103.9196522,
        1.3802798
      ],
      [
        103.9191613,
        1.380646
      ],
      [
        103.9186983,
        1.3810513
      ],
      [
        103.9182442,
        1.3814794
      ],
      [
        103.9176142,
        1.3821329
      ],
      [
        103.9172936,
        1.3824654
      ],
      [
        103.9170228,
        1.3827463
      ],
      [
        103.9162684,
        1.3835502
      ],
      [
        103.9157682,
        1.3840883
      ],
      [
        103.915611,
        1.3842652
      ],
      [
        103.9154081,
        1.3845112
      ],
      [
        103.9153042,
        1.3845903
      ],
      [
        103.9147823,
        1.3852145
      ],
      [
        103.9136991,
        1.3864621
      ],
      [
        103.9135644,
        1.3866089
      ],
      [
        103.9131012,
        1.3871591
      ],
      [
        103.9120339,
        1.3884268
      ],
      [
        103.9110405,
        1.3895717
      ],
      [
        103.9104724,
        1.3902349
      ],
      [
        103.909899,
        1.3908993
      ],
      [
        103.9096577,
        1.3911781
      ],
      [
        103.909613,
        1.3912297
      ],
      [
        103.9092962,
        1.3915956
      ],
      [
        103.9087831,
        1.3921882
      ],
      [
        103.908216,
        1.392829
      ],
      [
        103.9080994,
        1.3929608
      ],
      [
        103.9075785,
        1.3935099
      ],
      [
        103.9070647,
        1.3940278
      ],
      [
        103.9069809,
        1.3941117
      ],
      [
        103.9065351,
        1.3945025
      ],
      [
        103.9059969,
        1.3948781
      ],
      [
        103.9053947,
        1.3952863
      ],
      [
        103.9046957,
        1.3956738
      ],
      [
        103.9040624,
        1.3960344
      ],
      [
        103.9038271,
        1.3961611
      ],
      [
        103.9036715,
        1.3962023
      ],
      [
        103.9035528,
        1.3962036
      ],
      [
        103.9034848,
        1.3961866
      ],
      [
        103.9034397,
        1.3961753
      ],
      [
        103.9033094,
        1.3961074
      ],
      [
        103.9031597,
        1.3959894
      ],
      [
        103.9029764,
        1.3957584
      ],
      [
        103.9028127,
        1.39558
      ],
      [
        103.902782,
        1.3955494
      ],
      [
        103.9026103,
        1.3953753
      ],
      [
        103.9025277,
        1.3952894
      ],
      [
        103.9023653,
        1.3951367
      ],
      [
        103.9020945,
        1.3948764
      ],
      [
        103.9019589,
        1.3947467
      ],
      [
        103.9018514,
        1.3946438
      ],
      [
        103.9017211,
        1.3945087
      ],
      [
        103.9015934,
        1.3943584
      ],
      [
        103.9015339,
        1.3942597
      ],
      [
        103.9014832,
        1.3941835
      ],
      [
        103.9014472,
        1.3940845
      ],
      [
        103.9013277,
        1.3941232
      ],
      [
        103.9012738,
        1.3941404
      ],
      [
        103.9010627,
        1.3942271
      ],
      [
        103.9009543,
        1.3942662
      ],
      [
        103.9006381,
        1.3943804
      ],
      [
        103.9001821,
        1.39454
      ],
      [
        103.8998275,
        1.3946529
      ],
      [
        103.899409,
        1.3947905
      ],
      [
        103.8992372,
        1.3947748
      ],
      [
        103.8991647,
        1.3947559
      ],
      [
        103.8991059,
        1.3947267
      ],
      [
        103.8990243,
        1.3946476
      ],
      [
        103.8988745,
        1.3942141
      ],
      [
        103.8987438,
        1.3938538
      ],
      [
        103.8985544,
        1.3933072
      ],
      [
        103.8983019,
        1.3925784
      ],
      [
        103.8982603,
        1.3924645
      ],
      [
        103.8981165,
        1.3921396
      ],
      [
        103.8980508,
        1.3919435
      ],
      [
        103.8980218,
        1.3918661
      ],
      [
        103.8979928,
        1.3917845
      ],
      [
        103.8979705,
        1.3917301
      ],
      [
        103.8979109,
        1.3915559
      ],
      [
        103.8978146,
        1.3912613
      ],
      [
        103.8977267,
        1.3910149
      ],
      [
        103.897634,
        1.3907509
      ],
      [
        103.8975907,
        1.390611
      ],
      [
        103.8974461,
        1.3902312
      ],
      [
        103.8973439,
        1.3898788
      ],
      [
        103.8973184,
        1.3897979
      ],
      [
        103.8972966,
        1.3897283
      ],
      [
        103.8972751,
        1.3896647
      ],
      [
        103.8970866,
        1.3891007
      ],
      [
        103.8970372,
        1.3889652
      ],
      [
        103.8969707,
        1.388777
      ],
      [
        103.8968929,
        1.388557
      ],
      [
        103.8968028,
        1.3883211
      ],
      [
        103.8967331,
        1.3881106
      ],
      [
        103.8967075,
        1.3880336
      ],
      [
        103.8966859,
        1.3879599
      ],
      [
        103.8966695,
        1.3879086
      ],
      [
        103.8966104,
        1.3877234
      ],
      [
        103.8966041,
        1.3877029
      ],
      [
        103.8963716,
        1.3870021
      ],
      [
        103.8962876,
        1.386749
      ],
      [
        103.8962101,
        1.3865155
      ],
      [
        103.8960917,
        1.3861806
      ],
      [
        103.8960602,
        1.3861116
      ],
      [
        103.8959824,
        1.3859373
      ],
      [
        103.8959891,
        1.385826
      ],
      [
        103.8959977,
        1.3857703
      ],
      [
        103.8960034,
        1.3857333
      ],
      [
        103.8960348,
        1.3856407
      ],
      [
        103.8960862,
        1.3855179
      ],
      [
        103.896376,
        1.3851804
      ],
      [
        103.8965046,
        1.3850346
      ],
      [
        103.8966744,
        1.3848385
      ],
      [
        103.8968562,
        1.3846301
      ],
      [
        103.8969085,
        1.3845672
      ],
      [
        103.8969551,
        1.3845198
      ],
      [
        103.8971152,
        1.3843513
      ],
      [
        103.8976039,
        1.383876
      ],
      [
        103.8976618,
        1.3838192
      ],
      [
        103.897694,
        1.3837902
      ],
      [
        103.8977786,
        1.3837142
      ],
      [
        103.8977931,
        1.3837012
      ],
      [
        103.8980815,
        1.383442
      ],
      [
        103.898317,
        1.3832303
      ],
      [
        103.8984643,
        1.3830905
      ],
      [
        103.8985127,
        1.3830445
      ],
      [
        103.8985761,
        1.3829876
      ],
      [
        103.8984631,
        1.3829046
      ],
      [
        103.8984035,
        1.3828588
      ],
      [
        103.8982424,
        1.3827351
      ],
      [
        103.8980517,
        1.3825886
      ],
      [
        103.8978202,
        1.3823592
      ],
      [
        103.8976238,
        1.3820823
      ],
      [
        103.8974704,
        1.3818122
      ],
      [
        103.897466,
        1.3818
      ],
      [
        103.8974055,
        1.3816305
      ],
      [
        103.8973696,
        1.3815024
      ],
      [
        103.8972688,
        1.3810848
      ],
      [
        103.8972045,
        1.3808499
      ],
      [
        103.8971555,
        1.3806711
      ],
      [
        103.8970995,
        1.3804104
      ],
      [
        103.8970091,
        1.3799782
      ],
      [
        103.897001,
        1.3798738
      ],
      [
        103.8969693,
        1.3795147
      ],
      [
        103.8969648,
        1.3794641
      ],
      [
        103.8969375,
        1.3793138
      ],
      [
        103.8969281,
        1.3792565
      ],
      [
        103.8969003,
        1.3790861
      ],
      [
        103.8968399,
        1.3786483
      ],
      [
        103.8968103,
        1.3783047
      ],
      [
        103.8967984,
        1.3781432
      ],
      [
        103.8967844,
        1.3774866
      ],
      [
        103.8967299,
        1.3771887
      ],
      [
        103.8964592,
        1.3766457
      ],
      [
        103.8963176,
        1.3764103
      ],
      [
        103.8962752,
        1.3763397
      ],
      [
        103.8962226,
        1.3762564
      ],
      [
        103.8962021,
        1.3762227
      ],
      [
        103.8960312,
        1.3759417
      ],
      [
        103.8958308,
        1.3756688
      ],
      [
        103.8954756,
        1.3752315
      ],
      [
        103.8952282,
        1.3749261
      ],
      [
        103.8949557,
        1.3745786
      ],
      [
        103.8949384,
        1.3745566
      ],
      [
        103.8948282,
        1.374407
      ],
      [
        103.8944549,
        1.3739861
      ],
      [
        103.8944207,
        1.373933
      ],
      [
        103.8943616,
        1.3738176
      ],
      [
        103.8943113,
        1.3734114
      ],
      [
        103.8943122,
        1.3733161
      ],
      [
        103.8943141,
        1.37312
      ],
      [
        103.8943147,
        1.3730582
      ],
      [
        103.8943197,
        1.3729397
      ],
      [
        103.8942005,
        1.3729418
      ],
      [
        103.8941001,
        1.3729454
      ],
      [
        103.8937595,
        1.3729517
      ],
      [
        103.8935646,
        1.3729595
      ],
      [
        103.8932976,
        1.3729622
      ],
      [
        103.8929503,
        1.372972
      ],
      [
        103.8928992,
        1.3729724
      ],
      [
        103.892859,
        1.3729727
      ],
      [
        103.8928196,
        1.3729731
      ],
      [
        103.8926952,
        1.3729717
      ],
      [
        103.8926518,
        1.372972
      ],
      [
        103.8914057,
        1.3729805
      ],
      [
        103.8913577,
        1.3729781
      ],
      [
        103.8912434,
        1.3729725
      ],
      [
        103.8911589,
        1.3729457
      ],
      [
        103.8910476,
        1.3728934
      ],
      [
        103.8909564,
        1.372829
      ],
      [
        103.890591,
        1.3724479
      ],
      [
        103.8901449,
        1.3719692
      ],
      [
        103.890102,
        1.3719234
      ],
      [
        103.8900401,
        1.3718548
      ],
      [
        103.8899985,
        1.3718081
      ],
      [
        103.8897103,
        1.3715222
      ],
      [
        103.8895995,
        1.3714026
      ],
      [
        103.8893802,
        1.3711152
      ],
      [
        103.8891942,
        1.3708262
      ],
      [
        103.8891582,
        1.3706922
      ],
      [
        103.8891499,
        1.3706522
      ],
      [
        103.8891492,
        1.3705945
      ],
      [
        103.8891543,
        1.3705438
      ],
      [
        103.8891888,
        1.3704231
      ],
      [
        103.8892404,
        1.3703604
      ],
      [
        103.8892985,
        1.3702743
      ],
      [
        103.8893469,
        1.3701724
      ],
      [
        103.8894061,
        1.3700535
      ],
      [
        103.8895369,
        1.3697587
      ],
      [
        103.8897686,
        1.3693855
      ],
      [
        103.8897992,
        1.3693467
      ],
      [
        103.8898582,
        1.3693869
      ],
      [
        103.8900326,
        1.369486
      ],
      [
        103.8903035,
        1.3696556
      ],
      [
        103.8904002,
        1.3698032
      ],
      [
        103.8904964,
        1.3700174
      ],
      [
        103.8906587,
        1.3702479
      ],
      [
        103.8907003,
        1.370301
      ],
      [
        103.8907638,
        1.3703545
      ],
      [
        103.8908494,
        1.3704446
      ],
      [
        103.8909675,
        1.3705722
      ],
      [
        103.8911301,
        1.3707385
      ],
      [
        103.8911967,
        1.3708144
      ],
      [
        103.8912413,
        1.3708583
      ],
      [
        103.8912745,
        1.3709193
      ],
      [
        103.891357,
        1.3710399
      ],
      [
        103.8915072,
        1.3712192
      ],
      [
        103.8915606,
        1.3712446
      ],
      [
        103.8915933,
        1.3711551
      ],
      [
        103.8916019,
        1.3711249
      ],
      [
        103.8916352,
        1.3709915
      ],
      [
        103.8916793,
        1.3709204
      ],
      [
        103.8917208,
        1.3708917
      ],
      [
        103.8917995,
        1.3708373
      ],
      [
        103.8920408,
        1.3708381
      ]
    ]
  }
}