{
  "type": "Feature",
  "properties": {
    "relation": 2352576,
    "direction": "1",
    "fee": "yes",
    "from": "Woodlands Interchange",
    "name": "Svc 902 (Woodlands Interchange → Republic Polytechnic)",
    "name:en": "Svc 902 (Woodlands Interchange → Republic Polytechnic)",
    "network": "Land Transport Authority",
    "network:short": "LTA",
    "network:wikidata": "Q3299279",
    "network:wikipedia": "en:Land Transport Authority",
    "operator": "SMRT Buses",
    "operator:wikidata": "Q10852420",
    "operator:wikipedia": "en:SMRT Buses",
    "public_transport:version": "2",
    "ref": "902",
    "route": "bus",
    "to": "Republic Polytechnic",
    "type": "route",
    "website": "https://www.smrt.com.sg/"
  },
  "geometry": {
    "type": "LineString",
    "coordinates": [
      [
        103.7850116,
        1.4362529
      ],
      [
        103.7852459,
        1.4363383
      ],
      [
        103.7865729,
        1.4368226
      ],
      [
        103.7869319,
        1.4368181
      ],
      [
        103.7874208,
        1.4370074
      ],
      [
        103.7874717,
        1.4370752
      ],
      [
        103.7874725,
        1.4371669
      ],
      [
        103.7873585,
        1.4374731
      ],
      [
        103.7872803,
        1.4376806
      ],
      [
        103.7872975,
        1.4377797
      ],
      [
        103.787348,
        1.4378302
      ],
      [
        103.7882185,
        1.438165
      ],
      [
        103.7883575,
        1.4381997
      ],
      [
        103.7885905,
        1.438232
      ],
      [
        103.7887361,
        1.4381905
      ],
      [
        103.78882,
        1.438211
      ],
      [
        103.7887677,
        1.4383171
      ],
      [
        103.7886674,
        1.4385126
      ],
      [
        103.7886195,
        1.4385947
      ],
      [
        103.7884963,
        1.4388105
      ],
      [
        103.7883875,
        1.4389366
      ],
      [
        103.7882699,
        1.4390755
      ],
      [
        103.7881553,
        1.4391801
      ],
      [
        103.7880342,
        1.4392836
      ],
      [
        103.7878179,
        1.439438
      ],
      [
        103.7876659,
        1.4395245
      ],
      [
        103.7875236,
        1.4396025
      ],
      [
        103.78739,
        1.4396786
      ],
      [
        103.7871031,
        1.439843
      ],
      [
        103.786656,
        1.4400922
      ],
      [
        103.7861783,
        1.440358
      ],
      [
        103.785892,
        1.4405165
      ],
      [
        103.78564,
        1.4406746
      ],
      [
        103.7853762,
        1.440841
      ],
      [
        103.7851342,
        1.4409925
      ],
      [
        103.7850724,
        1.4410291
      ],
      [
        103.7849668,
        1.4410991
      ],
      [
        103.78504,
        1.4412081
      ],
      [
        103.7851046,
        1.4413026
      ],
      [
        103.7852267,
        1.4414861
      ],
      [
        103.7853591,
        1.4416703
      ],
      [
        103.7854892,
        1.4418195
      ],
      [
        103.7856423,
        1.4419556
      ],
      [
        103.7857545,
        1.4420459
      ],
      [
        103.7858144,
        1.4420942
      ],
      [
        103.7858499,
        1.4421184
      ]
    ]
  }
}