{
  "type": "Feature",
  "properties": {
    "relation": 2352577,
    "direction": "1",
    "fee": "yes",
    "from": "Woodlands Interchange",
    "name": "Svc 903 (Woodlands Interchange ↺ Woodlands Centre Road)",
    "name:en": "Svc 903 (Woodlands Interchange ↺ Woodlands Centre Road)",
    "network": "Land Transport Authority",
    "network:short": "LTA",
    "network:wikidata": "Q3299279",
    "network:wikipedia": "en:Land Transport Authority",
    "operator": "SMRT Buses",
    "operator:wikidata": "Q10852420",
    "operator:wikipedia": "en:SMRT Buses",
    "public_transport:version": "2",
    "ref": "903",
    "roundtrip": "yes",
    "route": "bus",
    "to": "Woodlands Interchange",
    "type": "route",
    "via": "Woodlands Centre Road",
    "website": "https://www.smrt.com.sg/"
  },
  "geometry": {
    "type": "LineString",
    "coordinates": [
      [
        103.7850116,
        1.4362529
      ],
      [
        103.7852459,
        1.4363383
      ],
      [
        103.7865729,
        1.4368226
      ],
      [
        103.7869319,
        1.4368181
      ],
      [
        103.7874208,
        1.4370074
      ],
      [
        103.7874717,
        1.4370752
      ],
      [
        103.7874725,
        1.4371669
      ],
      [
        103.7873585,
        1.4374731
      ],
      [
        103.7872803,
        1.4376806
      ],
      [
        103.7872975,
        1.4377797
      ],
      [
        103.787348,
        1.4378302
      ],
      [
        103.7882185,
        1.438165
      ],
      [
        103.7883575,
        1.4381997
      ],
      [
        103.7884859,
        1.438266
      ],
      [
        103.7885456,
        1.4383192
      ],
      [
        103.7885802,
        1.4383649
      ],
      [
        103.7886095,
        1.4384154
      ],
      [
        103.7886211,
        1.4384887
      ],
      [
        103.7886195,
        1.4385947
      ],
      [
        103.7884963,
        1.4388105
      ],
      [
        103.7883875,
        1.4389366
      ],
      [
        103.7882699,
        1.4390755
      ],
      [
        103.7881553,
        1.4391801
      ],
      [
        103.7880342,
        1.4392836
      ],
      [
        103.7878179,
        1.439438
      ],
      [
        103.7876659,
        1.4395245
      ],
      [
        103.7875236,
        1.4396025
      ],
      [
        103.78739,
        1.4396786
      ],
      [
        103.7871031,
        1.439843
      ],
      [
        103.786656,
        1.4400922
      ],
      [
        103.7861783,
        1.440358
      ],
      [
        103.785892,
        1.4405165
      ],
      [
        103.78564,
        1.4406746
      ],
      [
        103.7853762,
        1.440841
      ],
      [
        103.7851342,
        1.4409925
      ],
      [
        103.7850724,
        1.4410291
      ],
      [
        103.7849668,
        1.4410991
      ],
      [
        103.7849163,
        1.4411361
      ],
      [
        103.7847466,
        1.4412598
      ],
      [
        103.7843847,
        1.4415637
      ],
      [
        103.7840288,
        1.4418742
      ],
      [
        103.7837946,
        1.4420786
      ],
      [
        103.7835531,
        1.4422764
      ],
      [
        103.7834266,
        1.4423834
      ],
      [
        103.7832297,
        1.4425367
      ],
      [
        103.7830637,
        1.4426711
      ],
      [
        103.7829363,
        1.4427543
      ],
      [
        103.782763,
        1.4428504
      ],
      [
        103.7825393,
        1.442958
      ],
      [
        103.7822403,
        1.4430814
      ],
      [
        103.7820603,
        1.4431512
      ],
      [
        103.7816583,
        1.4432767
      ],
      [
        103.781645,
        1.4432807
      ],
      [
        103.7811907,
        1.4434165
      ],
      [
        103.7810034,
        1.4434879
      ],
      [
        103.7809644,
        1.4435028
      ],
      [
        103.7809297,
        1.4434296
      ],
      [
        103.7809644,
        1.4435028
      ],
      [
        103.7808225,
        1.4431967
      ],
      [
        103.7806709,
        1.4428719
      ],
      [
        103.780422,
        1.4423521
      ],
      [
        103.780554,
        1.4426176
      ],
      [
        103.7801607,
        1.4418517
      ],
      [
        103.7802152,
        1.4419561
      ],
      [
        103.7802669,
        1.4420483
      ],
      [
        103.7799911,
        1.4415741
      ],
      [
        103.7800926,
        1.4417312
      ],
      [
        103.7799574,
        1.4415151
      ],
      [
        103.7798915,
        1.4414028
      ],
      [
        103.7797275,
        1.4413921
      ],
      [
        103.7796557,
        1.4414427
      ],
      [
        103.7795095,
        1.4415433
      ],
      [
        103.7793455,
        1.4416467
      ],
      [
        103.7791629,
        1.4417652
      ],
      [
        103.7789466,
        1.4419434
      ],
      [
        103.7786709,
        1.4423437
      ],
      [
        103.7786307,
        1.442412
      ],
      [
        103.778516,
        1.4426069
      ],
      [
        103.778373,
        1.4428287
      ],
      [
        103.7783064,
        1.4430352
      ],
      [
        103.7781049,
        1.4436283
      ],
      [
        103.7779929,
        1.4439211
      ],
      [
        103.7777687,
        1.4442177
      ],
      [
        103.7775989,
        1.4443829
      ],
      [
        103.7774612,
        1.4444748
      ],
      [
        103.7773676,
        1.4445262
      ],
      [
        103.7772876,
        1.4445593
      ],
      [
        103.7771354,
        1.4446061
      ],
      [
        103.7769709,
        1.4446473
      ],
      [
        103.7768976,
        1.4446613
      ],
      [
        103.7767323,
        1.4447064
      ],
      [
        103.7766765,
        1.4447209
      ],
      [
        103.7765197,
        1.4447616
      ],
      [
        103.7764685,
        1.4447749
      ],
      [
        103.7763453,
        1.4448045
      ],
      [
        103.7762009,
        1.4448528
      ],
      [
        103.776108,
        1.4448946
      ],
      [
        103.7760133,
        1.4449408
      ],
      [
        103.7759215,
        1.4449914
      ],
      [
        103.7758817,
        1.4450182
      ],
      [
        103.7757363,
        1.4451162
      ],
      [
        103.7756276,
        1.4451899
      ],
      [
        103.7753029,
        1.4454059
      ],
      [
        103.7751121,
        1.4455197
      ],
      [
        103.7750618,
        1.4455464
      ],
      [
        103.7748994,
        1.4456137
      ],
      [
        103.7747772,
        1.4456537
      ],
      [
        103.774654,
        1.4456863
      ],
      [
        103.7746179,
        1.445694
      ],
      [
        103.7745544,
        1.445705
      ],
      [
        103.7744935,
        1.4457156
      ],
      [
        103.7744404,
        1.4457271
      ],
      [
        103.7743424,
        1.4457371
      ],
      [
        103.7742141,
        1.4457359
      ],
      [
        103.7740056,
        1.4457266
      ],
      [
        103.773984,
        1.4457258
      ],
      [
        103.7730158,
        1.445688
      ],
      [
        103.7726845,
        1.4456751
      ],
      [
        103.7726849,
        1.4456172
      ],
      [
        103.7726802,
        1.4450901
      ],
      [
        103.7726926,
        1.4447743
      ],
      [
        103.7726939,
        1.4447146
      ],
      [
        103.7727168,
        1.4445316
      ],
      [
        103.7727571,
        1.4444097
      ],
      [
        103.7728171,
        1.4442905
      ],
      [
        103.7728482,
        1.4442287
      ],
      [
        103.7729059,
        1.4441388
      ],
      [
        103.7730065,
        1.4440034
      ],
      [
        103.7731017,
        1.4439203
      ],
      [
        103.7732212,
        1.443836
      ],
      [
        103.7733297,
        1.4437769
      ],
      [
        103.7736365,
        1.4436282
      ],
      [
        103.7739492,
        1.4434875
      ],
      [
        103.7741683,
        1.4433511
      ],
      [
        103.7742752,
        1.4432714
      ],
      [
        103.7743999,
        1.4431441
      ],
      [
        103.7746212,
        1.442872
      ],
      [
        103.775012,
        1.4423584
      ],
      [
        103.775155,
        1.4421723
      ],
      [
        103.7751865,
        1.4421308
      ],
      [
        103.7752398,
        1.4420611
      ],
      [
        103.7753303,
        1.4419449
      ],
      [
        103.7752534,
        1.4418846
      ],
      [
        103.7751549,
        1.4418135
      ],
      [
        103.7747409,
        1.4415047
      ],
      [
        103.7745581,
        1.4413808
      ],
      [
        103.7743681,
        1.4412747
      ],
      [
        103.774202,
        1.4412127
      ],
      [
        103.7740328,
        1.4411638
      ],
      [
        103.7738997,
        1.4411364
      ],
      [
        103.7737621,
        1.441115
      ],
      [
        103.773616,
        1.4411041
      ],
      [
        103.7733393,
        1.4410972
      ],
      [
        103.7719272,
        1.4410777
      ],
      [
        103.7711223,
        1.4410522
      ],
      [
        103.7710373,
        1.4410487
      ],
      [
        103.7710449,
        1.4405656
      ],
      [
        103.7710815,
        1.4398726
      ],
      [
        103.7710847,
        1.4398122
      ],
      [
        103.7710855,
        1.4397297
      ],
      [
        103.7710071,
        1.439727
      ],
      [
        103.7709475,
        1.439725
      ],
      [
        103.7705201,
        1.4397098
      ],
      [
        103.7701985,
        1.4397041
      ],
      [
        103.7697951,
        1.4397013
      ],
      [
        103.7697333,
        1.4396986
      ],
      [
        103.7696245,
        1.4397205
      ],
      [
        103.769452,
        1.4398257
      ],
      [
        103.7691659,
        1.4401379
      ],
      [
        103.769022,
        1.4403531
      ],
      [
        103.7689221,
        1.4405137
      ],
      [
        103.7687346,
        1.4408224
      ],
      [
        103.7687101,
        1.4409227
      ],
      [
        103.7686899,
        1.4410389
      ],
      [
        103.7687805,
        1.4412562
      ],
      [
        103.768873,
        1.4414974
      ],
      [
        103.7690479,
        1.4419364
      ],
      [
        103.7693407,
        1.4426821
      ],
      [
        103.7693729,
        1.4427614
      ],
      [
        103.7693843,
        1.4427893
      ],
      [
        103.7694497,
        1.4428896
      ],
      [
        103.769502,
        1.4429741
      ],
      [
        103.7695515,
        1.4430377
      ],
      [
        103.7695754,
        1.4430656
      ],
      [
        103.7696486,
        1.4431522
      ],
      [
        103.7697118,
        1.4432064
      ],
      [
        103.7697809,
        1.4432549
      ],
      [
        103.7698755,
        1.443323
      ],
      [
        103.7699643,
        1.443357
      ],
      [
        103.770052,
        1.4433822
      ],
      [
        103.7701419,
        1.4433899
      ],
      [
        103.7702253,
        1.4433932
      ],
      [
        103.7703163,
        1.44338
      ],
      [
        103.7704029,
        1.4433537
      ],
      [
        103.770484,
        1.4433186
      ],
      [
        103.7705597,
        1.4432682
      ],
      [
        103.7706579,
        1.4431798
      ],
      [
        103.7707133,
        1.4431191
      ],
      [
        103.7707767,
        1.4430336
      ],
      [
        103.7708323,
        1.4429345
      ],
      [
        103.7708796,
        1.4428286
      ],
      [
        103.770917,
        1.4426978
      ],
      [
        103.7709499,
        1.4425367
      ],
      [
        103.7709748,
        1.4422681
      ],
      [
        103.7709801,
        1.4420351
      ],
      [
        103.7709907,
        1.4416514
      ],
      [
        103.7709887,
        1.4414522
      ],
      [
        103.7710586,
        1.4413059
      ],
      [
        103.7711213,
        1.4412327
      ],
      [
        103.7712112,
        1.4412007
      ],
      [
        103.7714184,
        1.4411912
      ],
      [
        103.7716304,
        1.4411711
      ],
      [
        103.7727196,
        1.4412113
      ],
      [
        103.7735736,
        1.4412261
      ],
      [
        103.7737789,
        1.4412358
      ],
      [
        103.7739543,
        1.4412641
      ],
      [
        103.7741176,
        1.4413099
      ],
      [
        103.7743135,
        1.4413902
      ],
      [
        103.7745469,
        1.4415157
      ],
      [
        103.7746457,
        1.441587
      ],
      [
        103.7750695,
        1.4419314
      ],
      [
        103.775161,
        1.4419975
      ],
      [
        103.7751079,
        1.4420687
      ],
      [
        103.7749404,
        1.4422914
      ],
      [
        103.7745496,
        1.4428225
      ],
      [
        103.7744303,
        1.4429629
      ],
      [
        103.7743145,
        1.4430991
      ],
      [
        103.7742051,
        1.4432102
      ],
      [
        103.774134,
        1.4432648
      ],
      [
        103.7740235,
        1.4433443
      ],
      [
        103.7739116,
        1.4434138
      ],
      [
        103.773771,
        1.4434812
      ],
      [
        103.7731784,
        1.4437577
      ],
      [
        103.7730271,
        1.4438622
      ],
      [
        103.7729299,
        1.4439522
      ],
      [
        103.7728301,
        1.4440784
      ],
      [
        103.7727839,
        1.4441452
      ],
      [
        103.772743,
        1.444217
      ],
      [
        103.7727235,
        1.4442532
      ],
      [
        103.7726511,
        1.4444307
      ],
      [
        103.7726254,
        1.4445404
      ],
      [
        103.7726,
        1.4446607
      ],
      [
        103.7725932,
        1.4447163
      ],
      [
        103.7725863,
        1.4447721
      ],
      [
        103.7725846,
        1.4448812
      ],
      [
        103.7725821,
        1.4450905
      ],
      [
        103.7725708,
        1.4456151
      ],
      [
        103.7725701,
        1.4456782
      ],
      [
        103.772571,
        1.4457692
      ],
      [
        103.7726867,
        1.4457716
      ],
      [
        103.7728327,
        1.4457762
      ],
      [
        103.7730137,
        1.4457811
      ],
      [
        103.7739961,
        1.4458079
      ],
      [
        103.7742131,
        1.4458151
      ],
      [
        103.7744301,
        1.4458133
      ],
      [
        103.774451,
        1.44581
      ],
      [
        103.774567,
        1.4457916
      ],
      [
        103.7746739,
        1.4457746
      ],
      [
        103.7748096,
        1.4457343
      ],
      [
        103.7750955,
        1.4456279
      ],
      [
        103.775284,
        1.4455324
      ],
      [
        103.7753581,
        1.4454949
      ],
      [
        103.7756782,
        1.4452673
      ],
      [
        103.7759365,
        1.445102
      ],
      [
        103.7759824,
        1.4450726
      ],
      [
        103.7762256,
        1.444948
      ],
      [
        103.7763928,
        1.4448574
      ],
      [
        103.7766878,
        1.444781
      ],
      [
        103.7767449,
        1.4447674
      ],
      [
        103.7769125,
        1.4447269
      ],
      [
        103.7769862,
        1.4447093
      ],
      [
        103.7772198,
        1.4446565
      ],
      [
        103.7774698,
        1.4445409
      ],
      [
        103.7776328,
        1.444417
      ],
      [
        103.7778103,
        1.444252
      ],
      [
        103.7780106,
        1.4439874
      ],
      [
        103.7780746,
        1.4438793
      ],
      [
        103.778156,
        1.4436487
      ],
      [
        103.7783579,
        1.4430525
      ],
      [
        103.7784233,
        1.4428453
      ],
      [
        103.7786715,
        1.4424402
      ],
      [
        103.7788846,
        1.4421144
      ],
      [
        103.7790334,
        1.4419991
      ],
      [
        103.7792123,
        1.4418315
      ],
      [
        103.7797826,
        1.4414746
      ],
      [
        103.7798915,
        1.4414028
      ],
      [
        103.7799574,
        1.4415151
      ],
      [
        103.7799911,
        1.4415741
      ],
      [
        103.7800926,
        1.4417312
      ],
      [
        103.7801607,
        1.4418517
      ],
      [
        103.7802152,
        1.4419561
      ],
      [
        103.7802669,
        1.4420483
      ],
      [
        103.780422,
        1.4423521
      ],
      [
        103.780554,
        1.4426176
      ],
      [
        103.7806709,
        1.4428719
      ],
      [
        103.7808225,
        1.4431967
      ],
      [
        103.7809297,
        1.4434296
      ],
      [
        103.7809644,
        1.4435028
      ],
      [
        103.781012,
        1.4436084
      ],
      [
        103.7811576,
        1.4435579
      ],
      [
        103.7816939,
        1.4433961
      ],
      [
        103.7821316,
        1.4432691
      ],
      [
        103.7824586,
        1.4431347
      ],
      [
        103.7826466,
        1.4430546
      ],
      [
        103.7829912,
        1.4428723
      ],
      [
        103.7831743,
        1.4427622
      ],
      [
        103.7831969,
        1.4427467
      ],
      [
        103.7834433,
        1.4425625
      ],
      [
        103.7836519,
        1.4423869
      ],
      [
        103.7838424,
        1.4421968
      ],
      [
        103.7838531,
        1.4421878
      ],
      [
        103.7839539,
        1.442101
      ],
      [
        103.7841094,
        1.441959
      ],
      [
        103.7844894,
        1.4416226
      ],
      [
        103.7847444,
        1.4414146
      ],
      [
        103.7849907,
        1.4412405
      ],
      [
        103.78504,
        1.4412081
      ],
      [
        103.785148,
        1.4411363
      ],
      [
        103.7852027,
        1.4411006
      ],
      [
        103.7854662,
        1.440931
      ],
      [
        103.7857866,
        1.4407298
      ],
      [
        103.7865212,
        1.4403171
      ],
      [
        103.7872005,
        1.4399328
      ],
      [
        103.7873854,
        1.4398295
      ],
      [
        103.7876426,
        1.4396865
      ],
      [
        103.7879091,
        1.439537
      ],
      [
        103.7882565,
        1.4392752
      ],
      [
        103.7883894,
        1.4391414
      ],
      [
        103.7884931,
        1.4390298
      ],
      [
        103.7885719,
        1.4389343
      ],
      [
        103.7886402,
        1.4388344
      ],
      [
        103.7888097,
        1.4385614
      ],
      [
        103.7889189,
        1.4383314
      ],
      [
        103.7889644,
        1.4382441
      ],
      [
        103.789008,
        1.4381265
      ],
      [
        103.7888707,
        1.4380925
      ],
      [
        103.7887791,
        1.4380749
      ],
      [
        103.7886979,
        1.437988
      ],
      [
        103.7885017,
        1.4378995
      ],
      [
        103.7874578,
        1.4375079
      ],
      [
        103.7873585,
        1.4374731
      ],
      [
        103.7871182,
        1.437421
      ],
      [
        103.7849046,
        1.4365575
      ],
      [
        103.7850116,
        1.4362529
      ]
    ]
  }
}