{
  "type": "Feature",
  "properties": {
    "relation": 3160829,
    "direction": "1",
    "fee": "yes",
    "from": "Woodlands Interchange",
    "name": "Svc 904 (Woodlands Interchange ↺ Woodlands Crescent)",
    "name:en": "Svc 904 (Woodlands Interchange ↺ Woodlands Crescent)",
    "network": "Land Transport Authority",
    "network:short": "LTA",
    "network:wikidata": "Q3299279",
    "network:wikipedia": "en:Land Transport Authority",
    "operator": "SMRT Buses",
    "operator:wikidata": "Q10852420",
    "operator:wikipedia": "en:SMRT Buses",
    "public_transport:version": "2",
    "ref": "904",
    "roundtrip": "yes",
    "route": "bus",
    "to": "Woodlands Interchange",
    "type": "route",
    "via": "Woodlands Crescent",
    "website": "https://www.smrt.com.sg/"
  },
  "geometry": {
    "type": "LineString",
    "coordinates": [
      [
        103.7850116,
        1.4362529
      ],
      [
        103.7852459,
        1.4363383
      ],
      [
        103.7865729,
        1.4368226
      ],
      [
        103.7869319,
        1.4368181
      ],
      [
        103.7874208,
        1.4370074
      ],
      [
        103.7874717,
        1.4370752
      ],
      [
        103.7874725,
        1.4371669
      ],
      [
        103.7873585,
        1.4374731
      ],
      [
        103.7872803,
        1.4376806
      ],
      [
        103.7872975,
        1.4377797
      ],
      [
        103.787348,
        1.4378302
      ],
      [
        103.7882185,
        1.438165
      ],
      [
        103.7883575,
        1.4381997
      ],
      [
        103.7885905,
        1.438232
      ],
      [
        103.7887361,
        1.4381905
      ],
      [
        103.78882,
        1.438211
      ],
      [
        103.7889644,
        1.4382441
      ],
      [
        103.7890285,
        1.4382632
      ],
      [
        103.7893389,
        1.4383921
      ],
      [
        103.7899505,
        1.4387004
      ],
      [
        103.7900856,
        1.4387502
      ],
      [
        103.7903619,
        1.4388521
      ],
      [
        103.7903904,
        1.4388626
      ],
      [
        103.7907015,
        1.4389511
      ],
      [
        103.7910824,
        1.4390081
      ],
      [
        103.79154,
        1.4390429
      ],
      [
        103.7919371,
        1.439064
      ],
      [
        103.7920171,
        1.4390683
      ],
      [
        103.7920967,
        1.4390729
      ],
      [
        103.7921538,
        1.4390773
      ],
      [
        103.7934448,
        1.4391763
      ],
      [
        103.7935446,
        1.4391827
      ],
      [
        103.7937258,
        1.4391952
      ],
      [
        103.7946447,
        1.4392448
      ],
      [
        103.7948472,
        1.4392529
      ],
      [
        103.7953246,
        1.439269
      ],
      [
        103.7955615,
        1.4392781
      ],
      [
        103.7956355,
        1.4392843
      ],
      [
        103.7957427,
        1.4392918
      ],
      [
        103.7957974,
        1.439293
      ],
      [
        103.7959053,
        1.4393015
      ],
      [
        103.7960881,
        1.4393157
      ],
      [
        103.7963511,
        1.4393405
      ],
      [
        103.7968646,
        1.4394101
      ],
      [
        103.7971259,
        1.4394765
      ],
      [
        103.797439,
        1.4395782
      ],
      [
        103.7975734,
        1.4396218
      ],
      [
        103.7980075,
        1.4397895
      ],
      [
        103.7983921,
        1.4399648
      ],
      [
        103.7986331,
        1.4400772
      ],
      [
        103.7992465,
        1.4403474
      ],
      [
        103.7997969,
        1.4405928
      ],
      [
        103.8006352,
        1.4409667
      ],
      [
        103.8010032,
        1.4411313
      ],
      [
        103.8015301,
        1.4413666
      ],
      [
        103.8017515,
        1.441464
      ],
      [
        103.8018019,
        1.4414861
      ],
      [
        103.8018938,
        1.4415342
      ],
      [
        103.8019538,
        1.4414059
      ],
      [
        103.8019817,
        1.4413457
      ],
      [
        103.802052,
        1.4411546
      ],
      [
        103.8022251,
        1.4407362
      ],
      [
        103.8024174,
        1.4402941
      ],
      [
        103.8024767,
        1.4401375
      ],
      [
        103.8025858,
        1.4398817
      ],
      [
        103.8026169,
        1.4398026
      ],
      [
        103.8027174,
        1.4395737
      ],
      [
        103.8028327,
        1.4393069
      ],
      [
        103.8029286,
        1.439087
      ],
      [
        103.8030109,
        1.4389154
      ],
      [
        103.803056,
        1.4388182
      ],
      [
        103.8031154,
        1.4388455
      ],
      [
        103.8039967,
        1.4392494
      ],
      [
        103.8041966,
        1.4393342
      ],
      [
        103.8045999,
        1.4395559
      ],
      [
        103.8046752,
        1.4395791
      ],
      [
        103.8047104,
        1.4395816
      ],
      [
        103.8047643,
        1.4395914
      ],
      [
        103.8048167,
        1.4395954
      ],
      [
        103.8048732,
        1.4395908
      ],
      [
        103.8049387,
        1.4395871
      ],
      [
        103.8049769,
        1.4395706
      ],
      [
        103.8052871,
        1.4394387
      ],
      [
        103.8054989,
        1.4393361
      ],
      [
        103.8055754,
        1.4393005
      ],
      [
        103.8056942,
        1.4392457
      ],
      [
        103.8061684,
        1.4390373
      ],
      [
        103.8062718,
        1.4389896
      ],
      [
        103.8063423,
        1.4389552
      ],
      [
        103.8064539,
        1.4389148
      ],
      [
        103.8065931,
        1.4388907
      ],
      [
        103.8067058,
        1.4388907
      ],
      [
        103.8068104,
        1.4388968
      ],
      [
        103.8068828,
        1.4389035
      ],
      [
        103.8069572,
        1.4389256
      ],
      [
        103.8070947,
        1.4389712
      ],
      [
        103.8071886,
        1.4390268
      ],
      [
        103.8072516,
        1.4390858
      ],
      [
        103.8073341,
        1.4391676
      ],
      [
        103.8074078,
        1.4392547
      ],
      [
        103.8074825,
        1.4393713
      ],
      [
        103.8074987,
        1.4394228
      ],
      [
        103.8075142,
        1.4394716
      ],
      [
        103.8075292,
        1.4395195
      ],
      [
        103.8075543,
        1.4396154
      ],
      [
        103.8075656,
        1.4397008
      ],
      [
        103.8075675,
        1.4397614
      ],
      [
        103.8075641,
        1.4398125
      ],
      [
        103.807546,
        1.4399537
      ],
      [
        103.8075177,
        1.4400546
      ],
      [
        103.8074722,
        1.4401758
      ],
      [
        103.8074172,
        1.4402663
      ],
      [
        103.807314,
        1.4404064
      ],
      [
        103.8072952,
        1.4404231
      ],
      [
        103.8071953,
        1.4404949
      ],
      [
        103.8070808,
        1.4405584
      ],
      [
        103.8070397,
        1.4405981
      ],
      [
        103.8066711,
        1.4407533
      ],
      [
        103.8062288,
        1.440944
      ],
      [
        103.8061727,
        1.4409453
      ],
      [
        103.8060135,
        1.4410057
      ],
      [
        103.8058609,
        1.4410714
      ],
      [
        103.805805,
        1.4411452
      ],
      [
        103.8056119,
        1.4412352
      ],
      [
        103.8055448,
        1.4412938
      ],
      [
        103.8054634,
        1.4413579
      ],
      [
        103.8052101,
        1.4418341
      ],
      [
        103.8048692,
        1.4424775
      ],
      [
        103.8048235,
        1.4425701
      ],
      [
        103.8048185,
        1.442578
      ],
      [
        103.8047959,
        1.4426272
      ],
      [
        103.8047959,
        1.4426272
      ],
      [
        103.8047,
        1.4428326
      ],
      [
        103.8047258,
        1.4427767
      ],
      [
        103.8047423,
        1.4427421
      ],
      [
        103.8045855,
        1.4430717
      ],
      [
        103.8043718,
        1.4435007
      ],
      [
        103.8043363,
        1.443583
      ],
      [
        103.8040299,
        1.4441903
      ],
      [
        103.804227,
        1.4437788
      ],
      [
        103.8035524,
        1.4441066
      ],
      [
        103.8034397,
        1.444102
      ],
      [
        103.8033348,
        1.4441177
      ],
      [
        103.80325,
        1.4441442
      ],
      [
        103.8030304,
        1.444218
      ],
      [
        103.8029181,
        1.4442988
      ],
      [
        103.8027667,
        1.4444894
      ],
      [
        103.8025929,
        1.4448345
      ],
      [
        103.8024398,
        1.4452085
      ],
      [
        103.8023478,
        1.4454332
      ],
      [
        103.8022734,
        1.4455378
      ],
      [
        103.802207,
        1.4456153
      ],
      [
        103.8021282,
        1.4456984
      ],
      [
        103.8020551,
        1.4457478
      ],
      [
        103.8019143,
        1.4458338
      ],
      [
        103.801855,
        1.4458642
      ],
      [
        103.8018136,
        1.4458838
      ],
      [
        103.8016607,
        1.4459745
      ],
      [
        103.8015908,
        1.4460527
      ],
      [
        103.8015338,
        1.4461351
      ],
      [
        103.8014666,
        1.4463113
      ],
      [
        103.8014251,
        1.4464202
      ],
      [
        103.8014917,
        1.4464509
      ],
      [
        103.80177,
        1.4465817
      ],
      [
        103.8019736,
        1.4466671
      ],
      [
        103.8022743,
        1.4468067
      ],
      [
        103.8024357,
        1.4468767
      ],
      [
        103.8025186,
        1.4468958
      ],
      [
        103.8026128,
        1.4468984
      ],
      [
        103.8027175,
        1.4468833
      ],
      [
        103.8028217,
        1.4468491
      ],
      [
        103.8028784,
        1.4468404
      ],
      [
        103.8030346,
        1.4467245
      ],
      [
        103.8033205,
        1.4464968
      ],
      [
        103.8036111,
        1.4462788
      ],
      [
        103.8039727,
        1.4460144
      ],
      [
        103.8040952,
        1.4459186
      ],
      [
        103.8041446,
        1.44588
      ],
      [
        103.8041788,
        1.4458516
      ],
      [
        103.8042146,
        1.4458218
      ],
      [
        103.804269,
        1.4457767
      ],
      [
        103.8042955,
        1.4457211
      ],
      [
        103.8043865,
        1.4456505
      ],
      [
        103.8044489,
        1.4455968
      ],
      [
        103.8044946,
        1.4455471
      ],
      [
        103.8045428,
        1.4454761
      ],
      [
        103.8045751,
        1.4453919
      ],
      [
        103.8046095,
        1.4451971
      ],
      [
        103.8046192,
        1.4450678
      ],
      [
        103.8046208,
        1.4449345
      ],
      [
        103.8045814,
        1.4447549
      ],
      [
        103.8044834,
        1.4445808
      ],
      [
        103.8043877,
        1.4444897
      ],
      [
        103.8040683,
        1.4442809
      ],
      [
        103.804006,
        1.4442402
      ],
      [
        103.8040299,
        1.4441903
      ],
      [
        103.804227,
        1.4437788
      ],
      [
        103.8043363,
        1.443583
      ],
      [
        103.8043718,
        1.4435007
      ],
      [
        103.8045855,
        1.4430717
      ],
      [
        103.8047,
        1.4428326
      ],
      [
        103.8047258,
        1.4427767
      ],
      [
        103.8047423,
        1.4427421
      ],
      [
        103.8047959,
        1.4426272
      ],
      [
        103.8047959,
        1.4426272
      ],
      [
        103.8048235,
        1.4425701
      ],
      [
        103.8048185,
        1.442578
      ],
      [
        103.8048692,
        1.4424775
      ],
      [
        103.8052101,
        1.4418341
      ],
      [
        103.8055448,
        1.4412938
      ],
      [
        103.8054634,
        1.4413579
      ],
      [
        103.8056119,
        1.4412352
      ],
      [
        103.805881,
        1.4411344
      ],
      [
        103.8060401,
        1.4410663
      ],
      [
        103.8061955,
        1.4409916
      ],
      [
        103.8062288,
        1.440944
      ],
      [
        103.8062288,
        1.440944
      ],
      [
        103.8066711,
        1.4407533
      ],
      [
        103.8070971,
        1.4405847
      ],
      [
        103.8071137,
        1.4405756
      ],
      [
        103.8072181,
        1.4405297
      ],
      [
        103.8073272,
        1.4404648
      ],
      [
        103.8074086,
        1.4403781
      ],
      [
        103.8074858,
        1.4402749
      ],
      [
        103.8075354,
        1.4401885
      ],
      [
        103.8075885,
        1.4400732
      ],
      [
        103.8076133,
        1.4399883
      ],
      [
        103.8076261,
        1.4399013
      ],
      [
        103.8076375,
        1.4397764
      ],
      [
        103.8076327,
        1.4396526
      ],
      [
        103.8076171,
        1.4395687
      ],
      [
        103.8075925,
        1.4394885
      ],
      [
        103.807579,
        1.439446
      ],
      [
        103.8075625,
        1.4393931
      ],
      [
        103.8075458,
        1.4393399
      ],
      [
        103.8074426,
        1.4391787
      ],
      [
        103.8073691,
        1.4390948
      ],
      [
        103.8072819,
        1.4390132
      ],
      [
        103.8071825,
        1.4389474
      ],
      [
        103.8070772,
        1.4388933
      ],
      [
        103.8069939,
        1.438863
      ],
      [
        103.8068967,
        1.4388362
      ],
      [
        103.8068031,
        1.4388158
      ],
      [
        103.8066814,
        1.4388156
      ],
      [
        103.8065743,
        1.4388209
      ],
      [
        103.8065032,
        1.4388328
      ],
      [
        103.8064483,
        1.4388471
      ],
      [
        103.8063915,
        1.4388599
      ],
      [
        103.8062671,
        1.4389156
      ],
      [
        103.8057301,
        1.4391619
      ],
      [
        103.8056118,
        1.4392235
      ],
      [
        103.8055181,
        1.4392751
      ],
      [
        103.8052676,
        1.4393971
      ],
      [
        103.8049778,
        1.4395258
      ],
      [
        103.804929,
        1.439541
      ],
      [
        103.8048693,
        1.4395512
      ],
      [
        103.8048101,
        1.4395536
      ],
      [
        103.804722,
        1.4395376
      ],
      [
        103.804645,
        1.4395141
      ],
      [
        103.8045363,
        1.4394645
      ],
      [
        103.804444,
        1.4393969
      ],
      [
        103.8043374,
        1.4393493
      ],
      [
        103.8042164,
        1.4392948
      ],
      [
        103.804041,
        1.4392159
      ],
      [
        103.8038157,
        1.4391234
      ],
      [
        103.8036313,
        1.4390389
      ],
      [
        103.8032806,
        1.4388794
      ],
      [
        103.8031304,
        1.4388134
      ],
      [
        103.8030704,
        1.4387871
      ],
      [
        103.8030031,
        1.438755
      ],
      [
        103.8029883,
        1.4387872
      ],
      [
        103.8029446,
        1.438885
      ],
      [
        103.8027108,
        1.4394085
      ],
      [
        103.8025618,
        1.4397491
      ],
      [
        103.8024806,
        1.4399476
      ],
      [
        103.8023492,
        1.4402659
      ],
      [
        103.8022632,
        1.4404654
      ],
      [
        103.8021896,
        1.4406253
      ],
      [
        103.8021621,
        1.4406886
      ],
      [
        103.8021254,
        1.4407777
      ],
      [
        103.8020484,
        1.4409615
      ],
      [
        103.8019767,
        1.441116
      ],
      [
        103.8018783,
        1.4411941
      ],
      [
        103.8018084,
        1.4412249
      ],
      [
        103.8017657,
        1.4412343
      ],
      [
        103.8016291,
        1.4412598
      ],
      [
        103.8011013,
        1.440995
      ],
      [
        103.8005027,
        1.4407201
      ],
      [
        103.8002691,
        1.4406135
      ],
      [
        103.8001299,
        1.4405544
      ],
      [
        103.8000231,
        1.4405031
      ],
      [
        103.7997313,
        1.4403755
      ],
      [
        103.7996609,
        1.4403461
      ],
      [
        103.7992456,
        1.4401845
      ],
      [
        103.7984699,
        1.4398613
      ],
      [
        103.7980579,
        1.439685
      ],
      [
        103.7975992,
        1.4395069
      ],
      [
        103.7974798,
        1.439467
      ],
      [
        103.7973106,
        1.4394104
      ],
      [
        103.7967793,
        1.4392779
      ],
      [
        103.7963829,
        1.439221
      ],
      [
        103.7960944,
        1.4391863
      ],
      [
        103.7958094,
        1.4391649
      ],
      [
        103.7957554,
        1.4391608
      ],
      [
        103.7956449,
        1.4391542
      ],
      [
        103.7955727,
        1.4391486
      ],
      [
        103.7952584,
        1.439129
      ],
      [
        103.7948026,
        1.4390965
      ],
      [
        103.7939649,
        1.4390502
      ],
      [
        103.7938424,
        1.4390426
      ],
      [
        103.7934503,
        1.4390183
      ],
      [
        103.7930238,
        1.4389906
      ],
      [
        103.7926564,
        1.4389719
      ],
      [
        103.7921596,
        1.4389354
      ],
      [
        103.7921004,
        1.438931
      ],
      [
        103.7920203,
        1.4389265
      ],
      [
        103.791945,
        1.4389216
      ],
      [
        103.7915545,
        1.4388961
      ],
      [
        103.7910998,
        1.4388559
      ],
      [
        103.7907257,
        1.4387848
      ],
      [
        103.7906287,
        1.4387572
      ],
      [
        103.7904333,
        1.4387017
      ],
      [
        103.7901372,
        1.438583
      ],
      [
        103.7896787,
        1.4383929
      ],
      [
        103.7890808,
        1.4381495
      ],
      [
        103.789008,
        1.4381265
      ],
      [
        103.7888707,
        1.4380925
      ],
      [
        103.7887791,
        1.4380749
      ],
      [
        103.7886979,
        1.437988
      ],
      [
        103.7885017,
        1.4378995
      ],
      [
        103.7874578,
        1.4375079
      ],
      [
        103.7873585,
        1.4374731
      ],
      [
        103.7871182,
        1.437421
      ],
      [
        103.7849046,
        1.4365575
      ],
      [
        103.7850116,
        1.4362529
      ]
    ]
  }
}