{
  "type": "Feature",
  "properties": {
    "relation": 1152140,
    "direction": "1",
    "fee": "yes",
    "from": "Toa Payoh Interchange",
    "name": "Svc 90 (Toa Payoh Interchange ↺ Airport Road)",
    "name:en": "Svc 90 (Toa Payoh Interchange ↺ Airport Road)",
    "network": "Land Transport Authority",
    "network:short": "LTA",
    "network:wikidata": "Q3299279",
    "network:wikipedia": "en:Land Transport Authority",
    "operator": "SBS Transit",
    "operator:wikidata": "Q2661305",
    "operator:wikipedia": "en:SBS Transit",
    "public_transport:version": "2",
    "ref": "90",
    "roundtrip": "yes",
    "route": "bus",
    "to": "Toa Payoh Interchange",
    "type": "route",
    "via": "Airport Road",
    "website": "https://www.sbstransit.com.sg/"
  },
  "geometry": {
    "type": "LineString",
    "coordinates": [
      [
        103.8467952,
        1.3319138
      ],
      [
        103.8467217,
        1.3320515
      ],
      [
        103.8466995,
        1.3321823
      ],
      [
        103.8466995,
        1.3323142
      ],
      [
        103.8467778,
        1.332553
      ],
      [
        103.8467805,
        1.3325661
      ],
      [
        103.8467801,
        1.3325799
      ],
      [
        103.8467763,
        1.3325922
      ],
      [
        103.8467646,
        1.3326024
      ],
      [
        103.8466666,
        1.3326462
      ],
      [
        103.8465995,
        1.3326596
      ],
      [
        103.8465673,
        1.3325346
      ],
      [
        103.8465224,
        1.3323565
      ],
      [
        103.8464636,
        1.3321421
      ],
      [
        103.8464899,
        1.3319765
      ],
      [
        103.8465072,
        1.33187
      ],
      [
        103.8465526,
        1.3317639
      ],
      [
        103.8466018,
        1.3316966
      ],
      [
        103.8466696,
        1.3316393
      ],
      [
        103.8467278,
        1.3315959
      ],
      [
        103.8468963,
        1.3315268
      ],
      [
        103.8473107,
        1.3314516
      ],
      [
        103.8475702,
        1.3314206
      ],
      [
        103.8477079,
        1.3314001
      ],
      [
        103.8478281,
        1.3313872
      ],
      [
        103.8484194,
        1.3313044
      ],
      [
        103.8487228,
        1.3312646
      ],
      [
        103.8491013,
        1.3312149
      ],
      [
        103.8492258,
        1.3311986
      ],
      [
        103.8494008,
        1.3311748
      ],
      [
        103.8497018,
        1.3311338
      ],
      [
        103.8498782,
        1.331111
      ],
      [
        103.8500468,
        1.3310863
      ],
      [
        103.850134,
        1.3310788
      ],
      [
        103.8502409,
        1.3310756
      ],
      [
        103.8503758,
        1.3310781
      ],
      [
        103.8505225,
        1.3310866
      ],
      [
        103.8506662,
        1.3311026
      ],
      [
        103.8508041,
        1.3311195
      ],
      [
        103.8510369,
        1.3311551
      ],
      [
        103.8513483,
        1.3311986
      ],
      [
        103.8517434,
        1.3312562
      ],
      [
        103.8518172,
        1.3312706
      ],
      [
        103.8518733,
        1.3312821
      ],
      [
        103.8524152,
        1.3313627
      ],
      [
        103.8533431,
        1.3314956
      ],
      [
        103.8536354,
        1.33154
      ],
      [
        103.8539062,
        1.3315818
      ],
      [
        103.8539959,
        1.3315961
      ],
      [
        103.8541214,
        1.3316229
      ],
      [
        103.854304,
        1.3316611
      ],
      [
        103.8543394,
        1.3316685
      ],
      [
        103.8545117,
        1.3316643
      ],
      [
        103.8546274,
        1.3316507
      ],
      [
        103.8546404,
        1.3316457
      ],
      [
        103.8547018,
        1.331622
      ],
      [
        103.8547562,
        1.3315932
      ],
      [
        103.8548088,
        1.3315647
      ],
      [
        103.8548303,
        1.3315315
      ],
      [
        103.8549675,
        1.3311415
      ],
      [
        103.855064,
        1.3308739
      ],
      [
        103.8551507,
        1.3306407
      ],
      [
        103.8554692,
        1.3297998
      ],
      [
        103.8555546,
        1.3295945
      ],
      [
        103.8556579,
        1.3294552
      ],
      [
        103.8556987,
        1.3294047
      ],
      [
        103.8557587,
        1.3293599
      ],
      [
        103.8558871,
        1.3293142
      ],
      [
        103.8560176,
        1.3292851
      ],
      [
        103.8562214,
        1.3292673
      ],
      [
        103.8565003,
        1.3292758
      ],
      [
        103.8566615,
        1.3292858
      ],
      [
        103.8569867,
        1.3292856
      ],
      [
        103.8583619,
        1.3297274
      ],
      [
        103.8594346,
        1.3300601
      ],
      [
        103.8594749,
        1.3301194
      ],
      [
        103.8595047,
        1.3301509
      ],
      [
        103.8595403,
        1.3301792
      ],
      [
        103.8599468,
        1.3303493
      ],
      [
        103.8600276,
        1.3303769
      ],
      [
        103.8602897,
        1.3305096
      ],
      [
        103.8604413,
        1.3305733
      ],
      [
        103.8605137,
        1.3305987
      ],
      [
        103.8607295,
        1.3306588
      ],
      [
        103.8610245,
        1.3307217
      ],
      [
        103.8613684,
        1.3307508
      ],
      [
        103.8616926,
        1.3307341
      ],
      [
        103.8620057,
        1.330721
      ],
      [
        103.8626191,
        1.3306329
      ],
      [
        103.8629289,
        1.3305578
      ],
      [
        103.8632715,
        1.3304471
      ],
      [
        103.8636671,
        1.3302978
      ],
      [
        103.8640196,
        1.3301224
      ],
      [
        103.864319,
        1.3299813
      ],
      [
        103.8644933,
        1.3299185
      ],
      [
        103.8650629,
        1.3296161
      ],
      [
        103.8653972,
        1.3294658
      ],
      [
        103.8657942,
        1.3293378
      ],
      [
        103.8660417,
        1.3292657
      ],
      [
        103.8662044,
        1.3292231
      ],
      [
        103.8664084,
        1.3291711
      ],
      [
        103.866556,
        1.3291335
      ],
      [
        103.8666644,
        1.329097
      ],
      [
        103.8667556,
        1.3290742
      ],
      [
        103.866983,
        1.3290198
      ],
      [
        103.8672311,
        1.3289539
      ],
      [
        103.8675081,
        1.3288636
      ],
      [
        103.8677674,
        1.328771
      ],
      [
        103.8678835,
        1.3287344
      ],
      [
        103.8679885,
        1.3286956
      ],
      [
        103.8681816,
        1.3286013
      ],
      [
        103.8682385,
        1.3285729
      ],
      [
        103.8684793,
        1.3284595
      ],
      [
        103.8686172,
        1.3283909
      ],
      [
        103.8686802,
        1.3283614
      ],
      [
        103.8687429,
        1.3283275
      ],
      [
        103.8689327,
        1.3282719
      ],
      [
        103.8690648,
        1.3282323
      ],
      [
        103.869171,
        1.3282172
      ],
      [
        103.8693052,
        1.3282084
      ],
      [
        103.8695382,
        1.3282287
      ],
      [
        103.8697551,
        1.3282583
      ],
      [
        103.8699069,
        1.328283
      ],
      [
        103.8701914,
        1.32837
      ],
      [
        103.8705997,
        1.3284966
      ],
      [
        103.8707893,
        1.3285557
      ],
      [
        103.8714889,
        1.3287786
      ],
      [
        103.872563,
        1.3291501
      ],
      [
        103.8726811,
        1.329189
      ],
      [
        103.8728295,
        1.3292428
      ],
      [
        103.8734418,
        1.3294523
      ],
      [
        103.8738204,
        1.3295822
      ],
      [
        103.8742637,
        1.3297431
      ],
      [
        103.8743582,
        1.3297795
      ],
      [
        103.8749384,
        1.3299967
      ],
      [
        103.8773189,
        1.3308005
      ],
      [
        103.8780612,
        1.3310421
      ],
      [
        103.8783029,
        1.3311223
      ],
      [
        103.8785542,
        1.3312058
      ],
      [
        103.8788565,
        1.3313035
      ],
      [
        103.878928,
        1.3313252
      ],
      [
        103.8790493,
        1.3313621
      ],
      [
        103.8791179,
        1.3313828
      ],
      [
        103.8798743,
        1.3315984
      ],
      [
        103.880072,
        1.331636
      ],
      [
        103.8801916,
        1.3316613
      ],
      [
        103.8805061,
        1.3317348
      ],
      [
        103.8806787,
        1.3317758
      ],
      [
        103.8809075,
        1.3318238
      ],
      [
        103.8813739,
        1.3319223
      ],
      [
        103.88154,
        1.3319577
      ],
      [
        103.8817044,
        1.3319958
      ],
      [
        103.8819245,
        1.3320402
      ],
      [
        103.8823464,
        1.3321353
      ],
      [
        103.8824366,
        1.3321532
      ],
      [
        103.88252,
        1.3321741
      ],
      [
        103.8825629,
        1.3321831
      ],
      [
        103.8834384,
        1.3323665
      ],
      [
        103.8835607,
        1.3323942
      ],
      [
        103.8836765,
        1.3324168
      ],
      [
        103.8837291,
        1.3324287
      ],
      [
        103.8838884,
        1.3324618
      ],
      [
        103.8846527,
        1.3326207
      ],
      [
        103.8852532,
        1.3327559
      ],
      [
        103.8858533,
        1.3328868
      ],
      [
        103.8859395,
        1.3329038
      ],
      [
        103.8869244,
        1.3331284
      ],
      [
        103.88746,
        1.3332549
      ],
      [
        103.8880178,
        1.3333828
      ],
      [
        103.8881299,
        1.3334104
      ],
      [
        103.888254,
        1.3334373
      ],
      [
        103.8884122,
        1.3334781
      ],
      [
        103.8887768,
        1.3335844
      ],
      [
        103.8888697,
        1.3336093
      ],
      [
        103.8890214,
        1.3336466
      ],
      [
        103.8891156,
        1.3336715
      ],
      [
        103.8895099,
        1.3337838
      ],
      [
        103.8905776,
        1.3341211
      ],
      [
        103.8908536,
        1.3342157
      ],
      [
        103.891749,
        1.3346016
      ],
      [
        103.8927033,
        1.3350719
      ],
      [
        103.8931574,
        1.3353396
      ],
      [
        103.8935295,
        1.3355729
      ],
      [
        103.8935713,
        1.3355968
      ],
      [
        103.8937534,
        1.3357323
      ],
      [
        103.8938097,
        1.335774
      ],
      [
        103.893898,
        1.3358405
      ],
      [
        103.8939519,
        1.3358776
      ],
      [
        103.8940516,
        1.3359464
      ],
      [
        103.8941881,
        1.336038
      ],
      [
        103.8945307,
        1.3362774
      ],
      [
        103.8948445,
        1.3365295
      ],
      [
        103.8950457,
        1.3366877
      ],
      [
        103.8953193,
        1.3370095
      ],
      [
        103.8956688,
        1.3373551
      ],
      [
        103.8957224,
        1.3374341
      ],
      [
        103.8957789,
        1.3375124
      ],
      [
        103.8959685,
        1.3377359
      ],
      [
        103.8960216,
        1.3377962
      ],
      [
        103.8961297,
        1.3379495
      ],
      [
        103.8961776,
        1.3380191
      ],
      [
        103.896352,
        1.3382721
      ],
      [
        103.896977,
        1.3391937
      ],
      [
        103.8972723,
        1.3395975
      ],
      [
        103.8975404,
        1.3400244
      ],
      [
        103.8977129,
        1.3402788
      ],
      [
        103.897743,
        1.3403231
      ],
      [
        103.8978873,
        1.3405584
      ],
      [
        103.8979405,
        1.3406478
      ],
      [
        103.8980284,
        1.3407959
      ],
      [
        103.8981568,
        1.3410123
      ],
      [
        103.8983019,
        1.3412703
      ],
      [
        103.8985406,
        1.3418013
      ],
      [
        103.8987109,
        1.3422115
      ],
      [
        103.8988229,
        1.3425928
      ],
      [
        103.8988662,
        1.342764
      ],
      [
        103.8988932,
        1.3428704
      ],
      [
        103.8989601,
        1.3432082
      ],
      [
        103.8989967,
        1.343418
      ],
      [
        103.8990377,
        1.3436977
      ],
      [
        103.8990579,
        1.3439063
      ],
      [
        103.8990696,
        1.3440776
      ],
      [
        103.8990686,
        1.3441564
      ],
      [
        103.8990675,
        1.3442777
      ],
      [
        103.8990537,
        1.3445533
      ],
      [
        103.8990228,
        1.3448959
      ],
      [
        103.8990033,
        1.3450619
      ],
      [
        103.8989885,
        1.3451518
      ],
      [
        103.8989699,
        1.3452269
      ],
      [
        103.8989252,
        1.3453931
      ],
      [
        103.8988017,
        1.3457977
      ],
      [
        103.8986756,
        1.346211
      ],
      [
        103.898613,
        1.3464161
      ],
      [
        103.8984187,
        1.3469587
      ],
      [
        103.8983887,
        1.3470796
      ],
      [
        103.8983417,
        1.3472702
      ],
      [
        103.8983236,
        1.3473435
      ],
      [
        103.8983227,
        1.3473681
      ],
      [
        103.8983176,
        1.3473985
      ],
      [
        103.8982878,
        1.3476099
      ],
      [
        103.8982707,
        1.3480165
      ],
      [
        103.8982734,
        1.348315
      ],
      [
        103.8983088,
        1.3486385
      ],
      [
        103.8983352,
        1.348763
      ],
      [
        103.8983586,
        1.3488886
      ],
      [
        103.898436,
        1.3491821
      ],
      [
        103.8985225,
        1.3494941
      ],
      [
        103.8985864,
        1.3496761
      ],
      [
        103.8986833,
        1.3499293
      ],
      [
        103.8988759,
        1.3504249
      ],
      [
        103.8990228,
        1.3507774
      ],
      [
        103.8995613,
        1.351977
      ],
      [
        103.899647,
        1.3521732
      ],
      [
        103.899749,
        1.3523536
      ],
      [
        103.899714,
        1.3523994
      ],
      [
        103.8996933,
        1.3524533
      ],
      [
        103.8996887,
        1.3525108
      ],
      [
        103.8997004,
        1.3525673
      ],
      [
        103.8997277,
        1.3526182
      ],
      [
        103.8997681,
        1.3526594
      ],
      [
        103.8998083,
        1.3526832
      ],
      [
        103.8998528,
        1.3526972
      ],
      [
        103.8998994,
        1.3527006
      ],
      [
        103.8999455,
        1.3526933
      ],
      [
        103.8999887,
        1.3526756
      ],
      [
        103.9000389,
        1.3526367
      ],
      [
        103.9000745,
        1.3525841
      ],
      [
        103.9000921,
        1.3525231
      ],
      [
        103.9000899,
        1.3524597
      ],
      [
        103.9000682,
        1.3524
      ],
      [
        103.9000291,
        1.35235
      ],
      [
        103.8999765,
        1.3523145
      ],
      [
        103.8999154,
        1.3522971
      ],
      [
        103.8998062,
        1.3522248
      ],
      [
        103.8997194,
        1.352113
      ],
      [
        103.8996416,
        1.351947
      ],
      [
        103.8991226,
        1.3507402
      ],
      [
        103.8989977,
        1.3504348
      ],
      [
        103.898771,
        1.3497957
      ],
      [
        103.8987207,
        1.3496481
      ],
      [
        103.8986292,
        1.349381
      ],
      [
        103.8985436,
        1.349124
      ],
      [
        103.8984553,
        1.3488389
      ],
      [
        103.8984009,
        1.3486529
      ],
      [
        103.8983464,
        1.3483914
      ],
      [
        103.8983365,
        1.347984
      ],
      [
        103.8983525,
        1.3476905
      ],
      [
        103.8983904,
        1.3474336
      ],
      [
        103.898405,
        1.3473563
      ],
      [
        103.8984217,
        1.347288
      ],
      [
        103.898473,
        1.3470792
      ],
      [
        103.8987217,
        1.3463719
      ],
      [
        103.8987737,
        1.346224
      ],
      [
        103.8989134,
        1.345826
      ],
      [
        103.8989956,
        1.3455917
      ],
      [
        103.8990174,
        1.3454985
      ],
      [
        103.8990835,
        1.3452077
      ],
      [
        103.899142,
        1.3449013
      ],
      [
        103.8991605,
        1.3447888
      ],
      [
        103.8991823,
        1.3445517
      ],
      [
        103.8991918,
        1.3444232
      ],
      [
        103.8992016,
        1.3441568
      ],
      [
        103.8992006,
        1.3440808
      ],
      [
        103.8991956,
        1.3438294
      ],
      [
        103.8991829,
        1.3436736
      ],
      [
        103.8991516,
        1.343437
      ],
      [
        103.8991227,
        1.3432413
      ],
      [
        103.8990576,
        1.3428961
      ],
      [
        103.8990442,
        1.3428222
      ],
      [
        103.8989738,
        1.3425314
      ],
      [
        103.8988638,
        1.3421566
      ],
      [
        103.898778,
        1.3419233
      ],
      [
        103.8987109,
        1.3417423
      ],
      [
        103.8984615,
        1.3411805
      ],
      [
        103.8981039,
        1.3405649
      ],
      [
        103.8980468,
        1.3404667
      ],
      [
        103.8979238,
        1.3402232
      ],
      [
        103.8978892,
        1.3401413
      ],
      [
        103.8978668,
        1.3400497
      ],
      [
        103.897766,
        1.3398576
      ],
      [
        103.8974407,
        1.3392778
      ],
      [
        103.8972543,
        1.3389456
      ],
      [
        103.8970225,
        1.3385875
      ],
      [
        103.8970064,
        1.338566
      ],
      [
        103.896895,
        1.3383971
      ],
      [
        103.896747,
        1.3382178
      ],
      [
        103.8963792,
        1.3378215
      ],
      [
        103.896315,
        1.3377523
      ],
      [
        103.8962049,
        1.3376284
      ],
      [
        103.8961451,
        1.3375641
      ],
      [
        103.8959143,
        1.337308
      ],
      [
        103.8954786,
        1.336858
      ],
      [
        103.8948566,
        1.3362838
      ],
      [
        103.8944167,
        1.3359623
      ],
      [
        103.8941555,
        1.3357776
      ],
      [
        103.8940613,
        1.3357153
      ],
      [
        103.8939909,
        1.3356703
      ],
      [
        103.8939118,
        1.3356192
      ],
      [
        103.8938469,
        1.3355798
      ],
      [
        103.8937054,
        1.3354886
      ],
      [
        103.8935247,
        1.3353742
      ],
      [
        103.8933732,
        1.3352779
      ],
      [
        103.8925787,
        1.3348374
      ],
      [
        103.8918244,
        1.3344611
      ],
      [
        103.8909151,
        1.3341094
      ],
      [
        103.8905045,
        1.3339606
      ],
      [
        103.8901469,
        1.3338277
      ],
      [
        103.8898608,
        1.3337379
      ],
      [
        103.8896093,
        1.3336634
      ],
      [
        103.8891419,
        1.3335298
      ],
      [
        103.8890498,
        1.333507
      ],
      [
        103.8888993,
        1.3334729
      ],
      [
        103.8888058,
        1.3334487
      ],
      [
        103.8884773,
        1.3333619
      ],
      [
        103.888287,
        1.3333176
      ],
      [
        103.8881069,
        1.3332771
      ],
      [
        103.8875987,
        1.3331645
      ],
      [
        103.8873703,
        1.3331113
      ],
      [
        103.8871205,
        1.3330551
      ],
      [
        103.886783,
        1.3329791
      ],
      [
        103.8865738,
        1.332932
      ],
      [
        103.8859572,
        1.3328116
      ],
      [
        103.885874,
        1.3327915
      ],
      [
        103.8853565,
        1.3326627
      ],
      [
        103.8853379,
        1.3326586
      ],
      [
        103.8853033,
        1.3326508
      ],
      [
        103.884923,
        1.3325742
      ],
      [
        103.8848681,
        1.3325629
      ],
      [
        103.8842953,
        1.3324448
      ],
      [
        103.8839012,
        1.3323608
      ],
      [
        103.8837491,
        1.3323277
      ],
      [
        103.8836998,
        1.3323167
      ],
      [
        103.8832853,
        1.3322241
      ],
      [
        103.8830578,
        1.3321764
      ],
      [
        103.8828834,
        1.3321369
      ],
      [
        103.8828156,
        1.3321219
      ],
      [
        103.8827338,
        1.3321038
      ],
      [
        103.8825699,
        1.3320676
      ],
      [
        103.882461,
        1.3320424
      ],
      [
        103.882371,
        1.332021
      ],
      [
        103.8819908,
        1.331941
      ],
      [
        103.8818076,
        1.3319012
      ],
      [
        103.8815624,
        1.331844
      ],
      [
        103.880927,
        1.3317012
      ],
      [
        103.8807306,
        1.3316571
      ],
      [
        103.8801742,
        1.3315312
      ],
      [
        103.8798675,
        1.3314552
      ],
      [
        103.8795518,
        1.3313598
      ],
      [
        103.8791554,
        1.3312401
      ],
      [
        103.8790978,
        1.3312227
      ],
      [
        103.8789662,
        1.3311807
      ],
      [
        103.87891,
        1.3311643
      ],
      [
        103.8782668,
        1.330976
      ],
      [
        103.8782169,
        1.3309614
      ],
      [
        103.8780731,
        1.3309145
      ],
      [
        103.8773292,
        1.3306731
      ],
      [
        103.8764903,
        1.3303976
      ],
      [
        103.8755017,
        1.3300631
      ],
      [
        103.8753048,
        1.3299897
      ],
      [
        103.8749838,
        1.3298837
      ],
      [
        103.8743881,
        1.3296884
      ],
      [
        103.8742934,
        1.3296556
      ],
      [
        103.8738275,
        1.3294929
      ],
      [
        103.8736058,
        1.3294156
      ],
      [
        103.8731018,
        1.3292428
      ],
      [
        103.8728769,
        1.3291636
      ],
      [
        103.8727094,
        1.3291087
      ],
      [
        103.8725962,
        1.3290634
      ],
      [
        103.8724312,
        1.3290133
      ],
      [
        103.8719056,
        1.3288274
      ],
      [
        103.8716356,
        1.3287351
      ],
      [
        103.8714405,
        1.3286741
      ],
      [
        103.8711753,
        1.3285898
      ],
      [
        103.8708804,
        1.3284804
      ],
      [
        103.87074,
        1.3284276
      ],
      [
        103.8706729,
        1.3284034
      ],
      [
        103.8705759,
        1.3283662
      ],
      [
        103.8703892,
        1.3282692
      ],
      [
        103.8703167,
        1.3282385
      ],
      [
        103.8702219,
        1.3282001
      ],
      [
        103.8700934,
        1.3281676
      ],
      [
        103.8698931,
        1.32811
      ],
      [
        103.8696907,
        1.3280707
      ],
      [
        103.8695231,
        1.3280044
      ],
      [
        103.8695057,
        1.3279882
      ],
      [
        103.8694708,
        1.3279599
      ],
      [
        103.86945,
        1.3279419
      ],
      [
        103.8694065,
        1.3278991
      ],
      [
        103.8693677,
        1.3278517
      ],
      [
        103.8692075,
        1.3276294
      ],
      [
        103.8690788,
        1.3274944
      ],
      [
        103.8688281,
        1.3273932
      ],
      [
        103.8686376,
        1.3275034
      ],
      [
        103.8684347,
        1.3276089
      ],
      [
        103.8682941,
        1.3276922
      ],
      [
        103.8681811,
        1.3277733
      ],
      [
        103.8680565,
        1.3278841
      ],
      [
        103.8680073,
        1.3279739
      ],
      [
        103.8679707,
        1.3280143
      ],
      [
        103.8679069,
        1.3280721
      ],
      [
        103.8678716,
        1.3281089
      ],
      [
        103.8677575,
        1.3281706
      ],
      [
        103.8675121,
        1.3282611
      ],
      [
        103.8669542,
        1.3284599
      ],
      [
        103.8661639,
        1.3286944
      ],
      [
        103.8658854,
        1.328771
      ],
      [
        103.8657413,
        1.3288094
      ],
      [
        103.8655588,
        1.3288646
      ],
      [
        103.8650386,
        1.3290223
      ],
      [
        103.8645686,
        1.3292092
      ],
      [
        103.8643099,
        1.3293239
      ],
      [
        103.8641999,
        1.3293431
      ],
      [
        103.8640055,
        1.329423
      ],
      [
        103.8635323,
        1.3296529
      ],
      [
        103.8632863,
        1.3297766
      ],
      [
        103.8629889,
        1.3299146
      ],
      [
        103.8626473,
        1.3300661
      ],
      [
        103.862331,
        1.3301378
      ],
      [
        103.8620312,
        1.3302032
      ],
      [
        103.8618031,
        1.3302313
      ],
      [
        103.861623,
        1.3302323
      ],
      [
        103.8613621,
        1.3302192
      ],
      [
        103.8611494,
        1.3301954
      ],
      [
        103.8607558,
        1.3301484
      ],
      [
        103.860411,
        1.330079
      ],
      [
        103.8600224,
        1.3299607
      ],
      [
        103.8598777,
        1.3299131
      ],
      [
        103.8595116,
        1.3297985
      ],
      [
        103.8592481,
        1.329704
      ],
      [
        103.8590074,
        1.3296068
      ],
      [
        103.8584772,
        1.3293637
      ],
      [
        103.858181,
        1.3292752
      ],
      [
        103.8577726,
        1.3291759
      ],
      [
        103.857482,
        1.329114
      ],
      [
        103.8571784,
        1.3290307
      ],
      [
        103.8568571,
        1.3289548
      ],
      [
        103.8566329,
        1.3289148
      ],
      [
        103.8564235,
        1.328882
      ],
      [
        103.8562327,
        1.3288721
      ],
      [
        103.85607,
        1.3288883
      ],
      [
        103.8559236,
        1.3289419
      ],
      [
        103.8558258,
        1.3289962
      ],
      [
        103.8557495,
        1.3290608
      ],
      [
        103.8556803,
        1.3291296
      ],
      [
        103.8556251,
        1.3292138
      ],
      [
        103.8555653,
        1.3293156
      ],
      [
        103.8555125,
        1.3294376
      ],
      [
        103.8554299,
        1.3296568
      ],
      [
        103.8552848,
        1.3300091
      ],
      [
        103.8551459,
        1.3303931
      ],
      [
        103.8549961,
        1.3308221
      ],
      [
        103.854935,
        1.3309836
      ],
      [
        103.8547189,
        1.3312206
      ],
      [
        103.8546107,
        1.3312959
      ],
      [
        103.8545566,
        1.3313163
      ],
      [
        103.8545064,
        1.3313352
      ],
      [
        103.8544189,
        1.3313602
      ],
      [
        103.854325,
        1.3313717
      ],
      [
        103.8541006,
        1.3313782
      ],
      [
        103.8539659,
        1.3313682
      ],
      [
        103.8539165,
        1.3313652
      ],
      [
        103.8537505,
        1.3313614
      ],
      [
        103.853595,
        1.3313586
      ],
      [
        103.8535172,
        1.3313598
      ],
      [
        103.8532039,
        1.331354
      ],
      [
        103.8528807,
        1.3313218
      ],
      [
        103.8525611,
        1.3312874
      ],
      [
        103.8518883,
        1.331186
      ],
      [
        103.8518313,
        1.3311759
      ],
      [
        103.8517614,
        1.331162
      ],
      [
        103.8508422,
        1.3310289
      ],
      [
        103.850655,
        1.3310014
      ],
      [
        103.8505176,
        1.3309865
      ],
      [
        103.8503556,
        1.3309748
      ],
      [
        103.8502454,
        1.3309736
      ],
      [
        103.8500505,
        1.3309907
      ],
      [
        103.8496967,
        1.3310298
      ],
      [
        103.8495342,
        1.3310502
      ],
      [
        103.8492632,
        1.3310952
      ],
      [
        103.8490063,
        1.3311259
      ],
      [
        103.848657,
        1.3311742
      ],
      [
        103.8484541,
        1.3312029
      ],
      [
        103.847813,
        1.3312841
      ],
      [
        103.8477321,
        1.3312964
      ],
      [
        103.8476758,
        1.3313057
      ],
      [
        103.8475952,
        1.331319
      ],
      [
        103.8475702,
        1.3314206
      ],
      [
        103.847546,
        1.3315009
      ],
      [
        103.8475064,
        1.3316175
      ],
      [
        103.8474931,
        1.3316237
      ],
      [
        103.84748,
        1.3316275
      ],
      [
        103.8473008,
        1.3316302
      ],
      [
        103.8470626,
        1.3316991
      ],
      [
        103.846909,
        1.3317975
      ],
      [
        103.8468287,
        1.3318605
      ],
      [
        103.8467952,
        1.3319138
      ]
    ]
  }
}