{
  "type": "Feature",
  "properties": {
    "relation": 12980593,
    "direction": "1",
    "fee": "yes",
    "from": "Woodlands Interchange",
    "name": "Svc 911T (Woodlands Interchange ↺ Woodlands Ave 2/Woodlands Centre Road)",
    "name:en": "Svc 911T (Woodlands Interchange ↺ Woodlands Ave 2/Woodlands Centre Road)",
    "network": "Land Transport Authority",
    "network:short": "LTA",
    "network:wikidata": "Q3299279",
    "network:wikipedia": "en:Land Transport Authority",
    "operator": "SMRT Buses",
    "operator:wikidata": "Q10852420",
    "operator:wikipedia": "en:SMRT Buses",
    "public_transport:version": "2",
    "ref": "911T",
    "route": "bus",
    "to": "Woodlands Interchange",
    "type": "route",
    "website": "https://www.smrt.com.sg/"
  },
  "geometry": {
    "type": "LineString",
    "coordinates": [
      [
        103.7850116,
        1.4362529
      ],
      [
        103.7852459,
        1.4363383
      ],
      [
        103.7865729,
        1.4368226
      ],
      [
        103.7869319,
        1.4368181
      ],
      [
        103.7874208,
        1.4370074
      ],
      [
        103.7874717,
        1.4370752
      ],
      [
        103.7874725,
        1.4371669
      ],
      [
        103.7873585,
        1.4374731
      ],
      [
        103.7872803,
        1.4376806
      ],
      [
        103.7872975,
        1.4377797
      ],
      [
        103.787348,
        1.4378302
      ],
      [
        103.7882185,
        1.438165
      ],
      [
        103.7883575,
        1.4381997
      ],
      [
        103.7885905,
        1.438232
      ],
      [
        103.7887361,
        1.4381905
      ],
      [
        103.78882,
        1.438211
      ],
      [
        103.7889644,
        1.4382441
      ],
      [
        103.7890285,
        1.4382632
      ],
      [
        103.7893389,
        1.4383921
      ],
      [
        103.7899505,
        1.4387004
      ],
      [
        103.7900856,
        1.4387502
      ],
      [
        103.7903619,
        1.4388521
      ],
      [
        103.7903904,
        1.4388626
      ],
      [
        103.7907015,
        1.4389511
      ],
      [
        103.7910824,
        1.4390081
      ],
      [
        103.79154,
        1.4390429
      ],
      [
        103.7919371,
        1.439064
      ],
      [
        103.7920171,
        1.4390683
      ],
      [
        103.7920137,
        1.4391301
      ],
      [
        103.7919675,
        1.4399658
      ],
      [
        103.7919489,
        1.4403863
      ],
      [
        103.7919559,
        1.4404995
      ],
      [
        103.7920044,
        1.440595
      ],
      [
        103.7920979,
        1.4406837
      ],
      [
        103.7922093,
        1.4407404
      ],
      [
        103.7923424,
        1.4407658
      ],
      [
        103.7924428,
        1.4407729
      ],
      [
        103.7929314,
        1.4408017
      ],
      [
        103.7937196,
        1.4408517
      ],
      [
        103.7938811,
        1.4408736
      ],
      [
        103.7940081,
        1.4409042
      ],
      [
        103.794398,
        1.4410679
      ],
      [
        103.7947524,
        1.4412696
      ],
      [
        103.7948112,
        1.4413093
      ],
      [
        103.7952149,
        1.4416094
      ],
      [
        103.795282,
        1.4416506
      ],
      [
        103.795253,
        1.4416882
      ],
      [
        103.7951782,
        1.4417837
      ],
      [
        103.795013,
        1.4420158
      ],
      [
        103.7947868,
        1.4423212
      ],
      [
        103.7944306,
        1.4428245
      ],
      [
        103.794263,
        1.4430613
      ],
      [
        103.7940383,
        1.4433726
      ],
      [
        103.7939272,
        1.4435289
      ],
      [
        103.7936595,
        1.4439056
      ],
      [
        103.7933627,
        1.4443189
      ],
      [
        103.7933269,
        1.4443687
      ],
      [
        103.7932574,
        1.4443175
      ],
      [
        103.793011,
        1.4441358
      ],
      [
        103.7928355,
        1.4440613
      ],
      [
        103.7922102,
        1.4440259
      ],
      [
        103.7920763,
        1.4440182
      ],
      [
        103.791894,
        1.444005
      ],
      [
        103.7917958,
        1.4440028
      ],
      [
        103.7916348,
        1.4439491
      ],
      [
        103.7915276,
        1.4438311
      ],
      [
        103.7915127,
        1.4437839
      ],
      [
        103.791502,
        1.443736
      ],
      [
        103.791503,
        1.4436059
      ],
      [
        103.7915084,
        1.4434476
      ],
      [
        103.7915218,
        1.4431306
      ],
      [
        103.7915345,
        1.4426357
      ],
      [
        103.7914917,
        1.4425023
      ],
      [
        103.7913973,
        1.4423896
      ],
      [
        103.7913752,
        1.4423662
      ],
      [
        103.7913246,
        1.4423383
      ],
      [
        103.7912554,
        1.442314
      ],
      [
        103.7912362,
        1.4423082
      ],
      [
        103.7908372,
        1.442282
      ],
      [
        103.7906786,
        1.4422703
      ],
      [
        103.7906041,
        1.4422709
      ],
      [
        103.7905727,
        1.4422859
      ],
      [
        103.7905727,
        1.4422859
      ],
      [
        103.7902808,
        1.4422729
      ],
      [
        103.7891856,
        1.4421201
      ],
      [
        103.789385,
        1.4421959
      ],
      [
        103.7897094,
        1.442233
      ],
      [
        103.7890321,
        1.4422801
      ],
      [
        103.78906,
        1.4422203
      ],
      [
        103.7890969,
        1.4421412
      ],
      [
        103.7891186,
        1.4420947
      ],
      [
        103.7888622,
        1.4425691
      ],
      [
        103.7889434,
        1.4424304
      ],
      [
        103.7887119,
        1.442815
      ],
      [
        103.78853,
        1.4431123
      ],
      [
        103.7882224,
        1.4435359
      ],
      [
        103.7881415,
        1.4434815
      ],
      [
        103.7861857,
        1.4421678
      ],
      [
        103.7859523,
        1.4420027
      ],
      [
        103.7858725,
        1.4419457
      ],
      [
        103.785843,
        1.4419227
      ],
      [
        103.7857323,
        1.4418387
      ],
      [
        103.7855921,
        1.4417122
      ],
      [
        103.7855498,
        1.4416624
      ],
      [
        103.7854681,
        1.4415652
      ],
      [
        103.7853772,
        1.4414575
      ],
      [
        103.7853385,
        1.4412859
      ],
      [
        103.7853319,
        1.441186
      ],
      [
        103.7853651,
        1.4410893
      ],
      [
        103.7854662,
        1.440931
      ],
      [
        103.7857866,
        1.4407298
      ],
      [
        103.7865212,
        1.4403171
      ],
      [
        103.7872005,
        1.4399328
      ],
      [
        103.7873854,
        1.4398295
      ],
      [
        103.7876426,
        1.4396865
      ],
      [
        103.7879091,
        1.439537
      ],
      [
        103.7882565,
        1.4392752
      ],
      [
        103.7885064,
        1.439596
      ],
      [
        103.7884157,
        1.4394499
      ],
      [
        103.7883299,
        1.4393533
      ],
      [
        103.7882565,
        1.4392752
      ],
      [
        103.7885955,
        1.4397836
      ],
      [
        103.7885553,
        1.4396967
      ],
      [
        103.7887167,
        1.4399988
      ],
      [
        103.789037,
        1.4406213
      ],
      [
        103.7891342,
        1.4408144
      ],
      [
        103.7891286,
        1.4420602
      ],
      [
        103.7891378,
        1.4420288
      ],
      [
        103.7891672,
        1.441928
      ],
      [
        103.789209,
        1.441681
      ],
      [
        103.7892448,
        1.4412527
      ],
      [
        103.7892283,
        1.4410658
      ],
      [
        103.789226,
        1.4410395
      ],
      [
        103.7891856,
        1.4421201
      ],
      [
        103.789385,
        1.4421959
      ],
      [
        103.7897094,
        1.442233
      ],
      [
        103.7902808,
        1.4422729
      ],
      [
        103.7905727,
        1.4422859
      ],
      [
        103.7906065,
        1.4423034
      ],
      [
        103.7906758,
        1.4423087
      ],
      [
        103.7911417,
        1.4423428
      ],
      [
        103.7912536,
        1.4423611
      ],
      [
        103.7913045,
        1.4423812
      ],
      [
        103.79135,
        1.4424044
      ],
      [
        103.7913788,
        1.4424274
      ],
      [
        103.7914692,
        1.4425445
      ],
      [
        103.7915033,
        1.4426363
      ],
      [
        103.7914836,
        1.44313
      ],
      [
        103.7914718,
        1.4434449
      ],
      [
        103.7914587,
        1.4437487
      ],
      [
        103.7914759,
        1.4438094
      ],
      [
        103.7915017,
        1.4438666
      ],
      [
        103.7916089,
        1.4439846
      ],
      [
        103.7916841,
        1.4440208
      ],
      [
        103.7917424,
        1.4440356
      ],
      [
        103.7918034,
        1.444041
      ],
      [
        103.7918923,
        1.4440415
      ],
      [
        103.7922091,
        1.4440614
      ],
      [
        103.7928163,
        1.4441131
      ],
      [
        103.7929712,
        1.4441755
      ],
      [
        103.7932254,
        1.4443615
      ],
      [
        103.7932946,
        1.4444166
      ],
      [
        103.7933728,
        1.444474
      ],
      [
        103.7934081,
        1.4444224
      ],
      [
        103.793441,
        1.4443763
      ],
      [
        103.7938185,
        1.4438498
      ],
      [
        103.7941152,
        1.4434358
      ],
      [
        103.7943428,
        1.4431142
      ],
      [
        103.7949189,
        1.4423005
      ],
      [
        103.7951161,
        1.4420333
      ],
      [
        103.7953387,
        1.441752
      ],
      [
        103.7953695,
        1.4417077
      ],
      [
        103.7954139,
        1.4416365
      ],
      [
        103.7953321,
        1.4415868
      ],
      [
        103.7952621,
        1.441546
      ],
      [
        103.7948536,
        1.4412719
      ],
      [
        103.7947803,
        1.4412256
      ],
      [
        103.7944169,
        1.4410254
      ],
      [
        103.7938931,
        1.4408041
      ],
      [
        103.7937202,
        1.4407727
      ],
      [
        103.7929358,
        1.4407296
      ],
      [
        103.7924465,
        1.4407001
      ],
      [
        103.7923142,
        1.4406905
      ],
      [
        103.7921982,
        1.4406569
      ],
      [
        103.7921158,
        1.4405908
      ],
      [
        103.7920475,
        1.4405052
      ],
      [
        103.7920269,
        1.4403675
      ],
      [
        103.7920435,
        1.439971
      ],
      [
        103.7920475,
        1.4398722
      ],
      [
        103.7920622,
        1.4395927
      ],
      [
        103.7920926,
        1.439134
      ],
      [
        103.7920967,
        1.4390729
      ],
      [
        103.7921004,
        1.438931
      ],
      [
        103.7920203,
        1.4389265
      ],
      [
        103.791945,
        1.4389216
      ],
      [
        103.7915545,
        1.4388961
      ],
      [
        103.7910998,
        1.4388559
      ],
      [
        103.7907257,
        1.4387848
      ],
      [
        103.7906287,
        1.4387572
      ],
      [
        103.7904333,
        1.4387017
      ],
      [
        103.7901372,
        1.438583
      ],
      [
        103.7896787,
        1.4383929
      ],
      [
        103.7890808,
        1.4381495
      ],
      [
        103.789008,
        1.4381265
      ],
      [
        103.7888707,
        1.4380925
      ],
      [
        103.7887791,
        1.4380749
      ],
      [
        103.7886979,
        1.437988
      ],
      [
        103.7885017,
        1.4378995
      ],
      [
        103.7874578,
        1.4375079
      ],
      [
        103.7873585,
        1.4374731
      ],
      [
        103.7871182,
        1.437421
      ],
      [
        103.7849046,
        1.4365575
      ],
      [
        103.7850116,
        1.4362529
      ],
      [
        103.7851106,
        1.4359554
      ],
      [
        103.7851221,
        1.4358727
      ],
      [
        103.7850598,
        1.4358004
      ],
      [
        103.784989,
        1.4357478
      ],
      [
        103.7841544,
        1.4354319
      ],
      [
        103.7837915,
        1.4353114
      ],
      [
        103.783642,
        1.4352759
      ],
      [
        103.783571,
        1.4352595
      ],
      [
        103.7834135,
        1.4352752
      ],
      [
        103.7832869,
        1.4352105
      ],
      [
        103.7832349,
        1.4351691
      ],
      [
        103.7831722,
        1.4351035
      ],
      [
        103.7829881,
        1.4349272
      ],
      [
        103.782696,
        1.4346689
      ],
      [
        103.7825362,
        1.4345142
      ],
      [
        103.7824499,
        1.4345047
      ],
      [
        103.7823942,
        1.4345054
      ],
      [
        103.7823476,
        1.4345095
      ],
      [
        103.782029,
        1.4348287
      ],
      [
        103.7822637,
        1.4345873
      ],
      [
        103.7822903,
        1.4345627
      ],
      [
        103.7823476,
        1.4345095
      ],
      [
        103.7819335,
        1.4349277
      ],
      [
        103.781741,
        1.4351273
      ],
      [
        103.7813087,
        1.4355816
      ],
      [
        103.7810036,
        1.4358788
      ],
      [
        103.7807574,
        1.436092
      ],
      [
        103.7808606,
        1.4360115
      ],
      [
        103.7804,
        1.4362127
      ],
      [
        103.7806069,
        1.4361746
      ],
      [
        103.7798587,
        1.4360894
      ],
      [
        103.7799922,
        1.4361578
      ],
      [
        103.7800439,
        1.4361872
      ],
      [
        103.7800924,
        1.4362068
      ],
      [
        103.7801627,
        1.4362194
      ],
      [
        103.7781344,
        1.435345
      ],
      [
        103.7782582,
        1.435387
      ],
      [
        103.7789313,
        1.4355016
      ],
      [
        103.7791007,
        1.4355659
      ],
      [
        103.7793039,
        1.4356892
      ],
      [
        103.7779771,
        1.4352724
      ],
      [
        103.7780574,
        1.4353115
      ],
      [
        103.7775649,
        1.4349179
      ],
      [
        103.7776935,
        1.4350424
      ],
      [
        103.7777368,
        1.4350828
      ],
      [
        103.7767331,
        1.4342593
      ],
      [
        103.776801,
        1.4342732
      ],
      [
        103.7769042,
        1.4343313
      ],
      [
        103.7770528,
        1.43442
      ],
      [
        103.7771462,
        1.4344978
      ],
      [
        103.776118,
        1.4343946
      ],
      [
        103.7761727,
        1.4343507
      ],
      [
        103.7762589,
        1.4343072
      ],
      [
        103.7763424,
        1.4342759
      ],
      [
        103.7764433,
        1.4342585
      ],
      [
        103.776546,
        1.4342498
      ],
      [
        103.7766348,
        1.434248
      ],
      [
        103.776072,
        1.4344316
      ],
      [
        103.7759296,
        1.4345621
      ],
      [
        103.7760068,
        1.4344853
      ],
      [
        103.7758014,
        1.4346897
      ],
      [
        103.7751868,
        1.4356033
      ],
      [
        103.775218,
        1.4354327
      ],
      [
        103.7752579,
        1.435306
      ],
      [
        103.7753105,
        1.4352177
      ],
      [
        103.7751771,
        1.4356563
      ],
      [
        103.7751617,
        1.4357697
      ],
      [
        103.7725574,
        1.436325
      ],
      [
        103.7726232,
        1.4363492
      ],
      [
        103.7726912,
        1.4363645
      ],
      [
        103.7727493,
        1.4363722
      ],
      [
        103.7728271,
        1.4363787
      ],
      [
        103.7731303,
        1.4363797
      ],
      [
        103.7733543,
        1.4363804
      ],
      [
        103.773716,
        1.4363816
      ],
      [
        103.774383,
        1.4363859
      ],
      [
        103.7745604,
        1.4363831
      ],
      [
        103.7747248,
        1.4363802
      ],
      [
        103.7748281,
        1.4363357
      ],
      [
        103.7749097,
        1.4362961
      ],
      [
        103.7749826,
        1.4362241
      ],
      [
        103.7750604,
        1.4361096
      ],
      [
        103.7751264,
        1.4359686
      ],
      [
        103.7751487,
        1.4358475
      ],
      [
        103.7725383,
        1.4363159
      ],
      [
        103.7721444,
        1.4361452
      ],
      [
        103.7723263,
        1.4362318
      ],
      [
        103.772081,
        1.4361173
      ],
      [
        103.7719671,
        1.4361639
      ],
      [
        103.7719495,
        1.4361931
      ],
      [
        103.7717493,
        1.4365241
      ],
      [
        103.7714982,
        1.4368995
      ],
      [
        103.7714115,
        1.4370208
      ],
      [
        103.7713783,
        1.4370672
      ],
      [
        103.7713315,
        1.4371262
      ],
      [
        103.7712648,
        1.4372086
      ],
      [
        103.771233,
        1.4372479
      ],
      [
        103.7711433,
        1.4373842
      ],
      [
        103.7710766,
        1.4375505
      ],
      [
        103.7710505,
        1.4376785
      ],
      [
        103.771032,
        1.437814
      ],
      [
        103.7710251,
        1.4383395
      ],
      [
        103.771023,
        1.4385274
      ],
      [
        103.7710089,
        1.439285
      ],
      [
        103.7709615,
        1.4394942
      ],
      [
        103.7709107,
        1.4395742
      ],
      [
        103.770881,
        1.4395938
      ],
      [
        103.7708158,
        1.4396311
      ],
      [
        103.7707535,
        1.4396606
      ],
      [
        103.7706779,
        1.4396825
      ],
      [
        103.7705201,
        1.4397098
      ],
      [
        103.7701985,
        1.4397041
      ],
      [
        103.7697951,
        1.4397013
      ],
      [
        103.7697333,
        1.4396986
      ],
      [
        103.7696245,
        1.4397205
      ],
      [
        103.769452,
        1.4398257
      ],
      [
        103.7691659,
        1.4401379
      ],
      [
        103.769022,
        1.4403531
      ],
      [
        103.7689221,
        1.4405137
      ],
      [
        103.7687346,
        1.4408224
      ],
      [
        103.7687101,
        1.4409227
      ],
      [
        103.7686899,
        1.4410389
      ],
      [
        103.7687805,
        1.4412562
      ],
      [
        103.768873,
        1.4414974
      ],
      [
        103.7690479,
        1.4419364
      ],
      [
        103.7693407,
        1.4426821
      ],
      [
        103.7693729,
        1.4427614
      ],
      [
        103.7693843,
        1.4427893
      ],
      [
        103.7694497,
        1.4428896
      ],
      [
        103.769502,
        1.4429741
      ],
      [
        103.7695515,
        1.4430377
      ],
      [
        103.7695754,
        1.4430656
      ],
      [
        103.7696486,
        1.4431522
      ],
      [
        103.7697118,
        1.4432064
      ],
      [
        103.7697809,
        1.4432549
      ],
      [
        103.7698755,
        1.443323
      ],
      [
        103.7699643,
        1.443357
      ],
      [
        103.770052,
        1.4433822
      ],
      [
        103.7701419,
        1.4433899
      ],
      [
        103.7702253,
        1.4433932
      ],
      [
        103.7703163,
        1.44338
      ],
      [
        103.7704029,
        1.4433537
      ],
      [
        103.770484,
        1.4433186
      ],
      [
        103.7705597,
        1.4432682
      ],
      [
        103.7706579,
        1.4431798
      ],
      [
        103.7707133,
        1.4431191
      ],
      [
        103.7707767,
        1.4430336
      ],
      [
        103.7708323,
        1.4429345
      ],
      [
        103.7708796,
        1.4428286
      ],
      [
        103.770917,
        1.4426978
      ],
      [
        103.7709499,
        1.4425367
      ],
      [
        103.7709748,
        1.4422681
      ],
      [
        103.7709801,
        1.4420351
      ],
      [
        103.7709907,
        1.4416514
      ],
      [
        103.7709887,
        1.4414522
      ],
      [
        103.7709921,
        1.4411954
      ],
      [
        103.7709944,
        1.4411824
      ],
      [
        103.7710044,
        1.4411248
      ],
      [
        103.7710373,
        1.4410487
      ],
      [
        103.7710449,
        1.4405656
      ],
      [
        103.7710815,
        1.4398726
      ],
      [
        103.7710847,
        1.4398122
      ],
      [
        103.7710855,
        1.4397297
      ],
      [
        103.7711062,
        1.4389786
      ],
      [
        103.7711123,
        1.4385312
      ],
      [
        103.7711015,
        1.4377788
      ],
      [
        103.7711352,
        1.4375819
      ],
      [
        103.7712006,
        1.4374146
      ],
      [
        103.7712786,
        1.4372866
      ],
      [
        103.7713137,
        1.4372439
      ],
      [
        103.7713797,
        1.4371634
      ],
      [
        103.7714225,
        1.437109
      ],
      [
        103.7714599,
        1.4370593
      ],
      [
        103.7715523,
        1.4369397
      ],
      [
        103.7716085,
        1.4368588
      ],
      [
        103.7717743,
        1.436628
      ],
      [
        103.7718613,
        1.4364901
      ],
      [
        103.7719516,
        1.4363501
      ],
      [
        103.7719577,
        1.4363406
      ],
      [
        103.772047,
        1.4363096
      ],
      [
        103.7721084,
        1.436285
      ],
      [
        103.7723263,
        1.4362318
      ],
      [
        103.7725383,
        1.4363159
      ],
      [
        103.7725574,
        1.436325
      ],
      [
        103.7726232,
        1.4363492
      ],
      [
        103.7726912,
        1.4363645
      ],
      [
        103.7727493,
        1.4363722
      ],
      [
        103.7728271,
        1.4363787
      ],
      [
        103.7731303,
        1.4363797
      ],
      [
        103.7733543,
        1.4363804
      ],
      [
        103.773716,
        1.4363816
      ],
      [
        103.774383,
        1.4363859
      ],
      [
        103.7745604,
        1.4363831
      ],
      [
        103.7747248,
        1.4363802
      ],
      [
        103.7748281,
        1.4363357
      ],
      [
        103.7749097,
        1.4362961
      ],
      [
        103.7749826,
        1.4362241
      ],
      [
        103.7750604,
        1.4361096
      ],
      [
        103.7751264,
        1.4359686
      ],
      [
        103.7751487,
        1.4358475
      ],
      [
        103.7751617,
        1.4357697
      ],
      [
        103.7751771,
        1.4356563
      ],
      [
        103.7751868,
        1.4356033
      ],
      [
        103.775218,
        1.4354327
      ],
      [
        103.7752579,
        1.435306
      ],
      [
        103.7753105,
        1.4352177
      ],
      [
        103.7758014,
        1.4346897
      ],
      [
        103.7759296,
        1.4345621
      ],
      [
        103.7760068,
        1.4344853
      ],
      [
        103.776072,
        1.4344316
      ],
      [
        103.776118,
        1.4343946
      ],
      [
        103.7761727,
        1.4343507
      ],
      [
        103.7762589,
        1.4343072
      ],
      [
        103.7763424,
        1.4342759
      ],
      [
        103.7764433,
        1.4342585
      ],
      [
        103.776546,
        1.4342498
      ],
      [
        103.7766348,
        1.434248
      ],
      [
        103.7767331,
        1.4342593
      ],
      [
        103.776801,
        1.4342732
      ],
      [
        103.7769042,
        1.4343313
      ],
      [
        103.7770528,
        1.43442
      ],
      [
        103.7771462,
        1.4344978
      ],
      [
        103.7775649,
        1.4349179
      ],
      [
        103.7776935,
        1.4350424
      ],
      [
        103.7777368,
        1.4350828
      ],
      [
        103.7779771,
        1.4352724
      ],
      [
        103.7780574,
        1.4353115
      ],
      [
        103.7781344,
        1.435345
      ],
      [
        103.7782582,
        1.435387
      ],
      [
        103.7789313,
        1.4355016
      ],
      [
        103.7791007,
        1.4355659
      ],
      [
        103.7793039,
        1.4356892
      ],
      [
        103.7798587,
        1.4360894
      ],
      [
        103.7799922,
        1.4361578
      ],
      [
        103.7800439,
        1.4361872
      ],
      [
        103.7800924,
        1.4362068
      ],
      [
        103.7801627,
        1.4362194
      ],
      [
        103.7804,
        1.4362127
      ],
      [
        103.7806069,
        1.4361746
      ],
      [
        103.7807574,
        1.436092
      ],
      [
        103.7808606,
        1.4360115
      ],
      [
        103.7810036,
        1.4358788
      ],
      [
        103.7813087,
        1.4355816
      ],
      [
        103.781741,
        1.4351273
      ],
      [
        103.7819335,
        1.4349277
      ],
      [
        103.782029,
        1.4348287
      ],
      [
        103.7822637,
        1.4345873
      ],
      [
        103.7822903,
        1.4345627
      ],
      [
        103.7823476,
        1.4345095
      ],
      [
        103.7824069,
        1.43456
      ],
      [
        103.7824331,
        1.4345832
      ],
      [
        103.7826022,
        1.4347292
      ],
      [
        103.7830684,
        1.4351754
      ],
      [
        103.7831621,
        1.4352484
      ],
      [
        103.7832113,
        1.4352871
      ],
      [
        103.7833205,
        1.4353532
      ],
      [
        103.7833911,
        1.4354388
      ],
      [
        103.7834642,
        1.4354752
      ],
      [
        103.7835257,
        1.4355134
      ],
      [
        103.7839659,
        1.435717
      ],
      [
        103.7849137,
        1.4360856
      ],
      [
        103.7849506,
        1.43613
      ],
      [
        103.7849562,
        1.4361742
      ],
      [
        103.784941,
        1.4362252
      ],
      [
        103.7850116,
        1.4362529
      ]
    ]
  }
}