{
  "type": "Feature",
  "properties": {
    "relation": 2352581,
    "direction": "1",
    "fee": "yes",
    "from": "Woodlands Temporary Interchange",
    "name": "Svc 925 (Woodlands Temporary Interchange → Choa Chu Kang Interchange)",
    "name:en": "Svc 925 (Woodlands Temporary Interchange → Choa Chu Kang Interchange)",
    "network": "Land Transport Authority",
    "network:short": "LTA",
    "network:wikidata": "Q3299279",
    "operator": "SMRT Buses",
    "operator:wikidata": "Q10852420",
    "public_transport:version": "2",
    "ref": "925",
    "route": "bus",
    "to": "Choa Chu Kang Interchange",
    "type": "route",
    "website": "https://www.smrt.com.sg/"
  },
  "geometry": {
    "type": "LineString",
    "coordinates": [
      [
        103.7858343,
        1.4379171
      ],
      [
        103.7865049,
        1.4381597
      ],
      [
        103.7865894,
        1.4381731
      ],
      [
        103.7866658,
        1.4381611
      ],
      [
        103.7867164,
        1.4381286
      ],
      [
        103.7867584,
        1.4380739
      ],
      [
        103.7867724,
        1.4380279
      ],
      [
        103.7867762,
        1.4379788
      ],
      [
        103.7867731,
        1.4379412
      ],
      [
        103.7867538,
        1.4379037
      ],
      [
        103.7867327,
        1.437872
      ],
      [
        103.7867025,
        1.4378475
      ],
      [
        103.7866417,
        1.4378229
      ],
      [
        103.7858523,
        1.4375301
      ],
      [
        103.7854632,
        1.4373858
      ],
      [
        103.7850951,
        1.4372543
      ],
      [
        103.7849939,
        1.4372172
      ],
      [
        103.7849359,
        1.4372139
      ],
      [
        103.7848798,
        1.4372353
      ],
      [
        103.7848338,
        1.4372696
      ],
      [
        103.7848038,
        1.4373215
      ],
      [
        103.7847888,
        1.4373742
      ],
      [
        103.7847879,
        1.437427
      ],
      [
        103.7848051,
        1.437477
      ],
      [
        103.7848223,
        1.4375057
      ],
      [
        103.7848462,
        1.4375318
      ],
      [
        103.7850093,
        1.4376017
      ],
      [
        103.7853569,
        1.4377361
      ],
      [
        103.7854253,
        1.4377603
      ],
      [
        103.7854548,
        1.4377817
      ],
      [
        103.7854736,
        1.4378179
      ],
      [
        103.785483,
        1.4378688
      ],
      [
        103.7854542,
        1.4379706
      ],
      [
        103.7854355,
        1.438022
      ],
      [
        103.7848351,
        1.4377934
      ],
      [
        103.7847555,
        1.4377505
      ],
      [
        103.7846861,
        1.4376764
      ],
      [
        103.7846417,
        1.4376051
      ],
      [
        103.7846163,
        1.4375362
      ],
      [
        103.7846099,
        1.4374673
      ],
      [
        103.7846132,
        1.437404
      ],
      [
        103.784628,
        1.4373373
      ],
      [
        103.7847817,
        1.4369153
      ],
      [
        103.784954,
        1.4364558
      ],
      [
        103.785064,
        1.4361503
      ],
      [
        103.7851029,
        1.4360492
      ],
      [
        103.7851167,
        1.4360031
      ],
      [
        103.7851226,
        1.4359735
      ],
      [
        103.7851222,
        1.4359352
      ],
      [
        103.7850801,
        1.435901
      ],
      [
        103.7841984,
        1.4355899
      ],
      [
        103.7838272,
        1.435452
      ],
      [
        103.7835636,
        1.4353551
      ],
      [
        103.7835019,
        1.4353284
      ],
      [
        103.7834135,
        1.4352752
      ],
      [
        103.7832869,
        1.4352105
      ],
      [
        103.7832349,
        1.4351691
      ],
      [
        103.7831722,
        1.4351035
      ],
      [
        103.7829881,
        1.4349272
      ],
      [
        103.782696,
        1.4346689
      ],
      [
        103.7825362,
        1.4345142
      ],
      [
        103.782427,
        1.4344073
      ],
      [
        103.7821602,
        1.434135
      ],
      [
        103.781805,
        1.4337819
      ],
      [
        103.7814707,
        1.4334488
      ],
      [
        103.7811649,
        1.4332214
      ],
      [
        103.7810523,
        1.4331377
      ],
      [
        103.7806124,
        1.4328696
      ],
      [
        103.7801832,
        1.4326551
      ],
      [
        103.7796713,
        1.4324492
      ],
      [
        103.7796004,
        1.4324214
      ],
      [
        103.779471,
        1.4323705
      ],
      [
        103.7794152,
        1.4323534
      ],
      [
        103.7793516,
        1.4323312
      ],
      [
        103.7792565,
        1.4323057
      ],
      [
        103.778968,
        1.4322376
      ],
      [
        103.7785337,
        1.4321894
      ],
      [
        103.7784092,
        1.4321837
      ],
      [
        103.7783206,
        1.4321838
      ],
      [
        103.7781067,
        1.432184
      ],
      [
        103.7777862,
        1.4321756
      ],
      [
        103.7775663,
        1.4321727
      ],
      [
        103.776256,
        1.4321639
      ],
      [
        103.7757838,
        1.4321619
      ],
      [
        103.775569,
        1.4321621
      ],
      [
        103.7752891,
        1.4321652
      ],
      [
        103.7749256,
        1.4321688
      ],
      [
        103.7740945,
        1.4321646
      ],
      [
        103.7737502,
        1.4321628
      ],
      [
        103.7735421,
        1.4321618
      ],
      [
        103.7733178,
        1.4321752
      ],
      [
        103.7730994,
        1.4321679
      ],
      [
        103.7729493,
        1.4321509
      ],
      [
        103.7729132,
        1.4321461
      ],
      [
        103.7728135,
        1.4321328
      ],
      [
        103.7727739,
        1.4321275
      ],
      [
        103.7722004,
        1.4319987
      ],
      [
        103.7721004,
        1.4319805
      ],
      [
        103.7717806,
        1.4319295
      ],
      [
        103.7714123,
        1.4318653
      ],
      [
        103.7709908,
        1.4317959
      ],
      [
        103.7700201,
        1.431606
      ],
      [
        103.7692963,
        1.4314785
      ],
      [
        103.7691206,
        1.4314179
      ],
      [
        103.7687072,
        1.431259
      ],
      [
        103.7685833,
        1.4311917
      ],
      [
        103.7682886,
        1.4310316
      ],
      [
        103.7680091,
        1.4308168
      ],
      [
        103.7678359,
        1.4306888
      ],
      [
        103.7675608,
        1.4304008
      ],
      [
        103.7673107,
        1.4300644
      ],
      [
        103.7671794,
        1.4298673
      ],
      [
        103.7666786,
        1.4290418
      ],
      [
        103.7666595,
        1.4290164
      ],
      [
        103.7664782,
        1.4287943
      ],
      [
        103.7663131,
        1.4285855
      ],
      [
        103.7662425,
        1.4284962
      ],
      [
        103.7661295,
        1.4284047
      ],
      [
        103.7659073,
        1.4282249
      ],
      [
        103.7655943,
        1.4280288
      ],
      [
        103.7652515,
        1.4278518
      ],
      [
        103.7647148,
        1.4275925
      ],
      [
        103.764404,
        1.4274294
      ],
      [
        103.7640627,
        1.4271498
      ],
      [
        103.7638843,
        1.4270197
      ],
      [
        103.7633492,
        1.4266125
      ],
      [
        103.7633196,
        1.42659
      ],
      [
        103.7632202,
        1.4265191
      ],
      [
        103.7624937,
        1.425958
      ],
      [
        103.7623905,
        1.4258756
      ],
      [
        103.7618606,
        1.4254615
      ],
      [
        103.7617574,
        1.4253705
      ],
      [
        103.7613418,
        1.4250677
      ],
      [
        103.7612513,
        1.4250066
      ],
      [
        103.7611928,
        1.4249689
      ],
      [
        103.7605964,
        1.4245753
      ],
      [
        103.7604239,
        1.4244695
      ],
      [
        103.7601714,
        1.424336
      ],
      [
        103.7599482,
        1.4242237
      ],
      [
        103.7597783,
        1.4241612
      ],
      [
        103.7596116,
        1.42411
      ],
      [
        103.7593795,
        1.4240478
      ],
      [
        103.7584156,
        1.423828
      ],
      [
        103.7581561,
        1.4237438
      ],
      [
        103.7578887,
        1.4236545
      ],
      [
        103.7577438,
        1.4236007
      ],
      [
        103.7577329,
        1.4235967
      ],
      [
        103.7574289,
        1.4234684
      ],
      [
        103.7572989,
        1.4234121
      ],
      [
        103.757238,
        1.4233879
      ],
      [
        103.7571043,
        1.4233073
      ],
      [
        103.7570456,
        1.4235191
      ],
      [
        103.757025,
        1.4235954
      ],
      [
        103.7569557,
        1.4240328
      ],
      [
        103.7569377,
        1.4241452
      ],
      [
        103.7568653,
        1.4246163
      ],
      [
        103.7568354,
        1.4249344
      ],
      [
        103.7567743,
        1.4254621
      ],
      [
        103.7567567,
        1.4255758
      ],
      [
        103.7567326,
        1.4257117
      ],
      [
        103.7562534,
        1.4281123
      ],
      [
        103.7562016,
        1.4283712
      ],
      [
        103.7561208,
        1.4287403
      ],
      [
        103.7560743,
        1.429001
      ],
      [
        103.7560565,
        1.4290911
      ],
      [
        103.7560425,
        1.4291588
      ],
      [
        103.756008,
        1.4293315
      ],
      [
        103.7559642,
        1.4295452
      ],
      [
        103.7558729,
        1.4300747
      ],
      [
        103.7558222,
        1.4304379
      ],
      [
        103.7558028,
        1.430547
      ],
      [
        103.7557654,
        1.4307655
      ],
      [
        103.7557244,
        1.4310542
      ],
      [
        103.7556752,
        1.431395
      ],
      [
        103.7556625,
        1.4314786
      ],
      [
        103.7556496,
        1.4315527
      ],
      [
        103.7556027,
        1.4318223
      ],
      [
        103.7555931,
        1.431882
      ],
      [
        103.7555356,
        1.4321946
      ],
      [
        103.7554279,
        1.4327271
      ],
      [
        103.7553842,
        1.432937
      ],
      [
        103.7553386,
        1.433152
      ],
      [
        103.7553386,
        1.433152
      ],
      [
        103.7559871,
        1.4332445
      ],
      [
        103.7554848,
        1.4331762
      ],
      [
        103.7554442,
        1.4331707
      ],
      [
        103.7563557,
        1.433294
      ],
      [
        103.7564379,
        1.4333029
      ],
      [
        103.7571443,
        1.4334028
      ],
      [
        103.7584914,
        1.4339994
      ],
      [
        103.7584762,
        1.433927
      ],
      [
        103.7584522,
        1.4338698
      ],
      [
        103.7584207,
        1.4338221
      ],
      [
        103.7582941,
        1.4336609
      ],
      [
        103.7582441,
        1.433608
      ],
      [
        103.7581957,
        1.4335659
      ],
      [
        103.758126,
        1.4335415
      ],
      [
        103.7574878,
        1.4334514
      ],
      [
        103.7582875,
        1.4353307
      ],
      [
        103.7583262,
        1.4350595
      ],
      [
        103.7583337,
        1.4350069
      ],
      [
        103.7583393,
        1.4349671
      ],
      [
        103.7583651,
        1.4348207
      ],
      [
        103.7584223,
        1.4344059
      ],
      [
        103.7584948,
        1.434062
      ],
      [
        103.7580535,
        1.4366518
      ],
      [
        103.7580898,
        1.4364554
      ],
      [
        103.758185,
        1.4359392
      ],
      [
        103.7561475,
        1.4371099
      ],
      [
        103.7562078,
        1.437115
      ],
      [
        103.7562682,
        1.4371016
      ],
      [
        103.7563366,
        1.4370788
      ],
      [
        103.7567826,
        1.4369375
      ],
      [
        103.7572559,
        1.4367876
      ],
      [
        103.7573912,
        1.4367643
      ],
      [
        103.7574512,
        1.4367539
      ],
      [
        103.7576538,
        1.4367247
      ],
      [
        103.7578864,
        1.4367329
      ],
      [
        103.7579134,
        1.436736
      ],
      [
        103.7580354,
        1.4367499
      ],
      [
        103.7552812,
        1.4369932
      ],
      [
        103.7558162,
        1.4370654
      ],
      [
        103.7549504,
        1.4369475
      ],
      [
        103.7551508,
        1.4369758
      ],
      [
        103.7548628,
        1.4369353
      ],
      [
        103.7547811,
        1.4369256
      ],
      [
        103.7547126,
        1.4369168
      ],
      [
        103.7547407,
        1.4369199
      ],
      [
        103.7542403,
        1.436868
      ],
      [
        103.7544684,
        1.4368898
      ],
      [
        103.7539741,
        1.4367729
      ],
      [
        103.7541196,
        1.4368385
      ],
      [
        103.7532209,
        1.4361035
      ],
      [
        103.7534945,
        1.4363429
      ],
      [
        103.7535598,
        1.4364015
      ],
      [
        103.7530743,
        1.4359662
      ],
      [
        103.7525699,
        1.4355085
      ],
      [
        103.7524816,
        1.435384
      ],
      [
        103.7524119,
        1.4352316
      ],
      [
        103.7521993,
        1.4346163
      ],
      [
        103.7521654,
        1.4344705
      ],
      [
        103.7521162,
        1.4343809
      ],
      [
        103.7520224,
        1.4343171
      ],
      [
        103.7518871,
        1.4343158
      ],
      [
        103.7517174,
        1.4343559
      ],
      [
        103.7510953,
        1.4345556
      ],
      [
        103.7507357,
        1.4346741
      ],
      [
        103.750248,
        1.4348584
      ],
      [
        103.7501194,
        1.4349271
      ],
      [
        103.7498701,
        1.4350547
      ],
      [
        103.74951,
        1.4352433
      ],
      [
        103.7493703,
        1.4353134
      ],
      [
        103.7492866,
        1.4353555
      ],
      [
        103.7492103,
        1.4353974
      ],
      [
        103.7490332,
        1.4354914
      ],
      [
        103.7483521,
        1.4358448
      ],
      [
        103.7481863,
        1.4359263
      ],
      [
        103.7477075,
        1.4361617
      ],
      [
        103.7465912,
        1.4367325
      ],
      [
        103.7462686,
        1.4368965
      ],
      [
        103.7461785,
        1.4369442
      ],
      [
        103.7460969,
        1.436982
      ],
      [
        103.7456473,
        1.4372142
      ],
      [
        103.7448051,
        1.4376353
      ],
      [
        103.7447023,
        1.4376891
      ],
      [
        103.7441017,
        1.4380039
      ],
      [
        103.7439368,
        1.4381277
      ],
      [
        103.7433121,
        1.4384512
      ],
      [
        103.7430781,
        1.438556
      ],
      [
        103.7429183,
        1.4385906
      ],
      [
        103.7428438,
        1.4386082
      ],
      [
        103.742729,
        1.4386093
      ],
      [
        103.7426159,
        1.4386129
      ],
      [
        103.7382118,
        1.4386298
      ],
      [
        103.7375788,
        1.4386213
      ],
      [
        103.7375297,
        1.4386143
      ],
      [
        103.7372638,
        1.4385602
      ],
      [
        103.7370976,
        1.4385624
      ],
      [
        103.7370976,
        1.4385624
      ],
      [
        103.7365608,
        1.4385604
      ],
      [
        103.7363681,
        1.4385611
      ],
      [
        103.7360631,
        1.4385589
      ],
      [
        103.7358054,
        1.4385674
      ],
      [
        103.7358008,
        1.4383948
      ],
      [
        103.7357982,
        1.4382284
      ],
      [
        103.7357956,
        1.4380627
      ],
      [
        103.7357956,
        1.4380627
      ],
      [
        103.7357982,
        1.4382284
      ],
      [
        103.7358008,
        1.4383948
      ],
      [
        103.7358054,
        1.4385674
      ],
      [
        103.7360631,
        1.4385589
      ],
      [
        103.7363681,
        1.4385611
      ],
      [
        103.7365608,
        1.4385604
      ],
      [
        103.7370976,
        1.4385624
      ],
      [
        103.742729,
        1.4386093
      ],
      [
        103.7426159,
        1.4386129
      ],
      [
        103.7382118,
        1.4386298
      ],
      [
        103.7375788,
        1.4386213
      ],
      [
        103.7375297,
        1.4386143
      ],
      [
        103.7372638,
        1.4385602
      ],
      [
        103.7370976,
        1.4385624
      ],
      [
        103.7428438,
        1.4386082
      ],
      [
        103.7430781,
        1.438556
      ],
      [
        103.7429183,
        1.4385906
      ],
      [
        103.7433121,
        1.4384512
      ],
      [
        103.7441298,
        1.438087
      ],
      [
        103.7447432,
        1.4377717
      ],
      [
        103.7448458,
        1.437719
      ],
      [
        103.7450022,
        1.4376386
      ],
      [
        103.745688,
        1.4372861
      ],
      [
        103.746136,
        1.4370558
      ],
      [
        103.7462153,
        1.4370151
      ],
      [
        103.7465417,
        1.4368473
      ],
      [
        103.7468081,
        1.4367104
      ],
      [
        103.748217,
        1.4359864
      ],
      [
        103.7492446,
        1.4354583
      ],
      [
        103.7493185,
        1.4354203
      ],
      [
        103.7492866,
        1.4353555
      ],
      [
        103.7492502,
        1.4352814
      ],
      [
        103.7492191,
        1.4352211
      ],
      [
        103.749148,
        1.43508
      ],
      [
        103.7489447,
        1.4346761
      ],
      [
        103.7488328,
        1.4344552
      ],
      [
        103.748585,
        1.4339664
      ],
      [
        103.7484465,
        1.4336839
      ],
      [
        103.7484066,
        1.4335005
      ],
      [
        103.7482844,
        1.4332579
      ],
      [
        103.7480787,
        1.4328657
      ],
      [
        103.748011,
        1.432739
      ],
      [
        103.747951,
        1.432616
      ],
      [
        103.7477779,
        1.4322575
      ],
      [
        103.7476885,
        1.4320891
      ],
      [
        103.7475285,
        1.4317602
      ],
      [
        103.7471369,
        1.4309662
      ],
      [
        103.747102,
        1.4309024
      ],
      [
        103.7470548,
        1.4307776
      ],
      [
        103.7470067,
        1.4306232
      ],
      [
        103.7469579,
        1.4303667
      ],
      [
        103.7469645,
        1.4301814
      ],
      [
        103.7470098,
        1.4299142
      ],
      [
        103.7472272,
        1.4292436
      ],
      [
        103.7473893,
        1.4287439
      ],
      [
        103.7474751,
        1.4282781
      ],
      [
        103.7474886,
        1.4280741
      ],
      [
        103.7474826,
        1.4278549
      ],
      [
        103.7474804,
        1.4277981
      ],
      [
        103.7474614,
        1.4276443
      ],
      [
        103.7474531,
        1.4275767
      ],
      [
        103.7474,
        1.4273436
      ],
      [
        103.7479558,
        1.4271281
      ],
      [
        103.7483262,
        1.4268769
      ],
      [
        103.7484728,
        1.4267451
      ],
      [
        103.7486359,
        1.4265651
      ],
      [
        103.7487333,
        1.4264638
      ],
      [
        103.7489471,
        1.4262434
      ],
      [
        103.7491509,
        1.4260383
      ],
      [
        103.7492212,
        1.4259636
      ],
      [
        103.7493213,
        1.4258573
      ],
      [
        103.749451,
        1.4257187
      ],
      [
        103.7495947,
        1.4255256
      ],
      [
        103.7497022,
        1.4253392
      ],
      [
        103.7497787,
        1.425099
      ],
      [
        103.7497913,
        1.4250272
      ],
      [
        103.749809,
        1.4249259
      ],
      [
        103.7499081,
        1.4243596
      ],
      [
        103.7499668,
        1.4240243
      ],
      [
        103.7500399,
        1.4236066
      ],
      [
        103.7501021,
        1.4232613
      ],
      [
        103.7501252,
        1.4231276
      ],
      [
        103.7501535,
        1.4229762
      ],
      [
        103.7502077,
        1.4226791
      ],
      [
        103.7502305,
        1.422541
      ],
      [
        103.7502605,
        1.4223743
      ],
      [
        103.7503212,
        1.4220237
      ],
      [
        103.7503587,
        1.4218196
      ],
      [
        103.7503927,
        1.4216222
      ],
      [
        103.750425,
        1.4214276
      ],
      [
        103.7504746,
        1.4211368
      ],
      [
        103.7505179,
        1.4208827
      ],
      [
        103.7505697,
        1.4205789
      ],
      [
        103.7506317,
        1.4202256
      ],
      [
        103.7507333,
        1.4196461
      ],
      [
        103.7507393,
        1.4196137
      ],
      [
        103.7507839,
        1.419375
      ],
      [
        103.7508267,
        1.4191458
      ],
      [
        103.7509248,
        1.4186164
      ],
      [
        103.7510211,
        1.4181028
      ],
      [
        103.751041,
        1.4179955
      ],
      [
        103.751109,
        1.4176292
      ],
      [
        103.7511486,
        1.4174159
      ],
      [
        103.7512059,
        1.4170936
      ],
      [
        103.7512354,
        1.4169279
      ],
      [
        103.7513012,
        1.4165578
      ],
      [
        103.7513673,
        1.4161866
      ],
      [
        103.751375,
        1.4161434
      ],
      [
        103.751406,
        1.4159693
      ],
      [
        103.7514583,
        1.4156736
      ],
      [
        103.7515148,
        1.4153619
      ],
      [
        103.7515549,
        1.4151321
      ],
      [
        103.7515959,
        1.4149019
      ],
      [
        103.7516648,
        1.4145192
      ],
      [
        103.7516753,
        1.4144611
      ],
      [
        103.7518045,
        1.4137437
      ],
      [
        103.7518434,
        1.4135278
      ],
      [
        103.7518659,
        1.4134028
      ],
      [
        103.7519611,
        1.4128744
      ],
      [
        103.7520356,
        1.412445
      ],
      [
        103.7520664,
        1.4122861
      ],
      [
        103.7521703,
        1.4117102
      ],
      [
        103.7521941,
        1.4115781
      ],
      [
        103.7522441,
        1.4112933
      ],
      [
        103.7523014,
        1.4109693
      ],
      [
        103.7523383,
        1.410771
      ],
      [
        103.7524285,
        1.4102682
      ],
      [
        103.7524365,
        1.4102236
      ],
      [
        103.7524487,
        1.4101325
      ],
      [
        103.7524514,
        1.4101124
      ],
      [
        103.7524687,
        1.4099826
      ],
      [
        103.7525009,
        1.4097423
      ],
      [
        103.7525097,
        1.4096542
      ],
      [
        103.752525,
        1.40932
      ],
      [
        103.7525225,
        1.4092568
      ],
      [
        103.7525196,
        1.4091815
      ],
      [
        103.7525171,
        1.4091169
      ],
      [
        103.7525116,
        1.4089768
      ],
      [
        103.7524818,
        1.4086953
      ],
      [
        103.7525477,
        1.4085511
      ],
      [
        103.7526055,
        1.4084728
      ],
      [
        103.7528216,
        1.4082979
      ],
      [
        103.7529058,
        1.4082777
      ],
      [
        103.7531233,
        1.408203
      ],
      [
        103.7533135,
        1.4081377
      ],
      [
        103.7534534,
        1.4080896
      ],
      [
        103.754194,
        1.4078427
      ],
      [
        103.7542026,
        1.4078398
      ],
      [
        103.754589,
        1.407706
      ],
      [
        103.7546543,
        1.4076833
      ],
      [
        103.7547921,
        1.4076744
      ],
      [
        103.7549776,
        1.4076077
      ],
      [
        103.755116,
        1.4075503
      ],
      [
        103.7551597,
        1.4075235
      ],
      [
        103.7552003,
        1.4074896
      ],
      [
        103.7552479,
        1.4074498
      ],
      [
        103.7552973,
        1.4074032
      ],
      [
        103.7553323,
        1.4073626
      ],
      [
        103.7554048,
        1.4072534
      ],
      [
        103.7554536,
        1.4071428
      ],
      [
        103.7554746,
        1.4070701
      ],
      [
        103.7554843,
        1.4070098
      ],
      [
        103.7554856,
        1.4069198
      ],
      [
        103.7554846,
        1.4068327
      ],
      [
        103.7554447,
        1.4066144
      ],
      [
        103.7554143,
        1.4064744
      ],
      [
        103.7553664,
        1.4062538
      ],
      [
        103.7553411,
        1.406135
      ],
      [
        103.7553052,
        1.4059606
      ],
      [
        103.7552304,
        1.405608
      ],
      [
        103.7551714,
        1.4054946
      ],
      [
        103.7551014,
        1.4051653
      ],
      [
        103.754906,
        1.4042213
      ],
      [
        103.7549034,
        1.4042092
      ],
      [
        103.754883,
        1.4041094
      ],
      [
        103.7548517,
        1.4039562
      ],
      [
        103.754827,
        1.4038187
      ],
      [
        103.7547946,
        1.4036752
      ],
      [
        103.7547826,
        1.4036174
      ],
      [
        103.754739,
        1.4034082
      ],
      [
        103.7547295,
        1.4033623
      ],
      [
        103.754696,
        1.4032015
      ],
      [
        103.7545584,
        1.4025561
      ],
      [
        103.7545113,
        1.4023279
      ],
      [
        103.7544857,
        1.4022032
      ],
      [
        103.7543851,
        1.4017221
      ],
      [
        103.7543798,
        1.4016964
      ],
      [
        103.7543519,
        1.4015612
      ],
      [
        103.7543266,
        1.4014382
      ],
      [
        103.7542268,
        1.4009324
      ],
      [
        103.7541235,
        1.4004276
      ],
      [
        103.7540587,
        1.4001551
      ],
      [
        103.7540349,
        1.4000497
      ],
      [
        103.754011,
        1.3999434
      ],
      [
        103.7539829,
        1.3997673
      ],
      [
        103.753976,
        1.3996433
      ],
      [
        103.7539923,
        1.399467
      ],
      [
        103.7540408,
        1.3993258
      ],
      [
        103.7540915,
        1.3992284
      ],
      [
        103.7541872,
        1.3991296
      ],
      [
        103.7542638,
        1.3990578
      ],
      [
        103.7545547,
        1.3989321
      ],
      [
        103.7547998,
        1.3988236
      ],
      [
        103.7547998,
        1.3988236
      ],
      [
        103.754933,
        1.3988074
      ],
      [
        103.7550459,
        1.3987625
      ],
      [
        103.7551332,
        1.3987295
      ],
      [
        103.7552811,
        1.3986738
      ],
      [
        103.7552544,
        1.3985984
      ],
      [
        103.7552227,
        1.3985082
      ],
      [
        103.7550873,
        1.3981225
      ],
      [
        103.7544971,
        1.3964147
      ],
      [
        103.7544662,
        1.3963254
      ],
      [
        103.7541804,
        1.3954617
      ],
      [
        103.7540936,
        1.3951557
      ],
      [
        103.7540597,
        1.3949556
      ],
      [
        103.7540351,
        1.3946822
      ],
      [
        103.7540255,
        1.3944709
      ],
      [
        103.7540265,
        1.3944022
      ],
      [
        103.7540277,
        1.3943463
      ],
      [
        103.7540338,
        1.3942639
      ],
      [
        103.7540518,
        1.3940834
      ],
      [
        103.7540649,
        1.3939728
      ],
      [
        103.7543035,
        1.3921321
      ],
      [
        103.75435,
        1.3917968
      ],
      [
        103.7543995,
        1.3915225
      ],
      [
        103.7544881,
        1.3910765
      ],
      [
        103.7546,
        1.3906096
      ],
      [
        103.7546995,
        1.3902629
      ],
      [
        103.7548702,
        1.3897072
      ],
      [
        103.7549259,
        1.3895367
      ],
      [
        103.7550451,
        1.3892242
      ],
      [
        103.7551495,
        1.3889798
      ],
      [
        103.7551831,
        1.3889035
      ],
      [
        103.7552577,
        1.3887367
      ],
      [
        103.7552702,
        1.3887088
      ],
      [
        103.7554094,
        1.3884245
      ],
      [
        103.7555431,
        1.3881452
      ],
      [
        103.7556854,
        1.3878933
      ],
      [
        103.7558602,
        1.387602
      ],
      [
        103.7560334,
        1.3873158
      ],
      [
        103.7561403,
        1.3872452
      ],
      [
        103.7563318,
        1.3871061
      ],
      [
        103.75636,
        1.3870875
      ],
      [
        103.7564066,
        1.3870603
      ],
      [
        103.7564662,
        1.3870392
      ],
      [
        103.7565267,
        1.3870391
      ],
      [
        103.7566265,
        1.3870652
      ],
      [
        103.7568683,
        1.3872531
      ],
      [
        103.7570055,
        1.3873491
      ],
      [
        103.7571752,
        1.3874776
      ],
      [
        103.7572592,
        1.387565
      ],
      [
        103.7573277,
        1.387661
      ],
      [
        103.7573671,
        1.3877518
      ],
      [
        103.7573894,
        1.3878461
      ],
      [
        103.7573963,
        1.3879438
      ],
      [
        103.7573911,
        1.3880414
      ],
      [
        103.757362,
        1.3881425
      ],
      [
        103.7573106,
        1.3882317
      ],
      [
        103.7572352,
        1.3883191
      ],
      [
        103.7571477,
        1.3883859
      ],
      [
        103.7570415,
        1.388439
      ],
      [
        103.7569283,
        1.3884733
      ],
      [
        103.7568169,
        1.3884973
      ],
      [
        103.7566059,
        1.3885249
      ],
      [
        103.7563776,
        1.3885407
      ],
      [
        103.7560763,
        1.3885499
      ],
      [
        103.7556349,
        1.388569
      ],
      [
        103.7552466,
        1.3885882
      ],
      [
        103.754833,
        1.3886343
      ],
      [
        103.7545946,
        1.3886687
      ],
      [
        103.7543375,
        1.388691
      ],
      [
        103.7541183,
        1.3887171
      ],
      [
        103.75364,
        1.3887788
      ],
      [
        103.7532448,
        1.3888428
      ],
      [
        103.7521862,
        1.389062
      ],
      [
        103.751549,
        1.3892156
      ],
      [
        103.7509183,
        1.3893465
      ],
      [
        103.7505573,
        1.3894217
      ],
      [
        103.7501113,
        1.3894961
      ],
      [
        103.7496015,
        1.3895679
      ],
      [
        103.7491583,
        1.3896068
      ],
      [
        103.7488492,
        1.3895548
      ],
      [
        103.7486278,
        1.3895456
      ],
      [
        103.7481501,
        1.3895118
      ],
      [
        103.7477475,
        1.3894539
      ],
      [
        103.7472032,
        1.3893062
      ],
      [
        103.7466374,
        1.3891481
      ],
      [
        103.7463069,
        1.389058
      ],
      [
        103.7461675,
        1.3889414
      ],
      [
        103.7460835,
        1.3888733
      ],
      [
        103.7460222,
        1.3887741
      ],
      [
        103.7459953,
        1.3886897
      ],
      [
        103.7459829,
        1.3886001
      ],
      [
        103.745979,
        1.388432
      ],
      [
        103.7460986,
        1.3877253
      ],
      [
        103.7461044,
        1.387691
      ],
      [
        103.7462092,
        1.3871327
      ],
      [
        103.7462339,
        1.3867264
      ],
      [
        103.7462274,
        1.3864652
      ],
      [
        103.7462241,
        1.3863945
      ],
      [
        103.7461125,
        1.3863918
      ],
      [
        103.7460512,
        1.3863922
      ],
      [
        103.7458456,
        1.386349
      ],
      [
        103.7454258,
        1.3863353
      ],
      [
        103.7449801,
        1.3863368
      ],
      [
        103.7449244,
        1.386337
      ],
      [
        103.7449334,
        1.3862586
      ],
      [
        103.7449894,
        1.3861545
      ],
      [
        103.7456297,
        1.3861348
      ],
      [
        103.7456898,
        1.3861098
      ],
      [
        103.7457185,
        1.386066
      ],
      [
        103.7457385,
        1.3860095
      ],
      [
        103.7457448,
        1.3858397
      ],
      [
        103.7457618,
        1.3856968
      ],
      [
        103.7457551,
        1.3856544
      ],
      [
        103.7457468,
        1.3856259
      ],
      [
        103.7457297,
        1.3856041
      ],
      [
        103.7456963,
        1.3855811
      ],
      [
        103.7454416,
        1.3854939
      ],
      [
        103.7454206,
        1.3855002
      ],
      [
        103.7454074,
        1.3855093
      ],
      [
        103.7453905,
        1.3855297
      ],
      [
        103.7453765,
        1.3855549
      ],
      [
        103.7452374,
        1.385835
      ],
      [
        103.7451194,
        1.3859186
      ],
      [
        103.7449612,
        1.3859221
      ],
      [
        103.7449306,
        1.3859362
      ],
      [
        103.7449094,
        1.3859539
      ],
      [
        103.7448958,
        1.3859704
      ],
      [
        103.7448667,
        1.386125
      ]
    ]
  }
}