{
  "type": "Feature",
  "properties": {
    "relation": 2352583,
    "direction": "1",
    "fee": "yes",
    "from": "Choa Chu Kang Interchange",
    "name": "Svc 927 (Choa Chu Kang Interchange ↺ Singapore Zoo)",
    "name:en": "Svc 927 (Choa Chu Kang Interchange ↺ Singapore Zoo)",
    "network": "Land Transport Authority",
    "network:short": "LTA",
    "network:wikidata": "Q3299279",
    "network:wikipedia": "en:Land Transport Authority",
    "operator": "SMRT Buses",
    "operator:wikidata": "Q10852420",
    "operator:wikipedia": "en:SMRT Buses",
    "public_transport:version": "2",
    "ref": "927",
    "roundtrip": "yes",
    "route": "bus",
    "to": "Choa Chu Kang Interchange",
    "type": "route",
    "via": "Singapore Zoo",
    "website": "https://www.smrt.com.sg/"
  },
  "geometry": {
    "type": "LineString",
    "coordinates": [
      [
        103.7457448,
        1.3858397
      ],
      [
        103.7457618,
        1.3856968
      ],
      [
        103.7457551,
        1.3856544
      ],
      [
        103.7457468,
        1.3856259
      ],
      [
        103.7457297,
        1.3856041
      ],
      [
        103.7456963,
        1.3855811
      ],
      [
        103.7454416,
        1.3854939
      ],
      [
        103.7454206,
        1.3855002
      ],
      [
        103.7454074,
        1.3855093
      ],
      [
        103.7453905,
        1.3855297
      ],
      [
        103.7453765,
        1.3855549
      ],
      [
        103.7452374,
        1.385835
      ],
      [
        103.7451194,
        1.3859186
      ],
      [
        103.7449612,
        1.3859221
      ],
      [
        103.7449306,
        1.3859362
      ],
      [
        103.7449094,
        1.3859539
      ],
      [
        103.7448958,
        1.3859704
      ],
      [
        103.7448667,
        1.386125
      ],
      [
        103.7448475,
        1.3862563
      ],
      [
        103.744824,
        1.3863372
      ],
      [
        103.7446493,
        1.3863381
      ],
      [
        103.7444096,
        1.3863394
      ],
      [
        103.7438871,
        1.3863197
      ],
      [
        103.7438001,
        1.3863095
      ],
      [
        103.7436491,
        1.386303
      ],
      [
        103.7435249,
        1.3862599
      ],
      [
        103.7434768,
        1.3862202
      ],
      [
        103.7434279,
        1.3861709
      ],
      [
        103.7431007,
        1.385815
      ],
      [
        103.7430688,
        1.385764
      ],
      [
        103.7430393,
        1.3857067
      ],
      [
        103.7430348,
        1.3856454
      ],
      [
        103.7430409,
        1.3855943
      ],
      [
        103.7430577,
        1.3855376
      ],
      [
        103.7431993,
        1.3850524
      ],
      [
        103.7432601,
        1.3848392
      ],
      [
        103.7432892,
        1.3847447
      ],
      [
        103.7433201,
        1.3846453
      ],
      [
        103.7433557,
        1.3845323
      ],
      [
        103.7434092,
        1.3843709
      ],
      [
        103.7434572,
        1.3842286
      ],
      [
        103.7434975,
        1.3841043
      ],
      [
        103.7435352,
        1.3841163
      ],
      [
        103.743632,
        1.3841472
      ],
      [
        103.7440588,
        1.3842835
      ],
      [
        103.7441791,
        1.3843233
      ],
      [
        103.7442133,
        1.3843346
      ],
      [
        103.7442639,
        1.3843444
      ],
      [
        103.7444499,
        1.3843881
      ],
      [
        103.7447032,
        1.3844693
      ],
      [
        103.7447479,
        1.3844825
      ],
      [
        103.7453982,
        1.384687
      ],
      [
        103.7455088,
        1.3847213
      ],
      [
        103.7458494,
        1.3848395
      ],
      [
        103.7459496,
        1.3848784
      ],
      [
        103.7460843,
        1.3849736
      ],
      [
        103.746141,
        1.3850345
      ],
      [
        103.7461614,
        1.3850593
      ],
      [
        103.7461847,
        1.3851453
      ],
      [
        103.7461836,
        1.3852888
      ],
      [
        103.7461366,
        1.3854335
      ],
      [
        103.7461216,
        1.3855116
      ],
      [
        103.7461112,
        1.3855659
      ],
      [
        103.7460998,
        1.3856512
      ],
      [
        103.7460834,
        1.3857855
      ],
      [
        103.7460833,
        1.3859813
      ],
      [
        103.7460981,
        1.3861418
      ],
      [
        103.7461125,
        1.3863918
      ],
      [
        103.7461171,
        1.3864632
      ],
      [
        103.746126,
        1.3866058
      ],
      [
        103.7461402,
        1.3868362
      ],
      [
        103.7461268,
        1.3871204
      ],
      [
        103.7459363,
        1.3880107
      ],
      [
        103.7458947,
        1.3882064
      ],
      [
        103.7458444,
        1.3884571
      ],
      [
        103.7457423,
        1.3887952
      ],
      [
        103.7457215,
        1.3888642
      ],
      [
        103.7456986,
        1.3889356
      ],
      [
        103.7456856,
        1.3889761
      ],
      [
        103.7454492,
        1.3897107
      ],
      [
        103.7454307,
        1.3897659
      ],
      [
        103.7455543,
        1.3898126
      ],
      [
        103.7456267,
        1.3898395
      ],
      [
        103.7458451,
        1.3899061
      ],
      [
        103.7460355,
        1.3899535
      ],
      [
        103.7463812,
        1.3900327
      ],
      [
        103.7465522,
        1.3900562
      ],
      [
        103.7468188,
        1.3900691
      ],
      [
        103.7471188,
        1.390069
      ],
      [
        103.7479356,
        1.3899986
      ],
      [
        103.7487826,
        1.3899156
      ],
      [
        103.7488826,
        1.3899074
      ],
      [
        103.7493201,
        1.3897969
      ],
      [
        103.7497196,
        1.3897428
      ],
      [
        103.7502346,
        1.3896596
      ],
      [
        103.7505899,
        1.389584
      ],
      [
        103.7515381,
        1.3893805
      ],
      [
        103.7523222,
        1.389215
      ],
      [
        103.7527924,
        1.3891788
      ],
      [
        103.7529803,
        1.3891473
      ],
      [
        103.7531683,
        1.3891236
      ],
      [
        103.7533432,
        1.3891098
      ],
      [
        103.7535171,
        1.3891018
      ],
      [
        103.7537644,
        1.3890895
      ],
      [
        103.7540132,
        1.3890788
      ],
      [
        103.7542015,
        1.3890789
      ],
      [
        103.7543908,
        1.389085
      ],
      [
        103.7546479,
        1.3890973
      ],
      [
        103.75491,
        1.3891139
      ],
      [
        103.7551077,
        1.3891332
      ],
      [
        103.7553066,
        1.3891585
      ],
      [
        103.7560744,
        1.3892494
      ],
      [
        103.7565258,
        1.3893098
      ],
      [
        103.7568561,
        1.3893264
      ],
      [
        103.7570192,
        1.3893206
      ],
      [
        103.7571823,
        1.3893024
      ],
      [
        103.7573157,
        1.3892697
      ],
      [
        103.7574398,
        1.3892246
      ],
      [
        103.7575298,
        1.3891812
      ],
      [
        103.7576168,
        1.3891254
      ],
      [
        103.7576874,
        1.3890534
      ],
      [
        103.7577456,
        1.3889753
      ],
      [
        103.7578528,
        1.388691
      ],
      [
        103.7578808,
        1.388556
      ],
      [
        103.7578924,
        1.3884233
      ],
      [
        103.7578867,
        1.3882781
      ],
      [
        103.757867,
        1.388154
      ],
      [
        103.7577848,
        1.3879308
      ],
      [
        103.7576435,
        1.3876833
      ],
      [
        103.7575832,
        1.3876176
      ],
      [
        103.7574786,
        1.3875129
      ],
      [
        103.7572919,
        1.3873665
      ],
      [
        103.7570759,
        1.3872167
      ],
      [
        103.7567848,
        1.3870198
      ],
      [
        103.7564488,
        1.3868035
      ],
      [
        103.7564052,
        1.3867768
      ],
      [
        103.7562589,
        1.386678
      ],
      [
        103.756191,
        1.3867747
      ],
      [
        103.7561905,
        1.3867755
      ],
      [
        103.75591,
        1.387203
      ],
      [
        103.7558444,
        1.387303
      ],
      [
        103.7556758,
        1.3875946
      ],
      [
        103.7555459,
        1.3878387
      ],
      [
        103.7554183,
        1.3881036
      ],
      [
        103.75531,
        1.3883293
      ],
      [
        103.7551094,
        1.3887437
      ],
      [
        103.7550903,
        1.3887833
      ],
      [
        103.7550885,
        1.3887857
      ],
      [
        103.7550277,
        1.3889275
      ],
      [
        103.7549784,
        1.3890428
      ],
      [
        103.7549248,
        1.3891674
      ],
      [
        103.7548231,
        1.3894688
      ],
      [
        103.7547087,
        1.3898544
      ],
      [
        103.7546012,
        1.3902192
      ],
      [
        103.7544873,
        1.3905721
      ],
      [
        103.7543637,
        1.391047
      ],
      [
        103.7542075,
        1.39184
      ],
      [
        103.7541978,
        1.3918903
      ],
      [
        103.7541713,
        1.3920806
      ],
      [
        103.7541148,
        1.3925302
      ],
      [
        103.7540153,
        1.3933425
      ],
      [
        103.7540017,
        1.3934566
      ],
      [
        103.7539762,
        1.3936644
      ],
      [
        103.7539459,
        1.3939021
      ],
      [
        103.7539418,
        1.3939571
      ],
      [
        103.7539006,
        1.3942569
      ],
      [
        103.7538921,
        1.3943447
      ],
      [
        103.7538891,
        1.394393
      ],
      [
        103.7538811,
        1.3945332
      ],
      [
        103.7538842,
        1.3947149
      ],
      [
        103.7538957,
        1.3948982
      ],
      [
        103.7539181,
        1.3950605
      ],
      [
        103.7539372,
        1.3951365
      ],
      [
        103.7540224,
        1.3954854
      ],
      [
        103.7541145,
        1.39576
      ],
      [
        103.7543452,
        1.3963923
      ],
      [
        103.7544443,
        1.3966922
      ],
      [
        103.7545154,
        1.3969149
      ],
      [
        103.7548086,
        1.3978168
      ],
      [
        103.7548958,
        1.3980834
      ],
      [
        103.7549319,
        1.3981896
      ],
      [
        103.7549978,
        1.3983763
      ],
      [
        103.7550839,
        1.3986059
      ],
      [
        103.7551039,
        1.3986566
      ],
      [
        103.7551332,
        1.3987295
      ],
      [
        103.7551521,
        1.3987788
      ],
      [
        103.7552197,
        1.3989744
      ],
      [
        103.7552825,
        1.3992096
      ],
      [
        103.7553562,
        1.3994482
      ],
      [
        103.7553965,
        1.3996172
      ],
      [
        103.7554421,
        1.3998089
      ],
      [
        103.7555185,
        1.4001776
      ],
      [
        103.7559789,
        1.4024488
      ],
      [
        103.7560271,
        1.4027466
      ],
      [
        103.7560679,
        1.4030777
      ],
      [
        103.7560876,
        1.40334
      ],
      [
        103.7561216,
        1.4037535
      ],
      [
        103.7561217,
        1.4038082
      ],
      [
        103.7561236,
        1.4044842
      ],
      [
        103.7560959,
        1.4050213
      ],
      [
        103.7560947,
        1.405064
      ],
      [
        103.7560856,
        1.4055358
      ],
      [
        103.7560925,
        1.4057576
      ],
      [
        103.7561086,
        1.4067363
      ],
      [
        103.7560901,
        1.4070938
      ],
      [
        103.7560794,
        1.4072251
      ],
      [
        103.7560465,
        1.4075176
      ],
      [
        103.7560145,
        1.407749
      ],
      [
        103.7560005,
        1.407906
      ],
      [
        103.7558771,
        1.4086405
      ],
      [
        103.7557435,
        1.4095002
      ],
      [
        103.755724,
        1.4096852
      ],
      [
        103.7557128,
        1.4098076
      ],
      [
        103.7556945,
        1.410023
      ],
      [
        103.7556935,
        1.4102255
      ],
      [
        103.7556985,
        1.4103213
      ],
      [
        103.7557426,
        1.4106042
      ],
      [
        103.7557969,
        1.4113444
      ],
      [
        103.7558062,
        1.4113853
      ],
      [
        103.7558257,
        1.4114223
      ],
      [
        103.7558821,
        1.4114655
      ],
      [
        103.7559216,
        1.4114876
      ],
      [
        103.7559918,
        1.411533
      ],
      [
        103.7560527,
        1.4115436
      ],
      [
        103.756168,
        1.4115609
      ],
      [
        103.7564598,
        1.4115973
      ],
      [
        103.7566946,
        1.4116287
      ],
      [
        103.7580982,
        1.4118086
      ],
      [
        103.7584452,
        1.4118557
      ],
      [
        103.7590568,
        1.4119358
      ],
      [
        103.7593029,
        1.411957
      ],
      [
        103.759438,
        1.4119584
      ],
      [
        103.7598161,
        1.4119609
      ],
      [
        103.7602044,
        1.4119102
      ],
      [
        103.7605872,
        1.4118204
      ],
      [
        103.7616307,
        1.4113581
      ],
      [
        103.7625153,
        1.4109133
      ],
      [
        103.7630483,
        1.4106664
      ],
      [
        103.7632571,
        1.4105974
      ],
      [
        103.7634602,
        1.4105466
      ],
      [
        103.7639392,
        1.4104975
      ],
      [
        103.7646532,
        1.4104428
      ],
      [
        103.7650609,
        1.4104252
      ],
      [
        103.7656036,
        1.4103803
      ],
      [
        103.765782,
        1.4103602
      ],
      [
        103.7660967,
        1.4103213
      ],
      [
        103.7662727,
        1.4103096
      ],
      [
        103.7664025,
        1.4103009
      ],
      [
        103.7675512,
        1.4101975
      ],
      [
        103.7679559,
        1.4101986
      ],
      [
        103.7683143,
        1.4102027
      ],
      [
        103.7686278,
        1.4102114
      ],
      [
        103.7688329,
        1.4102156
      ],
      [
        103.7690576,
        1.4102213
      ],
      [
        103.7693252,
        1.4102245
      ],
      [
        103.7695619,
        1.4102261
      ],
      [
        103.7696806,
        1.4102261
      ],
      [
        103.7699023,
        1.4102235
      ],
      [
        103.7700883,
        1.4102114
      ],
      [
        103.7704617,
        1.4101983
      ],
      [
        103.770712,
        1.4101613
      ],
      [
        103.7710614,
        1.4101248
      ],
      [
        103.771144,
        1.4101158
      ],
      [
        103.7714371,
        1.4100889
      ],
      [
        103.7714963,
        1.4100859
      ],
      [
        103.7721463,
        1.4100111
      ],
      [
        103.7722117,
        1.410001
      ],
      [
        103.7722165,
        1.4100003
      ],
      [
        103.7723108,
        1.4099956
      ],
      [
        103.7726292,
        1.409961
      ],
      [
        103.7727925,
        1.4099482
      ],
      [
        103.7729096,
        1.4099588
      ],
      [
        103.7733196,
        1.4100512
      ],
      [
        103.774074,
        1.4102865
      ],
      [
        103.7742443,
        1.4103427
      ],
      [
        103.7745848,
        1.4104424
      ],
      [
        103.774928,
        1.4105484
      ],
      [
        103.7751396,
        1.4106109
      ],
      [
        103.7754747,
        1.4107031
      ],
      [
        103.7758438,
        1.4107777
      ],
      [
        103.7761942,
        1.410834
      ],
      [
        103.7766057,
        1.4108855
      ],
      [
        103.7771397,
        1.4109133
      ],
      [
        103.7775498,
        1.4109111
      ],
      [
        103.7780396,
        1.4108852
      ],
      [
        103.778276,
        1.4108664
      ],
      [
        103.7783875,
        1.4108561
      ],
      [
        103.7785024,
        1.4108474
      ],
      [
        103.7785952,
        1.4108418
      ],
      [
        103.7786681,
        1.410835
      ],
      [
        103.7786562,
        1.4106917
      ],
      [
        103.7786552,
        1.410653
      ],
      [
        103.7786526,
        1.4105532
      ],
      [
        103.7786607,
        1.4104905
      ],
      [
        103.7786829,
        1.4104178
      ],
      [
        103.7787299,
        1.4103158
      ],
      [
        103.7788285,
        1.410192
      ],
      [
        103.7789305,
        1.4100753
      ],
      [
        103.7791798,
        1.4098212
      ],
      [
        103.7795343,
        1.4094639
      ],
      [
        103.7798642,
        1.4090551
      ],
      [
        103.7799007,
        1.4089296
      ],
      [
        103.7799179,
        1.4088751
      ],
      [
        103.7799412,
        1.4088355
      ],
      [
        103.7799825,
        1.4088016
      ],
      [
        103.7800266,
        1.4087662
      ],
      [
        103.7800723,
        1.4087295
      ],
      [
        103.780219,
        1.4086119
      ],
      [
        103.7805811,
        1.4083089
      ],
      [
        103.7807085,
        1.408203
      ],
      [
        103.7808117,
        1.4081346
      ],
      [
        103.7809435,
        1.4080948
      ],
      [
        103.7810025,
        1.408092
      ],
      [
        103.7810573,
        1.4080701
      ],
      [
        103.781102,
        1.4080315
      ],
      [
        103.7811316,
        1.4079804
      ],
      [
        103.781257,
        1.4078652
      ],
      [
        103.7814743,
        1.407778
      ],
      [
        103.7820743,
        1.4076446
      ],
      [
        103.7821394,
        1.4076359
      ],
      [
        103.7823794,
        1.4075841
      ],
      [
        103.7826789,
        1.4075195
      ],
      [
        103.7828412,
        1.407486
      ],
      [
        103.7833999,
        1.4073705
      ],
      [
        103.783845,
        1.4072801
      ],
      [
        103.7839126,
        1.4072692
      ],
      [
        103.7840554,
        1.4072413
      ],
      [
        103.7841982,
        1.4072067
      ],
      [
        103.7843755,
        1.4071531
      ],
      [
        103.7844616,
        1.4071072
      ],
      [
        103.7845322,
        1.4070592
      ],
      [
        103.7846844,
        1.4069109
      ],
      [
        103.7848165,
        1.4067672
      ],
      [
        103.7853951,
        1.4060301
      ],
      [
        103.785946,
        1.4053224
      ],
      [
        103.786329,
        1.4048487
      ],
      [
        103.7864852,
        1.4046665
      ],
      [
        103.786765,
        1.4044763
      ],
      [
        103.7868652,
        1.4044188
      ],
      [
        103.7870683,
        1.4043022
      ],
      [
        103.7872506,
        1.4042497
      ],
      [
        103.7876694,
        1.4041626
      ],
      [
        103.7879936,
        1.4041555
      ],
      [
        103.7883795,
        1.4042511
      ],
      [
        103.7892081,
        1.4044624
      ],
      [
        103.7896004,
        1.4047344
      ],
      [
        103.7897307,
        1.4047549
      ],
      [
        103.7898531,
        1.4046966
      ],
      [
        103.789892,
        1.4046152
      ],
      [
        103.7898554,
        1.4045091
      ],
      [
        103.7897469,
        1.4044492
      ],
      [
        103.7895994,
        1.4044159
      ],
      [
        103.7892363,
        1.4043629
      ],
      [
        103.7879906,
        1.4041129
      ],
      [
        103.7876838,
        1.4041174
      ],
      [
        103.7873322,
        1.4041565
      ],
      [
        103.7871032,
        1.4042134
      ],
      [
        103.7869156,
        1.4042946
      ],
      [
        103.7868226,
        1.4043477
      ],
      [
        103.7867343,
        1.404398
      ],
      [
        103.7864963,
        1.4045637
      ],
      [
        103.7863168,
        1.4047557
      ],
      [
        103.7861095,
        1.4049775
      ],
      [
        103.7853432,
        1.4059691
      ],
      [
        103.7846059,
        1.4068971
      ],
      [
        103.7844868,
        1.4070007
      ],
      [
        103.7843546,
        1.4070715
      ],
      [
        103.7841387,
        1.407134
      ],
      [
        103.7834957,
        1.4072702
      ],
      [
        103.7822078,
        1.407534
      ],
      [
        103.7821072,
        1.4075581
      ],
      [
        103.7814581,
        1.4077257
      ],
      [
        103.7812396,
        1.4077646
      ],
      [
        103.7810661,
        1.4077711
      ],
      [
        103.7810121,
        1.4077459
      ],
      [
        103.7809528,
        1.4077399
      ],
      [
        103.7808949,
        1.4077537
      ],
      [
        103.7808447,
        1.4077859
      ],
      [
        103.7808079,
        1.4078329
      ],
      [
        103.7807887,
        1.4078893
      ],
      [
        103.7807891,
        1.4079489
      ],
      [
        103.7807661,
        1.408026
      ],
      [
        103.7806897,
        1.4081011
      ],
      [
        103.7805791,
        1.4081916
      ],
      [
        103.7805422,
        1.4082218
      ],
      [
        103.7801667,
        1.4085315
      ],
      [
        103.7800737,
        1.4086067
      ],
      [
        103.7799408,
        1.4087383
      ],
      [
        103.779836,
        1.4088892
      ],
      [
        103.7798005,
        1.4090195
      ],
      [
        103.7796815,
        1.4091716
      ],
      [
        103.779453,
        1.4093974
      ],
      [
        103.7794379,
        1.4094125
      ],
      [
        103.7791084,
        1.4097409
      ],
      [
        103.7788188,
        1.4100308
      ],
      [
        103.7787284,
        1.410144
      ],
      [
        103.7786497,
        1.4102624
      ],
      [
        103.7785714,
        1.4103265
      ],
      [
        103.7785379,
        1.4103779
      ],
      [
        103.7784193,
        1.4105934
      ],
      [
        103.7783718,
        1.4106681
      ],
      [
        103.7783182,
        1.4107131
      ],
      [
        103.7777996,
        1.4107537
      ],
      [
        103.777284,
        1.4107862
      ],
      [
        103.776962,
        1.4107708
      ],
      [
        103.7765629,
        1.4107422
      ],
      [
        103.7760818,
        1.4106848
      ],
      [
        103.7758739,
        1.4106491
      ],
      [
        103.775727,
        1.4106245
      ],
      [
        103.7754048,
        1.4105468
      ],
      [
        103.7751278,
        1.4104731
      ],
      [
        103.7748444,
        1.4103861
      ],
      [
        103.7741471,
        1.4101752
      ],
      [
        103.773474,
        1.4099608
      ],
      [
        103.7733449,
        1.4099271
      ],
      [
        103.7729144,
        1.4098396
      ],
      [
        103.7727136,
        1.4098142
      ],
      [
        103.7725519,
        1.4098118
      ],
      [
        103.7723105,
        1.4098034
      ],
      [
        103.7722521,
        1.4098061
      ],
      [
        103.7721627,
        1.4098116
      ],
      [
        103.7719819,
        1.4098373
      ],
      [
        103.7713706,
        1.4099115
      ],
      [
        103.7710895,
        1.4099257
      ],
      [
        103.7710885,
        1.4099257
      ],
      [
        103.7710466,
        1.4099338
      ],
      [
        103.7706885,
        1.4099883
      ],
      [
        103.7705595,
        1.4099903
      ],
      [
        103.7704005,
        1.410016
      ],
      [
        103.7702365,
        1.4100345
      ],
      [
        103.7698225,
        1.4100569
      ],
      [
        103.7695649,
        1.410064
      ],
      [
        103.7694446,
        1.4100661
      ],
      [
        103.769128,
        1.410066
      ],
      [
        103.7685374,
        1.4100638
      ],
      [
        103.7684226,
        1.4100632
      ],
      [
        103.7675479,
        1.4100583
      ],
      [
        103.7672131,
        1.4100764
      ],
      [
        103.7669769,
        1.4100891
      ],
      [
        103.7664765,
        1.4101161
      ],
      [
        103.7662025,
        1.4101297
      ],
      [
        103.7658963,
        1.4101608
      ],
      [
        103.7650561,
        1.4102521
      ],
      [
        103.764628,
        1.4102988
      ],
      [
        103.7639273,
        1.4103676
      ],
      [
        103.7634199,
        1.4104278
      ],
      [
        103.7629941,
        1.4105385
      ],
      [
        103.7626333,
        1.4106643
      ],
      [
        103.7624191,
        1.4107648
      ],
      [
        103.7619723,
        1.4109668
      ],
      [
        103.7618596,
        1.4110189
      ],
      [
        103.7618044,
        1.411047
      ],
      [
        103.7617319,
        1.4110839
      ],
      [
        103.7616134,
        1.4111457
      ],
      [
        103.7605286,
        1.4116801
      ],
      [
        103.7601927,
        1.4117812
      ],
      [
        103.7598195,
        1.4118279
      ],
      [
        103.7594403,
        1.4118432
      ],
      [
        103.7592268,
        1.4118212
      ],
      [
        103.7590721,
        1.4118035
      ],
      [
        103.7585719,
        1.4117458
      ],
      [
        103.757908,
        1.4116646
      ],
      [
        103.7573422,
        1.4115999
      ],
      [
        103.7566103,
        1.4114892
      ],
      [
        103.7563602,
        1.4114577
      ],
      [
        103.7563425,
        1.411456
      ],
      [
        103.7561452,
        1.4114068
      ],
      [
        103.7560928,
        1.4113818
      ],
      [
        103.7560394,
        1.4113349
      ],
      [
        103.7560186,
        1.4113096
      ],
      [
        103.7559922,
        1.4112697
      ],
      [
        103.7559748,
        1.4112294
      ],
      [
        103.7559611,
        1.4111678
      ],
      [
        103.7558922,
        1.4109951
      ],
      [
        103.7558577,
        1.4105455
      ],
      [
        103.7558459,
        1.4103213
      ],
      [
        103.7558366,
        1.4101757
      ],
      [
        103.7558366,
        1.4100192
      ],
      [
        103.755844,
        1.4098438
      ],
      [
        103.7558585,
        1.4096818
      ],
      [
        103.7559254,
        1.4091746
      ],
      [
        103.7559838,
        1.4088651
      ],
      [
        103.7560408,
        1.4084813
      ],
      [
        103.7561081,
        1.4080631
      ],
      [
        103.7561886,
        1.4075611
      ],
      [
        103.7562021,
        1.4073823
      ],
      [
        103.7562148,
        1.4072344
      ],
      [
        103.7562315,
        1.4070302
      ],
      [
        103.7562588,
        1.4061603
      ],
      [
        103.7562622,
        1.4060589
      ],
      [
        103.7562741,
        1.4056391
      ],
      [
        103.7562717,
        1.4051243
      ],
      [
        103.7562682,
        1.4048038
      ],
      [
        103.7562678,
        1.4046363
      ],
      [
        103.7562546,
        1.4043475
      ],
      [
        103.7562532,
        1.4040817
      ],
      [
        103.7562491,
        1.4039723
      ],
      [
        103.7562382,
        1.4036818
      ],
      [
        103.7562126,
        1.4033204
      ],
      [
        103.7561879,
        1.4030744
      ],
      [
        103.7561464,
        1.4027441
      ],
      [
        103.7561033,
        1.4024222
      ],
      [
        103.7558497,
        1.4010973
      ],
      [
        103.7557103,
        1.4003626
      ],
      [
        103.7555574,
        1.3996279
      ],
      [
        103.7555065,
        1.3994496
      ],
      [
        103.7554139,
        1.3990903
      ],
      [
        103.7552973,
        1.3987246
      ],
      [
        103.7552811,
        1.3986738
      ],
      [
        103.7552544,
        1.3985984
      ],
      [
        103.7552227,
        1.3985082
      ],
      [
        103.7550873,
        1.3981225
      ],
      [
        103.7544971,
        1.3964147
      ],
      [
        103.7544662,
        1.3963254
      ],
      [
        103.7541804,
        1.3954617
      ],
      [
        103.7540936,
        1.3951557
      ],
      [
        103.7540597,
        1.3949556
      ],
      [
        103.7540351,
        1.3946822
      ],
      [
        103.7540255,
        1.3944709
      ],
      [
        103.7540265,
        1.3944022
      ],
      [
        103.7540277,
        1.3943463
      ],
      [
        103.7540338,
        1.3942639
      ],
      [
        103.7540518,
        1.3940834
      ],
      [
        103.7540649,
        1.3939728
      ],
      [
        103.7543035,
        1.3921321
      ],
      [
        103.75435,
        1.3917968
      ],
      [
        103.7543995,
        1.3915225
      ],
      [
        103.7544881,
        1.3910765
      ],
      [
        103.7546,
        1.3906096
      ],
      [
        103.7546995,
        1.3902629
      ],
      [
        103.7548702,
        1.3897072
      ],
      [
        103.7549259,
        1.3895367
      ],
      [
        103.7550451,
        1.3892242
      ],
      [
        103.7551495,
        1.3889798
      ],
      [
        103.7551831,
        1.3889035
      ],
      [
        103.7552577,
        1.3887367
      ],
      [
        103.7552702,
        1.3887088
      ],
      [
        103.7554094,
        1.3884245
      ],
      [
        103.7555431,
        1.3881452
      ],
      [
        103.7556854,
        1.3878933
      ],
      [
        103.7558602,
        1.387602
      ],
      [
        103.7560334,
        1.3873158
      ],
      [
        103.7561403,
        1.3872452
      ],
      [
        103.7563318,
        1.3871061
      ],
      [
        103.75636,
        1.3870875
      ],
      [
        103.7564066,
        1.3870603
      ],
      [
        103.7564662,
        1.3870392
      ],
      [
        103.7565267,
        1.3870391
      ],
      [
        103.7566265,
        1.3870652
      ],
      [
        103.7568683,
        1.3872531
      ],
      [
        103.7570055,
        1.3873491
      ],
      [
        103.7571752,
        1.3874776
      ],
      [
        103.7572592,
        1.387565
      ],
      [
        103.7573277,
        1.387661
      ],
      [
        103.7573671,
        1.3877518
      ],
      [
        103.7573894,
        1.3878461
      ],
      [
        103.7573963,
        1.3879438
      ],
      [
        103.7573911,
        1.3880414
      ],
      [
        103.757362,
        1.3881425
      ],
      [
        103.7573106,
        1.3882317
      ],
      [
        103.7572352,
        1.3883191
      ],
      [
        103.7571477,
        1.3883859
      ],
      [
        103.7570415,
        1.388439
      ],
      [
        103.7569283,
        1.3884733
      ],
      [
        103.7568169,
        1.3884973
      ],
      [
        103.7566059,
        1.3885249
      ],
      [
        103.7563776,
        1.3885407
      ],
      [
        103.7560763,
        1.3885499
      ],
      [
        103.7556349,
        1.388569
      ],
      [
        103.7552466,
        1.3885882
      ],
      [
        103.754833,
        1.3886343
      ],
      [
        103.7545946,
        1.3886687
      ],
      [
        103.7543375,
        1.388691
      ],
      [
        103.7541183,
        1.3887171
      ],
      [
        103.75364,
        1.3887788
      ],
      [
        103.7532448,
        1.3888428
      ],
      [
        103.7521862,
        1.389062
      ],
      [
        103.751549,
        1.3892156
      ],
      [
        103.7509183,
        1.3893465
      ],
      [
        103.7505573,
        1.3894217
      ],
      [
        103.7501113,
        1.3894961
      ],
      [
        103.7496015,
        1.3895679
      ],
      [
        103.7491583,
        1.3896068
      ],
      [
        103.7488492,
        1.3895548
      ],
      [
        103.7486278,
        1.3895456
      ],
      [
        103.7481501,
        1.3895118
      ],
      [
        103.7477475,
        1.3894539
      ],
      [
        103.7472032,
        1.3893062
      ],
      [
        103.7466374,
        1.3891481
      ],
      [
        103.7463069,
        1.389058
      ],
      [
        103.7461675,
        1.3889414
      ],
      [
        103.7460835,
        1.3888733
      ],
      [
        103.7460222,
        1.3887741
      ],
      [
        103.7459953,
        1.3886897
      ],
      [
        103.7459829,
        1.3886001
      ],
      [
        103.745979,
        1.388432
      ],
      [
        103.7460986,
        1.3877253
      ],
      [
        103.7461044,
        1.387691
      ],
      [
        103.7462092,
        1.3871327
      ],
      [
        103.7462339,
        1.3867264
      ],
      [
        103.7462274,
        1.3864652
      ],
      [
        103.7462241,
        1.3863945
      ],
      [
        103.7461862,
        1.3858586
      ],
      [
        103.7462078,
        1.3856435
      ],
      [
        103.7462364,
        1.3854539
      ],
      [
        103.7463026,
        1.3852257
      ],
      [
        103.7463624,
        1.3850761
      ],
      [
        103.7463763,
        1.3850406
      ],
      [
        103.746417,
        1.3849556
      ],
      [
        103.7463289,
        1.3849232
      ],
      [
        103.7462478,
        1.3848945
      ],
      [
        103.7460983,
        1.3848409
      ],
      [
        103.7457894,
        1.3847247
      ],
      [
        103.7454119,
        1.3846059
      ],
      [
        103.74447,
        1.3843066
      ],
      [
        103.7442087,
        1.384227
      ],
      [
        103.7440548,
        1.3841803
      ],
      [
        103.7436614,
        1.3840638
      ],
      [
        103.743564,
        1.384035
      ],
      [
        103.7435182,
        1.3840227
      ],
      [
        103.7434496,
        1.3839991
      ],
      [
        103.7434211,
        1.3840807
      ],
      [
        103.7433831,
        1.3842046
      ],
      [
        103.7432591,
        1.38464
      ],
      [
        103.7432134,
        1.3848292
      ],
      [
        103.7431477,
        1.3850382
      ],
      [
        103.7431048,
        1.3851876
      ],
      [
        103.7430327,
        1.385441
      ],
      [
        103.7430042,
        1.385544
      ],
      [
        103.7429834,
        1.3856257
      ],
      [
        103.7430026,
        1.3857348
      ],
      [
        103.7430289,
        1.3857887
      ],
      [
        103.7430731,
        1.3858571
      ],
      [
        103.7433564,
        1.3861689
      ],
      [
        103.7434038,
        1.386219
      ],
      [
        103.7434563,
        1.3862707
      ],
      [
        103.743512,
        1.386309
      ],
      [
        103.7435778,
        1.3863293
      ],
      [
        103.7436683,
        1.3863564
      ],
      [
        103.7438854,
        1.386371
      ],
      [
        103.7440414,
        1.3863808
      ],
      [
        103.744649,
        1.3864015
      ],
      [
        103.7448227,
        1.3864074
      ],
      [
        103.744913,
        1.3864092
      ],
      [
        103.7449229,
        1.3864095
      ],
      [
        103.7449244,
        1.386337
      ],
      [
        103.7449334,
        1.3862586
      ],
      [
        103.7449894,
        1.3861545
      ],
      [
        103.7456297,
        1.3861348
      ],
      [
        103.7456898,
        1.3861098
      ],
      [
        103.7457185,
        1.386066
      ],
      [
        103.7457385,
        1.3860095
      ],
      [
        103.7457448,
        1.3858397
      ]
    ]
  }
}