{
  "type": "Feature",
  "properties": {
    "relation": 2352586,
    "direction": "1",
    "fee": "yes",
    "from": "Bukit Batok Interchange",
    "name": "Svc 941 (Bukit Batok Interchange ↺ Bukit Batok West Avenue 9)",
    "name:en": "Svc 941 (Bukit Batok Interchange ↺ Bukit Batok West Avenue 9)",
    "network": "Land Transport Authority",
    "network:wikidata": "Q3299279",
    "network:wikipedia": "en:Land Transport Authority",
    "operator": "Tower Transit Singapore",
    "operator:wikidata": "Q19898668",
    "operator:wikipedia": "en:Tower Transit Singapore",
    "public_transport:version": "2",
    "ref": "941",
    "roundtrip": "yes",
    "route": "bus",
    "to": "Bukit Batok Interchange",
    "type": "route",
    "via": "Bukit Batok West Avenue 9",
    "website": "https://towertransit.sg/"
  },
  "geometry": {
    "type": "LineString",
    "coordinates": [
      [
        103.751282,
        1.3498986
      ],
      [
        103.7512035,
        1.3498052
      ],
      [
        103.751163,
        1.3497899
      ],
      [
        103.7511002,
        1.3497942
      ],
      [
        103.7506305,
        1.3501518
      ],
      [
        103.7504057,
        1.3503218
      ],
      [
        103.7503814,
        1.3503559
      ],
      [
        103.7503812,
        1.3503773
      ],
      [
        103.7505044,
        1.3505494
      ],
      [
        103.7507106,
        1.3508299
      ],
      [
        103.7507741,
        1.3509021
      ],
      [
        103.7506969,
        1.3509709
      ],
      [
        103.7504979,
        1.3511717
      ],
      [
        103.7504284,
        1.3512491
      ],
      [
        103.7503547,
        1.3513328
      ],
      [
        103.7501777,
        1.3515224
      ],
      [
        103.750002,
        1.3516885
      ],
      [
        103.7498912,
        1.3518031
      ],
      [
        103.7497484,
        1.3519298
      ],
      [
        103.7496096,
        1.3520203
      ],
      [
        103.7493836,
        1.3521447
      ],
      [
        103.7491447,
        1.3522358
      ],
      [
        103.749057,
        1.3522539
      ],
      [
        103.7485053,
        1.3523026
      ],
      [
        103.7484469,
        1.3523046
      ],
      [
        103.7484476,
        1.3522173
      ],
      [
        103.748424,
        1.3517562
      ],
      [
        103.7484079,
        1.3516483
      ],
      [
        103.7483905,
        1.3515765
      ],
      [
        103.7482909,
        1.3512902
      ],
      [
        103.7482765,
        1.3512481
      ],
      [
        103.7482457,
        1.351173
      ],
      [
        103.748221,
        1.3511026
      ],
      [
        103.7480915,
        1.3507346
      ],
      [
        103.7480209,
        1.3505231
      ],
      [
        103.7479615,
        1.3503262
      ],
      [
        103.747936,
        1.35016
      ],
      [
        103.7479325,
        1.350113
      ],
      [
        103.7479331,
        1.350028
      ],
      [
        103.7479344,
        1.3498323
      ],
      [
        103.7479714,
        1.3495615
      ],
      [
        103.7480114,
        1.3494113
      ],
      [
        103.7480379,
        1.349348
      ],
      [
        103.7480978,
        1.3492263
      ],
      [
        103.7481569,
        1.349134
      ],
      [
        103.7482399,
        1.3490211
      ],
      [
        103.7483239,
        1.3489243
      ],
      [
        103.7484214,
        1.3488174
      ],
      [
        103.7485671,
        1.3486774
      ],
      [
        103.7487392,
        1.3485523
      ],
      [
        103.748828,
        1.3484872
      ],
      [
        103.7489208,
        1.348421
      ],
      [
        103.7489067,
        1.3484027
      ],
      [
        103.7488672,
        1.3483515
      ],
      [
        103.7488023,
        1.3482676
      ],
      [
        103.7486162,
        1.3480131
      ],
      [
        103.7473983,
        1.3463464
      ],
      [
        103.7472412,
        1.3461312
      ],
      [
        103.7471106,
        1.3459546
      ],
      [
        103.7470835,
        1.345918
      ],
      [
        103.747011,
        1.3458198
      ],
      [
        103.746913,
        1.3458898
      ],
      [
        103.7468443,
        1.345938
      ],
      [
        103.746656,
        1.3460702
      ],
      [
        103.7463661,
        1.3463006
      ],
      [
        103.7462283,
        1.3464101
      ],
      [
        103.7460838,
        1.3465203
      ],
      [
        103.74575,
        1.3467789
      ],
      [
        103.7457232,
        1.3467988
      ],
      [
        103.7456901,
        1.3468233
      ],
      [
        103.7455311,
        1.3469414
      ],
      [
        103.7454473,
        1.3470114
      ],
      [
        103.7452982,
        1.3471357
      ],
      [
        103.7452015,
        1.3472129
      ],
      [
        103.7449063,
        1.3474589
      ],
      [
        103.7448594,
        1.3474983
      ],
      [
        103.7447767,
        1.3474396
      ],
      [
        103.7446193,
        1.3473278
      ],
      [
        103.7444316,
        1.3472031
      ],
      [
        103.7442941,
        1.3471253
      ],
      [
        103.7441591,
        1.3470581
      ],
      [
        103.7438498,
        1.3469272
      ],
      [
        103.7437826,
        1.3469037
      ],
      [
        103.7432948,
        1.3467199
      ],
      [
        103.7432496,
        1.3467028
      ],
      [
        103.7431782,
        1.3466759
      ],
      [
        103.7430962,
        1.3466472
      ],
      [
        103.7429542,
        1.3466093
      ],
      [
        103.74276,
        1.3465709
      ],
      [
        103.7425253,
        1.3465512
      ],
      [
        103.74229,
        1.3465586
      ],
      [
        103.7421893,
        1.3465618
      ],
      [
        103.7421253,
        1.3465638
      ],
      [
        103.7420068,
        1.346579
      ],
      [
        103.7418265,
        1.3466021
      ],
      [
        103.7417801,
        1.346608
      ],
      [
        103.7414236,
        1.3466872
      ],
      [
        103.741337,
        1.346719
      ],
      [
        103.7409758,
        1.3469047
      ],
      [
        103.7407683,
        1.3470378
      ],
      [
        103.7406842,
        1.3470912
      ],
      [
        103.7406178,
        1.3471375
      ],
      [
        103.7405008,
        1.3472353
      ],
      [
        103.740343,
        1.3473411
      ],
      [
        103.7401494,
        1.3475195
      ],
      [
        103.7400261,
        1.347663
      ],
      [
        103.7399349,
        1.3477756
      ],
      [
        103.7398745,
        1.347848
      ],
      [
        103.739794,
        1.3479793
      ],
      [
        103.7397595,
        1.348038
      ],
      [
        103.7397479,
        1.3480577
      ],
      [
        103.739727,
        1.3480933
      ],
      [
        103.7396237,
        1.3483802
      ],
      [
        103.7395808,
        1.3485156
      ],
      [
        103.7395446,
        1.3486658
      ],
      [
        103.7395325,
        1.3488301
      ],
      [
        103.7395306,
        1.3489112
      ],
      [
        103.7395278,
        1.3490532
      ],
      [
        103.739525,
        1.3491935
      ],
      [
        103.73952,
        1.3494461
      ],
      [
        103.7395205,
        1.349658
      ],
      [
        103.7395177,
        1.349727
      ],
      [
        103.7395133,
        1.3498368
      ],
      [
        103.7395104,
        1.3499121
      ],
      [
        103.7395042,
        1.3500957
      ],
      [
        103.7395164,
        1.3503954
      ],
      [
        103.7395324,
        1.3507744
      ],
      [
        103.7395372,
        1.3508544
      ],
      [
        103.7395473,
        1.3511274
      ],
      [
        103.7395488,
        1.3512119
      ],
      [
        103.7395555,
        1.3516148
      ],
      [
        103.7395316,
        1.3518069
      ],
      [
        103.739503,
        1.3519054
      ],
      [
        103.7394659,
        1.3520089
      ],
      [
        103.7394135,
        1.3521318
      ],
      [
        103.7393642,
        1.3522378
      ],
      [
        103.739326,
        1.3523262
      ],
      [
        103.7392885,
        1.352409
      ],
      [
        103.7391686,
        1.3526412
      ],
      [
        103.7391501,
        1.352678
      ],
      [
        103.7391057,
        1.3527736
      ],
      [
        103.739072,
        1.3528301
      ],
      [
        103.7388833,
        1.3531992
      ],
      [
        103.7388136,
        1.3533205
      ],
      [
        103.7387708,
        1.3534916
      ],
      [
        103.7387333,
        1.3536602
      ],
      [
        103.7387253,
        1.3537041
      ],
      [
        103.7387195,
        1.3538331
      ],
      [
        103.7387247,
        1.3539542
      ],
      [
        103.7387504,
        1.3541157
      ],
      [
        103.7387815,
        1.354244
      ],
      [
        103.7388438,
        1.354404
      ],
      [
        103.7389298,
        1.3545559
      ],
      [
        103.7391231,
        1.3548162
      ],
      [
        103.7392617,
        1.3550082
      ],
      [
        103.7393461,
        1.3551203
      ],
      [
        103.739502,
        1.3553289
      ],
      [
        103.7397087,
        1.355594
      ],
      [
        103.7398087,
        1.3557326
      ],
      [
        103.7399673,
        1.3559468
      ],
      [
        103.7400115,
        1.3560078
      ],
      [
        103.7400897,
        1.356112
      ],
      [
        103.7401641,
        1.3560482
      ],
      [
        103.7402074,
        1.3560061
      ],
      [
        103.7403657,
        1.3558619
      ],
      [
        103.7408564,
        1.3553986
      ],
      [
        103.7409376,
        1.3553217
      ],
      [
        103.7410934,
        1.3551742
      ],
      [
        103.7415113,
        1.3547905
      ],
      [
        103.7416828,
        1.3546368
      ],
      [
        103.74173,
        1.354595
      ],
      [
        103.7417953,
        1.3545379
      ],
      [
        103.741708,
        1.3544397
      ],
      [
        103.7416648,
        1.3543911
      ],
      [
        103.7415497,
        1.3542615
      ],
      [
        103.7413162,
        1.3540006
      ],
      [
        103.7411282,
        1.3538112
      ],
      [
        103.7409016,
        1.353552
      ],
      [
        103.7406648,
        1.3533877
      ],
      [
        103.7405395,
        1.3533286
      ],
      [
        103.7403392,
        1.3532288
      ],
      [
        103.7400185,
        1.3530755
      ],
      [
        103.7395584,
        1.3528699
      ],
      [
        103.7394554,
        1.3527948
      ],
      [
        103.7394049,
        1.3527317
      ],
      [
        103.7393762,
        1.3526747
      ],
      [
        103.7393589,
        1.3526263
      ],
      [
        103.7393412,
        1.3525246
      ],
      [
        103.7394377,
        1.3523167
      ],
      [
        103.7395603,
        1.3519572
      ],
      [
        103.7396104,
        1.3517866
      ],
      [
        103.7396288,
        1.3516112
      ],
      [
        103.7396144,
        1.351355
      ],
      [
        103.7396044,
        1.3512116
      ],
      [
        103.7396097,
        1.350718
      ],
      [
        103.7396072,
        1.3503877
      ],
      [
        103.7396115,
        1.3499149
      ],
      [
        103.7396113,
        1.3498373
      ],
      [
        103.739617,
        1.3497255
      ],
      [
        103.739618,
        1.3496562
      ],
      [
        103.7396219,
        1.3493836
      ],
      [
        103.7396293,
        1.3488736
      ],
      [
        103.7396819,
        1.3485674
      ],
      [
        103.7397062,
        1.3484963
      ],
      [
        103.7398054,
        1.3481987
      ],
      [
        103.7398915,
        1.3480182
      ],
      [
        103.7401215,
        1.3476955
      ],
      [
        103.7402292,
        1.3475911
      ],
      [
        103.7403821,
        1.3474402
      ],
      [
        103.7407257,
        1.3471594
      ],
      [
        103.7407713,
        1.3471288
      ],
      [
        103.7408103,
        1.3471027
      ],
      [
        103.7410017,
        1.3469939
      ],
      [
        103.7412057,
        1.3468905
      ],
      [
        103.7414541,
        1.3467795
      ],
      [
        103.7416417,
        1.3467292
      ],
      [
        103.7416959,
        1.3467147
      ],
      [
        103.742075,
        1.3466444
      ],
      [
        103.7424946,
        1.3466286
      ],
      [
        103.7425141,
        1.3466307
      ],
      [
        103.7428202,
        1.3466645
      ],
      [
        103.7430719,
        1.3467431
      ],
      [
        103.7431504,
        1.3467659
      ],
      [
        103.7432182,
        1.3467907
      ],
      [
        103.7432729,
        1.3468107
      ],
      [
        103.7434757,
        1.3468782
      ],
      [
        103.743643,
        1.3469433
      ],
      [
        103.7438355,
        1.3470241
      ],
      [
        103.7438985,
        1.3470478
      ],
      [
        103.7440533,
        1.3471062
      ],
      [
        103.7441581,
        1.347154
      ],
      [
        103.7442528,
        1.3471998
      ],
      [
        103.7443967,
        1.3472769
      ],
      [
        103.7445768,
        1.3473863
      ],
      [
        103.7447233,
        1.3475016
      ],
      [
        103.7448033,
        1.3475645
      ],
      [
        103.7448707,
        1.3476115
      ],
      [
        103.7449234,
        1.3475401
      ],
      [
        103.7449574,
        1.3475074
      ],
      [
        103.745002,
        1.3474671
      ],
      [
        103.7451065,
        1.3473887
      ],
      [
        103.7455534,
        1.3470536
      ],
      [
        103.7455945,
        1.3470229
      ],
      [
        103.7456442,
        1.3469858
      ],
      [
        103.745669,
        1.3469673
      ],
      [
        103.7457484,
        1.346908
      ],
      [
        103.7458383,
        1.3468409
      ],
      [
        103.7458601,
        1.3468247
      ],
      [
        103.7459594,
        1.3467505
      ],
      [
        103.7460465,
        1.3466855
      ],
      [
        103.7461583,
        1.3465988
      ],
      [
        103.7462877,
        1.3465008
      ],
      [
        103.7464748,
        1.3463593
      ],
      [
        103.7466155,
        1.3462548
      ],
      [
        103.7467048,
        1.3461907
      ],
      [
        103.7467834,
        1.346168
      ],
      [
        103.746871,
        1.3461614
      ],
      [
        103.7469147,
        1.3461658
      ],
      [
        103.7469409,
        1.3461684
      ],
      [
        103.7469917,
        1.3461735
      ],
      [
        103.7471603,
        1.3462207
      ],
      [
        103.7473086,
        1.3464234
      ],
      [
        103.7474286,
        1.3465848
      ],
      [
        103.7482162,
        1.3476442
      ],
      [
        103.74841,
        1.3479051
      ],
      [
        103.7484592,
        1.3479754
      ],
      [
        103.7487084,
        1.3483326
      ],
      [
        103.7487725,
        1.3484201
      ],
      [
        103.7486888,
        1.348487
      ],
      [
        103.7485787,
        1.3485766
      ],
      [
        103.74849,
        1.3486486
      ],
      [
        103.7484389,
        1.3486901
      ],
      [
        103.7483011,
        1.3488242
      ],
      [
        103.7481995,
        1.3489503
      ],
      [
        103.7481249,
        1.349062
      ],
      [
        103.7480399,
        1.3491923
      ],
      [
        103.7479698,
        1.3493247
      ],
      [
        103.7479278,
        1.349418
      ],
      [
        103.7478769,
        1.3495949
      ],
      [
        103.7478501,
        1.3497639
      ],
      [
        103.7478299,
        1.3499261
      ],
      [
        103.7478213,
        1.3500208
      ],
      [
        103.7478192,
        1.3500441
      ],
      [
        103.7478192,
        1.3501541
      ],
      [
        103.7478675,
        1.3503954
      ],
      [
        103.7479137,
        1.3505134
      ],
      [
        103.7479278,
        1.3505495
      ],
      [
        103.7479407,
        1.3505852
      ],
      [
        103.7481391,
        1.3511332
      ],
      [
        103.7481652,
        1.3512052
      ],
      [
        103.7481953,
        1.3512849
      ],
      [
        103.7483127,
        1.3515913
      ],
      [
        103.7483342,
        1.3516811
      ],
      [
        103.7483436,
        1.351726
      ],
      [
        103.7483521,
        1.3522187
      ],
      [
        103.748353,
        1.3523019
      ],
      [
        103.7483516,
        1.3524132
      ],
      [
        103.7484469,
        1.3524078
      ],
      [
        103.7485087,
        1.3524064
      ],
      [
        103.7487493,
        1.3523892
      ],
      [
        103.7490349,
        1.3523688
      ],
      [
        103.7492802,
        1.3523004
      ],
      [
        103.7496404,
        1.3521008
      ],
      [
        103.749792,
        1.3520083
      ],
      [
        103.7499382,
        1.3518675
      ],
      [
        103.7502104,
        1.3516058
      ],
      [
        103.7502898,
        1.3515227
      ],
      [
        103.7507726,
        1.351046
      ],
      [
        103.7508773,
        1.3509429
      ],
      [
        103.7511148,
        1.3507323
      ],
      [
        103.7514874,
        1.350452
      ],
      [
        103.7516159,
        1.3503508
      ],
      [
        103.7515581,
        1.3502722
      ],
      [
        103.7515046,
        1.3502011
      ],
      [
        103.751325,
        1.3499576
      ],
      [
        103.751282,
        1.3498986
      ]
    ]
  }
}