{
  "type": "Feature",
  "properties": {
    "relation": 2352588,
    "direction": "1",
    "fee": "yes",
    "from": "Bukit Batok Interchange",
    "name": "Svc 945 (Bukit Batok Interchange ↺ Bukit Batok Street 34)",
    "name:en": "Svc 945 (Bukit Batok Interchange ↺ Bukit Batok Street 34)",
    "network": "Land Transport Authority",
    "network:short": "LTA",
    "network:wikidata": "Q3299279",
    "network:wikipedia": "en:Land Transport Authority",
    "operator": "Tower Transit Singapore",
    "operator:wikidata": "Q19898668",
    "operator:wikipedia": "en:Tower Transit Singapore",
    "public_transport:version": "2",
    "ref": "945",
    "roundtrip": "yes",
    "route": "bus",
    "to": "Bukit Batok Interchange",
    "type": "route",
    "via": "Bukit Batok Street 34",
    "website": "https://towertransit.sg/"
  },
  "geometry": {
    "type": "LineString",
    "coordinates": [
      [
        103.751282,
        1.3498986
      ],
      [
        103.7512035,
        1.3498052
      ],
      [
        103.751163,
        1.3497899
      ],
      [
        103.7511002,
        1.3497942
      ],
      [
        103.7506305,
        1.3501518
      ],
      [
        103.7504057,
        1.3503218
      ],
      [
        103.7503814,
        1.3503559
      ],
      [
        103.7503812,
        1.3503773
      ],
      [
        103.7505044,
        1.3505494
      ],
      [
        103.7507106,
        1.3508299
      ],
      [
        103.7507741,
        1.3509021
      ],
      [
        103.7508195,
        1.3509291
      ],
      [
        103.7508773,
        1.3509429
      ],
      [
        103.7511148,
        1.3507323
      ],
      [
        103.7514874,
        1.350452
      ],
      [
        103.7516159,
        1.3503508
      ],
      [
        103.7517144,
        1.3502803
      ],
      [
        103.7521476,
        1.3499728
      ],
      [
        103.752695,
        1.3496148
      ],
      [
        103.7527427,
        1.3495836
      ],
      [
        103.7527745,
        1.3496344
      ],
      [
        103.7533888,
        1.3508094
      ],
      [
        103.7534531,
        1.3509167
      ],
      [
        103.7535122,
        1.3510025
      ],
      [
        103.7535873,
        1.3510776
      ],
      [
        103.7536784,
        1.3511366
      ],
      [
        103.7537965,
        1.3511955
      ],
      [
        103.7539605,
        1.3512297
      ],
      [
        103.7541274,
        1.3512388
      ],
      [
        103.754168,
        1.3512404
      ],
      [
        103.7546419,
        1.351259
      ],
      [
        103.7547246,
        1.3512623
      ],
      [
        103.7554373,
        1.351291
      ],
      [
        103.755505,
        1.3512938
      ],
      [
        103.7555033,
        1.3513354
      ],
      [
        103.7554829,
        1.3518268
      ],
      [
        103.7554729,
        1.3520665
      ],
      [
        103.7554684,
        1.3521542
      ],
      [
        103.7554668,
        1.3521849
      ],
      [
        103.7554595,
        1.3522436
      ],
      [
        103.7554457,
        1.3523051
      ],
      [
        103.7554271,
        1.3523654
      ],
      [
        103.7554196,
        1.352382
      ],
      [
        103.7554151,
        1.3523952
      ],
      [
        103.7554016,
        1.3524289
      ],
      [
        103.7553707,
        1.3524899
      ],
      [
        103.7553571,
        1.3525119
      ],
      [
        103.7553346,
        1.3525481
      ],
      [
        103.7552954,
        1.3525985
      ],
      [
        103.75525,
        1.3526475
      ],
      [
        103.7551487,
        1.3527492
      ],
      [
        103.7551048,
        1.3527929
      ],
      [
        103.755062,
        1.3528392
      ],
      [
        103.755023,
        1.3528888
      ],
      [
        103.7549881,
        1.3529413
      ],
      [
        103.7549574,
        1.3529964
      ],
      [
        103.7549292,
        1.3530587
      ],
      [
        103.7549064,
        1.3531233
      ],
      [
        103.7548936,
        1.3531699
      ],
      [
        103.7548872,
        1.3531987
      ],
      [
        103.75485,
        1.3531964
      ],
      [
        103.7547178,
        1.3531882
      ],
      [
        103.7543778,
        1.3531672
      ],
      [
        103.7543029,
        1.3531623
      ],
      [
        103.7540098,
        1.3531326
      ],
      [
        103.7539674,
        1.353121
      ],
      [
        103.7539266,
        1.3530932
      ],
      [
        103.7538208,
        1.3529954
      ],
      [
        103.7537938,
        1.3529663
      ],
      [
        103.7536118,
        1.3527731
      ],
      [
        103.7536035,
        1.3527643
      ],
      [
        103.7534529,
        1.3526042
      ],
      [
        103.7533035,
        1.352455
      ],
      [
        103.7531824,
        1.3523856
      ],
      [
        103.7530635,
        1.3523591
      ],
      [
        103.7529256,
        1.3523524
      ],
      [
        103.7527995,
        1.3523751
      ],
      [
        103.7526511,
        1.3524376
      ],
      [
        103.7525243,
        1.3525354
      ],
      [
        103.7524196,
        1.352676
      ],
      [
        103.7523206,
        1.3528455
      ],
      [
        103.752133,
        1.3531004
      ],
      [
        103.7519164,
        1.3533489
      ],
      [
        103.7518615,
        1.3534169
      ],
      [
        103.7518306,
        1.3534756
      ],
      [
        103.7518096,
        1.3535646
      ],
      [
        103.7518091,
        1.3536934
      ],
      [
        103.7518073,
        1.3543087
      ],
      [
        103.7517891,
        1.3546018
      ],
      [
        103.7517795,
        1.3548822
      ],
      [
        103.7517634,
        1.3552887
      ],
      [
        103.7517538,
        1.3555455
      ],
      [
        103.7517406,
        1.3557517
      ],
      [
        103.7517244,
        1.3562064
      ],
      [
        103.7517315,
        1.3562938
      ],
      [
        103.7517593,
        1.3563705
      ],
      [
        103.7518252,
        1.356431
      ],
      [
        103.7518529,
        1.356452
      ],
      [
        103.7519747,
        1.3564707
      ],
      [
        103.7520958,
        1.3564763
      ],
      [
        103.7523419,
        1.3564832
      ],
      [
        103.7524519,
        1.3564856
      ],
      [
        103.7525238,
        1.3564872
      ],
      [
        103.7527686,
        1.3564988
      ],
      [
        103.7528846,
        1.3564985
      ],
      [
        103.7529431,
        1.3564953
      ],
      [
        103.7530133,
        1.356477
      ],
      [
        103.7531628,
        1.3564246
      ],
      [
        103.7532524,
        1.3563995
      ],
      [
        103.7532665,
        1.3564429
      ],
      [
        103.7533156,
        1.3565933
      ],
      [
        103.7533279,
        1.3567074
      ],
      [
        103.753323,
        1.3568084
      ],
      [
        103.7533103,
        1.3569055
      ],
      [
        103.7532854,
        1.3569818
      ],
      [
        103.7532377,
        1.3570851
      ],
      [
        103.7531718,
        1.3571758
      ],
      [
        103.752719,
        1.3576076
      ],
      [
        103.7526715,
        1.3576551
      ],
      [
        103.7526227,
        1.3576941
      ],
      [
        103.7525739,
        1.3577273
      ],
      [
        103.7525197,
        1.3577613
      ],
      [
        103.7524356,
        1.3578041
      ],
      [
        103.7523089,
        1.3578599
      ],
      [
        103.752178,
        1.3579039
      ],
      [
        103.7519741,
        1.357949
      ],
      [
        103.7518702,
        1.3579651
      ],
      [
        103.7517461,
        1.3579846
      ],
      [
        103.7515163,
        1.3580209
      ],
      [
        103.7514412,
        1.3580632
      ],
      [
        103.7513833,
        1.3581016
      ],
      [
        103.7514087,
        1.3581394
      ],
      [
        103.7514864,
        1.3583223
      ],
      [
        103.7515179,
        1.3584525
      ],
      [
        103.7515668,
        1.3586796
      ],
      [
        103.7515693,
        1.358765
      ],
      [
        103.7515615,
        1.3590036
      ],
      [
        103.751562,
        1.359046
      ],
      [
        103.7515529,
        1.3593612
      ],
      [
        103.7515348,
        1.359821
      ],
      [
        103.7515358,
        1.3599121
      ],
      [
        103.7515094,
        1.3604691
      ],
      [
        103.7515015,
        1.3607125
      ],
      [
        103.7514849,
        1.3610287
      ],
      [
        103.7514693,
        1.3614128
      ],
      [
        103.7514639,
        1.3616166
      ],
      [
        103.7514568,
        1.3617904
      ],
      [
        103.7514571,
        1.3618296
      ],
      [
        103.7514372,
        1.3620725
      ],
      [
        103.7514276,
        1.3622005
      ],
      [
        103.7514022,
        1.3628821
      ],
      [
        103.7513948,
        1.3631259
      ],
      [
        103.7513846,
        1.3635898
      ],
      [
        103.75138,
        1.3637972
      ],
      [
        103.7513573,
        1.3639035
      ],
      [
        103.7513594,
        1.3641232
      ],
      [
        103.7513398,
        1.3645504
      ],
      [
        103.7513088,
        1.3652408
      ],
      [
        103.7512846,
        1.3654146
      ],
      [
        103.7512133,
        1.3654043
      ],
      [
        103.7502686,
        1.3653317
      ],
      [
        103.7500593,
        1.3653178
      ],
      [
        103.7498353,
        1.3652973
      ],
      [
        103.7491801,
        1.365219
      ],
      [
        103.7488056,
        1.3651889
      ],
      [
        103.7487679,
        1.3651858
      ],
      [
        103.7483595,
        1.3651771
      ],
      [
        103.7481011,
        1.3651812
      ],
      [
        103.7480696,
        1.3651817
      ],
      [
        103.7473423,
        1.365152
      ],
      [
        103.7471615,
        1.3651331
      ],
      [
        103.7471014,
        1.3651339
      ],
      [
        103.7471073,
        1.365063
      ],
      [
        103.7471246,
        1.3644513
      ],
      [
        103.7471292,
        1.3643426
      ],
      [
        103.7471497,
        1.3634817
      ],
      [
        103.7471753,
        1.3632442
      ],
      [
        103.7471035,
        1.3629265
      ],
      [
        103.7470405,
        1.3627465
      ],
      [
        103.7470021,
        1.3626369
      ],
      [
        103.7469706,
        1.362547
      ],
      [
        103.7469435,
        1.3624954
      ],
      [
        103.7469206,
        1.362455
      ],
      [
        103.7466647,
        1.3620247
      ],
      [
        103.7467116,
        1.3620026
      ],
      [
        103.7468317,
        1.3619461
      ],
      [
        103.7469144,
        1.3619204
      ],
      [
        103.7470295,
        1.3619101
      ],
      [
        103.7471826,
        1.3619052
      ],
      [
        103.7474643,
        1.3619174
      ],
      [
        103.7476106,
        1.3619237
      ],
      [
        103.747768,
        1.3619311
      ],
      [
        103.7478628,
        1.3619356
      ],
      [
        103.7480584,
        1.3619408
      ],
      [
        103.7482088,
        1.3619436
      ],
      [
        103.7482995,
        1.361948
      ],
      [
        103.7483987,
        1.3619479
      ],
      [
        103.7484266,
        1.362897
      ],
      [
        103.7483982,
        1.3628431
      ],
      [
        103.7483846,
        1.3628042
      ],
      [
        103.7483779,
        1.3627645
      ],
      [
        103.7483706,
        1.3627071
      ],
      [
        103.7483868,
        1.362326
      ],
      [
        103.7483848,
        1.3621965
      ],
      [
        103.7483987,
        1.3619479
      ],
      [
        103.7488082,
        1.3634823
      ],
      [
        103.7487907,
        1.3634143
      ],
      [
        103.7487612,
        1.3633446
      ],
      [
        103.7487009,
        1.3632481
      ],
      [
        103.7485498,
        1.363055
      ],
      [
        103.7484779,
        1.3629723
      ],
      [
        103.748902,
        1.3636936
      ],
      [
        103.7492126,
        1.3637036
      ],
      [
        103.749743,
        1.3637186
      ],
      [
        103.7500273,
        1.3637268
      ],
      [
        103.7503794,
        1.3637502
      ],
      [
        103.7504091,
        1.3637514
      ],
      [
        103.7507311,
        1.3637639
      ],
      [
        103.7507561,
        1.3637645
      ],
      [
        103.7512921,
        1.3637993
      ],
      [
        103.75138,
        1.3637972
      ],
      [
        103.7514319,
        1.3637975
      ],
      [
        103.7514376,
        1.3635676
      ],
      [
        103.7514753,
        1.36265
      ],
      [
        103.7514992,
        1.3620731
      ],
      [
        103.7515065,
        1.3618301
      ],
      [
        103.7515505,
        1.3608614
      ],
      [
        103.7515874,
        1.3599137
      ],
      [
        103.7515928,
        1.3598268
      ],
      [
        103.7516031,
        1.3593643
      ],
      [
        103.7516147,
        1.359047
      ],
      [
        103.7516171,
        1.3590057
      ],
      [
        103.7516226,
        1.3587659
      ],
      [
        103.7516174,
        1.3586634
      ],
      [
        103.7515974,
        1.3585231
      ],
      [
        103.75157,
        1.3584105
      ],
      [
        103.7515209,
        1.3582214
      ],
      [
        103.7514728,
        1.3581058
      ],
      [
        103.7515353,
        1.3580763
      ],
      [
        103.7516128,
        1.3580507
      ],
      [
        103.752024,
        1.3579838
      ],
      [
        103.7521123,
        1.3579605
      ],
      [
        103.7521833,
        1.3579406
      ],
      [
        103.7522972,
        1.3579055
      ],
      [
        103.7524095,
        1.3578644
      ],
      [
        103.7525216,
        1.357813
      ],
      [
        103.7525816,
        1.3577802
      ],
      [
        103.7526387,
        1.3577424
      ],
      [
        103.7526922,
        1.3576998
      ],
      [
        103.7529296,
        1.3574818
      ],
      [
        103.7531388,
        1.3572856
      ],
      [
        103.7531821,
        1.3572403
      ],
      [
        103.7532213,
        1.3571914
      ],
      [
        103.7532563,
        1.3571394
      ],
      [
        103.7532867,
        1.3570847
      ],
      [
        103.7533177,
        1.357035
      ],
      [
        103.7533405,
        1.3569745
      ],
      [
        103.7533627,
        1.3569097
      ],
      [
        103.7533765,
        1.3568324
      ],
      [
        103.7533806,
        1.3567303
      ],
      [
        103.7533662,
        1.3565995
      ],
      [
        103.7533114,
        1.3564281
      ],
      [
        103.7532988,
        1.3563885
      ],
      [
        103.753279,
        1.3563375
      ],
      [
        103.7532334,
        1.3563531
      ],
      [
        103.7531461,
        1.3563798
      ],
      [
        103.7530181,
        1.356429
      ],
      [
        103.7529336,
        1.3564504
      ],
      [
        103.7528803,
        1.3564573
      ],
      [
        103.7525261,
        1.3564369
      ],
      [
        103.752452,
        1.3564356
      ],
      [
        103.7523431,
        1.3564336
      ],
      [
        103.7519791,
        1.3564259
      ],
      [
        103.7519184,
        1.3564169
      ],
      [
        103.7518477,
        1.3563932
      ],
      [
        103.751798,
        1.3563454
      ],
      [
        103.7517758,
        1.3562842
      ],
      [
        103.7517695,
        1.3562063
      ],
      [
        103.7517836,
        1.3557532
      ],
      [
        103.7517973,
        1.3554565
      ],
      [
        103.751803,
        1.3552851
      ],
      [
        103.7518195,
        1.3548963
      ],
      [
        103.7518286,
        1.354603
      ],
      [
        103.751845,
        1.3543099
      ],
      [
        103.751854,
        1.3536935
      ],
      [
        103.7518545,
        1.3535699
      ],
      [
        103.751873,
        1.3534915
      ],
      [
        103.7518992,
        1.3534417
      ],
      [
        103.7519508,
        1.3533778
      ],
      [
        103.7521681,
        1.3531285
      ],
      [
        103.7523582,
        1.3528702
      ],
      [
        103.7524571,
        1.3527008
      ],
      [
        103.7525566,
        1.3525672
      ],
      [
        103.7526739,
        1.3524767
      ],
      [
        103.7528124,
        1.3524184
      ],
      [
        103.7529285,
        1.3523975
      ],
      [
        103.7530575,
        1.3524038
      ],
      [
        103.753166,
        1.352428
      ],
      [
        103.753276,
        1.352491
      ],
      [
        103.7534207,
        1.3526355
      ],
      [
        103.7535791,
        1.3528039
      ],
      [
        103.7537586,
        1.3529946
      ],
      [
        103.7537891,
        1.3530273
      ],
      [
        103.7538503,
        1.3530839
      ],
      [
        103.7538995,
        1.3531293
      ],
      [
        103.7539542,
        1.3531623
      ],
      [
        103.7540037,
        1.3531769
      ],
      [
        103.7542985,
        1.353213
      ],
      [
        103.7543789,
        1.3532187
      ],
      [
        103.7548454,
        1.3532515
      ],
      [
        103.7548789,
        1.3532539
      ],
      [
        103.754953,
        1.3532598
      ],
      [
        103.7549591,
        1.3532235
      ],
      [
        103.7549642,
        1.3532038
      ],
      [
        103.7549763,
        1.3531572
      ],
      [
        103.754999,
        1.3530927
      ],
      [
        103.7550273,
        1.3530303
      ],
      [
        103.7550579,
        1.3529752
      ],
      [
        103.7550929,
        1.3529227
      ],
      [
        103.7551319,
        1.3528731
      ],
      [
        103.7551747,
        1.3528268
      ],
      [
        103.7553292,
        1.3526718
      ],
      [
        103.7553808,
        1.3526178
      ],
      [
        103.7554231,
        1.3525638
      ],
      [
        103.7554591,
        1.3525056
      ],
      [
        103.75549,
        1.3524445
      ],
      [
        103.7555156,
        1.352381
      ],
      [
        103.7555342,
        1.3523208
      ],
      [
        103.755548,
        1.3522593
      ],
      [
        103.7555556,
        1.3521893
      ],
      [
        103.7555575,
        1.352158
      ],
      [
        103.7555783,
        1.351789
      ],
      [
        103.7555957,
        1.3513409
      ],
      [
        103.7555976,
        1.3512991
      ],
      [
        103.7556027,
        1.3511983
      ],
      [
        103.7555133,
        1.3511905
      ],
      [
        103.7554458,
        1.3511881
      ],
      [
        103.7548039,
        1.351165
      ],
      [
        103.75464,
        1.3511591
      ],
      [
        103.7543974,
        1.351149
      ],
      [
        103.7541269,
        1.3511378
      ],
      [
        103.754023,
        1.3511289
      ],
      [
        103.753859,
        1.3510947
      ],
      [
        103.7537409,
        1.3510358
      ],
      [
        103.7536855,
        1.3509999
      ],
      [
        103.7536498,
        1.3509768
      ],
      [
        103.7535747,
        1.3509017
      ],
      [
        103.7535156,
        1.3508159
      ],
      [
        103.7534513,
        1.3507086
      ],
      [
        103.7531409,
        1.350147
      ],
      [
        103.7528528,
        1.3495919
      ],
      [
        103.7528231,
        1.3495347
      ],
      [
        103.7527785,
        1.3494565
      ],
      [
        103.752699,
        1.349499
      ],
      [
        103.7526423,
        1.3495294
      ],
      [
        103.7523656,
        1.3497004
      ],
      [
        103.751949,
        1.3499885
      ],
      [
        103.7519052,
        1.3500217
      ],
      [
        103.7516571,
        1.3501999
      ],
      [
        103.7515581,
        1.3502722
      ],
      [
        103.7515046,
        1.3502011
      ],
      [
        103.751325,
        1.3499576
      ],
      [
        103.751282,
        1.3498986
      ]
    ]
  }
}