{
  "type": "Feature",
  "properties": {
    "relation": 12980529,
    "direction": "1",
    "fee": "yes",
    "from": "Kent Ridge Terminal",
    "name": "Svc 95B (Kent Ridge Terminal → Buona Vista Station Exit C)",
    "name:en": "Svc 95B (Kent Ridge Terminal → Buona Vista Station Exit C)",
    "network": "Land Transport Authority",
    "network:short": "LTA",
    "network:wikidata": "Q3299279",
    "network:wikipedia": "en:Land Transport Authority",
    "operator": "SBS Transit",
    "operator:wikidata": "Q2661305",
    "operator:wikipedia": "en:SBS Transit",
    "public_transport:version": "2",
    "ref": "95B",
    "route": "bus",
    "to": "Buona Vista Station Exit C",
    "type": "route",
    "website": "https://www.sbstransit.com.sg/"
  },
  "geometry": {
    "type": "LineString",
    "coordinates": [
      [
        103.769626,
        1.2948453
      ],
      [
        103.7696722,
        1.29483
      ],
      [
        103.7697258,
        1.294817
      ],
      [
        103.7697715,
        1.2947697
      ],
      [
        103.7698689,
        1.2946687
      ],
      [
        103.7699132,
        1.2945223
      ],
      [
        103.769798,
        1.2942288
      ],
      [
        103.7697165,
        1.294021
      ],
      [
        103.7696875,
        1.2939472
      ],
      [
        103.7696189,
        1.2938999
      ],
      [
        103.7693844,
        1.2939075
      ],
      [
        103.7693528,
        1.293909
      ],
      [
        103.7693037,
        1.2939114
      ],
      [
        103.7692491,
        1.2939141
      ],
      [
        103.7691206,
        1.2940233
      ],
      [
        103.7691704,
        1.2941082
      ],
      [
        103.7693188,
        1.2943817
      ],
      [
        103.7694185,
        1.2946358
      ],
      [
        103.7694851,
        1.2948767
      ],
      [
        103.7695014,
        1.2949467
      ],
      [
        103.7695305,
        1.2951321
      ],
      [
        103.7695389,
        1.2952499
      ],
      [
        103.7695482,
        1.2954479
      ],
      [
        103.7695538,
        1.2957602
      ],
      [
        103.7695664,
        1.2959825
      ],
      [
        103.7695704,
        1.2960534
      ],
      [
        103.7695702,
        1.2961463
      ],
      [
        103.7697382,
        1.2961362
      ],
      [
        103.7697661,
        1.2961382
      ],
      [
        103.7697959,
        1.2961403
      ],
      [
        103.769955,
        1.296186
      ],
      [
        103.7701474,
        1.2962413
      ],
      [
        103.7705335,
        1.2963467
      ],
      [
        103.770741,
        1.2963862
      ],
      [
        103.7709395,
        1.2964003
      ],
      [
        103.771011,
        1.2963965
      ],
      [
        103.7710675,
        1.2963935
      ],
      [
        103.7716068,
        1.2963649
      ],
      [
        103.7717781,
        1.296373
      ],
      [
        103.7719508,
        1.2963975
      ],
      [
        103.7720462,
        1.2964347
      ],
      [
        103.7721359,
        1.2964918
      ],
      [
        103.7722223,
        1.2965589
      ],
      [
        103.772246,
        1.2965798
      ],
      [
        103.7722844,
        1.2966245
      ],
      [
        103.7723171,
        1.2966731
      ],
      [
        103.7723501,
        1.2967224
      ],
      [
        103.772429,
        1.2968255
      ],
      [
        103.7725025,
        1.2969011
      ],
      [
        103.7725699,
        1.2969746
      ],
      [
        103.7726664,
        1.2971004
      ],
      [
        103.7727911,
        1.2972652
      ],
      [
        103.7728992,
        1.2974342
      ],
      [
        103.7729567,
        1.2975921
      ],
      [
        103.773,
        1.297711
      ],
      [
        103.7730291,
        1.2977908
      ],
      [
        103.7731011,
        1.2978913
      ],
      [
        103.7731966,
        1.2979994
      ],
      [
        103.7734574,
        1.2981904
      ],
      [
        103.7736808,
        1.2983279
      ],
      [
        103.7738452,
        1.2984478
      ],
      [
        103.7739769,
        1.2985961
      ],
      [
        103.7740542,
        1.2986972
      ],
      [
        103.7741424,
        1.2988189
      ],
      [
        103.7743489,
        1.2991792
      ],
      [
        103.7743952,
        1.2992841
      ],
      [
        103.7744188,
        1.299354
      ],
      [
        103.7744389,
        1.2994726
      ],
      [
        103.7744759,
        1.2995692
      ],
      [
        103.7745152,
        1.2996138
      ],
      [
        103.7745845,
        1.2996246
      ],
      [
        103.7746327,
        1.2996068
      ],
      [
        103.7746669,
        1.2995685
      ],
      [
        103.7746834,
        1.2995275
      ],
      [
        103.7746952,
        1.2994848
      ],
      [
        103.7747053,
        1.2994078
      ],
      [
        103.7747908,
        1.2992783
      ],
      [
        103.7748074,
        1.2992333
      ],
      [
        103.7748207,
        1.2992006
      ],
      [
        103.7748661,
        1.2991555
      ],
      [
        103.7749664,
        1.2990738
      ],
      [
        103.7752528,
        1.2988966
      ],
      [
        103.7754014,
        1.2988598
      ],
      [
        103.7754229,
        1.2988585
      ],
      [
        103.7755921,
        1.2988404
      ],
      [
        103.7757621,
        1.2988485
      ],
      [
        103.7759293,
        1.2988783
      ],
      [
        103.7759612,
        1.2988827
      ],
      [
        103.7760179,
        1.2988826
      ],
      [
        103.7761064,
        1.2988759
      ],
      [
        103.7761983,
        1.2988531
      ],
      [
        103.7763713,
        1.2987941
      ],
      [
        103.7764947,
        1.2987163
      ],
      [
        103.7765819,
        1.2986593
      ],
      [
        103.7767261,
        1.298475
      ],
      [
        103.7768729,
        1.2982826
      ],
      [
        103.7770626,
        1.2980942
      ],
      [
        103.7772028,
        1.2979675
      ],
      [
        103.7773315,
        1.297865
      ],
      [
        103.7774818,
        1.297759
      ],
      [
        103.7775388,
        1.2977144
      ],
      [
        103.7775962,
        1.2976785
      ],
      [
        103.7776769,
        1.2976337
      ],
      [
        103.7779337,
        1.297529
      ],
      [
        103.7782688,
        1.2974073
      ],
      [
        103.7784064,
        1.2973614
      ],
      [
        103.7784972,
        1.2973264
      ],
      [
        103.7786404,
        1.2972737
      ],
      [
        103.7789227,
        1.2971825
      ],
      [
        103.7790911,
        1.2971322
      ],
      [
        103.7792399,
        1.2971255
      ],
      [
        103.7793801,
        1.2971302
      ],
      [
        103.7794508,
        1.2971347
      ],
      [
        103.7795819,
        1.2971637
      ],
      [
        103.7796973,
        1.2971999
      ],
      [
        103.7798359,
        1.2972515
      ],
      [
        103.7798695,
        1.297264
      ],
      [
        103.7799869,
        1.2973206
      ],
      [
        103.7801418,
        1.2973712
      ],
      [
        103.780298,
        1.2974059
      ],
      [
        103.7803906,
        1.2974265
      ],
      [
        103.7804273,
        1.2974362
      ],
      [
        103.7805094,
        1.2974575
      ],
      [
        103.7806839,
        1.2974916
      ],
      [
        103.7810074,
        1.2975076
      ],
      [
        103.7812075,
        1.2974973
      ],
      [
        103.7813253,
        1.2974913
      ],
      [
        103.7814245,
        1.2974753
      ],
      [
        103.7815485,
        1.2974397
      ],
      [
        103.7816416,
        1.2973895
      ],
      [
        103.7817627,
        1.2973071
      ],
      [
        103.7818477,
        1.2972413
      ],
      [
        103.7819684,
        1.2971582
      ],
      [
        103.7820731,
        1.2971014
      ],
      [
        103.7822289,
        1.2970391
      ],
      [
        103.7822584,
        1.2970338
      ],
      [
        103.7823669,
        1.2970145
      ],
      [
        103.7823867,
        1.2970118
      ],
      [
        103.7824392,
        1.2970046
      ],
      [
        103.7825142,
        1.2969911
      ],
      [
        103.7825289,
        1.2969901
      ],
      [
        103.7826081,
        1.2969846
      ],
      [
        103.7827122,
        1.2969775
      ],
      [
        103.7827536,
        1.2969747
      ],
      [
        103.7828583,
        1.2969572
      ],
      [
        103.7829297,
        1.2969238
      ],
      [
        103.7829747,
        1.2969295
      ],
      [
        103.7830027,
        1.2969214
      ],
      [
        103.7830277,
        1.2969039
      ],
      [
        103.7830461,
        1.2968781
      ],
      [
        103.7830529,
        1.2968586
      ],
      [
        103.7830548,
        1.2968317
      ],
      [
        103.7832335,
        1.296673
      ],
      [
        103.7833574,
        1.2965731
      ],
      [
        103.7834744,
        1.2964668
      ],
      [
        103.7835733,
        1.2963631
      ],
      [
        103.7836174,
        1.2963174
      ],
      [
        103.7836648,
        1.2962681
      ],
      [
        103.7837261,
        1.2961908
      ],
      [
        103.7838056,
        1.2960672
      ],
      [
        103.7839252,
        1.2958668
      ],
      [
        103.7840492,
        1.2957117
      ],
      [
        103.7841354,
        1.2956005
      ],
      [
        103.7841748,
        1.2955891
      ],
      [
        103.7842081,
        1.2955651
      ],
      [
        103.7842314,
        1.2955313
      ],
      [
        103.7842421,
        1.2954917
      ],
      [
        103.7842389,
        1.2954508
      ],
      [
        103.7842818,
        1.2953623
      ],
      [
        103.784548,
        1.2949488
      ],
      [
        103.7848376,
        1.2945667
      ],
      [
        103.7848628,
        1.2945289
      ],
      [
        103.7849334,
        1.2943935
      ],
      [
        103.7850034,
        1.2941979
      ],
      [
        103.7850117,
        1.2940947
      ],
      [
        103.7850159,
        1.2939875
      ],
      [
        103.7850238,
        1.2938928
      ],
      [
        103.7850331,
        1.2937673
      ],
      [
        103.7850442,
        1.2936744
      ],
      [
        103.7850669,
        1.2935849
      ],
      [
        103.7850766,
        1.2935635
      ],
      [
        103.7850872,
        1.2935413
      ],
      [
        103.7851261,
        1.2934897
      ],
      [
        103.7852189,
        1.2933898
      ],
      [
        103.7852735,
        1.2933356
      ],
      [
        103.7853407,
        1.2934054
      ],
      [
        103.7854522,
        1.2935367
      ],
      [
        103.7855337,
        1.2936571
      ],
      [
        103.785675,
        1.2939099
      ],
      [
        103.7857443,
        1.2940921
      ],
      [
        103.7857922,
        1.2942817
      ],
      [
        103.7858127,
        1.2943897
      ],
      [
        103.7858126,
        1.2944388
      ],
      [
        103.7858159,
        1.2945734
      ],
      [
        103.7858028,
        1.294831
      ],
      [
        103.7857723,
        1.29517
      ],
      [
        103.7857428,
        1.2954668
      ],
      [
        103.7857381,
        1.2955427
      ],
      [
        103.7857366,
        1.2955675
      ],
      [
        103.7856915,
        1.2961
      ],
      [
        103.7856602,
        1.2964808
      ],
      [
        103.785621,
        1.2969304
      ],
      [
        103.7856089,
        1.296997
      ],
      [
        103.7856054,
        1.2970196
      ],
      [
        103.7855387,
        1.2974201
      ],
      [
        103.7854278,
        1.2979153
      ],
      [
        103.7854184,
        1.2979572
      ],
      [
        103.785375,
        1.2981911
      ],
      [
        103.7853227,
        1.2985314
      ],
      [
        103.7853193,
        1.2987699
      ],
      [
        103.7853441,
        1.2990114
      ],
      [
        103.7853808,
        1.2992781
      ],
      [
        103.7853957,
        1.2993394
      ],
      [
        103.7854078,
        1.2993846
      ],
      [
        103.785436,
        1.2994958
      ],
      [
        103.7854598,
        1.2995626
      ],
      [
        103.785482,
        1.2996247
      ],
      [
        103.7856019,
        1.2999118
      ],
      [
        103.7856821,
        1.3000725
      ],
      [
        103.7856988,
        1.3001059
      ],
      [
        103.7857701,
        1.300222
      ],
      [
        103.785828,
        1.3003268
      ],
      [
        103.7858294,
        1.3003291
      ],
      [
        103.7861596,
        1.3007869
      ],
      [
        103.7864157,
        1.3011152
      ],
      [
        103.7865035,
        1.3012436
      ],
      [
        103.7865373,
        1.301301
      ],
      [
        103.7866262,
        1.3014525
      ],
      [
        103.7866697,
        1.3015594
      ],
      [
        103.786758,
        1.3017783
      ],
      [
        103.7868439,
        1.3020344
      ],
      [
        103.7870277,
        1.302756
      ],
      [
        103.7870828,
        1.302927
      ],
      [
        103.7871882,
        1.3031713
      ],
      [
        103.7872802,
        1.3033171
      ],
      [
        103.7873629,
        1.3034479
      ],
      [
        103.7873995,
        1.3034966
      ],
      [
        103.7874542,
        1.3035815
      ],
      [
        103.7874747,
        1.3036224
      ],
      [
        103.7875845,
        1.3037644
      ],
      [
        103.7877256,
        1.3039009
      ],
      [
        103.7879495,
        1.3041139
      ],
      [
        103.7881747,
        1.3042696
      ],
      [
        103.7885188,
        1.3044998
      ],
      [
        103.7886541,
        1.3045917
      ],
      [
        103.7894153,
        1.3050712
      ],
      [
        103.7894988,
        1.3051324
      ],
      [
        103.789814,
        1.3053756
      ],
      [
        103.7898591,
        1.3054104
      ],
      [
        103.7899645,
        1.3055008
      ],
      [
        103.7899989,
        1.3055427
      ],
      [
        103.7900435,
        1.3055972
      ],
      [
        103.7901287,
        1.3057013
      ],
      [
        103.7902531,
        1.3058532
      ],
      [
        103.7902976,
        1.3059124
      ],
      [
        103.790381,
        1.3060161
      ],
      [
        103.7905728,
        1.306312
      ],
      [
        103.7907937,
        1.3067838
      ],
      [
        103.7908184,
        1.3068393
      ]
    ]
  }
}