{
  "type": "Feature",
  "properties": {
    "relation": 2352597,
    "direction": "2",
    "fee": "yes",
    "from": "Buangkok Interchange",
    "name": "Svc 965 (Buangkok Interchange → Woodlands Temporary Interchange)",
    "name:en": "Svc 965 (Buangkok Interchange → Woodlands Temporary Interchange)",
    "network": "Land Transport Authority",
    "network:short": "LTA",
    "network:wikidata": "Q3299279",
    "network:wikipedia": "en:Land Transport Authority",
    "operator": "Tower Transit Singapore",
    "operator:wikidata": "Q19898668",
    "operator:wikipedia": "en:Tower Transit Singapore",
    "public_transport:version": "2",
    "ref": "965",
    "roundtrip": "yes",
    "route": "bus",
    "to": "Woodlands Temporary Interchange",
    "type": "route",
    "website": "https://towertransit.sg/"
  },
  "geometry": {
    "type": "LineString",
    "coordinates": [
      [
        103.8929253,
        1.3842122
      ],
      [
        103.8927422,
        1.3842476
      ],
      [
        103.8926016,
        1.3842379
      ],
      [
        103.8924862,
        1.3841641
      ],
      [
        103.89226,
        1.3839155
      ],
      [
        103.8921913,
        1.3838027
      ],
      [
        103.8920445,
        1.3831358
      ],
      [
        103.8930358,
        1.3841937
      ],
      [
        103.8929253,
        1.3842122
      ],
      [
        103.8932072,
        1.3846456
      ],
      [
        103.8933961,
        1.3852649
      ],
      [
        103.8934854,
        1.3856043
      ],
      [
        103.8935558,
        1.3859132
      ],
      [
        103.8936455,
        1.3863262
      ],
      [
        103.8936411,
        1.3864188
      ],
      [
        103.8936304,
        1.3864737
      ],
      [
        103.8936082,
        1.3865201
      ],
      [
        103.8935486,
        1.3865823
      ],
      [
        103.8935044,
        1.3866145
      ],
      [
        103.8932308,
        1.3866188
      ],
      [
        103.893012,
        1.3866085
      ],
      [
        103.8927883,
        1.3865884
      ],
      [
        103.8926802,
        1.3865754
      ],
      [
        103.8925753,
        1.3865624
      ],
      [
        103.8921764,
        1.3865045
      ],
      [
        103.8920764,
        1.3864967
      ],
      [
        103.8918672,
        1.3864776
      ],
      [
        103.891771,
        1.3864756
      ],
      [
        103.8914446,
        1.3864863
      ],
      [
        103.8914119,
        1.3864924
      ],
      [
        103.8912647,
        1.3865041
      ],
      [
        103.8913015,
        1.386615
      ],
      [
        103.8913268,
        1.3866895
      ],
      [
        103.8913988,
        1.386918
      ],
      [
        103.8916384,
        1.3876768
      ],
      [
        103.8917557,
        1.3880164
      ],
      [
        103.8919933,
        1.388716
      ],
      [
        103.8920295,
        1.3888392
      ],
      [
        103.8921194,
        1.3890939
      ],
      [
        103.8921595,
        1.3892103
      ],
      [
        103.8922367,
        1.3894328
      ],
      [
        103.8922561,
        1.3894885
      ],
      [
        103.8922834,
        1.3895679
      ],
      [
        103.8922986,
        1.3896186
      ],
      [
        103.8923813,
        1.3898745
      ],
      [
        103.8925836,
        1.3904545
      ],
      [
        103.8927946,
        1.391023
      ],
      [
        103.8928504,
        1.3911714
      ],
      [
        103.8928705,
        1.3912242
      ],
      [
        103.8928828,
        1.3912536
      ],
      [
        103.8929123,
        1.3913408
      ],
      [
        103.8929382,
        1.3914157
      ],
      [
        103.8930157,
        1.3916394
      ],
      [
        103.8931242,
        1.3919526
      ],
      [
        103.8931899,
        1.3921424
      ],
      [
        103.8932554,
        1.3923317
      ],
      [
        103.8933549,
        1.392619
      ],
      [
        103.8934691,
        1.3929748
      ],
      [
        103.893557,
        1.3932352
      ],
      [
        103.893583,
        1.3933122
      ],
      [
        103.8936212,
        1.3934247
      ],
      [
        103.8937421,
        1.3933843
      ],
      [
        103.893803,
        1.3933639
      ],
      [
        103.8940561,
        1.393277
      ],
      [
        103.894466,
        1.3931388
      ],
      [
        103.8946608,
        1.3930745
      ],
      [
        103.8948325,
        1.3930152
      ],
      [
        103.8948715,
        1.3930021
      ],
      [
        103.895303,
        1.3928579
      ],
      [
        103.8955297,
        1.3927751
      ],
      [
        103.8960032,
        1.3926038
      ],
      [
        103.8969085,
        1.3922771
      ],
      [
        103.8973925,
        1.3920957
      ],
      [
        103.8975752,
        1.3920347
      ],
      [
        103.8976766,
        1.3919983
      ],
      [
        103.8977828,
        1.3920132
      ],
      [
        103.8978558,
        1.3920293
      ],
      [
        103.8979312,
        1.3920599
      ],
      [
        103.8979907,
        1.3921061
      ],
      [
        103.8980833,
        1.3923659
      ],
      [
        103.8981664,
        1.3925972
      ],
      [
        103.8983715,
        1.3931762
      ],
      [
        103.8984347,
        1.3933542
      ],
      [
        103.8986182,
        1.3938711
      ],
      [
        103.8986787,
        1.3940278
      ],
      [
        103.8987605,
        1.3942222
      ],
      [
        103.8989189,
        1.3946193
      ],
      [
        103.8989988,
        1.3948386
      ],
      [
        103.8990196,
        1.3948975
      ],
      [
        103.8990629,
        1.3950205
      ],
      [
        103.8991386,
        1.3950011
      ],
      [
        103.899193,
        1.3949871
      ],
      [
        103.8994258,
        1.3949275
      ],
      [
        103.900126,
        1.3946883
      ],
      [
        103.9002547,
        1.3946378
      ],
      [
        103.9006823,
        1.3944823
      ],
      [
        103.900848,
        1.3944239
      ],
      [
        103.901093,
        1.3943457
      ],
      [
        103.9012444,
        1.3943343
      ],
      [
        103.9013274,
        1.394342
      ],
      [
        103.9013504,
        1.3943528
      ],
      [
        103.9014042,
        1.3943779
      ],
      [
        103.9015132,
        1.3944413
      ],
      [
        103.9016164,
        1.3945697
      ],
      [
        103.9016937,
        1.3946449
      ],
      [
        103.9018717,
        1.3948181
      ],
      [
        103.902069,
        1.3950117
      ],
      [
        103.9021273,
        1.3950689
      ],
      [
        103.902262,
        1.3952039
      ],
      [
        103.9023761,
        1.3953012
      ],
      [
        103.9025148,
        1.3954326
      ],
      [
        103.902686,
        1.3955679
      ],
      [
        103.9027628,
        1.3956382
      ],
      [
        103.902865,
        1.3957589
      ],
      [
        103.9030989,
        1.3960945
      ],
      [
        103.903102,
        1.3962244
      ],
      [
        103.9031026,
        1.3962839
      ],
      [
        103.9031014,
        1.3963712
      ],
      [
        103.9030962,
        1.3964515
      ],
      [
        103.903092,
        1.3964873
      ],
      [
        103.9030392,
        1.3966109
      ],
      [
        103.9029994,
        1.3966816
      ],
      [
        103.9029184,
        1.39681
      ],
      [
        103.9025961,
        1.3970569
      ],
      [
        103.9018796,
        1.3975026
      ],
      [
        103.9010835,
        1.397913
      ],
      [
        103.9007885,
        1.3980693
      ],
      [
        103.9002612,
        1.3982749
      ],
      [
        103.8993273,
        1.398601
      ],
      [
        103.8990237,
        1.3987529
      ],
      [
        103.8981044,
        1.3991481
      ],
      [
        103.8975929,
        1.3993455
      ],
      [
        103.8969913,
        1.3995558
      ],
      [
        103.8967884,
        1.3996777
      ],
      [
        103.8948464,
        1.400061
      ],
      [
        103.8945651,
        1.4001026
      ],
      [
        103.8935775,
        1.4002338
      ],
      [
        103.8921205,
        1.4003965
      ],
      [
        103.8907603,
        1.4006064
      ],
      [
        103.8887295,
        1.4008946
      ],
      [
        103.8876394,
        1.4010415
      ],
      [
        103.8864407,
        1.401145
      ],
      [
        103.8858461,
        1.4011964
      ],
      [
        103.8847794,
        1.4012562
      ],
      [
        103.8830305,
        1.4012793
      ],
      [
        103.8822846,
        1.4012599
      ],
      [
        103.8795626,
        1.4012187
      ],
      [
        103.8793944,
        1.4012173
      ],
      [
        103.8775899,
        1.4011563
      ],
      [
        103.8762355,
        1.4011153
      ],
      [
        103.8759293,
        1.4011045
      ],
      [
        103.8755232,
        1.401108
      ],
      [
        103.8752416,
        1.4011134
      ],
      [
        103.8747101,
        1.4011063
      ],
      [
        103.8729815,
        1.4010141
      ],
      [
        103.8722952,
        1.4010008
      ],
      [
        103.8719144,
        1.400984
      ],
      [
        103.8715844,
        1.4009753
      ],
      [
        103.8704485,
        1.4009416
      ],
      [
        103.8702367,
        1.400936
      ],
      [
        103.8698301,
        1.4009253
      ],
      [
        103.8693127,
        1.4009117
      ],
      [
        103.8682495,
        1.4008875
      ],
      [
        103.8649384,
        1.4008166
      ],
      [
        103.8634936,
        1.4007703
      ],
      [
        103.8623712,
        1.4007432
      ],
      [
        103.8610434,
        1.4007382
      ],
      [
        103.8604561,
        1.4007364
      ],
      [
        103.8598665,
        1.4006967
      ],
      [
        103.8593467,
        1.4006344
      ],
      [
        103.8590116,
        1.4005748
      ],
      [
        103.8586307,
        1.4004877
      ],
      [
        103.857988,
        1.4003027
      ],
      [
        103.8572001,
        1.3999897
      ],
      [
        103.8569422,
        1.3998672
      ],
      [
        103.8566679,
        1.3997329
      ],
      [
        103.8564875,
        1.399648
      ],
      [
        103.8562652,
        1.3995274
      ],
      [
        103.8558686,
        1.3992939
      ],
      [
        103.8557543,
        1.3992133
      ],
      [
        103.8554442,
        1.3989904
      ],
      [
        103.8550867,
        1.3986809
      ],
      [
        103.8547958,
        1.3983957
      ],
      [
        103.8544805,
        1.3980813
      ],
      [
        103.854095,
        1.3977147
      ],
      [
        103.8539757,
        1.3975779
      ],
      [
        103.8538335,
        1.3974184
      ],
      [
        103.8535857,
        1.3971605
      ],
      [
        103.8532577,
        1.3968725
      ],
      [
        103.8528535,
        1.3966644
      ],
      [
        103.8524617,
        1.396504
      ],
      [
        103.8520798,
        1.3964283
      ],
      [
        103.8516949,
        1.39637
      ],
      [
        103.8502126,
        1.3962903
      ],
      [
        103.8495177,
        1.3962851
      ],
      [
        103.8489116,
        1.396328
      ],
      [
        103.8485411,
        1.3963569
      ],
      [
        103.8481724,
        1.3964187
      ],
      [
        103.8469872,
        1.3964856
      ],
      [
        103.8466464,
        1.3964966
      ],
      [
        103.8454794,
        1.3965124
      ],
      [
        103.8443778,
        1.3964631
      ],
      [
        103.8432771,
        1.3963676
      ],
      [
        103.8425274,
        1.3962836
      ],
      [
        103.8417778,
        1.3961479
      ],
      [
        103.8410006,
        1.3959943
      ],
      [
        103.8402249,
        1.3958174
      ],
      [
        103.8398896,
        1.3957317
      ],
      [
        103.8387061,
        1.3954127
      ],
      [
        103.8382083,
        1.3952974
      ],
      [
        103.837097,
        1.3950181
      ],
      [
        103.837006,
        1.3949351
      ],
      [
        103.8369376,
        1.3949036
      ],
      [
        103.8367109,
        1.3948295
      ],
      [
        103.8365805,
        1.394782
      ],
      [
        103.8358628,
        1.3945455
      ],
      [
        103.8355422,
        1.3944325
      ],
      [
        103.8352373,
        1.3942861
      ],
      [
        103.8349472,
        1.3941066
      ],
      [
        103.8345842,
        1.3938273
      ],
      [
        103.8343637,
        1.3936195
      ],
      [
        103.8340587,
        1.3934446
      ],
      [
        103.8339374,
        1.3933827
      ],
      [
        103.8338138,
        1.3933345
      ],
      [
        103.8336774,
        1.3932998
      ],
      [
        103.833558,
        1.3932888
      ],
      [
        103.8334363,
        1.3932874
      ],
      [
        103.8332759,
        1.3933071
      ],
      [
        103.8331091,
        1.3933514
      ],
      [
        103.8329643,
        1.3934034
      ],
      [
        103.8328303,
        1.3934724
      ],
      [
        103.8326887,
        1.3935524
      ],
      [
        103.832533,
        1.3936589
      ],
      [
        103.8324233,
        1.3937616
      ],
      [
        103.8320389,
        1.3943053
      ],
      [
        103.8319039,
        1.3944964
      ],
      [
        103.8317646,
        1.3946715
      ],
      [
        103.8316916,
        1.3947679
      ],
      [
        103.8316093,
        1.3948618
      ],
      [
        103.8314821,
        1.3949905
      ],
      [
        103.8313305,
        1.3951253
      ],
      [
        103.8311622,
        1.3952625
      ],
      [
        103.8309939,
        1.395391
      ],
      [
        103.8308134,
        1.3955314
      ],
      [
        103.8306646,
        1.3956538
      ],
      [
        103.8305132,
        1.395788
      ],
      [
        103.8302789,
        1.3960112
      ],
      [
        103.8301561,
        1.3961354
      ],
      [
        103.8300406,
        1.3962668
      ],
      [
        103.8299192,
        1.3964054
      ],
      [
        103.8298195,
        1.3965435
      ],
      [
        103.8297015,
        1.3967115
      ],
      [
        103.8295328,
        1.3969976
      ],
      [
        103.8294137,
        1.3971275
      ],
      [
        103.8293024,
        1.3972473
      ],
      [
        103.8290917,
        1.3975354
      ],
      [
        103.8289774,
        1.3976993
      ],
      [
        103.8288603,
        1.3978789
      ],
      [
        103.8287535,
        1.3980589
      ],
      [
        103.8286471,
        1.3982444
      ],
      [
        103.8283659,
        1.3987747
      ],
      [
        103.8282306,
        1.3990495
      ],
      [
        103.8281238,
        1.3992906
      ],
      [
        103.8280024,
        1.3995737
      ],
      [
        103.8278616,
        1.3999528
      ],
      [
        103.8278609,
        1.3999547
      ],
      [
        103.8278441,
        1.4000023
      ],
      [
        103.8276541,
        1.4006635
      ],
      [
        103.827598,
        1.4009088
      ],
      [
        103.8274822,
        1.4016359
      ],
      [
        103.8274092,
        1.4020476
      ],
      [
        103.8274003,
        1.4022623
      ],
      [
        103.8273746,
        1.4026415
      ],
      [
        103.8273689,
        1.4030955
      ],
      [
        103.8273698,
        1.4036876
      ],
      [
        103.8274849,
        1.4049479
      ],
      [
        103.8279124,
        1.4064097
      ],
      [
        103.828106,
        1.4070365
      ],
      [
        103.8281908,
        1.4071874
      ],
      [
        103.8288102,
        1.4084215
      ],
      [
        103.8291144,
        1.4090525
      ],
      [
        103.8292699,
        1.4094003
      ],
      [
        103.8294767,
        1.4098618
      ],
      [
        103.8295485,
        1.4100111
      ],
      [
        103.8296182,
        1.4101559
      ],
      [
        103.8296812,
        1.4102674
      ],
      [
        103.829753,
        1.4104112
      ],
      [
        103.8301188,
        1.4111338
      ],
      [
        103.8304448,
        1.4117533
      ],
      [
        103.8306422,
        1.4121137
      ],
      [
        103.8311615,
        1.4131266
      ],
      [
        103.8311862,
        1.4131748
      ],
      [
        103.8313094,
        1.4134326
      ],
      [
        103.8314878,
        1.4138058
      ],
      [
        103.8315738,
        1.4139673
      ],
      [
        103.8320444,
        1.4148946
      ],
      [
        103.8323012,
        1.4154148
      ],
      [
        103.832446,
        1.4156935
      ],
      [
        103.8326695,
        1.4161743
      ],
      [
        103.832791,
        1.4164214
      ],
      [
        103.832972,
        1.4167758
      ],
      [
        103.8331226,
        1.4170784
      ],
      [
        103.8331932,
        1.4172202
      ],
      [
        103.8332795,
        1.4173937
      ],
      [
        103.8333498,
        1.4175349
      ],
      [
        103.8336491,
        1.4181192
      ],
      [
        103.8336797,
        1.4181753
      ],
      [
        103.8337263,
        1.4182621
      ],
      [
        103.8337661,
        1.418343
      ],
      [
        103.8339516,
        1.4187248
      ],
      [
        103.8345783,
        1.4200567
      ],
      [
        103.8347244,
        1.4205195
      ],
      [
        103.8348158,
        1.4210334
      ],
      [
        103.8348431,
        1.4212505
      ],
      [
        103.8349194,
        1.4221662
      ],
      [
        103.8349292,
        1.4225336
      ],
      [
        103.8349293,
        1.4227833
      ],
      [
        103.8349336,
        1.4228355
      ],
      [
        103.8349407,
        1.4229603
      ],
      [
        103.8349452,
        1.4230272
      ],
      [
        103.8349595,
        1.42324
      ],
      [
        103.8350058,
        1.4237671
      ],
      [
        103.8350339,
        1.4240916
      ],
      [
        103.8350655,
        1.4247049
      ],
      [
        103.8350669,
        1.4247316
      ],
      [
        103.8350704,
        1.4248212
      ],
      [
        103.8350717,
        1.4248739
      ],
      [
        103.8351006,
        1.4260113
      ],
      [
        103.8351146,
        1.4262553
      ],
      [
        103.8351412,
        1.4267538
      ],
      [
        103.8351667,
        1.4272167
      ],
      [
        103.8351734,
        1.4274205
      ],
      [
        103.8351925,
        1.4281488
      ],
      [
        103.835203,
        1.428407
      ],
      [
        103.8352222,
        1.4287763
      ],
      [
        103.8352488,
        1.4292078
      ],
      [
        103.8352785,
        1.4296701
      ],
      [
        103.835291,
        1.4302011
      ],
      [
        103.8352969,
        1.4303601
      ],
      [
        103.8352987,
        1.4304762
      ],
      [
        103.835307,
        1.430599
      ],
      [
        103.8352931,
        1.4312331
      ],
      [
        103.835291,
        1.4312705
      ],
      [
        103.8352733,
        1.4314237
      ],
      [
        103.8352054,
        1.4317269
      ],
      [
        103.8350945,
        1.4322844
      ],
      [
        103.8350513,
        1.4324614
      ],
      [
        103.834812,
        1.4334999
      ],
      [
        103.8346988,
        1.4340029
      ],
      [
        103.8345602,
        1.434546
      ],
      [
        103.8345434,
        1.434612
      ],
      [
        103.8345135,
        1.4347305
      ],
      [
        103.834484,
        1.4348457
      ],
      [
        103.8342842,
        1.4356255
      ],
      [
        103.8341269,
        1.4360102
      ],
      [
        103.8339962,
        1.4363243
      ],
      [
        103.8338528,
        1.4365861
      ],
      [
        103.8337555,
        1.4367551
      ],
      [
        103.8335994,
        1.4370263
      ],
      [
        103.8333576,
        1.4374707
      ],
      [
        103.833257,
        1.4376191
      ],
      [
        103.8330374,
        1.437963
      ],
      [
        103.8330107,
        1.4380041
      ],
      [
        103.8329077,
        1.4380758
      ],
      [
        103.8328167,
        1.4381188
      ],
      [
        103.8326446,
        1.4380871
      ],
      [
        103.8315833,
        1.4376768
      ],
      [
        103.8313217,
        1.4375668
      ],
      [
        103.8308727,
        1.4373752
      ],
      [
        103.8308255,
        1.4373524
      ],
      [
        103.8307452,
        1.4373154
      ],
      [
        103.8306818,
        1.4372861
      ],
      [
        103.8304469,
        1.4371772
      ],
      [
        103.8298225,
        1.4369162
      ],
      [
        103.8297533,
        1.4368873
      ],
      [
        103.8295438,
        1.4367998
      ],
      [
        103.8294983,
        1.4367808
      ],
      [
        103.8292424,
        1.436672
      ],
      [
        103.828878,
        1.4365161
      ],
      [
        103.8284432,
        1.4363285
      ],
      [
        103.8279176,
        1.4361068
      ],
      [
        103.8271882,
        1.4357871
      ],
      [
        103.826998,
        1.4357167
      ],
      [
        103.8267677,
        1.4356239
      ],
      [
        103.8265151,
        1.4355213
      ],
      [
        103.8260129,
        1.4353542
      ],
      [
        103.825973,
        1.4353409
      ],
      [
        103.8258542,
        1.4353013
      ],
      [
        103.8257724,
        1.4352741
      ],
      [
        103.8255124,
        1.4351876
      ],
      [
        103.8249629,
        1.4350366
      ],
      [
        103.824783,
        1.4350161
      ],
      [
        103.8246096,
        1.4350299
      ],
      [
        103.824459,
        1.4350521
      ],
      [
        103.8240523,
        1.4351241
      ],
      [
        103.8239182,
        1.4351596
      ],
      [
        103.8237593,
        1.4352106
      ],
      [
        103.823544,
        1.435297
      ],
      [
        103.8232872,
        1.4354258
      ],
      [
        103.8231196,
        1.4355236
      ],
      [
        103.8229439,
        1.4356557
      ],
      [
        103.8227957,
        1.4357857
      ],
      [
        103.82263,
        1.4359821
      ],
      [
        103.8225254,
        1.4361497
      ],
      [
        103.8224503,
        1.4363334
      ],
      [
        103.8223082,
        1.4369206
      ],
      [
        103.8222427,
        1.4370273
      ],
      [
        103.8219575,
        1.4373718
      ],
      [
        103.8211504,
        1.438358
      ],
      [
        103.8206452,
        1.438941
      ],
      [
        103.8190615,
        1.4401152
      ],
      [
        103.8186863,
        1.4404382
      ],
      [
        103.8179887,
        1.4408607
      ],
      [
        103.8179029,
        1.440927
      ],
      [
        103.8177983,
        1.4410111
      ],
      [
        103.8177607,
        1.4410377
      ],
      [
        103.8167958,
        1.4416687
      ],
      [
        103.8167549,
        1.4416977
      ],
      [
        103.8159156,
        1.4422248
      ],
      [
        103.8155609,
        1.442444
      ],
      [
        103.8151745,
        1.4426527
      ],
      [
        103.8150104,
        1.4427382
      ],
      [
        103.813785,
        1.4433112
      ],
      [
        103.8131125,
        1.4436232
      ],
      [
        103.8125393,
        1.4438639
      ],
      [
        103.8121792,
        1.4440045
      ],
      [
        103.8118145,
        1.444147
      ],
      [
        103.8117557,
        1.44417
      ],
      [
        103.8116322,
        1.4442182
      ],
      [
        103.8115531,
        1.4442491
      ],
      [
        103.811352,
        1.4443277
      ],
      [
        103.8107783,
        1.4445519
      ],
      [
        103.8101671,
        1.4447908
      ],
      [
        103.809402,
        1.4450897
      ],
      [
        103.8091761,
        1.445178
      ],
      [
        103.8085382,
        1.4454273
      ],
      [
        103.8083043,
        1.4453857
      ],
      [
        103.8082668,
        1.445379
      ],
      [
        103.8081406,
        1.4453468
      ],
      [
        103.8079986,
        1.4452892
      ],
      [
        103.8072534,
        1.4445298
      ],
      [
        103.8070619,
        1.4443431
      ],
      [
        103.8069569,
        1.4442407
      ],
      [
        103.8068086,
        1.444096
      ],
      [
        103.8066658,
        1.4439543
      ],
      [
        103.8064117,
        1.4437075
      ],
      [
        103.806372,
        1.443669
      ],
      [
        103.8062845,
        1.4435858
      ],
      [
        103.805645,
        1.4431085
      ],
      [
        103.8055384,
        1.443043
      ],
      [
        103.8052319,
        1.4428544
      ],
      [
        103.8049932,
        1.442721
      ],
      [
        103.8048672,
        1.4426628
      ],
      [
        103.8047959,
        1.4426272
      ],
      [
        103.8047144,
        1.4425878
      ],
      [
        103.8045611,
        1.4425074
      ],
      [
        103.8040091,
        1.442263
      ],
      [
        103.8035584,
        1.4420634
      ],
      [
        103.8031099,
        1.4418942
      ],
      [
        103.8026479,
        1.4417121
      ],
      [
        103.8021779,
        1.4415136
      ],
      [
        103.8019878,
        1.441424
      ],
      [
        103.8019538,
        1.4414059
      ],
      [
        103.8018628,
        1.4413674
      ],
      [
        103.8018062,
        1.4413414
      ],
      [
        103.8016291,
        1.4412598
      ],
      [
        103.8011013,
        1.440995
      ],
      [
        103.8005027,
        1.4407201
      ],
      [
        103.8002691,
        1.4406135
      ],
      [
        103.8001299,
        1.4405544
      ],
      [
        103.8000231,
        1.4405031
      ],
      [
        103.7997313,
        1.4403755
      ],
      [
        103.7996609,
        1.4403461
      ],
      [
        103.7992456,
        1.4401845
      ],
      [
        103.7984699,
        1.4398613
      ],
      [
        103.7980579,
        1.439685
      ],
      [
        103.7975992,
        1.4395069
      ],
      [
        103.7974798,
        1.439467
      ],
      [
        103.7973106,
        1.4394104
      ],
      [
        103.7967793,
        1.4392779
      ],
      [
        103.7963829,
        1.439221
      ],
      [
        103.7960944,
        1.4391863
      ],
      [
        103.7958094,
        1.4391649
      ],
      [
        103.7957554,
        1.4391608
      ],
      [
        103.7956449,
        1.4391542
      ],
      [
        103.7956355,
        1.4392843
      ],
      [
        103.7956265,
        1.4393449
      ],
      [
        103.7956076,
        1.4395822
      ],
      [
        103.795547,
        1.4407756
      ],
      [
        103.7955193,
        1.4411377
      ],
      [
        103.7954761,
        1.4413249
      ],
      [
        103.7954481,
        1.4413968
      ],
      [
        103.7953971,
        1.4414963
      ],
      [
        103.7953523,
        1.4415605
      ],
      [
        103.7953321,
        1.4415868
      ],
      [
        103.795282,
        1.4416506
      ],
      [
        103.795253,
        1.4416882
      ],
      [
        103.7951782,
        1.4417837
      ],
      [
        103.795013,
        1.4420158
      ],
      [
        103.7947868,
        1.4423212
      ],
      [
        103.7944306,
        1.4428245
      ],
      [
        103.794263,
        1.4430613
      ],
      [
        103.7940383,
        1.4433726
      ],
      [
        103.7939272,
        1.4435289
      ],
      [
        103.7936595,
        1.4439056
      ],
      [
        103.7933627,
        1.4443189
      ],
      [
        103.7933269,
        1.4443687
      ],
      [
        103.7932574,
        1.4443175
      ],
      [
        103.793011,
        1.4441358
      ],
      [
        103.7928355,
        1.4440613
      ],
      [
        103.7922102,
        1.4440259
      ],
      [
        103.7920763,
        1.4440182
      ],
      [
        103.791894,
        1.444005
      ],
      [
        103.7917958,
        1.4440028
      ],
      [
        103.7916348,
        1.4439491
      ],
      [
        103.7915276,
        1.4438311
      ],
      [
        103.7915127,
        1.4437839
      ],
      [
        103.791502,
        1.443736
      ],
      [
        103.791503,
        1.4436059
      ],
      [
        103.7915084,
        1.4434476
      ],
      [
        103.7915218,
        1.4431306
      ],
      [
        103.7915345,
        1.4426357
      ],
      [
        103.7914917,
        1.4425023
      ],
      [
        103.7913973,
        1.4423896
      ],
      [
        103.7913752,
        1.4423662
      ],
      [
        103.7913246,
        1.4423383
      ],
      [
        103.7912554,
        1.442314
      ],
      [
        103.7912362,
        1.4423082
      ],
      [
        103.7908372,
        1.442282
      ],
      [
        103.7906786,
        1.4422703
      ],
      [
        103.7906041,
        1.4422709
      ],
      [
        103.7905727,
        1.4422859
      ],
      [
        103.7905727,
        1.4422859
      ],
      [
        103.7902808,
        1.4422729
      ],
      [
        103.7891856,
        1.4421201
      ],
      [
        103.789385,
        1.4421959
      ],
      [
        103.7897094,
        1.442233
      ],
      [
        103.7890321,
        1.4422801
      ],
      [
        103.78906,
        1.4422203
      ],
      [
        103.7890969,
        1.4421412
      ],
      [
        103.7891186,
        1.4420947
      ],
      [
        103.7888622,
        1.4425691
      ],
      [
        103.7889434,
        1.4424304
      ],
      [
        103.7887119,
        1.442815
      ],
      [
        103.78853,
        1.4431123
      ],
      [
        103.7882224,
        1.4435359
      ],
      [
        103.7881415,
        1.4434815
      ],
      [
        103.7861857,
        1.4421678
      ],
      [
        103.7859523,
        1.4420027
      ],
      [
        103.7858725,
        1.4419457
      ],
      [
        103.785843,
        1.4419227
      ],
      [
        103.7857323,
        1.4418387
      ],
      [
        103.7855921,
        1.4417122
      ],
      [
        103.7855498,
        1.4416624
      ],
      [
        103.7854681,
        1.4415652
      ],
      [
        103.7853772,
        1.4414575
      ],
      [
        103.7852173,
        1.4412269
      ],
      [
        103.785148,
        1.4411363
      ],
      [
        103.7850724,
        1.4410291
      ],
      [
        103.7850319,
        1.4409688
      ],
      [
        103.7848854,
        1.4407691
      ],
      [
        103.7846444,
        1.4404081
      ],
      [
        103.7844214,
        1.440088
      ],
      [
        103.78397,
        1.4394445
      ],
      [
        103.7837829,
        1.439172
      ],
      [
        103.7834571,
        1.4386843
      ],
      [
        103.7834008,
        1.4386157
      ],
      [
        103.7831587,
        1.4382594
      ],
      [
        103.7830246,
        1.4381012
      ],
      [
        103.7829792,
        1.4380136
      ],
      [
        103.782887,
        1.437835
      ],
      [
        103.7828496,
        1.4377741
      ],
      [
        103.7828166,
        1.4376813
      ],
      [
        103.7827709,
        1.4375525
      ],
      [
        103.7827306,
        1.4373836
      ],
      [
        103.782696,
        1.4371999
      ],
      [
        103.7826778,
        1.4369905
      ],
      [
        103.7826778,
        1.4368171
      ],
      [
        103.7826863,
        1.4366667
      ],
      [
        103.7827161,
        1.436478
      ],
      [
        103.7827586,
        1.436323
      ],
      [
        103.7828541,
        1.4360424
      ],
      [
        103.7829302,
        1.4358895
      ],
      [
        103.7830082,
        1.435755
      ],
      [
        103.7830836,
        1.4356355
      ],
      [
        103.7831102,
        1.4356037
      ],
      [
        103.783142,
        1.4355657
      ],
      [
        103.783255,
        1.435422
      ],
      [
        103.7833205,
        1.4353532
      ],
      [
        103.7834351,
        1.4353949
      ],
      [
        103.7842907,
        1.4357076
      ],
      [
        103.7845438,
        1.4357984
      ],
      [
        103.7848414,
        1.4359067
      ],
      [
        103.7849338,
        1.4359513
      ],
      [
        103.7849817,
        1.435991
      ],
      [
        103.7850233,
        1.4360778
      ],
      [
        103.7849545,
        1.4363155
      ],
      [
        103.784906,
        1.4364434
      ],
      [
        103.7847787,
        1.4367691
      ],
      [
        103.7847284,
        1.4368956
      ],
      [
        103.7846003,
        1.4372393
      ],
      [
        103.7845637,
        1.4373375
      ],
      [
        103.7845537,
        1.4374858
      ],
      [
        103.784587,
        1.437613
      ],
      [
        103.7846449,
        1.4377095
      ],
      [
        103.7847466,
        1.4378143
      ],
      [
        103.7848708,
        1.4378675
      ],
      [
        103.7850288,
        1.4379296
      ],
      [
        103.7854167,
        1.4380725
      ],
      [
        103.7855496,
        1.4381229
      ],
      [
        103.7855732,
        1.4380711
      ],
      [
        103.7855946,
        1.4380181
      ],
      [
        103.7856709,
        1.4379282
      ],
      [
        103.7857069,
        1.4379104
      ],
      [
        103.7857566,
        1.437909
      ],
      [
        103.7858343,
        1.4379171
      ],
      [
        103.7865049,
        1.4381597
      ],
      [
        103.7865894,
        1.4381731
      ],
      [
        103.7866658,
        1.4381611
      ],
      [
        103.7867164,
        1.4381286
      ],
      [
        103.7867584,
        1.4380739
      ],
      [
        103.7867724,
        1.4380279
      ],
      [
        103.7867762,
        1.4379788
      ],
      [
        103.7867731,
        1.4379412
      ],
      [
        103.7867538,
        1.4379037
      ],
      [
        103.7867327,
        1.437872
      ],
      [
        103.7867025,
        1.4378475
      ],
      [
        103.7866417,
        1.4378229
      ],
      [
        103.7858523,
        1.4375301
      ],
      [
        103.7854632,
        1.4373858
      ],
      [
        103.7850951,
        1.4372543
      ],
      [
        103.7849939,
        1.4372172
      ],
      [
        103.7849359,
        1.4372139
      ],
      [
        103.7848798,
        1.4372353
      ],
      [
        103.7848338,
        1.4372696
      ],
      [
        103.7848038,
        1.4373215
      ],
      [
        103.7847888,
        1.4373742
      ],
      [
        103.7847879,
        1.437427
      ],
      [
        103.7848051,
        1.437477
      ],
      [
        103.7848223,
        1.4375057
      ],
      [
        103.7848462,
        1.4375318
      ],
      [
        103.7850093,
        1.4376017
      ],
      [
        103.7853569,
        1.4377361
      ],
      [
        103.7854253,
        1.4377603
      ]
    ]
  }
}