{
  "type": "Feature",
  "properties": {
    "relation": 12980554,
    "direction": "1",
    "fee": "yes",
    "from": "Tampines Interchange",
    "name": "Svc 969A (Tampines Interchange → Yishun Station)",
    "name:en": "Svc 969A (Tampines Interchange → Yishun Station)",
    "network": "Land Transport Authority",
    "network:short": "LTA",
    "network:wikidata": "Q3299279",
    "network:wikipedia": "en:Land Transport Authority",
    "operator": "Tower Transit Singapore",
    "operator:wikidata": "Q19898668",
    "operator:wikipedia": "en:Tower Transit Singapore",
    "public_transport:version": "2",
    "ref": "969A",
    "route": "bus",
    "to": "Yishun Station",
    "type": "route",
    "website": "https://towertransit.sg/"
  },
  "geometry": {
    "type": "LineString",
    "coordinates": [
      [
        103.9432932,
        1.3537066
      ],
      [
        103.9433999,
        1.3538498
      ],
      [
        103.9438699,
        1.354325
      ],
      [
        103.9439222,
        1.3543452
      ],
      [
        103.9439772,
        1.3543552
      ],
      [
        103.9440411,
        1.3543499
      ],
      [
        103.944129,
        1.3542595
      ],
      [
        103.9441945,
        1.3541922
      ],
      [
        103.9442088,
        1.3541233
      ],
      [
        103.9442052,
        1.3540633
      ],
      [
        103.9441728,
        1.3540033
      ],
      [
        103.9439273,
        1.3537543
      ],
      [
        103.9438736,
        1.3537252
      ],
      [
        103.9438246,
        1.3537022
      ],
      [
        103.9435622,
        1.3537044
      ],
      [
        103.9432932,
        1.3537066
      ],
      [
        103.9432932,
        1.3537066
      ],
      [
        103.9431999,
        1.3536257
      ],
      [
        103.9432187,
        1.3536431
      ],
      [
        103.9430151,
        1.353455
      ],
      [
        103.9431651,
        1.3535938
      ],
      [
        103.9429735,
        1.3534169
      ],
      [
        103.9428572,
        1.3534309
      ],
      [
        103.9427007,
        1.3535925
      ],
      [
        103.9426694,
        1.3536312
      ],
      [
        103.9425883,
        1.3537345
      ],
      [
        103.9425183,
        1.3538529
      ],
      [
        103.9424856,
        1.3539672
      ],
      [
        103.9424704,
        1.3540637
      ],
      [
        103.9424718,
        1.3541323
      ],
      [
        103.9424735,
        1.3542244
      ],
      [
        103.9424737,
        1.3543823
      ],
      [
        103.9424753,
        1.354627
      ],
      [
        103.9424768,
        1.3546506
      ],
      [
        103.9424791,
        1.3546999
      ],
      [
        103.9424918,
        1.3547772
      ],
      [
        103.9425182,
        1.3548434
      ],
      [
        103.9425543,
        1.3549205
      ],
      [
        103.9425905,
        1.3549794
      ],
      [
        103.9426678,
        1.3550907
      ],
      [
        103.9426991,
        1.3551952
      ],
      [
        103.9427105,
        1.3552522
      ],
      [
        103.9427025,
        1.3553085
      ],
      [
        103.9426827,
        1.3553823
      ],
      [
        103.9424135,
        1.3556527
      ],
      [
        103.9422409,
        1.355836
      ],
      [
        103.9421009,
        1.3559824
      ],
      [
        103.9419948,
        1.3560934
      ],
      [
        103.9415126,
        1.3565358
      ],
      [
        103.941148,
        1.3568996
      ],
      [
        103.9410367,
        1.3570063
      ],
      [
        103.9410244,
        1.3570181
      ],
      [
        103.9409721,
        1.35707
      ],
      [
        103.9409122,
        1.3571294
      ],
      [
        103.9408504,
        1.3571941
      ],
      [
        103.9406855,
        1.3573705
      ],
      [
        103.9405531,
        1.3575153
      ],
      [
        103.9402889,
        1.3577889
      ],
      [
        103.9401281,
        1.3579685
      ],
      [
        103.9400828,
        1.3580191
      ],
      [
        103.9400155,
        1.358084
      ],
      [
        103.9399667,
        1.3581328
      ],
      [
        103.9397895,
        1.3583097
      ],
      [
        103.9395965,
        1.3584956
      ],
      [
        103.9394373,
        1.3586489
      ],
      [
        103.9393553,
        1.3587851
      ],
      [
        103.9393016,
        1.3589491
      ],
      [
        103.9392642,
        1.359298
      ],
      [
        103.9392859,
        1.3595329
      ],
      [
        103.9392827,
        1.3596678
      ],
      [
        103.9392991,
        1.3598875
      ],
      [
        103.9392969,
        1.3599583
      ],
      [
        103.9392972,
        1.36004
      ],
      [
        103.9392998,
        1.3602491
      ],
      [
        103.9393006,
        1.3603217
      ],
      [
        103.9393021,
        1.36044
      ],
      [
        103.9393822,
        1.3604422
      ],
      [
        103.9394675,
        1.3604445
      ],
      [
        103.9398602,
        1.3604553
      ],
      [
        103.9401862,
        1.3604647
      ],
      [
        103.9405001,
        1.3604663
      ],
      [
        103.9410495,
        1.3604658
      ],
      [
        103.9413577,
        1.3604586
      ],
      [
        103.9417744,
        1.3604552
      ],
      [
        103.9419081,
        1.3605451
      ],
      [
        103.9419573,
        1.3605826
      ],
      [
        103.9419972,
        1.3606572
      ],
      [
        103.9420429,
        1.3608207
      ],
      [
        103.9420431,
        1.3609595
      ],
      [
        103.9420496,
        1.3611168
      ],
      [
        103.9420695,
        1.3612515
      ],
      [
        103.9421317,
        1.361471
      ],
      [
        103.9422137,
        1.361682
      ],
      [
        103.9423114,
        1.361862
      ],
      [
        103.9424368,
        1.3620416
      ],
      [
        103.9426493,
        1.362233
      ],
      [
        103.9429913,
        1.3624786
      ],
      [
        103.9434527,
        1.3627735
      ],
      [
        103.9436349,
        1.3628646
      ],
      [
        103.9437252,
        1.3629075
      ],
      [
        103.9438165,
        1.3629641
      ],
      [
        103.9440301,
        1.363103
      ],
      [
        103.9443649,
        1.3632867
      ],
      [
        103.9448074,
        1.3635866
      ],
      [
        103.9449708,
        1.363722
      ],
      [
        103.9451195,
        1.3638912
      ],
      [
        103.9453844,
        1.364311
      ],
      [
        103.9457139,
        1.3653297
      ],
      [
        103.9457557,
        1.3654958
      ],
      [
        103.9457463,
        1.3656156
      ],
      [
        103.9457439,
        1.3656922
      ],
      [
        103.9457305,
        1.3657457
      ],
      [
        103.9457201,
        1.3658009
      ],
      [
        103.9456994,
        1.3658621
      ],
      [
        103.9456623,
        1.3659225
      ],
      [
        103.9456174,
        1.365963
      ],
      [
        103.9455052,
        1.3660355
      ],
      [
        103.9453594,
        1.36613
      ],
      [
        103.9452882,
        1.3661654
      ],
      [
        103.9451295,
        1.3662745
      ],
      [
        103.9450337,
        1.3663921
      ],
      [
        103.9449487,
        1.3665337
      ],
      [
        103.9448873,
        1.3666957
      ],
      [
        103.9447435,
        1.3671111
      ],
      [
        103.9446775,
        1.3673045
      ],
      [
        103.9446102,
        1.3674508
      ],
      [
        103.9445547,
        1.3675658
      ],
      [
        103.944391,
        1.3677973
      ],
      [
        103.9442028,
        1.3680034
      ],
      [
        103.943273,
        1.3687644
      ],
      [
        103.9429017,
        1.3691774
      ],
      [
        103.9422522,
        1.3698104
      ],
      [
        103.94178,
        1.3702583
      ],
      [
        103.9415043,
        1.3704809
      ],
      [
        103.9410444,
        1.3708321
      ],
      [
        103.9408408,
        1.3710007
      ],
      [
        103.9406533,
        1.3711586
      ],
      [
        103.9403083,
        1.3713821
      ],
      [
        103.9397304,
        1.3717208
      ],
      [
        103.938235,
        1.3725084
      ],
      [
        103.937761,
        1.372767
      ],
      [
        103.9369396,
        1.3732044
      ],
      [
        103.9367453,
        1.3733078
      ],
      [
        103.9364642,
        1.3734602
      ],
      [
        103.9353865,
        1.3739896
      ],
      [
        103.9351026,
        1.3741643
      ],
      [
        103.9344912,
        1.3744979
      ],
      [
        103.9339528,
        1.374746
      ],
      [
        103.9338083,
        1.3748125
      ],
      [
        103.932526,
        1.3754033
      ],
      [
        103.9312177,
        1.376016
      ],
      [
        103.9307181,
        1.3762316
      ],
      [
        103.9298126,
        1.3766222
      ],
      [
        103.9292057,
        1.3768854
      ],
      [
        103.9285152,
        1.3771378
      ],
      [
        103.9280103,
        1.3772976
      ],
      [
        103.9270692,
        1.3775292
      ],
      [
        103.9263805,
        1.3776969
      ],
      [
        103.9254981,
        1.3779036
      ],
      [
        103.9253205,
        1.377948
      ],
      [
        103.9239857,
        1.3782818
      ],
      [
        103.9234629,
        1.3784317
      ],
      [
        103.9229582,
        1.3785939
      ],
      [
        103.9221235,
        1.3789247
      ],
      [
        103.9211569,
        1.3793547
      ],
      [
        103.9207979,
        1.3795144
      ],
      [
        103.9201725,
        1.3799206
      ],
      [
        103.9196522,
        1.3802798
      ],
      [
        103.9191613,
        1.380646
      ],
      [
        103.9186983,
        1.3810513
      ],
      [
        103.9182442,
        1.3814794
      ],
      [
        103.9176142,
        1.3821329
      ],
      [
        103.9172936,
        1.3824654
      ],
      [
        103.9170228,
        1.3827463
      ],
      [
        103.9162684,
        1.3835502
      ],
      [
        103.9157682,
        1.3840883
      ],
      [
        103.915611,
        1.3842652
      ],
      [
        103.9154081,
        1.3845112
      ],
      [
        103.9153042,
        1.3845903
      ],
      [
        103.9147823,
        1.3852145
      ],
      [
        103.9136991,
        1.3864621
      ],
      [
        103.9135644,
        1.3866089
      ],
      [
        103.9131012,
        1.3871591
      ],
      [
        103.9120339,
        1.3884268
      ],
      [
        103.9110405,
        1.3895717
      ],
      [
        103.9104724,
        1.3902349
      ],
      [
        103.909899,
        1.3908993
      ],
      [
        103.9096577,
        1.3911781
      ],
      [
        103.909613,
        1.3912297
      ],
      [
        103.9092962,
        1.3915956
      ],
      [
        103.9087831,
        1.3921882
      ],
      [
        103.908216,
        1.392829
      ],
      [
        103.9080994,
        1.3929608
      ],
      [
        103.9075785,
        1.3935099
      ],
      [
        103.9070647,
        1.3940278
      ],
      [
        103.9069809,
        1.3941117
      ],
      [
        103.9065351,
        1.3945025
      ],
      [
        103.9059969,
        1.3948781
      ],
      [
        103.9053947,
        1.3952863
      ],
      [
        103.9046957,
        1.3956738
      ],
      [
        103.9044304,
        1.3959232
      ],
      [
        103.904243,
        1.3960123
      ],
      [
        103.9038377,
        1.3962275
      ],
      [
        103.903496,
        1.3964491
      ],
      [
        103.9034385,
        1.3964837
      ],
      [
        103.9033475,
        1.3965386
      ],
      [
        103.9032687,
        1.3965885
      ],
      [
        103.9029184,
        1.39681
      ],
      [
        103.9025961,
        1.3970569
      ],
      [
        103.9018796,
        1.3975026
      ],
      [
        103.9010835,
        1.397913
      ],
      [
        103.9007885,
        1.3980693
      ],
      [
        103.9002612,
        1.3982749
      ],
      [
        103.8993273,
        1.398601
      ],
      [
        103.8990237,
        1.3987529
      ],
      [
        103.8981044,
        1.3991481
      ],
      [
        103.8975929,
        1.3993455
      ],
      [
        103.8969913,
        1.3995558
      ],
      [
        103.8967884,
        1.3996777
      ],
      [
        103.8948464,
        1.400061
      ],
      [
        103.8945651,
        1.4001026
      ],
      [
        103.8935775,
        1.4002338
      ],
      [
        103.8921205,
        1.4003965
      ],
      [
        103.8907603,
        1.4006064
      ],
      [
        103.8887295,
        1.4008946
      ],
      [
        103.8876394,
        1.4010415
      ],
      [
        103.8864407,
        1.401145
      ],
      [
        103.8858461,
        1.4011964
      ],
      [
        103.8847794,
        1.4012562
      ],
      [
        103.8830305,
        1.4012793
      ],
      [
        103.8822846,
        1.4012599
      ],
      [
        103.8795626,
        1.4012187
      ],
      [
        103.8793944,
        1.4012173
      ],
      [
        103.8775899,
        1.4011563
      ],
      [
        103.8762355,
        1.4011153
      ],
      [
        103.8759293,
        1.4011045
      ],
      [
        103.8755232,
        1.401108
      ],
      [
        103.8752416,
        1.4011134
      ],
      [
        103.8747101,
        1.4011063
      ],
      [
        103.8729815,
        1.4010141
      ],
      [
        103.8722952,
        1.4010008
      ],
      [
        103.8719144,
        1.400984
      ],
      [
        103.8715844,
        1.4009753
      ],
      [
        103.8704485,
        1.4009416
      ],
      [
        103.8702367,
        1.400936
      ],
      [
        103.8698301,
        1.4009253
      ],
      [
        103.8693127,
        1.4009117
      ],
      [
        103.8682495,
        1.4008875
      ],
      [
        103.8649384,
        1.4008166
      ],
      [
        103.8634936,
        1.4007703
      ],
      [
        103.8623712,
        1.4007432
      ],
      [
        103.8610434,
        1.4007382
      ],
      [
        103.8604561,
        1.4007364
      ],
      [
        103.8598665,
        1.4006967
      ],
      [
        103.8593467,
        1.4006344
      ],
      [
        103.8590116,
        1.4005748
      ],
      [
        103.8586307,
        1.4004877
      ],
      [
        103.857988,
        1.4003027
      ],
      [
        103.8572001,
        1.3999897
      ],
      [
        103.8569422,
        1.3998672
      ],
      [
        103.8566679,
        1.3997329
      ],
      [
        103.8564875,
        1.399648
      ],
      [
        103.8562652,
        1.3995274
      ],
      [
        103.8558686,
        1.3992939
      ],
      [
        103.8557543,
        1.3992133
      ],
      [
        103.8554442,
        1.3989904
      ],
      [
        103.8550867,
        1.3986809
      ],
      [
        103.8547958,
        1.3983957
      ],
      [
        103.8544805,
        1.3980813
      ],
      [
        103.854095,
        1.3977147
      ],
      [
        103.8539757,
        1.3975779
      ],
      [
        103.8538335,
        1.3974184
      ],
      [
        103.8535857,
        1.3971605
      ],
      [
        103.8532577,
        1.3968725
      ],
      [
        103.8528535,
        1.3966644
      ],
      [
        103.8524617,
        1.396504
      ],
      [
        103.8520798,
        1.3964283
      ],
      [
        103.8516949,
        1.39637
      ],
      [
        103.8502126,
        1.3962903
      ],
      [
        103.8495177,
        1.3962851
      ],
      [
        103.8489116,
        1.396328
      ],
      [
        103.8485411,
        1.3963569
      ],
      [
        103.8481724,
        1.3964187
      ],
      [
        103.8469872,
        1.3964856
      ],
      [
        103.8466464,
        1.3964966
      ],
      [
        103.8454794,
        1.3965124
      ],
      [
        103.8443778,
        1.3964631
      ],
      [
        103.8432771,
        1.3963676
      ],
      [
        103.8425274,
        1.3962836
      ],
      [
        103.8417778,
        1.3961479
      ],
      [
        103.8410006,
        1.3959943
      ],
      [
        103.8402249,
        1.3958174
      ],
      [
        103.8398896,
        1.3957317
      ],
      [
        103.8387061,
        1.3954127
      ],
      [
        103.8382083,
        1.3952974
      ],
      [
        103.837097,
        1.3950181
      ],
      [
        103.837006,
        1.3949351
      ],
      [
        103.8369376,
        1.3949036
      ],
      [
        103.8367109,
        1.3948295
      ],
      [
        103.8365805,
        1.394782
      ],
      [
        103.8358628,
        1.3945455
      ],
      [
        103.8355422,
        1.3944325
      ],
      [
        103.8352373,
        1.3942861
      ],
      [
        103.8349472,
        1.3941066
      ],
      [
        103.8345842,
        1.3938273
      ],
      [
        103.8343637,
        1.3936195
      ],
      [
        103.8340587,
        1.3934446
      ],
      [
        103.8339374,
        1.3933827
      ],
      [
        103.8338138,
        1.3933345
      ],
      [
        103.8336774,
        1.3932998
      ],
      [
        103.833558,
        1.3932888
      ],
      [
        103.8334363,
        1.3932874
      ],
      [
        103.8332759,
        1.3933071
      ],
      [
        103.8331091,
        1.3933514
      ],
      [
        103.8329643,
        1.3934034
      ],
      [
        103.8328303,
        1.3934724
      ],
      [
        103.8326887,
        1.3935524
      ],
      [
        103.832533,
        1.3936589
      ],
      [
        103.8324233,
        1.3937616
      ],
      [
        103.8320389,
        1.3943053
      ],
      [
        103.8319039,
        1.3944964
      ],
      [
        103.8317646,
        1.3946715
      ],
      [
        103.8316916,
        1.3947679
      ],
      [
        103.8316093,
        1.3948618
      ],
      [
        103.8314821,
        1.3949905
      ],
      [
        103.8313305,
        1.3951253
      ],
      [
        103.8311622,
        1.3952625
      ],
      [
        103.8309939,
        1.395391
      ],
      [
        103.8308134,
        1.3955314
      ],
      [
        103.8306646,
        1.3956538
      ],
      [
        103.8305132,
        1.395788
      ],
      [
        103.8302789,
        1.3960112
      ],
      [
        103.8301561,
        1.3961354
      ],
      [
        103.8300406,
        1.3962668
      ],
      [
        103.8299192,
        1.3964054
      ],
      [
        103.8298195,
        1.3965435
      ],
      [
        103.8297015,
        1.3967115
      ],
      [
        103.8295328,
        1.3969976
      ],
      [
        103.8294137,
        1.3971275
      ],
      [
        103.8293024,
        1.3972473
      ],
      [
        103.8290917,
        1.3975354
      ],
      [
        103.8289774,
        1.3976993
      ],
      [
        103.8288603,
        1.3978789
      ],
      [
        103.8287535,
        1.3980589
      ],
      [
        103.8286471,
        1.3982444
      ],
      [
        103.8283659,
        1.3987747
      ],
      [
        103.8282306,
        1.3990495
      ],
      [
        103.8281238,
        1.3992906
      ],
      [
        103.8280024,
        1.3995737
      ],
      [
        103.8278616,
        1.3999528
      ],
      [
        103.8278609,
        1.3999547
      ],
      [
        103.8278441,
        1.4000023
      ],
      [
        103.8276541,
        1.4006635
      ],
      [
        103.827598,
        1.4009088
      ],
      [
        103.8274822,
        1.4016359
      ],
      [
        103.8274092,
        1.4020476
      ],
      [
        103.8274003,
        1.4022623
      ],
      [
        103.8273746,
        1.4026415
      ],
      [
        103.8273689,
        1.4030955
      ],
      [
        103.8273698,
        1.4036876
      ],
      [
        103.8274849,
        1.4049479
      ],
      [
        103.8279124,
        1.4064097
      ],
      [
        103.828106,
        1.4070365
      ],
      [
        103.8281908,
        1.4071874
      ],
      [
        103.8288102,
        1.4084215
      ],
      [
        103.8291144,
        1.4090525
      ],
      [
        103.8292699,
        1.4094003
      ],
      [
        103.8294767,
        1.4098618
      ],
      [
        103.8295485,
        1.4100111
      ],
      [
        103.8296182,
        1.4101559
      ],
      [
        103.8296812,
        1.4102674
      ],
      [
        103.829753,
        1.4104112
      ],
      [
        103.8301188,
        1.4111338
      ],
      [
        103.8304448,
        1.4117533
      ],
      [
        103.8306422,
        1.4121137
      ],
      [
        103.8311615,
        1.4131266
      ],
      [
        103.8311862,
        1.4131748
      ],
      [
        103.8313094,
        1.4134326
      ],
      [
        103.8314878,
        1.4138058
      ],
      [
        103.8315738,
        1.4139673
      ],
      [
        103.8320444,
        1.4148946
      ],
      [
        103.8323012,
        1.4154148
      ],
      [
        103.832446,
        1.4156935
      ],
      [
        103.8326695,
        1.4161743
      ],
      [
        103.832791,
        1.4164214
      ],
      [
        103.832972,
        1.4167758
      ],
      [
        103.8331226,
        1.4170784
      ],
      [
        103.8331932,
        1.4172202
      ],
      [
        103.8332795,
        1.4173937
      ],
      [
        103.8333498,
        1.4175349
      ],
      [
        103.8336491,
        1.4181192
      ],
      [
        103.8336797,
        1.4181753
      ],
      [
        103.8337263,
        1.4182621
      ],
      [
        103.8337661,
        1.418343
      ],
      [
        103.8339516,
        1.4187248
      ],
      [
        103.8345783,
        1.4200567
      ],
      [
        103.8347244,
        1.4205195
      ],
      [
        103.8348158,
        1.4210334
      ],
      [
        103.8348431,
        1.4212505
      ],
      [
        103.8349194,
        1.4221662
      ],
      [
        103.8349292,
        1.4225336
      ],
      [
        103.8349293,
        1.4227833
      ],
      [
        103.8349336,
        1.4228355
      ],
      [
        103.8349407,
        1.4229603
      ],
      [
        103.8349452,
        1.4230272
      ],
      [
        103.8349595,
        1.42324
      ],
      [
        103.8350058,
        1.4237671
      ],
      [
        103.8350339,
        1.4240916
      ],
      [
        103.8350655,
        1.4247049
      ],
      [
        103.8350669,
        1.4247316
      ],
      [
        103.8350704,
        1.4248212
      ],
      [
        103.8350717,
        1.4248739
      ],
      [
        103.8351006,
        1.4260113
      ],
      [
        103.8351146,
        1.4262553
      ],
      [
        103.8351412,
        1.4267538
      ],
      [
        103.8351667,
        1.4272167
      ],
      [
        103.8351734,
        1.4274205
      ],
      [
        103.8351925,
        1.4281488
      ],
      [
        103.835203,
        1.428407
      ],
      [
        103.8352222,
        1.4287763
      ],
      [
        103.8352488,
        1.4292078
      ],
      [
        103.8352785,
        1.4296701
      ]
    ]
  }
}