{
  "type": "Feature",
  "properties": {
    "relation": 12647895,
    "direction": "1",
    "fee": "yes",
    "from": "Bukit Panjang Interchange",
    "name": "Svc 972 (Bukit Panjang Interchange ↺ Orchard Road)",
    "name:en": "Svc 972 (Bukit Panjang Interchange ↺ Orchard Road)",
    "network": "Land Transport Authority",
    "network:short": "LTA",
    "network:wikidata": "Q3299279",
    "network:wikipedia": "en:Land Transport Authority",
    "operator": "SMRT Buses",
    "operator:wikidata": "Q10852420",
    "operator:wikipedia": "en:SMRT Buses",
    "public_transport:version": "2",
    "ref": "972",
    "roundtrip": "yes",
    "route": "bus",
    "to": "Bukit Panjang Interchange",
    "type": "route",
    "via": "Orchard Road",
    "website": "https://www.smrt.com.sg/"
  },
  "geometry": {
    "type": "LineString",
    "coordinates": [
      [
        103.762847,
        1.3782645
      ],
      [
        103.7626717,
        1.3787209
      ],
      [
        103.7628862,
        1.3787796
      ],
      [
        103.763056,
        1.3788223
      ],
      [
        103.7631866,
        1.3788524
      ],
      [
        103.7632605,
        1.3788756
      ],
      [
        103.7633284,
        1.3788978
      ],
      [
        103.7635388,
        1.3789486
      ],
      [
        103.7635856,
        1.3789513
      ],
      [
        103.7636291,
        1.3789318
      ],
      [
        103.7636291,
        1.3789318
      ],
      [
        103.7637084,
        1.3789491
      ],
      [
        103.7639676,
        1.3791012
      ],
      [
        103.7640195,
        1.3791773
      ],
      [
        103.7640413,
        1.3792125
      ],
      [
        103.7641145,
        1.3793776
      ],
      [
        103.764001,
        1.3796117
      ],
      [
        103.7639215,
        1.3797757
      ],
      [
        103.7638206,
        1.3799925
      ],
      [
        103.763659,
        1.3803064
      ],
      [
        103.7635262,
        1.380574
      ],
      [
        103.7634843,
        1.3806528
      ],
      [
        103.7634292,
        1.3807653
      ],
      [
        103.7633952,
        1.380842
      ],
      [
        103.7632819,
        1.3811056
      ],
      [
        103.7632702,
        1.3811282
      ],
      [
        103.7632247,
        1.3812161
      ],
      [
        103.7630194,
        1.3816298
      ],
      [
        103.7626596,
        1.3823527
      ],
      [
        103.7626201,
        1.382428
      ],
      [
        103.7625212,
        1.3823784
      ],
      [
        103.7621349,
        1.3821961
      ],
      [
        103.7620922,
        1.3821371
      ],
      [
        103.7620004,
        1.3820921
      ],
      [
        103.7619147,
        1.3820528
      ],
      [
        103.7618415,
        1.3820279
      ],
      [
        103.7617675,
        1.3820116
      ],
      [
        103.7616968,
        1.3820066
      ],
      [
        103.7616175,
        1.3820111
      ],
      [
        103.7615322,
        1.3820254
      ],
      [
        103.761454,
        1.3820524
      ],
      [
        103.7613998,
        1.382078
      ],
      [
        103.7613651,
        1.382099
      ],
      [
        103.7613347,
        1.3821202
      ],
      [
        103.7613019,
        1.38215
      ],
      [
        103.7612793,
        1.3821733
      ],
      [
        103.7612629,
        1.3821899
      ],
      [
        103.7612571,
        1.3822453
      ],
      [
        103.7612383,
        1.3822687
      ],
      [
        103.7612162,
        1.3823026
      ],
      [
        103.7611933,
        1.382345
      ],
      [
        103.7611613,
        1.3824247
      ],
      [
        103.7609537,
        1.3831083
      ],
      [
        103.7608634,
        1.3834164
      ],
      [
        103.7608507,
        1.3834583
      ],
      [
        103.7608021,
        1.3835004
      ],
      [
        103.7606727,
        1.3838568
      ],
      [
        103.7605875,
        1.3840824
      ],
      [
        103.7605764,
        1.3841074
      ],
      [
        103.7605684,
        1.3841219
      ],
      [
        103.7605439,
        1.3841658
      ],
      [
        103.7604934,
        1.3842646
      ],
      [
        103.7604734,
        1.384299
      ],
      [
        103.7604436,
        1.3843425
      ],
      [
        103.7604049,
        1.3843926
      ],
      [
        103.7603445,
        1.3844668
      ],
      [
        103.7602722,
        1.3845411
      ],
      [
        103.7602571,
        1.3845566
      ],
      [
        103.7601756,
        1.3846322
      ],
      [
        103.7601283,
        1.3846653
      ],
      [
        103.7600404,
        1.38473
      ],
      [
        103.7599847,
        1.3847632
      ],
      [
        103.7598897,
        1.3848166
      ],
      [
        103.7596626,
        1.384898
      ],
      [
        103.7592957,
        1.3850121
      ],
      [
        103.7590932,
        1.3850866
      ],
      [
        103.7590051,
        1.3851372
      ],
      [
        103.7589092,
        1.3852145
      ],
      [
        103.7588168,
        1.385321
      ],
      [
        103.7587484,
        1.3854213
      ],
      [
        103.7586878,
        1.3855261
      ],
      [
        103.7587002,
        1.3855866
      ],
      [
        103.7586751,
        1.3856603
      ],
      [
        103.758656,
        1.3857248
      ],
      [
        103.758643,
        1.3857937
      ],
      [
        103.7586342,
        1.3858521
      ],
      [
        103.7586331,
        1.3858926
      ],
      [
        103.7586345,
        1.3859466
      ],
      [
        103.7586419,
        1.3860117
      ],
      [
        103.758648,
        1.3860654
      ],
      [
        103.7586632,
        1.3861231
      ],
      [
        103.7586924,
        1.3862158
      ],
      [
        103.7587057,
        1.3862581
      ],
      [
        103.7587114,
        1.3862763
      ],
      [
        103.7587194,
        1.3863017
      ],
      [
        103.7587163,
        1.386408
      ],
      [
        103.7587773,
        1.3866105
      ],
      [
        103.7588275,
        1.386752
      ],
      [
        103.7588668,
        1.3868377
      ],
      [
        103.7589125,
        1.3869139
      ],
      [
        103.7589561,
        1.3869697
      ],
      [
        103.7589996,
        1.3870156
      ],
      [
        103.7590405,
        1.3870542
      ],
      [
        103.7591011,
        1.3871055
      ],
      [
        103.7591861,
        1.3871599
      ],
      [
        103.7592816,
        1.3872101
      ],
      [
        103.7593807,
        1.3872432
      ],
      [
        103.7595004,
        1.3872613
      ],
      [
        103.7596095,
        1.3872705
      ],
      [
        103.7597043,
        1.3872654
      ],
      [
        103.7597827,
        1.3872543
      ],
      [
        103.7598541,
        1.3872371
      ],
      [
        103.7599199,
        1.3872154
      ],
      [
        103.760442,
        1.3870349
      ],
      [
        103.7605457,
        1.3869981
      ],
      [
        103.7606251,
        1.3869706
      ],
      [
        103.7608119,
        1.3869057
      ],
      [
        103.7609807,
        1.3868494
      ],
      [
        103.7613334,
        1.386732
      ],
      [
        103.7614236,
        1.3867122
      ],
      [
        103.7615267,
        1.3866976
      ],
      [
        103.7616277,
        1.3866954
      ],
      [
        103.761802,
        1.3866993
      ],
      [
        103.7619471,
        1.3867128
      ],
      [
        103.7620895,
        1.3867425
      ],
      [
        103.7622324,
        1.3867922
      ],
      [
        103.7623523,
        1.3868473
      ],
      [
        103.7624832,
        1.3869304
      ],
      [
        103.7627198,
        1.3870906
      ],
      [
        103.7627812,
        1.3871356
      ],
      [
        103.7628582,
        1.3871892
      ],
      [
        103.7629545,
        1.3872582
      ],
      [
        103.7630067,
        1.3873002
      ],
      [
        103.7632576,
        1.3875196
      ],
      [
        103.7634329,
        1.3876895
      ],
      [
        103.7635746,
        1.3878277
      ],
      [
        103.7639212,
        1.3881168
      ],
      [
        103.7639755,
        1.3881517
      ],
      [
        103.7640352,
        1.3881806
      ],
      [
        103.7641051,
        1.3882031
      ],
      [
        103.7641697,
        1.3882132
      ],
      [
        103.7642178,
        1.3882148
      ],
      [
        103.7642643,
        1.3882108
      ],
      [
        103.7643031,
        1.3882033
      ],
      [
        103.764355,
        1.388189
      ],
      [
        103.764413,
        1.388171
      ],
      [
        103.7644844,
        1.3881426
      ],
      [
        103.7645566,
        1.3881072
      ],
      [
        103.7645937,
        1.3880787
      ],
      [
        103.7646561,
        1.3880289
      ],
      [
        103.764815,
        1.3879007
      ],
      [
        103.7651486,
        1.3876275
      ],
      [
        103.7652568,
        1.3875357
      ],
      [
        103.7653105,
        1.3874888
      ],
      [
        103.7653916,
        1.3874198
      ],
      [
        103.7653299,
        1.3873394
      ],
      [
        103.7646787,
        1.3865126
      ],
      [
        103.7646038,
        1.3864264
      ],
      [
        103.7645262,
        1.3863412
      ],
      [
        103.764448,
        1.3862728
      ],
      [
        103.7643878,
        1.3862268
      ],
      [
        103.7637868,
        1.3857986
      ],
      [
        103.7637045,
        1.3857379
      ],
      [
        103.7637417,
        1.3856814
      ],
      [
        103.7639359,
        1.3853862
      ],
      [
        103.7641748,
        1.3850388
      ],
      [
        103.7642595,
        1.3849714
      ],
      [
        103.7644839,
        1.3846603
      ],
      [
        103.7646124,
        1.3845474
      ],
      [
        103.7647205,
        1.3844833
      ],
      [
        103.7648436,
        1.3844313
      ],
      [
        103.7649571,
        1.3844097
      ],
      [
        103.7650961,
        1.3844077
      ],
      [
        103.7652268,
        1.3844168
      ],
      [
        103.7656881,
        1.3845196
      ],
      [
        103.765812,
        1.3845519
      ],
      [
        103.7658664,
        1.3845643
      ],
      [
        103.7661974,
        1.3846632
      ],
      [
        103.7663728,
        1.384716
      ],
      [
        103.7665537,
        1.3848215
      ],
      [
        103.7666294,
        1.3848662
      ],
      [
        103.7667698,
        1.3849758
      ],
      [
        103.7668319,
        1.3850404
      ],
      [
        103.7669081,
        1.3851285
      ],
      [
        103.76696,
        1.3851932
      ],
      [
        103.7669989,
        1.3852536
      ],
      [
        103.7670478,
        1.3853271
      ],
      [
        103.7671049,
        1.385427
      ],
      [
        103.7671383,
        1.3855079
      ],
      [
        103.7671713,
        1.385599
      ],
      [
        103.7671976,
        1.3856911
      ],
      [
        103.7672448,
        1.3859027
      ],
      [
        103.767299,
        1.3861195
      ],
      [
        103.7673303,
        1.3862705
      ],
      [
        103.7673724,
        1.3864769
      ],
      [
        103.7673908,
        1.3865691
      ],
      [
        103.7674164,
        1.3866703
      ],
      [
        103.7674733,
        1.3867132
      ],
      [
        103.767533,
        1.38685
      ],
      [
        103.767689,
        1.3871653
      ],
      [
        103.7678747,
        1.3875587
      ],
      [
        103.7682067,
        1.3881856
      ],
      [
        103.7682503,
        1.3882705
      ],
      [
        103.7682955,
        1.3883554
      ],
      [
        103.7683195,
        1.3884021
      ],
      [
        103.7682955,
        1.3883554
      ],
      [
        103.7684467,
        1.3886502
      ],
      [
        103.7685974,
        1.3889786
      ],
      [
        103.7686316,
        1.38903
      ],
      [
        103.7686724,
        1.3890763
      ],
      [
        103.7687427,
        1.389156
      ],
      [
        103.7688218,
        1.3892209
      ],
      [
        103.7689163,
        1.3892783
      ],
      [
        103.7690546,
        1.3893364
      ],
      [
        103.7692176,
        1.3893807
      ],
      [
        103.7692179,
        1.3893808
      ],
      [
        103.7693795,
        1.3893849
      ],
      [
        103.7695129,
        1.3893668
      ],
      [
        103.7696183,
        1.3893376
      ],
      [
        103.7697129,
        1.3892983
      ],
      [
        103.7700233,
        1.3891205
      ],
      [
        103.7700451,
        1.3890565
      ],
      [
        103.7701884,
        1.3889704
      ],
      [
        103.7700451,
        1.3890565
      ],
      [
        103.7704375,
        1.3888211
      ],
      [
        103.7706374,
        1.388695
      ],
      [
        103.7706877,
        1.3886634
      ],
      [
        103.7708,
        1.3885912
      ],
      [
        103.770767,
        1.388614
      ],
      [
        103.7709144,
        1.3885645
      ],
      [
        103.771414,
        1.3882576
      ],
      [
        103.771502,
        1.3882043
      ],
      [
        103.7716257,
        1.3881298
      ],
      [
        103.7718208,
        1.3880073
      ],
      [
        103.7719548,
        1.3879271
      ],
      [
        103.7722076,
        1.3877712
      ],
      [
        103.7722801,
        1.3877145
      ],
      [
        103.7723359,
        1.3876507
      ],
      [
        103.7723931,
        1.3875547
      ],
      [
        103.7724229,
        1.3874647
      ],
      [
        103.772443,
        1.3873663
      ],
      [
        103.7724455,
        1.3873087
      ],
      [
        103.772441,
        1.3872371
      ],
      [
        103.7724303,
        1.3871612
      ],
      [
        103.7722575,
        1.3868068
      ],
      [
        103.7721792,
        1.3866727
      ],
      [
        103.7720644,
        1.386488
      ],
      [
        103.771958,
        1.3863126
      ],
      [
        103.7719291,
        1.3862649
      ],
      [
        103.771855,
        1.3861409
      ],
      [
        103.7717466,
        1.3860848
      ],
      [
        103.7717383,
        1.3860719
      ],
      [
        103.7717466,
        1.3860848
      ],
      [
        103.7715032,
        1.3857072
      ],
      [
        103.771368,
        1.3854975
      ],
      [
        103.7711194,
        1.3851047
      ],
      [
        103.7712174,
        1.3852633
      ],
      [
        103.7708236,
        1.3847204
      ],
      [
        103.7709454,
        1.3848627
      ],
      [
        103.7710217,
        1.3849686
      ],
      [
        103.7705148,
        1.384422
      ],
      [
        103.7707027,
        1.3846036
      ],
      [
        103.7702085,
        1.3841526
      ],
      [
        103.7703843,
        1.3843071
      ],
      [
        103.770459,
        1.3843742
      ],
      [
        103.7699409,
        1.3839064
      ],
      [
        103.7700187,
        1.3839864
      ],
      [
        103.770157,
        1.3841074
      ],
      [
        103.7698418,
        1.3837708
      ],
      [
        103.7697239,
        1.383598
      ],
      [
        103.7695948,
        1.3833977
      ],
      [
        103.7693218,
        1.382827
      ],
      [
        103.7693754,
        1.3830013
      ],
      [
        103.7694149,
        1.3830943
      ],
      [
        103.7694585,
        1.3831836
      ],
      [
        103.7692829,
        1.3821014
      ],
      [
        103.7693024,
        1.382566
      ],
      [
        103.7692748,
        1.3819502
      ],
      [
        103.769257,
        1.3815562
      ],
      [
        103.7692413,
        1.3809842
      ],
      [
        103.7692422,
        1.3809364
      ],
      [
        103.7692439,
        1.3808962
      ],
      [
        103.7692657,
        1.3807431
      ],
      [
        103.7692824,
        1.3806854
      ],
      [
        103.7693205,
        1.3805972
      ],
      [
        103.7693556,
        1.3805162
      ],
      [
        103.7694693,
        1.3803527
      ],
      [
        103.7696136,
        1.380216
      ],
      [
        103.7696205,
        1.3802117
      ],
      [
        103.7696243,
        1.3802093
      ],
      [
        103.769774,
        1.3801158
      ],
      [
        103.7700106,
        1.3800621
      ],
      [
        103.7702607,
        1.3800599
      ],
      [
        103.7704852,
        1.3801069
      ],
      [
        103.7707064,
        1.3802166
      ],
      [
        103.7708409,
        1.3803352
      ],
      [
        103.7709421,
        1.3804945
      ],
      [
        103.7710481,
        1.3806554
      ],
      [
        103.7710714,
        1.3807396
      ],
      [
        103.7711552,
        1.3808532
      ],
      [
        103.7712312,
        1.3809367
      ],
      [
        103.771312,
        1.3810137
      ],
      [
        103.7713972,
        1.3810441
      ],
      [
        103.7714805,
        1.3811033
      ],
      [
        103.7715149,
        1.3811215
      ],
      [
        103.7716241,
        1.3811791
      ],
      [
        103.7717036,
        1.3812144
      ],
      [
        103.7717809,
        1.381237
      ],
      [
        103.7718604,
        1.3812366
      ],
      [
        103.7720901,
        1.3812299
      ],
      [
        103.7722988,
        1.3811748
      ],
      [
        103.7724212,
        1.3811457
      ],
      [
        103.7724817,
        1.3811313
      ],
      [
        103.7726004,
        1.3811025
      ],
      [
        103.7725634,
        1.3809029
      ],
      [
        103.7725227,
        1.3806537
      ],
      [
        103.772517,
        1.3805089
      ],
      [
        103.772509,
        1.3803809
      ],
      [
        103.7725041,
        1.3802563
      ],
      [
        103.7725095,
        1.3800888
      ],
      [
        103.7725407,
        1.379685
      ],
      [
        103.772546,
        1.3796035
      ],
      [
        103.7725607,
        1.379417
      ],
      [
        103.7725638,
        1.379378
      ],
      [
        103.7725659,
        1.3793232
      ],
      [
        103.7725696,
        1.3791753
      ],
      [
        103.7725599,
        1.3788638
      ],
      [
        103.7725261,
        1.3786726
      ],
      [
        103.7724778,
        1.3784742
      ],
      [
        103.7724412,
        1.3783755
      ],
      [
        103.7723999,
        1.3782705
      ],
      [
        103.7723378,
        1.3781155
      ],
      [
        103.7722577,
        1.3779512
      ],
      [
        103.7721972,
        1.3778297
      ],
      [
        103.772151,
        1.3777446
      ],
      [
        103.772172,
        1.3775605
      ],
      [
        103.7721818,
        1.3775049
      ],
      [
        103.7721855,
        1.377484
      ],
      [
        103.7721905,
        1.3774557
      ],
      [
        103.7722131,
        1.377372
      ],
      [
        103.7722808,
        1.3772374
      ],
      [
        103.7725867,
        1.3770128
      ],
      [
        103.7729233,
        1.3767916
      ],
      [
        103.7730109,
        1.3767354
      ],
      [
        103.7731232,
        1.3766628
      ],
      [
        103.7733127,
        1.3765523
      ],
      [
        103.773361,
        1.3765241
      ],
      [
        103.7734068,
        1.3764974
      ],
      [
        103.7734395,
        1.3764783
      ],
      [
        103.7735981,
        1.3763858
      ],
      [
        103.7736799,
        1.376337
      ],
      [
        103.7743395,
        1.3759382
      ],
      [
        103.774692,
        1.37579
      ],
      [
        103.7750201,
        1.375697
      ],
      [
        103.7753111,
        1.3756583
      ],
      [
        103.7754862,
        1.3756426
      ],
      [
        103.776046,
        1.3755945
      ],
      [
        103.7766623,
        1.3755473
      ],
      [
        103.7774799,
        1.3754955
      ],
      [
        103.7777532,
        1.3754767
      ],
      [
        103.7780827,
        1.3754477
      ],
      [
        103.7782524,
        1.3754128
      ],
      [
        103.7784002,
        1.3753565
      ],
      [
        103.7785251,
        1.3752754
      ],
      [
        103.7786053,
        1.3751977
      ],
      [
        103.7786917,
        1.3750601
      ],
      [
        103.7787356,
        1.3749386
      ],
      [
        103.7787503,
        1.3748025
      ],
      [
        103.778734,
        1.3746797
      ],
      [
        103.7786944,
        1.37456
      ],
      [
        103.7785797,
        1.3743854
      ],
      [
        103.7782687,
        1.3740834
      ],
      [
        103.7781645,
        1.3739675
      ],
      [
        103.7780876,
        1.3738262
      ],
      [
        103.7780436,
        1.3736848
      ],
      [
        103.7780276,
        1.373535
      ],
      [
        103.7780433,
        1.3732924
      ],
      [
        103.7781036,
        1.3730479
      ],
      [
        103.7781896,
        1.3726634
      ],
      [
        103.7783324,
        1.3721209
      ],
      [
        103.7784536,
        1.3714964
      ],
      [
        103.7784683,
        1.371167
      ],
      [
        103.778866,
        1.3697368
      ],
      [
        103.7790977,
        1.3687793
      ],
      [
        103.7791299,
        1.3686565
      ],
      [
        103.7793293,
        1.3676594
      ],
      [
        103.7795559,
        1.3663306
      ],
      [
        103.7796322,
        1.3658152
      ],
      [
        103.7797615,
        1.36497
      ],
      [
        103.7798578,
        1.3643263
      ],
      [
        103.7799496,
        1.3637467
      ],
      [
        103.7800437,
        1.3632686
      ],
      [
        103.7802505,
        1.3624714
      ],
      [
        103.7804711,
        1.36175
      ],
      [
        103.7806601,
        1.3613305
      ],
      [
        103.7807844,
        1.3610411
      ],
      [
        103.78109,
        1.3603072
      ],
      [
        103.7813662,
        1.3597476
      ],
      [
        103.7817465,
        1.3590819
      ],
      [
        103.7820485,
        1.3585989
      ],
      [
        103.782331,
        1.3581912
      ],
      [
        103.7824988,
        1.3579772
      ],
      [
        103.7827375,
        1.357662
      ],
      [
        103.7830728,
        1.3572503
      ],
      [
        103.7834103,
        1.35689
      ],
      [
        103.7838702,
        1.3564188
      ],
      [
        103.7839416,
        1.3563521
      ],
      [
        103.7841699,
        1.356139
      ],
      [
        103.7844154,
        1.3559067
      ],
      [
        103.7847111,
        1.3556666
      ],
      [
        103.784979,
        1.3554515
      ],
      [
        103.7852536,
        1.355239
      ],
      [
        103.7859506,
        1.3547587
      ],
      [
        103.7868554,
        1.3541672
      ],
      [
        103.7871377,
        1.3539826
      ],
      [
        103.7877678,
        1.3535706
      ],
      [
        103.7879609,
        1.3534559
      ],
      [
        103.7882128,
        1.3533026
      ],
      [
        103.7884895,
        1.3531184
      ],
      [
        103.7888221,
        1.3529073
      ],
      [
        103.7891413,
        1.3526434
      ],
      [
        103.7892083,
        1.3525794
      ],
      [
        103.7894992,
        1.3523008
      ],
      [
        103.78973,
        1.3520546
      ],
      [
        103.789857,
        1.3519063
      ],
      [
        103.7899936,
        1.3518286
      ],
      [
        103.7900774,
        1.3517468
      ],
      [
        103.7905267,
        1.3512293
      ],
      [
        103.7906296,
        1.3510999
      ],
      [
        103.7912589,
        1.3502612
      ],
      [
        103.7915116,
        1.3500289
      ],
      [
        103.7918073,
        1.3498475
      ],
      [
        103.7920711,
        1.3497495
      ],
      [
        103.7923799,
        1.349705
      ],
      [
        103.7928368,
        1.3496967
      ],
      [
        103.7936508,
        1.3496788
      ],
      [
        103.7940373,
        1.3496498
      ],
      [
        103.7947705,
        1.3494791
      ],
      [
        103.7953613,
        1.3493465
      ],
      [
        103.7959693,
        1.349145
      ],
      [
        103.7964292,
        1.348947
      ],
      [
        103.796896,
        1.348699
      ],
      [
        103.7974041,
        1.3483925
      ],
      [
        103.7978416,
        1.3480516
      ],
      [
        103.798634,
        1.3473214
      ],
      [
        103.8002793,
        1.3456236
      ],
      [
        103.8030714,
        1.3426928
      ],
      [
        103.8034227,
        1.3423549
      ],
      [
        103.8038517,
        1.3419046
      ],
      [
        103.8040245,
        1.3417301
      ],
      [
        103.8042927,
        1.3414374
      ],
      [
        103.8063143,
        1.3394746
      ],
      [
        103.8068917,
        1.3389392
      ],
      [
        103.8075819,
        1.3383362
      ],
      [
        103.8084412,
        1.3375607
      ],
      [
        103.8090648,
        1.336992
      ],
      [
        103.8094332,
        1.3366623
      ],
      [
        103.8107075,
        1.3354606
      ],
      [
        103.81143,
        1.3347902
      ],
      [
        103.8117883,
        1.3345554
      ],
      [
        103.8121707,
        1.3343327
      ],
      [
        103.8125905,
        1.3341779
      ],
      [
        103.8128905,
        1.3340786
      ],
      [
        103.8133319,
        1.33394
      ],
      [
        103.8135427,
        1.3338681
      ],
      [
        103.8138948,
        1.3337522
      ],
      [
        103.8144297,
        1.3335806
      ],
      [
        103.8149721,
        1.3333653
      ],
      [
        103.8161891,
        1.3327054
      ],
      [
        103.8166664,
        1.3324466
      ],
      [
        103.8167946,
        1.3323771
      ],
      [
        103.8174491,
        1.3320242
      ],
      [
        103.8190639,
        1.3311501
      ],
      [
        103.8196297,
        1.3308246
      ],
      [
        103.8198452,
        1.33071
      ],
      [
        103.8198524,
        1.3307058
      ],
      [
        103.8205283,
        1.3303964
      ],
      [
        103.8208684,
        1.3302616
      ],
      [
        103.8226598,
        1.3295134
      ],
      [
        103.8231661,
        1.3292807
      ],
      [
        103.8235004,
        1.3291138
      ],
      [
        103.8239832,
        1.3288077
      ],
      [
        103.8243438,
        1.3285237
      ],
      [
        103.8247102,
        1.3281513
      ],
      [
        103.8255594,
        1.3273006
      ],
      [
        103.8256462,
        1.327279
      ],
      [
        103.8256861,
        1.3272582
      ],
      [
        103.8257153,
        1.3272345
      ],
      [
        103.8257823,
        1.3271918
      ],
      [
        103.8259574,
        1.3270725
      ],
      [
        103.8263489,
        1.3268822
      ],
      [
        103.8265253,
        1.3268319
      ],
      [
        103.8267285,
        1.326789
      ],
      [
        103.826815,
        1.3267702
      ],
      [
        103.8270356,
        1.3267488
      ],
      [
        103.8273067,
        1.3267605
      ],
      [
        103.8276712,
        1.3267949
      ],
      [
        103.8278629,
        1.3268377
      ],
      [
        103.8280494,
        1.3268912
      ],
      [
        103.8281439,
        1.3269498
      ],
      [
        103.8282282,
        1.3270459
      ],
      [
        103.8282597,
        1.3271343
      ],
      [
        103.8282739,
        1.3272432
      ],
      [
        103.8282633,
        1.327349
      ],
      [
        103.8282248,
        1.3274344
      ],
      [
        103.8281852,
        1.3274963
      ],
      [
        103.828144,
        1.3275401
      ],
      [
        103.8280574,
        1.327587
      ],
      [
        103.8279583,
        1.3276102
      ],
      [
        103.8278161,
        1.3276042
      ],
      [
        103.8276042,
        1.3275492
      ],
      [
        103.8274312,
        1.3274594
      ],
      [
        103.8272863,
        1.3273441
      ],
      [
        103.827171,
        1.3272127
      ],
      [
        103.8270778,
        1.3270511
      ],
      [
        103.8270082,
        1.3268662
      ],
      [
        103.8268324,
        1.3262736
      ],
      [
        103.8267244,
        1.3257506
      ],
      [
        103.8267097,
        1.3254824
      ],
      [
        103.8267437,
        1.3250354
      ],
      [
        103.8267709,
        1.3248822
      ],
      [
        103.8267928,
        1.3247591
      ],
      [
        103.8268347,
        1.3241271
      ],
      [
        103.8268346,
        1.324022
      ],
      [
        103.826737,
        1.3238391
      ],
      [
        103.8265416,
        1.3234669
      ],
      [
        103.8265039,
        1.3233911
      ],
      [
        103.8264877,
        1.3233584
      ],
      [
        103.8264039,
        1.3231945
      ],
      [
        103.8261755,
        1.3227361
      ],
      [
        103.8260427,
        1.3223475
      ],
      [
        103.8259862,
        1.3221821
      ],
      [
        103.8259766,
        1.3221539
      ],
      [
        103.8259501,
        1.3220741
      ],
      [
        103.8258874,
        1.3218928
      ],
      [
        103.8258259,
        1.3217214
      ],
      [
        103.8258015,
        1.3216532
      ],
      [
        103.825701,
        1.3213732
      ],
      [
        103.8256128,
        1.3211546
      ],
      [
        103.8255865,
        1.3210416
      ],
      [
        103.8255616,
        1.3208509
      ],
      [
        103.8255572,
        1.3207492
      ],
      [
        103.8255445,
        1.320571
      ],
      [
        103.8255401,
        1.3203696
      ],
      [
        103.8255369,
        1.3203027
      ],
      [
        103.8255406,
        1.3202411
      ],
      [
        103.8255487,
        1.3201334
      ],
      [
        103.8255499,
        1.3200786
      ],
      [
        103.8255689,
        1.3199361
      ],
      [
        103.8255925,
        1.3197292
      ],
      [
        103.825598,
        1.3196892
      ],
      [
        103.8256213,
        1.3195196
      ],
      [
        103.8256729,
        1.3190005
      ],
      [
        103.8257047,
        1.3188139
      ],
      [
        103.8257305,
        1.3186023
      ],
      [
        103.8257621,
        1.3184129
      ],
      [
        103.8258143,
        1.3180992
      ],
      [
        103.8258621,
        1.3178998
      ],
      [
        103.8259053,
        1.3176468
      ],
      [
        103.8259405,
        1.3174125
      ],
      [
        103.8259787,
        1.3170574
      ],
      [
        103.8260018,
        1.3168791
      ],
      [
        103.8260149,
        1.3168148
      ],
      [
        103.826102,
        1.3162791
      ],
      [
        103.8261141,
        1.3162
      ],
      [
        103.8261945,
        1.3157048
      ],
      [
        103.8262304,
        1.3154105
      ],
      [
        103.8262632,
        1.3151416
      ],
      [
        103.826276,
        1.3151115
      ],
      [
        103.8263258,
        1.3149837
      ],
      [
        103.8264167,
        1.3147692
      ],
      [
        103.8265672,
        1.3145528
      ],
      [
        103.8267443,
        1.3143576
      ],
      [
        103.826935,
        1.3141943
      ],
      [
        103.8271442,
        1.3140557
      ],
      [
        103.8273505,
        1.3139012
      ],
      [
        103.827572,
        1.3137274
      ],
      [
        103.8278121,
        1.3136014
      ],
      [
        103.8280924,
        1.3134901
      ],
      [
        103.8282262,
        1.313452
      ],
      [
        103.8285349,
        1.3133641
      ],
      [
        103.8290264,
        1.3132456
      ],
      [
        103.8294044,
        1.3131543
      ],
      [
        103.8295598,
        1.3131132
      ],
      [
        103.8298043,
        1.3130486
      ],
      [
        103.8299297,
        1.3130155
      ],
      [
        103.830478,
        1.3128682
      ],
      [
        103.8305967,
        1.3128378
      ],
      [
        103.8309267,
        1.3127595
      ],
      [
        103.8310651,
        1.3127257
      ],
      [
        103.8311716,
        1.3126997
      ],
      [
        103.8313523,
        1.3126556
      ],
      [
        103.8322783,
        1.3124282
      ],
      [
        103.8325427,
        1.312344
      ],
      [
        103.8326964,
        1.31227
      ],
      [
        103.8327334,
        1.3122411
      ],
      [
        103.8328222,
        1.3121717
      ],
      [
        103.8329966,
        1.3119959
      ],
      [
        103.8331237,
        1.3118129
      ],
      [
        103.8332058,
        1.311587
      ],
      [
        103.8332566,
        1.3114071
      ],
      [
        103.8333161,
        1.3111319
      ],
      [
        103.8333507,
        1.3108489
      ],
      [
        103.8334582,
        1.310098
      ],
      [
        103.8335003,
        1.3097926
      ],
      [
        103.8335723,
        1.3090759
      ],
      [
        103.8335991,
        1.3089322
      ],
      [
        103.833654,
        1.3086384
      ],
      [
        103.8334183,
        1.3080989
      ],
      [
        103.8333922,
        1.308036
      ],
      [
        103.8333186,
        1.3078575
      ],
      [
        103.833056,
        1.3072314
      ],
      [
        103.8330161,
        1.3071363
      ],
      [
        103.8329732,
        1.307034
      ],
      [
        103.8329194,
        1.3069058
      ],
      [
        103.8326052,
        1.3061951
      ],
      [
        103.8324939,
        1.3059591
      ],
      [
        103.8324142,
        1.305792
      ],
      [
        103.8323845,
        1.3057342
      ],
      [
        103.8323388,
        1.3056564
      ],
      [
        103.8322287,
        1.3054926
      ],
      [
        103.8321501,
        1.305233
      ],
      [
        103.8321361,
        1.3051408
      ],
      [
        103.8321291,
        1.3050556
      ],
      [
        103.8321373,
        1.3049879
      ],
      [
        103.8321688,
        1.3049132
      ],
      [
        103.8322688,
        1.3048036
      ],
      [
        103.8322866,
        1.3047841
      ],
      [
        103.8323264,
        1.3047617
      ],
      [
        103.8324948,
        1.3046666
      ],
      [
        103.8325992,
        1.304608
      ],
      [
        103.8329914,
        1.3043877
      ],
      [
        103.8332644,
        1.3042467
      ],
      [
        103.8337941,
        1.3039729
      ],
      [
        103.8341395,
        1.3037979
      ],
      [
        103.8342408,
        1.3037465
      ],
      [
        103.8343481,
        1.3036921
      ],
      [
        103.8343779,
        1.303677
      ],
      [
        103.8346182,
        1.3035484
      ],
      [
        103.8347183,
        1.3034936
      ],
      [
        103.8351571,
        1.3032537
      ],
      [
        103.8357661,
        1.3029095
      ],
      [
        103.8358887,
        1.3028412
      ],
      [
        103.8359878,
        1.302781
      ],
      [
        103.8359941,
        1.3027776
      ],
      [
        103.8361317,
        1.3027055
      ],
      [
        103.8361674,
        1.3026855
      ],
      [
        103.836584,
        1.3024526
      ],
      [
        103.8373803,
        1.3020054
      ],
      [
        103.8374798,
        1.3019496
      ],
      [
        103.8375571,
        1.3019062
      ],
      [
        103.8377859,
        1.3017933
      ],
      [
        103.8379684,
        1.3017149
      ],
      [
        103.8381377,
        1.3016407
      ],
      [
        103.8387816,
        1.3013408
      ],
      [
        103.8388956,
        1.3012973
      ],
      [
        103.8389486,
        1.3012785
      ],
      [
        103.8395454,
        1.3010774
      ],
      [
        103.8398974,
        1.3009661
      ],
      [
        103.8400133,
        1.3009327
      ],
      [
        103.8405638,
        1.3007732
      ],
      [
        103.8406704,
        1.3007427
      ],
      [
        103.841123,
        1.3005966
      ],
      [
        103.8412588,
        1.3005494
      ],
      [
        103.8419492,
        1.3003426
      ],
      [
        103.8428421,
        1.3000755
      ],
      [
        103.8428649,
        1.3000691
      ],
      [
        103.8429499,
        1.3000417
      ],
      [
        103.8431335,
        1.2999773
      ],
      [
        103.8435446,
        1.2998446
      ],
      [
        103.8436685,
        1.2998015
      ],
      [
        103.8438222,
        1.299748
      ],
      [
        103.8439846,
        1.2996931
      ],
      [
        103.8442578,
        1.2996008
      ],
      [
        103.844592,
        1.2994879
      ],
      [
        103.8448857,
        1.29939
      ],
      [
        103.845461,
        1.299203
      ],
      [
        103.8457049,
        1.2991257
      ],
      [
        103.8457167,
        1.299122
      ],
      [
        103.845733,
        1.2991169
      ],
      [
        103.8457575,
        1.2991091
      ],
      [
        103.8458124,
        1.2990917
      ],
      [
        103.8463783,
        1.298908
      ],
      [
        103.8465819,
        1.2988347
      ],
      [
        103.8467733,
        1.2987639
      ],
      [
        103.8469449,
        1.2987223
      ],
      [
        103.8471133,
        1.2986962
      ],
      [
        103.8473037,
        1.2986888
      ],
      [
        103.8473514,
        1.2986907
      ],
      [
        103.8474666,
        1.2986928
      ],
      [
        103.8475317,
        1.2986942
      ],
      [
        103.8480493,
        1.2987257
      ],
      [
        103.848166,
        1.2987297
      ],
      [
        103.8483779,
        1.2987243
      ],
      [
        103.8485388,
        1.2986801
      ],
      [
        103.8485558,
        1.2986733
      ],
      [
        103.848595,
        1.2986574
      ],
      [
        103.8486566,
        1.2986176
      ],
      [
        103.8487115,
        1.2985833
      ],
      [
        103.8487849,
        1.2985263
      ],
      [
        103.849494,
        1.2979713
      ],
      [
        103.8495583,
        1.2979207
      ],
      [
        103.8494885,
        1.2978322
      ],
      [
        103.8494544,
        1.2977913
      ],
      [
        103.8493618,
        1.2976804
      ],
      [
        103.849338,
        1.2976543
      ],
      [
        103.8492601,
        1.2975587
      ],
      [
        103.849184,
        1.2974784
      ],
      [
        103.8491672,
        1.297461
      ],
      [
        103.8490982,
        1.2973913
      ],
      [
        103.8489969,
        1.2973164
      ],
      [
        103.8489258,
        1.2972882
      ],
      [
        103.8488639,
        1.2973425
      ],
      [
        103.8487422,
        1.2974409
      ],
      [
        103.8486291,
        1.2975236
      ],
      [
        103.8483977,
        1.2976929
      ],
      [
        103.8481278,
        1.2979092
      ],
      [
        103.8480569,
        1.2979702
      ],
      [
        103.8479612,
        1.298048
      ],
      [
        103.847712,
        1.2982594
      ],
      [
        103.8476785,
        1.2982819
      ],
      [
        103.8476472,
        1.2982994
      ],
      [
        103.8476202,
        1.2983082
      ],
      [
        103.8475925,
        1.2983147
      ],
      [
        103.8475616,
        1.2983173
      ],
      [
        103.8475318,
        1.2983164
      ],
      [
        103.8474774,
        1.2983158
      ],
      [
        103.8474447,
        1.2983154
      ],
      [
        103.8473864,
        1.2983067
      ],
      [
        103.847315,
        1.2982863
      ],
      [
        103.8472539,
        1.2982572
      ],
      [
        103.8472,
        1.2982179
      ],
      [
        103.8470101,
        1.298026
      ],
      [
        103.8469634,
        1.2979805
      ],
      [
        103.846857,
        1.2979174
      ],
      [
        103.8467533,
        1.2978736
      ],
      [
        103.8466612,
        1.297858
      ],
      [
        103.8465491,
        1.2978528
      ],
      [
        103.8463648,
        1.2979067
      ],
      [
        103.8459222,
        1.2980223
      ],
      [
        103.8456438,
        1.2981218
      ],
      [
        103.845528,
        1.2982164
      ],
      [
        103.8453722,
        1.2983141
      ],
      [
        103.8453384,
        1.2983289
      ],
      [
        103.845117,
        1.2983968
      ],
      [
        103.8449889,
        1.2983988
      ],
      [
        103.8448834,
        1.2983585
      ],
      [
        103.8447787,
        1.2983861
      ],
      [
        103.8445262,
        1.2984601
      ],
      [
        103.844475,
        1.2984751
      ],
      [
        103.8443111,
        1.2985359
      ],
      [
        103.8441591,
        1.2985922
      ],
      [
        103.843808,
        1.2987681
      ],
      [
        103.8436442,
        1.2988513
      ],
      [
        103.8433675,
        1.2990247
      ],
      [
        103.8431461,
        1.2991707
      ],
      [
        103.8429945,
        1.2992651
      ],
      [
        103.8427006,
        1.2994319
      ],
      [
        103.8425245,
        1.2995386
      ],
      [
        103.8425042,
        1.2995482
      ],
      [
        103.8423939,
        1.2996002
      ],
      [
        103.8422907,
        1.2996393
      ],
      [
        103.8421078,
        1.2996735
      ],
      [
        103.8419558,
        1.2997034
      ],
      [
        103.8416714,
        1.2997552
      ],
      [
        103.8416394,
        1.2997589
      ],
      [
        103.8415857,
        1.2997687
      ],
      [
        103.8414658,
        1.2997943
      ],
      [
        103.8409955,
        1.2998956
      ],
      [
        103.8406914,
        1.2999586
      ],
      [
        103.8405432,
        1.2999911
      ],
      [
        103.8404913,
        1.3000021
      ],
      [
        103.8404144,
        1.3000213
      ],
      [
        103.8403176,
        1.3000465
      ],
      [
        103.8402867,
        1.3000532
      ],
      [
        103.8401977,
        1.3000711
      ],
      [
        103.840108,
        1.3000912
      ],
      [
        103.8398887,
        1.3001362
      ],
      [
        103.8394433,
        1.3002335
      ],
      [
        103.8391674,
        1.3002938
      ],
      [
        103.8390588,
        1.3003175
      ],
      [
        103.8386463,
        1.3004076
      ],
      [
        103.8384943,
        1.3004403
      ],
      [
        103.8383906,
        1.3004626
      ],
      [
        103.8381287,
        1.3005188
      ],
      [
        103.8379596,
        1.3005587
      ],
      [
        103.8378941,
        1.300573
      ],
      [
        103.8376267,
        1.3006332
      ],
      [
        103.8373671,
        1.3006861
      ],
      [
        103.8372326,
        1.3007142
      ],
      [
        103.8369933,
        1.3007768
      ],
      [
        103.8368637,
        1.3008075
      ],
      [
        103.8368154,
        1.3008166
      ],
      [
        103.8366068,
        1.3008694
      ],
      [
        103.8364961,
        1.3008653
      ],
      [
        103.8363012,
        1.3006655
      ],
      [
        103.8361168,
        1.3004766
      ],
      [
        103.8359825,
        1.3003978
      ],
      [
        103.8358691,
        1.3003639
      ],
      [
        103.8357698,
        1.3003386
      ],
      [
        103.8356949,
        1.3003358
      ],
      [
        103.83559,
        1.3003357
      ],
      [
        103.835504,
        1.3003416
      ],
      [
        103.8354067,
        1.3003762
      ],
      [
        103.8352941,
        1.3004318
      ],
      [
        103.8352042,
        1.3004968
      ],
      [
        103.835168,
        1.3005639
      ],
      [
        103.8351343,
        1.3006586
      ],
      [
        103.8350949,
        1.3007764
      ],
      [
        103.8350896,
        1.3008723
      ],
      [
        103.8352023,
        1.3010848
      ],
      [
        103.8353159,
        1.3012913
      ],
      [
        103.8353305,
        1.3013848
      ],
      [
        103.8353097,
        1.3014807
      ],
      [
        103.8352677,
        1.3015694
      ],
      [
        103.8352677,
        1.3015694
      ],
      [
        103.8351463,
        1.3016454
      ],
      [
        103.8342482,
        1.3023256
      ],
      [
        103.8340895,
        1.3024633
      ],
      [
        103.8339445,
        1.3026027
      ],
      [
        103.8336401,
        1.3028952
      ],
      [
        103.8335488,
        1.3029821
      ],
      [
        103.8336401,
        1.3028952
      ],
      [
        103.8333349,
        1.3031747
      ],
      [
        103.8331643,
        1.3033186
      ],
      [
        103.8330679,
        1.3033999
      ],
      [
        103.8328695,
        1.3035656
      ],
      [
        103.8328015,
        1.303593
      ],
      [
        103.8327779,
        1.3035907
      ],
      [
        103.8327553,
        1.3035829
      ],
      [
        103.832735,
        1.3035709
      ],
      [
        103.8327169,
        1.3035574
      ],
      [
        103.8326876,
        1.3035253
      ],
      [
        103.8325603,
        1.3033778
      ],
      [
        103.8325229,
        1.3033317
      ],
      [
        103.8322505,
        1.3029959
      ],
      [
        103.8321743,
        1.302902
      ],
      [
        103.8321285,
        1.3029446
      ],
      [
        103.8318567,
        1.3031763
      ],
      [
        103.8317984,
        1.3032199
      ],
      [
        103.8316434,
        1.303334
      ],
      [
        103.8314278,
        1.303472
      ],
      [
        103.830943,
        1.303797
      ],
      [
        103.8308472,
        1.3038595
      ],
      [
        103.8306784,
        1.303956
      ],
      [
        103.8307378,
        1.3040638
      ],
      [
        103.8308503,
        1.3041998
      ],
      [
        103.8309549,
        1.3043023
      ],
      [
        103.8310959,
        1.3044295
      ],
      [
        103.8312483,
        1.3046057
      ],
      [
        103.8313704,
        1.3047469
      ],
      [
        103.8313982,
        1.3047791
      ],
      [
        103.8315677,
        1.3049751
      ],
      [
        103.8315878,
        1.3049984
      ],
      [
        103.8317012,
        1.3051295
      ],
      [
        103.8318494,
        1.3053009
      ],
      [
        103.8319142,
        1.3053759
      ],
      [
        103.8319347,
        1.3053996
      ],
      [
        103.831953,
        1.3054208
      ],
      [
        103.8320557,
        1.3055388
      ],
      [
        103.8321733,
        1.3057064
      ],
      [
        103.8322967,
        1.3059651
      ],
      [
        103.8323934,
        1.3061752
      ],
      [
        103.8324997,
        1.3064109
      ],
      [
        103.8327896,
        1.3070292
      ],
      [
        103.8328093,
        1.3070763
      ],
      [
        103.8328637,
        1.3072062
      ],
      [
        103.8329134,
        1.307325
      ],
      [
        103.8329959,
        1.3075221
      ],
      [
        103.8330152,
        1.3075703
      ],
      [
        103.8330796,
        1.3077474
      ],
      [
        103.8331442,
        1.307934
      ],
      [
        103.8332087,
        1.3081446
      ],
      [
        103.8332301,
        1.3082434
      ],
      [
        103.8332361,
        1.3089986
      ],
      [
        103.8332363,
        1.3090711
      ],
      [
        103.8332294,
        1.3093844
      ],
      [
        103.8332015,
        1.3101101
      ],
      [
        103.8331759,
        1.3105666
      ],
      [
        103.8331605,
        1.3108583
      ],
      [
        103.8331242,
        1.3113658
      ],
      [
        103.8331046,
        1.3115245
      ],
      [
        103.8330639,
        1.311671
      ],
      [
        103.8329668,
        1.3118515
      ],
      [
        103.8327912,
        1.312037
      ],
      [
        103.8326511,
        1.3121407
      ],
      [
        103.8324081,
        1.3122451
      ],
      [
        103.8317764,
        1.3124081
      ],
      [
        103.8312481,
        1.312533
      ],
      [
        103.8311602,
        1.3125548
      ],
      [
        103.8307136,
        1.3126709
      ],
      [
        103.8297794,
        1.3129034
      ],
      [
        103.8292871,
        1.3130423
      ],
      [
        103.8291457,
        1.3130822
      ],
      [
        103.8285664,
        1.3132313
      ],
      [
        103.8280374,
        1.3133699
      ],
      [
        103.8277627,
        1.3134642
      ],
      [
        103.8275107,
        1.3135988
      ],
      [
        103.8273233,
        1.3137258
      ],
      [
        103.8272611,
        1.313768
      ],
      [
        103.8271924,
        1.3138145
      ],
      [
        103.8270431,
        1.3139348
      ],
      [
        103.8268491,
        1.3140909
      ],
      [
        103.8266788,
        1.3142292
      ],
      [
        103.8265875,
        1.3143408
      ],
      [
        103.826496,
        1.3144526
      ],
      [
        103.8263822,
        1.3145809
      ],
      [
        103.8262478,
        1.3147843
      ],
      [
        103.8261934,
        1.3148925
      ],
      [
        103.8261156,
        1.3152304
      ],
      [
        103.8260843,
        1.3154203
      ],
      [
        103.826021,
        1.3157815
      ],
      [
        103.8259543,
        1.3161678
      ],
      [
        103.8258954,
        1.3166148
      ],
      [
        103.8258827,
        1.3167161
      ],
      [
        103.8258637,
        1.316868
      ],
      [
        103.8258536,
        1.3169482
      ],
      [
        103.8258422,
        1.3170392
      ],
      [
        103.8258192,
        1.31724
      ],
      [
        103.8258134,
        1.3173191
      ],
      [
        103.8257878,
        1.3174978
      ],
      [
        103.8257723,
        1.3176156
      ],
      [
        103.8257253,
        1.3179561
      ],
      [
        103.8256554,
        1.3182837
      ],
      [
        103.8255907,
        1.3186007
      ],
      [
        103.8255158,
        1.3191495
      ],
      [
        103.8254739,
        1.3193836
      ],
      [
        103.825437,
        1.3196192
      ],
      [
        103.8253958,
        1.3198362
      ],
      [
        103.8253866,
        1.3199055
      ],
      [
        103.8253476,
        1.3201421
      ],
      [
        103.8253412,
        1.32033
      ],
      [
        103.8253398,
        1.3204387
      ],
      [
        103.8253258,
        1.3206383
      ],
      [
        103.8253538,
        1.3207751
      ],
      [
        103.8253874,
        1.3209138
      ],
      [
        103.8254464,
        1.321085
      ],
      [
        103.825481,
        1.3211972
      ],
      [
        103.8255402,
        1.3213855
      ],
      [
        103.8257367,
        1.3219192
      ],
      [
        103.825813,
        1.3221165
      ],
      [
        103.8258424,
        1.3221998
      ],
      [
        103.8258496,
        1.322219
      ],
      [
        103.8260575,
        1.3227812
      ],
      [
        103.826131,
        1.3229471
      ],
      [
        103.8262186,
        1.3231255
      ],
      [
        103.8262962,
        1.3232582
      ],
      [
        103.8263888,
        1.3234135
      ],
      [
        103.8264983,
        1.3235918
      ],
      [
        103.8267258,
        1.3240596
      ],
      [
        103.8267368,
        1.3241759
      ],
      [
        103.8267307,
        1.3243075
      ],
      [
        103.8266434,
        1.3250267
      ],
      [
        103.8266319,
        1.3254858
      ],
      [
        103.826654,
        1.3257613
      ],
      [
        103.8266312,
        1.3258598
      ],
      [
        103.8266287,
        1.3260511
      ],
      [
        103.826587,
        1.3261488
      ],
      [
        103.8265347,
        1.3262393
      ],
      [
        103.8263563,
        1.3263787
      ],
      [
        103.8260458,
        1.3265644
      ],
      [
        103.8255765,
        1.3269418
      ],
      [
        103.8253525,
        1.3271691
      ],
      [
        103.8252879,
        1.3273238
      ],
      [
        103.8241863,
        1.3284604
      ],
      [
        103.8238219,
        1.3287223
      ],
      [
        103.8232581,
        1.3290412
      ],
      [
        103.8225639,
        1.3293786
      ],
      [
        103.8202969,
        1.3302826
      ],
      [
        103.8197572,
        1.3305609
      ],
      [
        103.8195471,
        1.3306756
      ],
      [
        103.8188651,
        1.3310591
      ],
      [
        103.8184893,
        1.3312704
      ],
      [
        103.8166239,
        1.3323193
      ],
      [
        103.816107,
        1.3325858
      ],
      [
        103.8148678,
        1.3332248
      ],
      [
        103.8143814,
        1.3334294
      ],
      [
        103.8138474,
        1.3335956
      ],
      [
        103.8130575,
        1.3337907
      ],
      [
        103.8124189,
        1.33399
      ],
      [
        103.8120692,
        1.3341405
      ],
      [
        103.8116617,
        1.3343873
      ],
      [
        103.8113052,
        1.3346446
      ],
      [
        103.810537,
        1.3353147
      ],
      [
        103.8098622,
        1.335931
      ],
      [
        103.8088985,
        1.3367976
      ],
      [
        103.8083803,
        1.3372628
      ],
      [
        103.8081441,
        1.3374749
      ],
      [
        103.8072843,
        1.3382911
      ],
      [
        103.8067522,
        1.3387716
      ],
      [
        103.8061549,
        1.3393166
      ],
      [
        103.8049151,
        1.3404193
      ],
      [
        103.8038982,
        1.3414359
      ],
      [
        103.803725,
        1.3416242
      ],
      [
        103.8019548,
        1.3435549
      ],
      [
        103.8000799,
        1.3455003
      ],
      [
        103.7999819,
        1.3456048
      ],
      [
        103.7993349,
        1.3462992
      ],
      [
        103.7989337,
        1.3467299
      ],
      [
        103.798727,
        1.3469518
      ],
      [
        103.7983275,
        1.3472105
      ],
      [
        103.7975594,
        1.3478955
      ],
      [
        103.7972326,
        1.3481392
      ],
      [
        103.7968842,
        1.3483707
      ],
      [
        103.7966603,
        1.348511
      ],
      [
        103.796429,
        1.3486281
      ],
      [
        103.7961865,
        1.3487295
      ],
      [
        103.7958135,
        1.3488657
      ],
      [
        103.7954593,
        1.3489715
      ],
      [
        103.7952957,
        1.3490117
      ],
      [
        103.7951669,
        1.3490305
      ],
      [
        103.7950301,
        1.3490372
      ],
      [
        103.7948933,
        1.3490318
      ],
      [
        103.7947348,
        1.3490101
      ],
      [
        103.7945524,
        1.3489404
      ],
      [
        103.7943754,
        1.3488385
      ],
      [
        103.7942198,
        1.3487098
      ],
      [
        103.7941018,
        1.3485865
      ],
      [
        103.7939999,
        1.3484685
      ],
      [
        103.7938926,
        1.3483344
      ],
      [
        103.7937907,
        1.3482271
      ],
      [
        103.7936995,
        1.3481199
      ],
      [
        103.7935976,
        1.3480126
      ],
      [
        103.793501,
        1.3479375
      ],
      [
        103.7933723,
        1.3478678
      ],
      [
        103.7932489,
        1.3478303
      ],
      [
        103.7931148,
        1.3478142
      ],
      [
        103.7929699,
        1.3478249
      ],
      [
        103.7928412,
        1.3478571
      ],
      [
        103.7927071,
        1.3479
      ],
      [
        103.7925891,
        1.347959
      ],
      [
        103.7924764,
        1.3480394
      ],
      [
        103.7923477,
        1.3481306
      ],
      [
        103.7922404,
        1.3482218
      ],
      [
        103.7921277,
        1.3483558
      ],
      [
        103.7920097,
        1.348506
      ],
      [
        103.7918971,
        1.3486723
      ],
      [
        103.7917919,
        1.3488368
      ],
      [
        103.7913541,
        1.3495919
      ],
      [
        103.791018,
        1.3501574
      ],
      [
        103.7904299,
        1.3510072
      ],
      [
        103.7902519,
        1.3512018
      ],
      [
        103.7896822,
        1.3518363
      ],
      [
        103.7891673,
        1.3523494
      ],
      [
        103.7889919,
        1.3525
      ],
      [
        103.7886825,
        1.3527294
      ],
      [
        103.7883908,
        1.3529366
      ],
      [
        103.7879963,
        1.3531939
      ],
      [
        103.7877363,
        1.3533634
      ],
      [
        103.7857051,
        1.3547318
      ],
      [
        103.7852642,
        1.3550356
      ],
      [
        103.7851301,
        1.3551402
      ],
      [
        103.784918,
        1.3552995
      ],
      [
        103.7844221,
        1.3556845
      ],
      [
        103.7839933,
        1.3560715
      ],
      [
        103.7838151,
        1.3562417
      ],
      [
        103.7837076,
        1.356349
      ],
      [
        103.7833084,
        1.3567679
      ],
      [
        103.7829397,
        1.3571683
      ],
      [
        103.7825804,
        1.3575921
      ],
      [
        103.7823594,
        1.3578753
      ],
      [
        103.7821918,
        1.3580923
      ],
      [
        103.7818921,
        1.3585211
      ],
      [
        103.7815555,
        1.3590423
      ],
      [
        103.7812485,
        1.3596408
      ],
      [
        103.7809632,
        1.3601668
      ],
      [
        103.7808398,
        1.3604625
      ],
      [
        103.7806409,
        1.3609015
      ],
      [
        103.7804979,
        1.3612915
      ],
      [
        103.7802724,
        1.3618535
      ],
      [
        103.7800816,
        1.3624756
      ],
      [
        103.7798932,
        1.3632599
      ],
      [
        103.7797937,
        1.3637452
      ],
      [
        103.7797073,
        1.3643228
      ],
      [
        103.7796137,
        1.3649531
      ],
      [
        103.7794842,
        1.3657931
      ],
      [
        103.7791786,
        1.3676247
      ],
      [
        103.7787063,
        1.3696922
      ],
      [
        103.7784201,
        1.3707778
      ],
      [
        103.7779994,
        1.3723122
      ],
      [
        103.777891,
        1.3727237
      ],
      [
        103.7777969,
        1.3730429
      ],
      [
        103.7777101,
        1.3733559
      ],
      [
        103.7776619,
        1.3734019
      ],
      [
        103.777635,
        1.3734354
      ],
      [
        103.7776211,
        1.3734568
      ],
      [
        103.7774017,
        1.3740282
      ],
      [
        103.7772399,
        1.3744736
      ],
      [
        103.7770349,
        1.3750499
      ],
      [
        103.7769912,
        1.3751402
      ],
      [
        103.776937,
        1.3752177
      ],
      [
        103.77685,
        1.375298
      ],
      [
        103.7767806,
        1.3753437
      ],
      [
        103.776664,
        1.3753841
      ],
      [
        103.7764304,
        1.3754103
      ],
      [
        103.7761126,
        1.375469
      ],
      [
        103.7755014,
        1.3755192
      ],
      [
        103.7750131,
        1.3755882
      ],
      [
        103.7746838,
        1.3756648
      ],
      [
        103.7743252,
        1.3758088
      ],
      [
        103.7742315,
        1.3758491
      ],
      [
        103.7740257,
        1.3759724
      ],
      [
        103.773869,
        1.3760669
      ],
      [
        103.7736106,
        1.3762257
      ],
      [
        103.773528,
        1.3762769
      ],
      [
        103.7733766,
        1.3763697
      ],
      [
        103.7733394,
        1.3763925
      ],
      [
        103.7732958,
        1.3764192
      ],
      [
        103.7732507,
        1.3764468
      ],
      [
        103.7726203,
        1.3768331
      ],
      [
        103.7724713,
        1.3769234
      ],
      [
        103.7722566,
        1.3770536
      ],
      [
        103.7721345,
        1.3771276
      ],
      [
        103.7719065,
        1.377269
      ],
      [
        103.7718778,
        1.3772862
      ],
      [
        103.7717682,
        1.377352
      ],
      [
        103.7718665,
        1.3775071
      ],
      [
        103.7718914,
        1.3775515
      ],
      [
        103.7720315,
        1.3778011
      ],
      [
        103.7722192,
        1.3781318
      ],
      [
        103.7723225,
        1.3783504
      ],
      [
        103.7723659,
        1.3784645
      ],
      [
        103.7724197,
        1.3787069
      ],
      [
        103.7724486,
        1.3788656
      ],
      [
        103.7724526,
        1.3789792
      ],
      [
        103.772456,
        1.3791714
      ],
      [
        103.7724545,
        1.3793172
      ],
      [
        103.7724539,
        1.379372
      ],
      [
        103.7724509,
        1.3794143
      ],
      [
        103.772403,
        1.3800897
      ],
      [
        103.772399,
        1.3802685
      ],
      [
        103.7724025,
        1.3803261
      ],
      [
        103.7724177,
        1.380576
      ],
      [
        103.7724422,
        1.380953
      ],
      [
        103.7724173,
        1.381024
      ],
      [
        103.7723954,
        1.3810561
      ],
      [
        103.7722988,
        1.3811748
      ],
      [
        103.7720901,
        1.3812299
      ],
      [
        103.7722988,
        1.3811748
      ],
      [
        103.7716241,
        1.3811791
      ],
      [
        103.7717036,
        1.3812144
      ],
      [
        103.7717809,
        1.381237
      ],
      [
        103.7718604,
        1.3812366
      ],
      [
        103.7714805,
        1.3811033
      ],
      [
        103.7715149,
        1.3811215
      ],
      [
        103.7710714,
        1.3807396
      ],
      [
        103.7711552,
        1.3808532
      ],
      [
        103.7712312,
        1.3809367
      ],
      [
        103.771312,
        1.3810137
      ],
      [
        103.7713972,
        1.3810441
      ],
      [
        103.7696205,
        1.3802117
      ],
      [
        103.7696243,
        1.3802093
      ],
      [
        103.769774,
        1.3801158
      ],
      [
        103.7700106,
        1.3800621
      ],
      [
        103.7702607,
        1.3800599
      ],
      [
        103.7704852,
        1.3801069
      ],
      [
        103.7707064,
        1.3802166
      ],
      [
        103.7708409,
        1.3803352
      ],
      [
        103.7709421,
        1.3804945
      ],
      [
        103.7710481,
        1.3806554
      ],
      [
        103.7693556,
        1.3805162
      ],
      [
        103.7694693,
        1.3803527
      ],
      [
        103.7696136,
        1.380216
      ],
      [
        103.7692657,
        1.3807431
      ],
      [
        103.7692824,
        1.3806854
      ],
      [
        103.7693205,
        1.3805972
      ],
      [
        103.7692439,
        1.3808962
      ],
      [
        103.7692413,
        1.3809842
      ],
      [
        103.7692422,
        1.3809364
      ],
      [
        103.7692748,
        1.3819502
      ],
      [
        103.769257,
        1.3815562
      ],
      [
        103.7692829,
        1.3821014
      ],
      [
        103.7693024,
        1.382566
      ],
      [
        103.7693218,
        1.382827
      ],
      [
        103.7693754,
        1.3830013
      ],
      [
        103.7694149,
        1.3830943
      ],
      [
        103.7694585,
        1.3831836
      ],
      [
        103.7695948,
        1.3833977
      ],
      [
        103.7697239,
        1.383598
      ],
      [
        103.7698418,
        1.3837708
      ],
      [
        103.7699409,
        1.3839064
      ],
      [
        103.7700187,
        1.3839864
      ],
      [
        103.770157,
        1.3841074
      ],
      [
        103.7702085,
        1.3841526
      ],
      [
        103.7703843,
        1.3843071
      ],
      [
        103.770459,
        1.3843742
      ],
      [
        103.7705148,
        1.384422
      ],
      [
        103.7707027,
        1.3846036
      ],
      [
        103.7708236,
        1.3847204
      ],
      [
        103.7709454,
        1.3848627
      ],
      [
        103.7710217,
        1.3849686
      ],
      [
        103.7711194,
        1.3851047
      ],
      [
        103.7712174,
        1.3852633
      ],
      [
        103.771368,
        1.3854975
      ],
      [
        103.7715032,
        1.3857072
      ],
      [
        103.7717383,
        1.3860719
      ],
      [
        103.7717466,
        1.3860848
      ],
      [
        103.7717745,
        1.3861872
      ],
      [
        103.7718459,
        1.3863125
      ],
      [
        103.7718751,
        1.3863561
      ],
      [
        103.7720484,
        1.3866145
      ],
      [
        103.7721885,
        1.3868473
      ],
      [
        103.7722878,
        1.3870525
      ],
      [
        103.7723557,
        1.3871971
      ],
      [
        103.7723669,
        1.387295
      ],
      [
        103.772362,
        1.3873704
      ],
      [
        103.7723419,
        1.387466
      ],
      [
        103.7723093,
        1.3875442
      ],
      [
        103.7722667,
        1.3876137
      ],
      [
        103.7722122,
        1.387675
      ],
      [
        103.7721666,
        1.3877092
      ],
      [
        103.7719336,
        1.387852
      ],
      [
        103.7717803,
        1.3879442
      ],
      [
        103.7715857,
        1.3880653
      ],
      [
        103.7714604,
        1.3881414
      ],
      [
        103.7711053,
        1.3883609
      ],
      [
        103.7708795,
        1.3885001
      ],
      [
        103.7708611,
        1.388552
      ],
      [
        103.7708,
        1.3885912
      ],
      [
        103.770767,
        1.388614
      ],
      [
        103.7706877,
        1.3886634
      ],
      [
        103.7706374,
        1.388695
      ],
      [
        103.7704375,
        1.3888211
      ],
      [
        103.7701884,
        1.3889704
      ],
      [
        103.7700451,
        1.3890565
      ],
      [
        103.7699883,
        1.3890564
      ],
      [
        103.7696717,
        1.3892366
      ],
      [
        103.7695346,
        1.3892858
      ],
      [
        103.7693748,
        1.3893093
      ],
      [
        103.7692377,
        1.3893077
      ],
      [
        103.7690921,
        1.3892727
      ],
      [
        103.7689572,
        1.3892163
      ],
      [
        103.7688645,
        1.3891627
      ],
      [
        103.7688013,
        1.3891085
      ],
      [
        103.7686985,
        1.388997
      ],
      [
        103.768656,
        1.3889423
      ],
      [
        103.7685914,
        1.3889069
      ],
      [
        103.7684467,
        1.3886502
      ],
      [
        103.7683195,
        1.3884021
      ],
      [
        103.7682955,
        1.3883554
      ],
      [
        103.7682955,
        1.3883554
      ],
      [
        103.7682067,
        1.3881856
      ],
      [
        103.7682503,
        1.3882705
      ],
      [
        103.767689,
        1.3871653
      ],
      [
        103.7678747,
        1.3875587
      ],
      [
        103.767533,
        1.38685
      ],
      [
        103.7674828,
        1.3866478
      ],
      [
        103.76746,
        1.3865526
      ],
      [
        103.7674398,
        1.3864568
      ],
      [
        103.7673672,
        1.3860988
      ],
      [
        103.7673155,
        1.3858845
      ],
      [
        103.7672674,
        1.3856702
      ],
      [
        103.7672421,
        1.3855659
      ],
      [
        103.7672035,
        1.3854667
      ],
      [
        103.7671735,
        1.385394
      ],
      [
        103.7671106,
        1.3852911
      ],
      [
        103.7670651,
        1.3852182
      ],
      [
        103.7670196,
        1.3851529
      ],
      [
        103.7669676,
        1.3850803
      ],
      [
        103.7668956,
        1.3850017
      ],
      [
        103.7668206,
        1.3849261
      ],
      [
        103.7666739,
        1.3848096
      ],
      [
        103.7665934,
        1.3847551
      ],
      [
        103.7664137,
        1.3846519
      ],
      [
        103.7662315,
        1.3845922
      ],
      [
        103.7658888,
        1.3844836
      ],
      [
        103.7658307,
        1.3844667
      ],
      [
        103.7657064,
        1.3844394
      ],
      [
        103.7652469,
        1.3843421
      ],
      [
        103.7650819,
        1.3843304
      ],
      [
        103.7649545,
        1.3843357
      ],
      [
        103.7648272,
        1.3843574
      ],
      [
        103.7646725,
        1.3844248
      ],
      [
        103.7645501,
        1.3844983
      ],
      [
        103.7644278,
        1.3846106
      ],
      [
        103.7641949,
        1.3849296
      ],
      [
        103.7641748,
        1.3850388
      ],
      [
        103.7641748,
        1.3850388
      ],
      [
        103.7637417,
        1.3856814
      ],
      [
        103.7639359,
        1.3853862
      ],
      [
        103.7637045,
        1.3857379
      ],
      [
        103.763612,
        1.3858772
      ],
      [
        103.7635951,
        1.3859034
      ],
      [
        103.7634065,
        1.3861954
      ],
      [
        103.7632814,
        1.3863891
      ],
      [
        103.7631662,
        1.3865674
      ],
      [
        103.7630133,
        1.3868041
      ],
      [
        103.7629119,
        1.3868655
      ],
      [
        103.7628368,
        1.3868922
      ],
      [
        103.7627429,
        1.3869017
      ],
      [
        103.7626405,
        1.3869085
      ],
      [
        103.7625272,
        1.3868348
      ],
      [
        103.7624147,
        1.3867708
      ],
      [
        103.7623475,
        1.3867386
      ],
      [
        103.7622465,
        1.3866994
      ],
      [
        103.7621203,
        1.3866657
      ],
      [
        103.7619761,
        1.3866336
      ],
      [
        103.7618569,
        1.386625
      ],
      [
        103.7617617,
        1.3866223
      ],
      [
        103.7616169,
        1.3866187
      ],
      [
        103.7615012,
        1.3866241
      ],
      [
        103.7614032,
        1.3866378
      ],
      [
        103.7613275,
        1.3866525
      ],
      [
        103.7609701,
        1.3867719
      ],
      [
        103.7607041,
        1.3868639
      ],
      [
        103.7606015,
        1.3868994
      ],
      [
        103.760523,
        1.3869265
      ],
      [
        103.7604195,
        1.3869632
      ],
      [
        103.7603184,
        1.3869973
      ],
      [
        103.7598983,
        1.3871426
      ],
      [
        103.7598161,
        1.3871665
      ],
      [
        103.75976,
        1.387181
      ],
      [
        103.7597006,
        1.387191
      ],
      [
        103.7596119,
        1.3871956
      ],
      [
        103.7595022,
        1.3871878
      ],
      [
        103.7594133,
        1.3871759
      ],
      [
        103.7593329,
        1.3871506
      ],
      [
        103.7592569,
        1.3871171
      ],
      [
        103.7591836,
        1.3870739
      ],
      [
        103.7591401,
        1.3870427
      ],
      [
        103.759105,
        1.3870148
      ],
      [
        103.7590623,
        1.3869769
      ],
      [
        103.7590082,
        1.3869184
      ],
      [
        103.7589642,
        1.3868568
      ],
      [
        103.7589155,
        1.3867652
      ],
      [
        103.7588679,
        1.3866422
      ],
      [
        103.7588396,
        1.3865549
      ],
      [
        103.7587874,
        1.3863885
      ],
      [
        103.7587194,
        1.3863017
      ],
      [
        103.7587194,
        1.3863017
      ],
      [
        103.7586924,
        1.3862158
      ],
      [
        103.7587057,
        1.3862581
      ],
      [
        103.7587114,
        1.3862763
      ],
      [
        103.7586419,
        1.3860117
      ],
      [
        103.758648,
        1.3860654
      ],
      [
        103.7586632,
        1.3861231
      ],
      [
        103.758656,
        1.3857248
      ],
      [
        103.758643,
        1.3857937
      ],
      [
        103.7586342,
        1.3858521
      ],
      [
        103.7586331,
        1.3858926
      ],
      [
        103.7586345,
        1.3859466
      ],
      [
        103.7586751,
        1.3856603
      ],
      [
        103.7587542,
        1.38556
      ],
      [
        103.7588297,
        1.3854319
      ],
      [
        103.758883,
        1.3853615
      ],
      [
        103.7589454,
        1.3852952
      ],
      [
        103.7590237,
        1.3852216
      ],
      [
        103.7591173,
        1.3851634
      ],
      [
        103.7593161,
        1.3850916
      ],
      [
        103.759775,
        1.3849442
      ],
      [
        103.7598868,
        1.3849056
      ],
      [
        103.7599733,
        1.3848637
      ],
      [
        103.7600646,
        1.384815
      ],
      [
        103.7601412,
        1.3847667
      ],
      [
        103.7601818,
        1.3847381
      ],
      [
        103.760239,
        1.3846905
      ],
      [
        103.7603207,
        1.384611
      ],
      [
        103.760337,
        1.3845928
      ],
      [
        103.7604256,
        1.384495
      ],
      [
        103.7604889,
        1.3844145
      ],
      [
        103.7605389,
        1.3843389
      ],
      [
        103.7605686,
        1.3842924
      ],
      [
        103.7606589,
        1.3841461
      ],
      [
        103.7608753,
        1.3835215
      ],
      [
        103.7608507,
        1.3834583
      ],
      [
        103.7612383,
        1.3822687
      ],
      [
        103.7612162,
        1.3823026
      ],
      [
        103.7611933,
        1.382345
      ],
      [
        103.7611613,
        1.3824247
      ],
      [
        103.7609537,
        1.3831083
      ],
      [
        103.7608634,
        1.3834164
      ],
      [
        103.7608507,
        1.3834583
      ],
      [
        103.7613135,
        1.3822394
      ],
      [
        103.7613577,
        1.3821968
      ],
      [
        103.7613979,
        1.382166
      ],
      [
        103.7614328,
        1.3821436
      ],
      [
        103.7614676,
        1.3821258
      ],
      [
        103.76152,
        1.3821069
      ],
      [
        103.7615784,
        1.382093
      ],
      [
        103.7616272,
        1.3820844
      ],
      [
        103.7616694,
        1.3820807
      ],
      [
        103.7617064,
        1.382081
      ],
      [
        103.7617241,
        1.3820825
      ],
      [
        103.7617468,
        1.3820851
      ],
      [
        103.7617837,
        1.3820914
      ],
      [
        103.7618222,
        1.3820998
      ],
      [
        103.7618658,
        1.3821129
      ],
      [
        103.7619199,
        1.382135
      ],
      [
        103.7619599,
        1.3821544
      ],
      [
        103.7620145,
        1.3821812
      ],
      [
        103.7620645,
        1.3822041
      ],
      [
        103.7621349,
        1.3821961
      ],
      [
        103.7625212,
        1.3823784
      ],
      [
        103.7621349,
        1.3821961
      ],
      [
        103.7627108,
        1.3824746
      ],
      [
        103.7627505,
        1.3823968
      ],
      [
        103.7628316,
        1.3822375
      ],
      [
        103.7629911,
        1.3819131
      ],
      [
        103.7631454,
        1.3816169
      ],
      [
        103.7631853,
        1.3815335
      ],
      [
        103.7632477,
        1.3814029
      ],
      [
        103.7632918,
        1.3813053
      ],
      [
        103.7634948,
        1.3808877
      ],
      [
        103.7635326,
        1.38081
      ],
      [
        103.7635864,
        1.3806992
      ],
      [
        103.7636192,
        1.3806402
      ],
      [
        103.7636952,
        1.3804754
      ],
      [
        103.763837,
        1.3802031
      ],
      [
        103.7639876,
        1.3798792
      ],
      [
        103.7640871,
        1.3796667
      ],
      [
        103.7641156,
        1.379603
      ],
      [
        103.7641357,
        1.3795611
      ],
      [
        103.7642877,
        1.3792282
      ],
      [
        103.7643196,
        1.3791584
      ],
      [
        103.7643342,
        1.3791264
      ],
      [
        103.7643655,
        1.3790608
      ],
      [
        103.764398,
        1.3789944
      ],
      [
        103.7645142,
        1.3787571
      ],
      [
        103.764583,
        1.3786109
      ],
      [
        103.7647387,
        1.3782832
      ],
      [
        103.7647516,
        1.3782362
      ],
      [
        103.7647886,
        1.3781067
      ],
      [
        103.7646934,
        1.3780795
      ],
      [
        103.7645993,
        1.3780579
      ],
      [
        103.7642465,
        1.3779644
      ],
      [
        103.7641363,
        1.3779352
      ],
      [
        103.7639889,
        1.3778997
      ],
      [
        103.763914,
        1.3779152
      ],
      [
        103.7636125,
        1.3778345
      ],
      [
        103.7635981,
        1.3778352
      ],
      [
        103.7635831,
        1.3778405
      ],
      [
        103.7635651,
        1.3778569
      ],
      [
        103.763553,
        1.3778789
      ],
      [
        103.7635405,
        1.3779248
      ],
      [
        103.7634627,
        1.3782105
      ],
      [
        103.7634436,
        1.3782723
      ],
      [
        103.7634179,
        1.3783105
      ],
      [
        103.7633905,
        1.378331
      ],
      [
        103.7633674,
        1.3783473
      ],
      [
        103.7633308,
        1.3783583
      ],
      [
        103.7632787,
        1.3783662
      ],
      [
        103.7631796,
        1.3783478
      ],
      [
        103.7630214,
        1.3783069
      ],
      [
        103.762847,
        1.3782645
      ]
    ]
  }
}