{
  "type": "Feature",
  "properties": {
    "relation": 6966829,
    "direction": "1",
    "fee": "yes",
    "from": "Bukit Panjang Interchange",
    "name": "Svc 973 (Bukit Panjang Interchange ↺ Hume Avenue)",
    "name:en": "Svc 973 (Bukit Panjang Interchange ↺ Hume Avenue)",
    "network": "Land Transport Authority",
    "network:short": "LTA",
    "network:wikidata": "Q3299279",
    "network:wikipedia": "en:Land Transport Authority",
    "operator": "SMRT Buses",
    "operator:wikidata": "Q10852420",
    "operator:wikipedia": "en:SMRT Buses",
    "public_transport:version": "2",
    "ref": "973",
    "roundtrip": "yes",
    "route": "bus",
    "to": "Bukit Panjang Interchange",
    "type": "route",
    "via": "Hume Avenue",
    "website": "https://www.smrt.com.sg/"
  },
  "geometry": {
    "type": "LineString",
    "coordinates": [
      [
        103.762847,
        1.3782645
      ],
      [
        103.7626717,
        1.3787209
      ],
      [
        103.7628862,
        1.3787796
      ],
      [
        103.763056,
        1.3788223
      ],
      [
        103.7631866,
        1.3788524
      ],
      [
        103.7632605,
        1.3788756
      ],
      [
        103.7633284,
        1.3788978
      ],
      [
        103.7635388,
        1.3789486
      ],
      [
        103.7635856,
        1.3789513
      ],
      [
        103.7636291,
        1.3789318
      ],
      [
        103.7636291,
        1.3789318
      ],
      [
        103.7637084,
        1.3789491
      ],
      [
        103.7639676,
        1.3791012
      ],
      [
        103.7640195,
        1.3791773
      ],
      [
        103.7640413,
        1.3792125
      ],
      [
        103.7641145,
        1.3793776
      ],
      [
        103.764001,
        1.3796117
      ],
      [
        103.7639215,
        1.3797757
      ],
      [
        103.7638206,
        1.3799925
      ],
      [
        103.763659,
        1.3803064
      ],
      [
        103.7635262,
        1.380574
      ],
      [
        103.7634843,
        1.3806528
      ],
      [
        103.7634292,
        1.3807653
      ],
      [
        103.7635326,
        1.38081
      ],
      [
        103.7635669,
        1.3808252
      ],
      [
        103.763842,
        1.3809467
      ],
      [
        103.7640347,
        1.3810144
      ],
      [
        103.7642505,
        1.3810719
      ],
      [
        103.764525,
        1.3811259
      ],
      [
        103.7647738,
        1.3811456
      ],
      [
        103.7651667,
        1.3811497
      ],
      [
        103.7655174,
        1.381109
      ],
      [
        103.7658153,
        1.3810374
      ],
      [
        103.7661271,
        1.3809395
      ],
      [
        103.7664218,
        1.3808088
      ],
      [
        103.7667825,
        1.3806254
      ],
      [
        103.7670104,
        1.3804906
      ],
      [
        103.7674371,
        1.3802249
      ],
      [
        103.7675056,
        1.3801822
      ],
      [
        103.7675992,
        1.3801231
      ],
      [
        103.7676819,
        1.3800705
      ],
      [
        103.7677676,
        1.3800154
      ],
      [
        103.7681825,
        1.3797571
      ],
      [
        103.7685433,
        1.3795387
      ],
      [
        103.7694235,
        1.3789847
      ],
      [
        103.7711677,
        1.3779179
      ],
      [
        103.771309,
        1.3778314
      ],
      [
        103.7715393,
        1.377704
      ],
      [
        103.7717968,
        1.3775451
      ],
      [
        103.7718665,
        1.3775071
      ],
      [
        103.7719769,
        1.3774403
      ],
      [
        103.7718778,
        1.3772862
      ],
      [
        103.7718336,
        1.3772166
      ],
      [
        103.771682,
        1.376978
      ],
      [
        103.7713455,
        1.3764485
      ],
      [
        103.7710916,
        1.3760309
      ],
      [
        103.7710598,
        1.3759786
      ],
      [
        103.7709869,
        1.3758654
      ],
      [
        103.7708835,
        1.3756857
      ],
      [
        103.7706678,
        1.3753188
      ],
      [
        103.7706282,
        1.3752514
      ],
      [
        103.7705974,
        1.3751991
      ],
      [
        103.7706481,
        1.3751669
      ],
      [
        103.7712163,
        1.3748068
      ],
      [
        103.7713985,
        1.3746933
      ],
      [
        103.7718234,
        1.3744237
      ],
      [
        103.7718639,
        1.3743986
      ],
      [
        103.7719265,
        1.3743584
      ],
      [
        103.7724887,
        1.3740046
      ],
      [
        103.7727819,
        1.3738131
      ],
      [
        103.7730059,
        1.3736681
      ],
      [
        103.7731786,
        1.373557
      ],
      [
        103.7732992,
        1.373478
      ],
      [
        103.773404,
        1.373406
      ],
      [
        103.7734719,
        1.3733578
      ],
      [
        103.7738559,
        1.373085
      ],
      [
        103.7739634,
        1.3729779
      ],
      [
        103.7740344,
        1.3728997
      ],
      [
        103.7742282,
        1.3725602
      ],
      [
        103.7743235,
        1.3723873
      ],
      [
        103.7743833,
        1.3722841
      ],
      [
        103.7746074,
        1.3718627
      ],
      [
        103.7747235,
        1.3716527
      ],
      [
        103.7747857,
        1.3715401
      ],
      [
        103.7749974,
        1.3711163
      ],
      [
        103.7750825,
        1.3708774
      ],
      [
        103.7751517,
        1.3706555
      ],
      [
        103.7752556,
        1.3702187
      ],
      [
        103.7752878,
        1.3700049
      ],
      [
        103.7753056,
        1.3698891
      ],
      [
        103.7753628,
        1.3694198
      ],
      [
        103.7754151,
        1.3689633
      ],
      [
        103.7754292,
        1.3688429
      ],
      [
        103.7754693,
        1.3685349
      ],
      [
        103.7754841,
        1.3684161
      ],
      [
        103.7755154,
        1.3681655
      ],
      [
        103.7755143,
        1.3678557
      ],
      [
        103.7755145,
        1.3676066
      ],
      [
        103.7754914,
        1.3672811
      ],
      [
        103.775493,
        1.3671885
      ],
      [
        103.7754942,
        1.3671067
      ],
      [
        103.7755058,
        1.3669875
      ],
      [
        103.7755074,
        1.3666572
      ],
      [
        103.7755218,
        1.3658588
      ],
      [
        103.7755238,
        1.3654879
      ],
      [
        103.7755291,
        1.3652463
      ],
      [
        103.7755214,
        1.3649103
      ],
      [
        103.7755207,
        1.3648531
      ],
      [
        103.7755201,
        1.3647139
      ],
      [
        103.7754317,
        1.3647117
      ],
      [
        103.7748297,
        1.3646915
      ],
      [
        103.7741558,
        1.3646891
      ],
      [
        103.7735567,
        1.3646761
      ],
      [
        103.7731323,
        1.3646609
      ],
      [
        103.7729194,
        1.3646283
      ],
      [
        103.7727739,
        1.36461
      ],
      [
        103.7726262,
        1.3645851
      ],
      [
        103.7724397,
        1.3645441
      ],
      [
        103.7723988,
        1.3645293
      ],
      [
        103.7723166,
        1.3644988
      ],
      [
        103.7720407,
        1.3644124
      ],
      [
        103.7715643,
        1.364241
      ],
      [
        103.7713864,
        1.3641583
      ],
      [
        103.7708933,
        1.3639669
      ],
      [
        103.7703993,
        1.3637705
      ],
      [
        103.7701664,
        1.3636826
      ],
      [
        103.769954,
        1.363614
      ],
      [
        103.7697129,
        1.3635631
      ],
      [
        103.7695878,
        1.3635451
      ],
      [
        103.7693884,
        1.3635248
      ],
      [
        103.7692484,
        1.3635125
      ],
      [
        103.7690621,
        1.3634902
      ],
      [
        103.7687049,
        1.3634479
      ],
      [
        103.7684271,
        1.3634189
      ],
      [
        103.7682668,
        1.3634141
      ],
      [
        103.7682519,
        1.3633952
      ],
      [
        103.7680225,
        1.3633327
      ],
      [
        103.7678476,
        1.3632447
      ],
      [
        103.7677935,
        1.3631888
      ],
      [
        103.7677386,
        1.3631068
      ],
      [
        103.7675957,
        1.3626616
      ],
      [
        103.7674878,
        1.3622884
      ],
      [
        103.7674424,
        1.3621561
      ],
      [
        103.7674246,
        1.3621012
      ],
      [
        103.767408,
        1.36205
      ],
      [
        103.7673433,
        1.3619821
      ],
      [
        103.7672449,
        1.3619437
      ],
      [
        103.7672032,
        1.361932
      ],
      [
        103.7671319,
        1.3619215
      ],
      [
        103.7671032,
        1.3619159
      ],
      [
        103.7669758,
        1.3619402
      ],
      [
        103.7668751,
        1.3619594
      ],
      [
        103.7667062,
        1.361993
      ],
      [
        103.7664558,
        1.3620427
      ],
      [
        103.7659694,
        1.3621293
      ],
      [
        103.7655297,
        1.3621957
      ],
      [
        103.7651495,
        1.3622532
      ],
      [
        103.7650976,
        1.3622536
      ],
      [
        103.7649906,
        1.3622545
      ],
      [
        103.76491,
        1.3622484
      ],
      [
        103.7648136,
        1.3622239
      ],
      [
        103.7647889,
        1.3622082
      ],
      [
        103.7647254,
        1.3621304
      ],
      [
        103.7646962,
        1.3620561
      ],
      [
        103.764632,
        1.3618254
      ],
      [
        103.7646203,
        1.3617831
      ],
      [
        103.7645636,
        1.3615838
      ],
      [
        103.7644946,
        1.3613385
      ],
      [
        103.7643941,
        1.3609814
      ],
      [
        103.7641638,
        1.3601778
      ],
      [
        103.764122,
        1.3600524
      ],
      [
        103.7639308,
        1.3594454
      ],
      [
        103.7638025,
        1.3591852
      ],
      [
        103.7638051,
        1.3590665
      ],
      [
        103.7638061,
        1.3589814
      ],
      [
        103.7638839,
        1.3588329
      ],
      [
        103.7641278,
        1.3586801
      ],
      [
        103.7644743,
        1.3584881
      ],
      [
        103.7645991,
        1.3584223
      ],
      [
        103.7650314,
        1.3582815
      ],
      [
        103.7650997,
        1.3582592
      ],
      [
        103.7650314,
        1.3582815
      ],
      [
        103.7656272,
        1.3580874
      ],
      [
        103.7657546,
        1.3580459
      ],
      [
        103.7658297,
        1.3580215
      ],
      [
        103.7664836,
        1.3578085
      ],
      [
        103.7669005,
        1.3576668
      ],
      [
        103.7670179,
        1.3575744
      ],
      [
        103.7671482,
        1.3574206
      ],
      [
        103.7672856,
        1.3571095
      ],
      [
        103.7673673,
        1.3569552
      ],
      [
        103.7675655,
        1.3566709
      ],
      [
        103.7677342,
        1.3564171
      ],
      [
        103.767801,
        1.3563224
      ],
      [
        103.767917,
        1.3561578
      ],
      [
        103.7680566,
        1.3559522
      ],
      [
        103.7681018,
        1.355888
      ],
      [
        103.7682512,
        1.355668
      ],
      [
        103.768355,
        1.3554421
      ],
      [
        103.7683914,
        1.3553531
      ],
      [
        103.7684365,
        1.3551551
      ],
      [
        103.7684879,
        1.3547964
      ],
      [
        103.7685075,
        1.3547248
      ],
      [
        103.7685382,
        1.3546675
      ],
      [
        103.7685826,
        1.3546318
      ],
      [
        103.7686399,
        1.3545982
      ],
      [
        103.7687094,
        1.3546214
      ],
      [
        103.7688037,
        1.3546577
      ],
      [
        103.7688267,
        1.3546775
      ],
      [
        103.7688648,
        1.3547123
      ],
      [
        103.7688799,
        1.3547384
      ],
      [
        103.7688967,
        1.3547751
      ],
      [
        103.7689153,
        1.3548366
      ],
      [
        103.7689093,
        1.3549616
      ],
      [
        103.7688667,
        1.355099
      ],
      [
        103.7687048,
        1.355517
      ],
      [
        103.7686335,
        1.3556839
      ],
      [
        103.7684249,
        1.3560606
      ],
      [
        103.768265,
        1.3562987
      ],
      [
        103.767758,
        1.3569758
      ],
      [
        103.7676397,
        1.3571701
      ],
      [
        103.7675544,
        1.3573643
      ],
      [
        103.767508,
        1.3575235
      ],
      [
        103.7674726,
        1.3577388
      ],
      [
        103.7673972,
        1.3582307
      ],
      [
        103.7673047,
        1.358669
      ],
      [
        103.7672179,
        1.3588437
      ],
      [
        103.7671335,
        1.3591941
      ],
      [
        103.7670802,
        1.3594315
      ],
      [
        103.7670353,
        1.3596481
      ],
      [
        103.7669804,
        1.3599682
      ],
      [
        103.766939,
        1.3602647
      ],
      [
        103.7669101,
        1.36046
      ],
      [
        103.7668949,
        1.3605909
      ],
      [
        103.7668734,
        1.3609327
      ],
      [
        103.7669004,
        1.3611748
      ],
      [
        103.7669326,
        1.361396
      ],
      [
        103.7669494,
        1.3614376
      ],
      [
        103.7670573,
        1.361773
      ],
      [
        103.7671032,
        1.3619159
      ],
      [
        103.7671277,
        1.3619949
      ],
      [
        103.7672846,
        1.3624633
      ],
      [
        103.7673849,
        1.3627629
      ],
      [
        103.7674394,
        1.3629574
      ],
      [
        103.7675001,
        1.3632585
      ],
      [
        103.7675127,
        1.3633186
      ],
      [
        103.7675228,
        1.3634467
      ],
      [
        103.7675291,
        1.3635726
      ],
      [
        103.7677999,
        1.3635394
      ],
      [
        103.7678378,
        1.3635325
      ],
      [
        103.7680914,
        1.3635244
      ],
      [
        103.7684057,
        1.3635715
      ],
      [
        103.7686513,
        1.3636012
      ],
      [
        103.7691193,
        1.3636659
      ],
      [
        103.7693608,
        1.3637004
      ],
      [
        103.7696806,
        1.363749
      ],
      [
        103.7698297,
        1.363772
      ],
      [
        103.7704438,
        1.3639934
      ],
      [
        103.7708732,
        1.3641528
      ],
      [
        103.77133,
        1.3643183
      ],
      [
        103.7714104,
        1.3643475
      ],
      [
        103.7716951,
        1.3644521
      ],
      [
        103.7718845,
        1.3645244
      ],
      [
        103.7719784,
        1.3645574
      ],
      [
        103.7721016,
        1.3646025
      ],
      [
        103.7722825,
        1.3646523
      ],
      [
        103.7723798,
        1.3646735
      ],
      [
        103.7724169,
        1.3646796
      ],
      [
        103.7725904,
        1.3647066
      ],
      [
        103.7728286,
        1.3647473
      ],
      [
        103.7732213,
        1.3647928
      ],
      [
        103.7735326,
        1.3648101
      ],
      [
        103.7741531,
        1.3648167
      ],
      [
        103.7744845,
        1.3648268
      ],
      [
        103.7747673,
        1.3648348
      ],
      [
        103.7750349,
        1.3648439
      ],
      [
        103.7752617,
        1.3649414
      ],
      [
        103.7752979,
        1.364973
      ],
      [
        103.775363,
        1.3650298
      ],
      [
        103.7754275,
        1.3651309
      ],
      [
        103.7754251,
        1.3659733
      ],
      [
        103.7754045,
        1.3665942
      ],
      [
        103.7753942,
        1.3669886
      ],
      [
        103.7753999,
        1.3671068
      ],
      [
        103.7754028,
        1.3671909
      ],
      [
        103.7754093,
        1.3672824
      ],
      [
        103.7754106,
        1.3679101
      ],
      [
        103.7753822,
        1.3683235
      ],
      [
        103.7753695,
        1.3684117
      ],
      [
        103.7753537,
        1.3685206
      ],
      [
        103.7753252,
        1.3688487
      ],
      [
        103.7752996,
        1.3690875
      ],
      [
        103.7752817,
        1.369227
      ],
      [
        103.7752617,
        1.369382
      ],
      [
        103.7752415,
        1.3695392
      ],
      [
        103.7751983,
        1.369886
      ],
      [
        103.7751778,
        1.370026
      ],
      [
        103.7751537,
        1.3702025
      ],
      [
        103.7750613,
        1.3706307
      ],
      [
        103.7750081,
        1.3707981
      ],
      [
        103.7749045,
        1.3710806
      ],
      [
        103.7748488,
        1.3712008
      ],
      [
        103.7746958,
        1.3714805
      ],
      [
        103.7746064,
        1.3716532
      ],
      [
        103.7742909,
        1.3722178
      ],
      [
        103.7738888,
        1.3729133
      ],
      [
        103.7737334,
        1.373067
      ],
      [
        103.7732409,
        1.3733942
      ],
      [
        103.7728295,
        1.3736576
      ],
      [
        103.7726745,
        1.3737488
      ],
      [
        103.7724124,
        1.3739154
      ],
      [
        103.7721368,
        1.3740888
      ],
      [
        103.7718632,
        1.3742563
      ],
      [
        103.7718006,
        1.3742945
      ],
      [
        103.7717572,
        1.3743237
      ],
      [
        103.7716118,
        1.374421
      ],
      [
        103.7712959,
        1.374629
      ],
      [
        103.7711477,
        1.3747208
      ],
      [
        103.7706615,
        1.3750322
      ],
      [
        103.7705913,
        1.3750759
      ],
      [
        103.7705428,
        1.3751061
      ],
      [
        103.7704301,
        1.3751803
      ],
      [
        103.770478,
        1.375271
      ],
      [
        103.7705082,
        1.3753212
      ],
      [
        103.7707828,
        1.3757782
      ],
      [
        103.7708833,
        1.3759433
      ],
      [
        103.7709187,
        1.3759993
      ],
      [
        103.7709449,
        1.3760409
      ],
      [
        103.7712637,
        1.376547
      ],
      [
        103.7714092,
        1.3767779
      ],
      [
        103.7715224,
        1.3769496
      ],
      [
        103.7715455,
        1.3771225
      ],
      [
        103.7715633,
        1.3772018
      ],
      [
        103.7715729,
        1.3773015
      ],
      [
        103.7715619,
        1.3773559
      ],
      [
        103.7715217,
        1.3774336
      ],
      [
        103.7714138,
        1.3775793
      ],
      [
        103.7710351,
        1.3778252
      ],
      [
        103.7696715,
        1.3786692
      ],
      [
        103.7683738,
        1.3794757
      ],
      [
        103.7677448,
        1.3798743
      ],
      [
        103.7677042,
        1.3798997
      ],
      [
        103.7676136,
        1.3799562
      ],
      [
        103.7675299,
        1.3800095
      ],
      [
        103.7674327,
        1.3800729
      ],
      [
        103.7671874,
        1.3802198
      ],
      [
        103.7665368,
        1.3806226
      ],
      [
        103.766394,
        1.3807095
      ],
      [
        103.7662125,
        1.3808009
      ],
      [
        103.766071,
        1.3808586
      ],
      [
        103.7660365,
        1.3808719
      ],
      [
        103.7657985,
        1.3809422
      ],
      [
        103.7655847,
        1.3809829
      ],
      [
        103.7654367,
        1.3810142
      ],
      [
        103.7651439,
        1.3810475
      ],
      [
        103.7647839,
        1.3810542
      ],
      [
        103.7645262,
        1.3810287
      ],
      [
        103.7642395,
        1.3809703
      ],
      [
        103.7640386,
        1.3808981
      ],
      [
        103.7638591,
        1.3808183
      ],
      [
        103.7637819,
        1.3807185
      ],
      [
        103.7637282,
        1.3806166
      ],
      [
        103.7636952,
        1.3804754
      ],
      [
        103.763837,
        1.3802031
      ],
      [
        103.7639876,
        1.3798792
      ],
      [
        103.7640871,
        1.3796667
      ],
      [
        103.7641156,
        1.379603
      ],
      [
        103.7641357,
        1.3795611
      ],
      [
        103.7642877,
        1.3792282
      ],
      [
        103.7643196,
        1.3791584
      ],
      [
        103.7643342,
        1.3791264
      ],
      [
        103.7643655,
        1.3790608
      ],
      [
        103.764398,
        1.3789944
      ],
      [
        103.7645142,
        1.3787571
      ],
      [
        103.764583,
        1.3786109
      ],
      [
        103.7647387,
        1.3782832
      ],
      [
        103.7647516,
        1.3782362
      ],
      [
        103.7647886,
        1.3781067
      ],
      [
        103.7646934,
        1.3780795
      ],
      [
        103.7645993,
        1.3780579
      ],
      [
        103.7642465,
        1.3779644
      ],
      [
        103.7641363,
        1.3779352
      ],
      [
        103.7639889,
        1.3778997
      ],
      [
        103.763914,
        1.3779152
      ],
      [
        103.7636125,
        1.3778345
      ],
      [
        103.7635981,
        1.3778352
      ],
      [
        103.7635831,
        1.3778405
      ],
      [
        103.7635651,
        1.3778569
      ],
      [
        103.763553,
        1.3778789
      ],
      [
        103.7635405,
        1.3779248
      ],
      [
        103.7634627,
        1.3782105
      ],
      [
        103.7634436,
        1.3782723
      ],
      [
        103.7634179,
        1.3783105
      ],
      [
        103.7633905,
        1.378331
      ],
      [
        103.7633674,
        1.3783473
      ],
      [
        103.7633308,
        1.3783583
      ],
      [
        103.7632787,
        1.3783662
      ],
      [
        103.7631796,
        1.3783478
      ],
      [
        103.7630214,
        1.3783069
      ],
      [
        103.762847,
        1.3782645
      ]
    ]
  }
}