{
  "type": "Feature",
  "properties": {
    "relation": 2352600,
    "direction": "1",
    "fee": "yes",
    "from": "Bukit Panjang Interchange",
    "name": "Svc 975 (Bukit Panjang Interchange ↺ Lim Chu Kang Road)",
    "name:en": "Svc 975 (Bukit Panjang Interchange ↺ Lim Chu Kang Road)",
    "network": "Land Transport Authority",
    "network:short": "LTA",
    "network:wikidata": "Q3299279",
    "operator": "SMRT Buses",
    "operator:wikidata": "Q10852420",
    "operator:wikipedia": "en:SMRT Buses",
    "public_transport:version": "2",
    "ref": "975",
    "roundtrip": "yes",
    "route": "bus",
    "to": "Bukit Panjang Interchange",
    "type": "route",
    "via": "Lim Chu Kang Road",
    "website": "https://www.smrt.com.sg/"
  },
  "geometry": {
    "type": "LineString",
    "coordinates": [
      [
        103.762847,
        1.3782645
      ],
      [
        103.7626717,
        1.3787209
      ],
      [
        103.7628862,
        1.3787796
      ],
      [
        103.763056,
        1.3788223
      ],
      [
        103.7631866,
        1.3788524
      ],
      [
        103.7632605,
        1.3788756
      ],
      [
        103.7633284,
        1.3788978
      ],
      [
        103.7635388,
        1.3789486
      ],
      [
        103.7635856,
        1.3789513
      ],
      [
        103.7636291,
        1.3789318
      ],
      [
        103.7636291,
        1.3789318
      ],
      [
        103.7637084,
        1.3789491
      ],
      [
        103.7639676,
        1.3791012
      ],
      [
        103.7640195,
        1.3791773
      ],
      [
        103.7640413,
        1.3792125
      ],
      [
        103.7641145,
        1.3793776
      ],
      [
        103.764001,
        1.3796117
      ],
      [
        103.7639215,
        1.3797757
      ],
      [
        103.7638206,
        1.3799925
      ],
      [
        103.763659,
        1.3803064
      ],
      [
        103.7635262,
        1.380574
      ],
      [
        103.7634843,
        1.3806528
      ],
      [
        103.763402,
        1.3806147
      ],
      [
        103.7626502,
        1.380228
      ],
      [
        103.7624758,
        1.3801477
      ],
      [
        103.762188,
        1.3800153
      ],
      [
        103.7619692,
        1.3799147
      ],
      [
        103.7615248,
        1.3797313
      ],
      [
        103.7614837,
        1.3797155
      ],
      [
        103.7611432,
        1.3795511
      ],
      [
        103.7610778,
        1.3795187
      ],
      [
        103.7608708,
        1.379422
      ],
      [
        103.7605183,
        1.3792633
      ],
      [
        103.7602139,
        1.379119
      ],
      [
        103.7601163,
        1.3790787
      ],
      [
        103.7597742,
        1.3789534
      ],
      [
        103.7591558,
        1.3787232
      ],
      [
        103.7588276,
        1.3785867
      ],
      [
        103.7584834,
        1.3784317
      ],
      [
        103.7582156,
        1.3783199
      ],
      [
        103.7580418,
        1.3782411
      ],
      [
        103.7578094,
        1.3781367
      ],
      [
        103.7575952,
        1.3780372
      ],
      [
        103.757413,
        1.3779511
      ],
      [
        103.7570239,
        1.3777716
      ],
      [
        103.7566167,
        1.3775387
      ],
      [
        103.7563393,
        1.3773719
      ],
      [
        103.7563248,
        1.3773632
      ],
      [
        103.7562566,
        1.3773184
      ],
      [
        103.7562028,
        1.3774108
      ],
      [
        103.7561778,
        1.3774603
      ],
      [
        103.7561305,
        1.3776298
      ],
      [
        103.756108,
        1.3777218
      ],
      [
        103.7560958,
        1.3777681
      ],
      [
        103.7560878,
        1.3778102
      ],
      [
        103.756083,
        1.3778655
      ],
      [
        103.7560793,
        1.3779224
      ],
      [
        103.7560782,
        1.3779751
      ],
      [
        103.7560814,
        1.3780203
      ],
      [
        103.7560878,
        1.3780741
      ],
      [
        103.7560958,
        1.3781305
      ],
      [
        103.756185,
        1.3785566
      ],
      [
        103.7561917,
        1.3786055
      ],
      [
        103.7561944,
        1.3786493
      ],
      [
        103.7561968,
        1.3787014
      ],
      [
        103.7561953,
        1.3787317
      ],
      [
        103.7561849,
        1.3789347
      ],
      [
        103.7561673,
        1.3792926
      ],
      [
        103.7561202,
        1.3795089
      ],
      [
        103.7560935,
        1.3796318
      ],
      [
        103.7560636,
        1.3797109
      ],
      [
        103.7560378,
        1.379779
      ],
      [
        103.7560037,
        1.3798692
      ],
      [
        103.7558789,
        1.3801319
      ],
      [
        103.7557542,
        1.3803317
      ],
      [
        103.7556754,
        1.3804361
      ],
      [
        103.7555276,
        1.3805824
      ],
      [
        103.75547,
        1.3806251
      ],
      [
        103.7554375,
        1.3806493
      ],
      [
        103.7553412,
        1.3807017
      ],
      [
        103.7547259,
        1.3809219
      ],
      [
        103.7546401,
        1.3809543
      ],
      [
        103.754577,
        1.3809788
      ],
      [
        103.7544879,
        1.3810122
      ],
      [
        103.7539275,
        1.3812038
      ],
      [
        103.7537412,
        1.3812687
      ],
      [
        103.7535002,
        1.3813486
      ],
      [
        103.7531786,
        1.3814612
      ],
      [
        103.7528622,
        1.3815718
      ],
      [
        103.75268,
        1.3816391
      ],
      [
        103.7526247,
        1.3816523
      ],
      [
        103.7524963,
        1.381672
      ],
      [
        103.7523407,
        1.3816721
      ],
      [
        103.7521373,
        1.38164
      ],
      [
        103.7519317,
        1.3815994
      ],
      [
        103.7517433,
        1.3815725
      ],
      [
        103.7515877,
        1.3815605
      ],
      [
        103.7514771,
        1.3815766
      ],
      [
        103.7513691,
        1.3815986
      ],
      [
        103.7509314,
        1.3817549
      ],
      [
        103.7507444,
        1.3818327
      ],
      [
        103.7505752,
        1.3819052
      ],
      [
        103.7503449,
        1.3820043
      ],
      [
        103.7502229,
        1.3820477
      ],
      [
        103.7501923,
        1.3820586
      ],
      [
        103.7501016,
        1.3821005
      ],
      [
        103.75008,
        1.3821103
      ],
      [
        103.7499778,
        1.3821569
      ],
      [
        103.7496864,
        1.382293
      ],
      [
        103.7481324,
        1.383018
      ],
      [
        103.7479235,
        1.3831071
      ],
      [
        103.7475525,
        1.383271
      ],
      [
        103.7474072,
        1.383356
      ],
      [
        103.7472638,
        1.383478
      ],
      [
        103.7471658,
        1.3836064
      ],
      [
        103.7471231,
        1.3836776
      ],
      [
        103.7469968,
        1.3838653
      ],
      [
        103.7469662,
        1.3839053
      ],
      [
        103.7469255,
        1.383963
      ],
      [
        103.7468988,
        1.3840118
      ],
      [
        103.7467939,
        1.3841959
      ],
      [
        103.7467749,
        1.3842251
      ],
      [
        103.7466264,
        1.3844534
      ],
      [
        103.7464838,
        1.3846687
      ],
      [
        103.746379,
        1.3847393
      ],
      [
        103.7462616,
        1.3848287
      ],
      [
        103.7462133,
        1.3848371
      ],
      [
        103.7460983,
        1.3848409
      ],
      [
        103.7457894,
        1.3847247
      ],
      [
        103.7454119,
        1.3846059
      ],
      [
        103.74447,
        1.3843066
      ],
      [
        103.7442087,
        1.384227
      ],
      [
        103.7440548,
        1.3841803
      ],
      [
        103.7436614,
        1.3840638
      ],
      [
        103.743564,
        1.384035
      ],
      [
        103.7435182,
        1.3840227
      ],
      [
        103.7434496,
        1.3839991
      ],
      [
        103.7433536,
        1.3839726
      ],
      [
        103.7432483,
        1.3839419
      ],
      [
        103.7429974,
        1.3838731
      ],
      [
        103.7428563,
        1.383789
      ],
      [
        103.7428096,
        1.3837582
      ],
      [
        103.742757,
        1.3836993
      ],
      [
        103.7426685,
        1.3835758
      ],
      [
        103.7426982,
        1.3834207
      ],
      [
        103.7427331,
        1.3832384
      ],
      [
        103.7427415,
        1.3832044
      ],
      [
        103.7427566,
        1.3831429
      ],
      [
        103.7428043,
        1.3829494
      ],
      [
        103.7428265,
        1.3828646
      ],
      [
        103.7429589,
        1.3823345
      ],
      [
        103.7429767,
        1.3822798
      ],
      [
        103.7430623,
        1.3820355
      ],
      [
        103.7431394,
        1.3818548
      ],
      [
        103.7431812,
        1.3817588
      ],
      [
        103.743312,
        1.3815825
      ],
      [
        103.7433243,
        1.3815691
      ],
      [
        103.7434215,
        1.3814341
      ],
      [
        103.7433341,
        1.3813689
      ],
      [
        103.7432807,
        1.3813295
      ],
      [
        103.7431568,
        1.381233
      ],
      [
        103.742737,
        1.3809573
      ],
      [
        103.742606,
        1.3808608
      ],
      [
        103.7423901,
        1.3807181
      ],
      [
        103.7422189,
        1.3805982
      ],
      [
        103.7418807,
        1.3803617
      ],
      [
        103.7417743,
        1.3802893
      ],
      [
        103.741675,
        1.3802216
      ],
      [
        103.7413403,
        1.3799872
      ],
      [
        103.741028,
        1.3797728
      ],
      [
        103.7402654,
        1.3792506
      ],
      [
        103.7400556,
        1.3791117
      ],
      [
        103.7397558,
        1.3789029
      ],
      [
        103.7397086,
        1.3788687
      ],
      [
        103.7395056,
        1.3787307
      ],
      [
        103.739337,
        1.3786123
      ],
      [
        103.7392865,
        1.3785736
      ],
      [
        103.7391917,
        1.378513
      ],
      [
        103.739148,
        1.3784795
      ],
      [
        103.7390134,
        1.3783966
      ],
      [
        103.7387278,
        1.3782283
      ],
      [
        103.7386385,
        1.3781686
      ],
      [
        103.7384759,
        1.3780662
      ],
      [
        103.7383562,
        1.3779857
      ],
      [
        103.7382342,
        1.3779034
      ],
      [
        103.7379771,
        1.3777267
      ],
      [
        103.7376731,
        1.3775241
      ],
      [
        103.7374479,
        1.3773572
      ],
      [
        103.7372567,
        1.3772284
      ],
      [
        103.7372177,
        1.3772051
      ],
      [
        103.7371426,
        1.3771612
      ],
      [
        103.7370955,
        1.3771261
      ],
      [
        103.7369314,
        1.3770278
      ],
      [
        103.736492,
        1.3767879
      ],
      [
        103.736012,
        1.3764521
      ],
      [
        103.7358441,
        1.3763346
      ],
      [
        103.735556,
        1.376133
      ],
      [
        103.7355268,
        1.3761126
      ],
      [
        103.7355221,
        1.3761093
      ],
      [
        103.7354793,
        1.3760792
      ],
      [
        103.7353569,
        1.3759939
      ],
      [
        103.7352965,
        1.37605
      ],
      [
        103.7352641,
        1.3760801
      ],
      [
        103.7350572,
        1.3762722
      ],
      [
        103.7349211,
        1.3763987
      ],
      [
        103.7344327,
        1.3768894
      ],
      [
        103.7339599,
        1.3773891
      ],
      [
        103.733869,
        1.3774812
      ],
      [
        103.7336594,
        1.3777347
      ],
      [
        103.7335753,
        1.3778199
      ],
      [
        103.7334092,
        1.3780249
      ],
      [
        103.7329932,
        1.3784842
      ],
      [
        103.7329575,
        1.3785236
      ],
      [
        103.7326881,
        1.3788311
      ],
      [
        103.7325082,
        1.3790394
      ],
      [
        103.7323339,
        1.3792555
      ],
      [
        103.7322814,
        1.3793166
      ],
      [
        103.7320853,
        1.379518
      ],
      [
        103.731699,
        1.3799767
      ],
      [
        103.7314881,
        1.3802362
      ],
      [
        103.731441,
        1.3801936
      ],
      [
        103.7313275,
        1.3800547
      ],
      [
        103.7312316,
        1.3798696
      ],
      [
        103.7311934,
        1.3797972
      ],
      [
        103.7311334,
        1.3796712
      ],
      [
        103.7310811,
        1.3795399
      ],
      [
        103.7310434,
        1.3794129
      ],
      [
        103.7310249,
        1.3792947
      ],
      [
        103.7309937,
        1.37913
      ],
      [
        103.731,
        1.3788254
      ],
      [
        103.7310035,
        1.3786526
      ],
      [
        103.730987,
        1.3784956
      ],
      [
        103.7309407,
        1.3783143
      ],
      [
        103.7308953,
        1.3782189
      ],
      [
        103.7308635,
        1.378152
      ],
      [
        103.7303807,
        1.3775679
      ],
      [
        103.7293647,
        1.3765149
      ],
      [
        103.7286704,
        1.3758926
      ],
      [
        103.7279429,
        1.3752597
      ],
      [
        103.7278357,
        1.3751671
      ],
      [
        103.7277013,
        1.375058
      ],
      [
        103.7274894,
        1.374881
      ],
      [
        103.7273513,
        1.3747805
      ],
      [
        103.7271461,
        1.3746477
      ],
      [
        103.7269623,
        1.3745461
      ],
      [
        103.7267157,
        1.3744571
      ],
      [
        103.7264095,
        1.3743942
      ],
      [
        103.7261342,
        1.3743817
      ],
      [
        103.725937,
        1.3743813
      ],
      [
        103.7238443,
        1.3743957
      ],
      [
        103.7233575,
        1.3744034
      ],
      [
        103.7232086,
        1.3744054
      ],
      [
        103.7229721,
        1.374408
      ],
      [
        103.7228408,
        1.3744058
      ],
      [
        103.7221518,
        1.3744028
      ],
      [
        103.7214897,
        1.3744129
      ],
      [
        103.7213579,
        1.3744118
      ],
      [
        103.7211406,
        1.3744135
      ],
      [
        103.7199374,
        1.374407
      ],
      [
        103.7193288,
        1.3744145
      ],
      [
        103.7186568,
        1.3744181
      ],
      [
        103.718563,
        1.3744158
      ],
      [
        103.7184674,
        1.3744119
      ],
      [
        103.717797,
        1.3743864
      ],
      [
        103.7175313,
        1.3743534
      ],
      [
        103.7172655,
        1.3742985
      ],
      [
        103.7168026,
        1.3741706
      ],
      [
        103.7166298,
        1.3741229
      ],
      [
        103.7163576,
        1.3740471
      ],
      [
        103.7160617,
        1.3739487
      ],
      [
        103.7153313,
        1.3737466
      ],
      [
        103.7151396,
        1.3736884
      ],
      [
        103.7147435,
        1.373575
      ],
      [
        103.7143815,
        1.3734786
      ],
      [
        103.7138537,
        1.3733445
      ],
      [
        103.7124304,
        1.3730171
      ],
      [
        103.7119661,
        1.372811
      ],
      [
        103.7117435,
        1.3726715
      ],
      [
        103.7115269,
        1.3725214
      ],
      [
        103.7104882,
        1.3718027
      ],
      [
        103.7096085,
        1.3711471
      ],
      [
        103.7091552,
        1.3708052
      ],
      [
        103.7087823,
        1.370576
      ],
      [
        103.7083586,
        1.3704017
      ],
      [
        103.7079509,
        1.3703186
      ],
      [
        103.7075096,
        1.3703226
      ],
      [
        103.7074177,
        1.3703408
      ],
      [
        103.7072387,
        1.3703762
      ],
      [
        103.707112,
        1.3704162
      ],
      [
        103.7069829,
        1.3704655
      ],
      [
        103.7068304,
        1.3705371
      ],
      [
        103.7066756,
        1.370625
      ],
      [
        103.7065289,
        1.3707228
      ],
      [
        103.7061548,
        1.3710187
      ],
      [
        103.7059683,
        1.3711699
      ],
      [
        103.70583,
        1.3712792
      ],
      [
        103.7057363,
        1.3713551
      ],
      [
        103.7054375,
        1.3715969
      ],
      [
        103.7052265,
        1.3717504
      ],
      [
        103.7051535,
        1.3718062
      ],
      [
        103.7049393,
        1.3719378
      ],
      [
        103.7047076,
        1.3720496
      ],
      [
        103.7044474,
        1.3721535
      ],
      [
        103.7043621,
        1.3721875
      ],
      [
        103.7039316,
        1.3722841
      ],
      [
        103.7037894,
        1.3722975
      ],
      [
        103.7028427,
        1.3723378
      ],
      [
        103.7019053,
        1.3723777
      ],
      [
        103.7017201,
        1.3723832
      ],
      [
        103.7008538,
        1.3724097
      ],
      [
        103.7006648,
        1.3724157
      ],
      [
        103.6991343,
        1.3725136
      ],
      [
        103.6983761,
        1.3725413
      ],
      [
        103.6980023,
        1.3725549
      ],
      [
        103.6977175,
        1.3726236
      ],
      [
        103.6973629,
        1.3727589
      ],
      [
        103.6960523,
        1.3733973
      ],
      [
        103.6959769,
        1.3734231
      ],
      [
        103.6959319,
        1.3734344
      ],
      [
        103.6953067,
        1.3736189
      ],
      [
        103.6951801,
        1.3736598
      ],
      [
        103.6951189,
        1.3736735
      ],
      [
        103.6950147,
        1.3736969
      ],
      [
        103.6949284,
        1.3737164
      ],
      [
        103.6946686,
        1.3738026
      ],
      [
        103.6942963,
        1.37395
      ],
      [
        103.6941524,
        1.3739674
      ],
      [
        103.6941208,
        1.3739713
      ],
      [
        103.6937146,
        1.3740149
      ],
      [
        103.6931958,
        1.3740651
      ],
      [
        103.6931709,
        1.3740662
      ],
      [
        103.6925986,
        1.3741188
      ],
      [
        103.6924704,
        1.3741205
      ],
      [
        103.6923937,
        1.3741092
      ],
      [
        103.6923293,
        1.374091
      ],
      [
        103.6922575,
        1.374056
      ],
      [
        103.6921831,
        1.3740101
      ],
      [
        103.6921258,
        1.3739544
      ],
      [
        103.6918889,
        1.3737152
      ],
      [
        103.6916588,
        1.3734793
      ],
      [
        103.6915347,
        1.3733286
      ],
      [
        103.6914524,
        1.3732126
      ],
      [
        103.6914137,
        1.3731562
      ],
      [
        103.6912009,
        1.3728331
      ],
      [
        103.6911713,
        1.3727882
      ],
      [
        103.6910312,
        1.3726047
      ],
      [
        103.6909112,
        1.3724751
      ],
      [
        103.6907464,
        1.3723358
      ],
      [
        103.6906109,
        1.3722493
      ],
      [
        103.6903754,
        1.3721376
      ],
      [
        103.6901755,
        1.3720429
      ],
      [
        103.689534,
        1.3717387
      ],
      [
        103.6894079,
        1.371665
      ],
      [
        103.6893337,
        1.3716061
      ],
      [
        103.6892929,
        1.3715664
      ],
      [
        103.6892162,
        1.3714916
      ],
      [
        103.6891606,
        1.37141
      ],
      [
        103.6890985,
        1.3713216
      ],
      [
        103.688971,
        1.3711455
      ],
      [
        103.6889209,
        1.3710803
      ],
      [
        103.6885551,
        1.370634
      ],
      [
        103.6884775,
        1.3705231
      ],
      [
        103.688395,
        1.3704474
      ],
      [
        103.688289,
        1.3703765
      ],
      [
        103.6881926,
        1.3703294
      ],
      [
        103.6878512,
        1.370189
      ],
      [
        103.6876495,
        1.3701002
      ],
      [
        103.6875199,
        1.3700432
      ],
      [
        103.6874445,
        1.37001
      ],
      [
        103.6872953,
        1.3699499
      ],
      [
        103.6871673,
        1.3698962
      ],
      [
        103.6870224,
        1.3698952
      ],
      [
        103.6868752,
        1.3699401
      ],
      [
        103.6867578,
        1.3699968
      ],
      [
        103.6867258,
        1.3700166
      ],
      [
        103.6863012,
        1.3703376
      ],
      [
        103.6861575,
        1.3704407
      ],
      [
        103.6860725,
        1.3705035
      ],
      [
        103.6858274,
        1.3706829
      ],
      [
        103.6856545,
        1.3708117
      ],
      [
        103.6855351,
        1.3709005
      ],
      [
        103.6854156,
        1.3709375
      ],
      [
        103.6854031,
        1.3709463
      ],
      [
        103.6850072,
        1.3712281
      ],
      [
        103.684904,
        1.3713038
      ],
      [
        103.6849226,
        1.3713836
      ],
      [
        103.6850497,
        1.3719296
      ],
      [
        103.6851473,
        1.3723283
      ],
      [
        103.6852466,
        1.372867
      ],
      [
        103.6853237,
        1.3736379
      ],
      [
        103.6853384,
        1.3744128
      ],
      [
        103.6853174,
        1.374735
      ],
      [
        103.6852509,
        1.3753884
      ],
      [
        103.6851938,
        1.3758238
      ],
      [
        103.6851758,
        1.3759622
      ],
      [
        103.6851307,
        1.3762846
      ],
      [
        103.685076,
        1.3766695
      ],
      [
        103.6849632,
        1.3774947
      ],
      [
        103.6845174,
        1.380215
      ],
      [
        103.6844004,
        1.3808459
      ],
      [
        103.6843539,
        1.3810968
      ],
      [
        103.6843011,
        1.3813814
      ],
      [
        103.684215,
        1.381844
      ],
      [
        103.6841862,
        1.3821024
      ],
      [
        103.6841658,
        1.3824476
      ],
      [
        103.684161,
        1.3825526
      ],
      [
        103.6841571,
        1.3826226
      ],
      [
        103.6841747,
        1.382876
      ],
      [
        103.6842036,
        1.383293
      ],
      [
        103.6842472,
        1.3835473
      ],
      [
        103.6842801,
        1.3837396
      ],
      [
        103.6843599,
        1.3840314
      ],
      [
        103.6844502,
        1.3843064
      ],
      [
        103.6846296,
        1.384734
      ],
      [
        103.6847652,
        1.3849971
      ],
      [
        103.6850181,
        1.385383
      ],
      [
        103.6855983,
        1.3860752
      ],
      [
        103.6857227,
        1.386215
      ],
      [
        103.6861757,
        1.3867244
      ],
      [
        103.6880675,
        1.3888808
      ],
      [
        103.6881498,
        1.3889742
      ],
      [
        103.6886931,
        1.3895902
      ],
      [
        103.6889339,
        1.3898338
      ],
      [
        103.6892192,
        1.3900982
      ],
      [
        103.6897313,
        1.3905243
      ],
      [
        103.6902159,
        1.3909125
      ],
      [
        103.6904774,
        1.3911528
      ],
      [
        103.6905565,
        1.3912255
      ],
      [
        103.6906686,
        1.3913495
      ],
      [
        103.6909664,
        1.3916788
      ],
      [
        103.6913779,
        1.3923456
      ],
      [
        103.6915497,
        1.3927285
      ],
      [
        103.6916907,
        1.3931451
      ],
      [
        103.6917744,
        1.3934422
      ],
      [
        103.6918164,
        1.3937298
      ],
      [
        103.6918626,
        1.3941686
      ],
      [
        103.6919141,
        1.394749
      ],
      [
        103.6919548,
        1.3954385
      ],
      [
        103.6919902,
        1.3958584
      ],
      [
        103.6920005,
        1.3959611
      ],
      [
        103.6920214,
        1.3962298
      ],
      [
        103.6920264,
        1.3963361
      ],
      [
        103.6920425,
        1.3966804
      ],
      [
        103.6921736,
        1.3974301
      ],
      [
        103.6923204,
        1.3979366
      ],
      [
        103.6924632,
        1.3982977
      ],
      [
        103.6925902,
        1.3985538
      ],
      [
        103.6927666,
        1.3988141
      ],
      [
        103.6928069,
        1.3988672
      ],
      [
        103.6930272,
        1.3991573
      ],
      [
        103.6930903,
        1.3992403
      ],
      [
        103.6932144,
        1.3994037
      ],
      [
        103.6934543,
        1.3998364
      ],
      [
        103.6936216,
        1.4002893
      ],
      [
        103.6936811,
        1.4005879
      ],
      [
        103.6937284,
        1.4010662
      ],
      [
        103.6937787,
        1.4015747
      ],
      [
        103.6939429,
        1.4034963
      ],
      [
        103.694098,
        1.4053256
      ],
      [
        103.694194,
        1.4064492
      ],
      [
        103.6943183,
        1.4079031
      ],
      [
        103.6944029,
        1.4089545
      ],
      [
        103.6944227,
        1.409201
      ],
      [
        103.6944743,
        1.4098425
      ],
      [
        103.6945149,
        1.4102643
      ],
      [
        103.6946766,
        1.4119431
      ],
      [
        103.6947016,
        1.4121671
      ],
      [
        103.6947667,
        1.4123896
      ],
      [
        103.6948412,
        1.4126122
      ],
      [
        103.6949099,
        1.4127485
      ],
      [
        103.6950155,
        1.4129522
      ],
      [
        103.6951058,
        1.413074
      ],
      [
        103.6952984,
        1.4133096
      ],
      [
        103.6954649,
        1.4134644
      ],
      [
        103.6957799,
        1.4136827
      ],
      [
        103.6959888,
        1.4137919
      ],
      [
        103.6961976,
        1.4138679
      ],
      [
        103.6968995,
        1.414108
      ],
      [
        103.6977904,
        1.4144129
      ],
      [
        103.6981797,
        1.4145472
      ],
      [
        103.6989152,
        1.4148009
      ],
      [
        103.6990811,
        1.4148512
      ],
      [
        103.6993265,
        1.4149286
      ],
      [
        103.6997601,
        1.4150997
      ],
      [
        103.700053,
        1.415268
      ],
      [
        103.7003292,
        1.4155058
      ],
      [
        103.7004211,
        1.4156421
      ],
      [
        103.700621,
        1.416017
      ],
      [
        103.7009341,
        1.4166914
      ],
      [
        103.7010229,
        1.4168789
      ],
      [
        103.7012134,
        1.4172813
      ],
      [
        103.7013003,
        1.4174577
      ],
      [
        103.7013406,
        1.4175396
      ],
      [
        103.7015041,
        1.4179077
      ],
      [
        103.7015122,
        1.417926
      ],
      [
        103.7015592,
        1.4180317
      ],
      [
        103.7017514,
        1.4184403
      ],
      [
        103.7021894,
        1.4193513
      ],
      [
        103.7024,
        1.4197893
      ],
      [
        103.7028265,
        1.4207144
      ],
      [
        103.7030982,
        1.4213035
      ],
      [
        103.703155,
        1.4214249
      ],
      [
        103.7034432,
        1.4220414
      ],
      [
        103.7036551,
        1.4224971
      ],
      [
        103.703932,
        1.4230924
      ],
      [
        103.7039995,
        1.4232376
      ],
      [
        103.7047019,
        1.4247432
      ],
      [
        103.7049951,
        1.4253718
      ],
      [
        103.7054712,
        1.4263855
      ],
      [
        103.7058346,
        1.4271534
      ],
      [
        103.7058809,
        1.4272512
      ],
      [
        103.7059188,
        1.4273432
      ],
      [
        103.705958,
        1.4274381
      ],
      [
        103.7059987,
        1.4275368
      ],
      [
        103.7060926,
        1.4278075
      ],
      [
        103.7062974,
        1.4284054
      ],
      [
        103.7067533,
        1.4297721
      ],
      [
        103.7068874,
        1.4301904
      ],
      [
        103.7071265,
        1.4308855
      ],
      [
        103.7072568,
        1.4312428
      ],
      [
        103.7076786,
        1.4324937
      ],
      [
        103.7078,
        1.4328383
      ],
      [
        103.7079513,
        1.433332
      ],
      [
        103.7080501,
        1.4337217
      ],
      [
        103.7081292,
        1.4346406
      ],
      [
        103.7081355,
        1.4347237
      ],
      [
        103.7080935,
        1.436274
      ],
      [
        103.7080068,
        1.4379812
      ],
      [
        103.7079255,
        1.4399052
      ],
      [
        103.7078442,
        1.4421219
      ],
      [
        103.7077953,
        1.4433607
      ],
      [
        103.7077604,
        1.4439552
      ],
      [
        103.7077406,
        1.4441789
      ],
      [
        103.7077309,
        1.4442877
      ],
      [
        103.7077014,
        1.444478
      ],
      [
        103.7076612,
        1.4446952
      ],
      [
        103.7076074,
        1.4449152
      ],
      [
        103.7075478,
        1.445292
      ],
      [
        103.7075478,
        1.445292
      ],
      [
        103.7077953,
        1.4433607
      ],
      [
        103.7077604,
        1.4439552
      ],
      [
        103.7077406,
        1.4441789
      ],
      [
        103.7077309,
        1.4442877
      ],
      [
        103.7077014,
        1.444478
      ],
      [
        103.7076612,
        1.4446952
      ],
      [
        103.7076074,
        1.4449152
      ],
      [
        103.7078442,
        1.4421219
      ],
      [
        103.7079255,
        1.4399052
      ],
      [
        103.7080068,
        1.4379812
      ],
      [
        103.7080935,
        1.436274
      ],
      [
        103.7081355,
        1.4347237
      ],
      [
        103.7080501,
        1.4337217
      ],
      [
        103.7081292,
        1.4346406
      ],
      [
        103.7079513,
        1.433332
      ],
      [
        103.7078,
        1.4328383
      ],
      [
        103.7076786,
        1.4324937
      ],
      [
        103.7072568,
        1.4312428
      ],
      [
        103.7071265,
        1.4308855
      ],
      [
        103.7068874,
        1.4301904
      ],
      [
        103.7067533,
        1.4297721
      ],
      [
        103.7062974,
        1.4284054
      ],
      [
        103.7059188,
        1.4273432
      ],
      [
        103.705958,
        1.4274381
      ],
      [
        103.7059987,
        1.4275368
      ],
      [
        103.7060926,
        1.4278075
      ],
      [
        103.7058346,
        1.4271534
      ],
      [
        103.7058809,
        1.4272512
      ],
      [
        103.7054712,
        1.4263855
      ],
      [
        103.7049951,
        1.4253718
      ],
      [
        103.7047019,
        1.4247432
      ],
      [
        103.7039995,
        1.4232376
      ],
      [
        103.703932,
        1.4230924
      ],
      [
        103.703155,
        1.4214249
      ],
      [
        103.7034432,
        1.4220414
      ],
      [
        103.7036551,
        1.4224971
      ],
      [
        103.7030982,
        1.4213035
      ],
      [
        103.7024,
        1.4197893
      ],
      [
        103.7028265,
        1.4207144
      ],
      [
        103.7021894,
        1.4193513
      ],
      [
        103.7017514,
        1.4184403
      ],
      [
        103.7015041,
        1.4179077
      ],
      [
        103.7015122,
        1.417926
      ],
      [
        103.7015592,
        1.4180317
      ],
      [
        103.7013003,
        1.4174577
      ],
      [
        103.7013406,
        1.4175396
      ],
      [
        103.700621,
        1.416017
      ],
      [
        103.7009341,
        1.4166914
      ],
      [
        103.7010229,
        1.4168789
      ],
      [
        103.7012134,
        1.4172813
      ],
      [
        103.7004211,
        1.4156421
      ],
      [
        103.7002861,
        1.415423
      ],
      [
        103.7001197,
        1.4152409
      ],
      [
        103.6999878,
        1.4151173
      ],
      [
        103.6998,
        1.4149748
      ],
      [
        103.6996036,
        1.4148572
      ],
      [
        103.6993359,
        1.4147397
      ],
      [
        103.699044,
        1.4146463
      ],
      [
        103.6980281,
        1.4143345
      ],
      [
        103.6970082,
        1.4140215
      ],
      [
        103.6962547,
        1.4137902
      ],
      [
        103.6960476,
        1.4137195
      ],
      [
        103.6959247,
        1.4136597
      ],
      [
        103.6957841,
        1.4135841
      ],
      [
        103.6956602,
        1.4135007
      ],
      [
        103.6955982,
        1.4134581
      ],
      [
        103.6953768,
        1.4132651
      ],
      [
        103.6952255,
        1.4130939
      ],
      [
        103.6951363,
        1.4129743
      ],
      [
        103.6950554,
        1.4128599
      ],
      [
        103.6949842,
        1.412719
      ],
      [
        103.6949189,
        1.4125849
      ],
      [
        103.6948465,
        1.4123707
      ],
      [
        103.6947898,
        1.4121566
      ],
      [
        103.6947517,
        1.4119369
      ],
      [
        103.6946408,
        1.410623
      ],
      [
        103.6945788,
        1.4098882
      ],
      [
        103.6944118,
        1.40791
      ],
      [
        103.6942857,
        1.4064407
      ],
      [
        103.6941892,
        1.4053174
      ],
      [
        103.6938616,
        1.4014822
      ],
      [
        103.6938185,
        1.4010496
      ],
      [
        103.6937798,
        1.4006614
      ],
      [
        103.6936999,
        1.4002534
      ],
      [
        103.6936128,
        1.399954
      ],
      [
        103.6934438,
        1.399595
      ],
      [
        103.6933481,
        1.3994282
      ],
      [
        103.6932085,
        1.3992323
      ],
      [
        103.6930068,
        1.3989492
      ],
      [
        103.6928537,
        1.3987343
      ],
      [
        103.6926815,
        1.3984782
      ],
      [
        103.6925718,
        1.3982708
      ],
      [
        103.6923792,
        1.3978338
      ],
      [
        103.6922742,
        1.3974517
      ],
      [
        103.6922301,
        1.3971757
      ],
      [
        103.6921709,
        1.3967713
      ],
      [
        103.6921322,
        1.3963277
      ],
      [
        103.6921228,
        1.3962192
      ],
      [
        103.6920996,
        1.3959537
      ],
      [
        103.6920904,
        1.3958478
      ],
      [
        103.6919571,
        1.3943554
      ],
      [
        103.6919046,
        1.3937161
      ],
      [
        103.6917761,
        1.3931256
      ],
      [
        103.6916349,
        1.3927038
      ],
      [
        103.6914524,
        1.3923131
      ],
      [
        103.6912852,
        1.3920179
      ],
      [
        103.6912078,
        1.3918988
      ],
      [
        103.6909198,
        1.3915026
      ],
      [
        103.6908168,
        1.3913781
      ],
      [
        103.6905719,
        1.3911438
      ],
      [
        103.6902688,
        1.3908539
      ],
      [
        103.6898769,
        1.3905383
      ],
      [
        103.6892884,
        1.3900489
      ],
      [
        103.6890117,
        1.3897863
      ],
      [
        103.6887874,
        1.3895618
      ],
      [
        103.6882102,
        1.388918
      ],
      [
        103.6881466,
        1.388847
      ],
      [
        103.6862409,
        1.3866764
      ],
      [
        103.6858414,
        1.3862268
      ],
      [
        103.6856534,
        1.3860152
      ],
      [
        103.6851087,
        1.3853439
      ],
      [
        103.684968,
        1.3851198
      ],
      [
        103.6848975,
        1.3850076
      ],
      [
        103.6846728,
        1.3845625
      ],
      [
        103.6845531,
        1.3842665
      ],
      [
        103.6844549,
        1.3839331
      ],
      [
        103.6843662,
        1.3836158
      ],
      [
        103.6843523,
        1.383525
      ],
      [
        103.6843032,
        1.383281
      ],
      [
        103.6842944,
        1.3831717
      ],
      [
        103.6842814,
        1.3830119
      ],
      [
        103.6842604,
        1.3825522
      ],
      [
        103.6842649,
        1.3824507
      ],
      [
        103.6843255,
        1.3819384
      ],
      [
        103.6843349,
        1.3818591
      ],
      [
        103.6844683,
        1.3810412
      ],
      [
        103.6845055,
        1.380813
      ],
      [
        103.6846017,
        1.3802233
      ],
      [
        103.6850466,
        1.3775196
      ],
      [
        103.6851253,
        1.3770347
      ],
      [
        103.6852828,
        1.3760607
      ],
      [
        103.6853303,
        1.3756767
      ],
      [
        103.6853648,
        1.3753982
      ],
      [
        103.6854161,
        1.3747424
      ],
      [
        103.6854245,
        1.3744086
      ],
      [
        103.6854068,
        1.3736442
      ],
      [
        103.6853363,
        1.3728762
      ],
      [
        103.6851872,
        1.3719544
      ],
      [
        103.6851855,
        1.3714142
      ],
      [
        103.6852043,
        1.3712608
      ],
      [
        103.6852207,
        1.3712062
      ],
      [
        103.6852671,
        1.3711339
      ],
      [
        103.6854046,
        1.3710215
      ],
      [
        103.6855351,
        1.3709005
      ],
      [
        103.6855351,
        1.3709005
      ],
      [
        103.6856545,
        1.3708117
      ],
      [
        103.6858274,
        1.3706829
      ],
      [
        103.6861575,
        1.3704407
      ],
      [
        103.6860725,
        1.3705035
      ],
      [
        103.6863012,
        1.3703376
      ],
      [
        103.6875199,
        1.3700432
      ],
      [
        103.6874445,
        1.37001
      ],
      [
        103.6872953,
        1.3699499
      ],
      [
        103.6871673,
        1.3698962
      ],
      [
        103.6870224,
        1.3698952
      ],
      [
        103.6868752,
        1.3699401
      ],
      [
        103.6867578,
        1.3699968
      ],
      [
        103.6867258,
        1.3700166
      ],
      [
        103.6876495,
        1.3701002
      ],
      [
        103.6881926,
        1.3703294
      ],
      [
        103.6878512,
        1.370189
      ],
      [
        103.6884775,
        1.3705231
      ],
      [
        103.688395,
        1.3704474
      ],
      [
        103.688289,
        1.3703765
      ],
      [
        103.6885551,
        1.370634
      ],
      [
        103.6891606,
        1.37141
      ],
      [
        103.6890985,
        1.3713216
      ],
      [
        103.688971,
        1.3711455
      ],
      [
        103.6889209,
        1.3710803
      ],
      [
        103.6892929,
        1.3715664
      ],
      [
        103.6892162,
        1.3714916
      ],
      [
        103.6893337,
        1.3716061
      ],
      [
        103.6894079,
        1.371665
      ],
      [
        103.6911713,
        1.3727882
      ],
      [
        103.6910312,
        1.3726047
      ],
      [
        103.6909112,
        1.3724751
      ],
      [
        103.6907464,
        1.3723358
      ],
      [
        103.6906109,
        1.3722493
      ],
      [
        103.6903754,
        1.3721376
      ],
      [
        103.6901755,
        1.3720429
      ],
      [
        103.689534,
        1.3717387
      ],
      [
        103.6914137,
        1.3731562
      ],
      [
        103.6912009,
        1.3728331
      ],
      [
        103.6916588,
        1.3734793
      ],
      [
        103.6915347,
        1.3733286
      ],
      [
        103.6914524,
        1.3732126
      ],
      [
        103.6921831,
        1.3740101
      ],
      [
        103.6921258,
        1.3739544
      ],
      [
        103.6918889,
        1.3737152
      ],
      [
        103.6924704,
        1.3741205
      ],
      [
        103.6923937,
        1.3741092
      ],
      [
        103.6923293,
        1.374091
      ],
      [
        103.6922575,
        1.374056
      ],
      [
        103.6925986,
        1.3741188
      ],
      [
        103.6931709,
        1.3740662
      ],
      [
        103.6937146,
        1.3740149
      ],
      [
        103.6931958,
        1.3740651
      ],
      [
        103.6941524,
        1.3739674
      ],
      [
        103.6941208,
        1.3739713
      ],
      [
        103.6946627,
        1.3739346
      ],
      [
        103.6949857,
        1.3739193
      ],
      [
        103.6950699,
        1.3739006
      ],
      [
        103.6951737,
        1.3738776
      ],
      [
        103.6952348,
        1.373864
      ],
      [
        103.6954157,
        1.3738137
      ],
      [
        103.6957132,
        1.3736676
      ],
      [
        103.696108,
        1.3734678
      ],
      [
        103.697391,
        1.3728592
      ],
      [
        103.6977182,
        1.3727238
      ],
      [
        103.6980119,
        1.3726461
      ],
      [
        103.6984123,
        1.3726325
      ],
      [
        103.6991183,
        1.3726085
      ],
      [
        103.7007663,
        1.3725118
      ],
      [
        103.7008553,
        1.3725088
      ],
      [
        103.7017237,
        1.3724777
      ],
      [
        103.7019074,
        1.3724712
      ],
      [
        103.7026028,
        1.3724466
      ],
      [
        103.7039208,
        1.3723833
      ],
      [
        103.70435,
        1.3722988
      ],
      [
        103.7045432,
        1.3722267
      ],
      [
        103.7047631,
        1.3721446
      ],
      [
        103.7051935,
        1.3719006
      ],
      [
        103.7055727,
        1.3716321
      ],
      [
        103.7058551,
        1.371437
      ],
      [
        103.7059959,
        1.371342
      ],
      [
        103.706662,
        1.3708495
      ],
      [
        103.7068552,
        1.3707369
      ],
      [
        103.7070564,
        1.370635
      ],
      [
        103.7073045,
        1.3705398
      ],
      [
        103.7074163,
        1.3705049
      ],
      [
        103.7075298,
        1.3704861
      ],
      [
        103.7077081,
        1.3704701
      ],
      [
        103.7079348,
        1.3704714
      ],
      [
        103.7081198,
        1.3704915
      ],
      [
        103.7083223,
        1.3705264
      ],
      [
        103.708498,
        1.3705867
      ],
      [
        103.7087166,
        1.3706805
      ],
      [
        103.709068,
        1.3708977
      ],
      [
        103.7101831,
        1.3717469
      ],
      [
        103.7112072,
        1.3724743
      ],
      [
        103.7117393,
        1.3728448
      ],
      [
        103.7119529,
        1.3729654
      ],
      [
        103.7123757,
        1.3731418
      ],
      [
        103.7136488,
        1.3734617
      ],
      [
        103.7137591,
        1.3734888
      ],
      [
        103.7146079,
        1.3737128
      ],
      [
        103.7148674,
        1.3737803
      ],
      [
        103.7156637,
        1.3739794
      ],
      [
        103.7163208,
        1.3741575
      ],
      [
        103.7164676,
        1.3741977
      ],
      [
        103.7165343,
        1.374213
      ],
      [
        103.716765,
        1.374277
      ],
      [
        103.7172566,
        1.3744134
      ],
      [
        103.7177051,
        1.3745024
      ],
      [
        103.7180592,
        1.3745198
      ],
      [
        103.7184477,
        1.3745168
      ],
      [
        103.7185564,
        1.3745281
      ],
      [
        103.7186528,
        1.3745308
      ],
      [
        103.7188996,
        1.374534
      ],
      [
        103.7195745,
        1.3745499
      ],
      [
        103.7210535,
        1.3745584
      ],
      [
        103.7224134,
        1.3745458
      ],
      [
        103.722696,
        1.3745432
      ],
      [
        103.7229777,
        1.3745427
      ],
      [
        103.7233571,
        1.3745422
      ],
      [
        103.7239451,
        1.3745188
      ],
      [
        103.7259056,
        1.3744874
      ],
      [
        103.7261751,
        1.3745043
      ],
      [
        103.7264457,
        1.3745264
      ],
      [
        103.7267159,
        1.3745952
      ],
      [
        103.7269491,
        1.3746776
      ],
      [
        103.7271193,
        1.3747791
      ],
      [
        103.7272266,
        1.3748542
      ],
      [
        103.7273647,
        1.3749628
      ],
      [
        103.7274585,
        1.375052
      ],
      [
        103.7276938,
        1.3752693
      ],
      [
        103.7278854,
        1.3754934
      ],
      [
        103.7282387,
        1.3759155
      ],
      [
        103.7286332,
        1.3762873
      ],
      [
        103.7292972,
        1.376938
      ],
      [
        103.7298817,
        1.377559
      ],
      [
        103.7300831,
        1.3777877
      ],
      [
        103.7304349,
        1.3781839
      ],
      [
        103.7305866,
        1.3783848
      ],
      [
        103.7306739,
        1.3785062
      ],
      [
        103.730748,
        1.3786589
      ],
      [
        103.7308262,
        1.3788494
      ],
      [
        103.7308519,
        1.3790558
      ],
      [
        103.7309085,
        1.3792894
      ],
      [
        103.7309471,
        1.3794502
      ],
      [
        103.7309811,
        1.3795637
      ],
      [
        103.7310633,
        1.3797565
      ],
      [
        103.7311492,
        1.3799233
      ],
      [
        103.7312461,
        1.3800751
      ],
      [
        103.7313974,
        1.3802399
      ],
      [
        103.731442,
        1.3802866
      ],
      [
        103.7315154,
        1.3803564
      ],
      [
        103.7315584,
        1.3803081
      ],
      [
        103.7318842,
        1.3799561
      ],
      [
        103.732165,
        1.3796584
      ],
      [
        103.7323732,
        1.3794018
      ],
      [
        103.7324267,
        1.3793358
      ],
      [
        103.7327061,
        1.3790234
      ],
      [
        103.7328739,
        1.3788163
      ],
      [
        103.7330632,
        1.3786101
      ],
      [
        103.7330943,
        1.3785775
      ],
      [
        103.7332467,
        1.3784182
      ],
      [
        103.7336491,
        1.3779365
      ],
      [
        103.7340008,
        1.3775269
      ],
      [
        103.73402,
        1.3775056
      ],
      [
        103.7348011,
        1.3767245
      ],
      [
        103.734949,
        1.3765815
      ],
      [
        103.7352262,
        1.376312
      ],
      [
        103.7353815,
        1.3762448
      ],
      [
        103.7354271,
        1.3762371
      ],
      [
        103.7354929,
        1.3762414
      ],
      [
        103.7355931,
        1.3762585
      ],
      [
        103.7357888,
        1.3763956
      ],
      [
        103.7358324,
        1.3764261
      ],
      [
        103.7358589,
        1.3764447
      ],
      [
        103.7359893,
        1.3765361
      ],
      [
        103.7363555,
        1.3767927
      ],
      [
        103.7366695,
        1.3770127
      ],
      [
        103.7368413,
        1.3771846
      ],
      [
        103.7369896,
        1.3772874
      ],
      [
        103.7370327,
        1.3773176
      ],
      [
        103.7371019,
        1.3773693
      ],
      [
        103.7371429,
        1.377401
      ],
      [
        103.7372619,
        1.3774843
      ],
      [
        103.7378346,
        1.3778528
      ],
      [
        103.737962,
        1.3779399
      ],
      [
        103.7381254,
        1.3780437
      ],
      [
        103.7382194,
        1.3781022
      ],
      [
        103.7383748,
        1.3782059
      ],
      [
        103.7385116,
        1.3782963
      ],
      [
        103.7386307,
        1.3783795
      ],
      [
        103.7387425,
        1.3784573
      ],
      [
        103.73891,
        1.3785733
      ],
      [
        103.7390237,
        1.3786398
      ],
      [
        103.7390808,
        1.3786759
      ],
      [
        103.7391763,
        1.3787388
      ],
      [
        103.7392231,
        1.3787705
      ],
      [
        103.7395002,
        1.3789556
      ],
      [
        103.7397456,
        1.3791209
      ],
      [
        103.7400554,
        1.379327
      ],
      [
        103.7402472,
        1.3794575
      ],
      [
        103.7406104,
        1.3796908
      ],
      [
        103.7407991,
        1.379825
      ],
      [
        103.7412268,
        1.3801182
      ],
      [
        103.7413695,
        1.3802225
      ],
      [
        103.7418361,
        1.3805384
      ],
      [
        103.7420106,
        1.3806594
      ],
      [
        103.742161,
        1.3807574
      ],
      [
        103.742312,
        1.3808692
      ],
      [
        103.7427354,
        1.3811723
      ],
      [
        103.7428467,
        1.3812484
      ],
      [
        103.7429426,
        1.3813177
      ],
      [
        103.7430302,
        1.3813749
      ],
      [
        103.7431395,
        1.3814806
      ],
      [
        103.7431481,
        1.3815094
      ],
      [
        103.743166,
        1.3815695
      ],
      [
        103.7431461,
        1.3816578
      ],
      [
        103.742975,
        1.3819464
      ],
      [
        103.7429148,
        1.3821061
      ],
      [
        103.7428724,
        1.3823017
      ],
      [
        103.7427567,
        1.3827339
      ],
      [
        103.7427385,
        1.3828117
      ],
      [
        103.7427114,
        1.3829253
      ],
      [
        103.7426841,
        1.3830686
      ],
      [
        103.7425902,
        1.3834904
      ],
      [
        103.7425731,
        1.3835475
      ],
      [
        103.7425358,
        1.383722
      ],
      [
        103.7425253,
        1.3837713
      ],
      [
        103.7425047,
        1.3838678
      ],
      [
        103.7425986,
        1.3838848
      ],
      [
        103.742669,
        1.3838988
      ],
      [
        103.7429755,
        1.3839531
      ],
      [
        103.7432006,
        1.3840088
      ],
      [
        103.7433272,
        1.3840504
      ],
      [
        103.7434211,
        1.3840807
      ],
      [
        103.7434975,
        1.3841043
      ],
      [
        103.7435352,
        1.3841163
      ],
      [
        103.743632,
        1.3841472
      ],
      [
        103.7440588,
        1.3842835
      ],
      [
        103.7441791,
        1.3843233
      ],
      [
        103.7442133,
        1.3843346
      ],
      [
        103.7442639,
        1.3843444
      ],
      [
        103.7444499,
        1.3843881
      ],
      [
        103.7447032,
        1.3844693
      ],
      [
        103.7447479,
        1.3844825
      ],
      [
        103.7453982,
        1.384687
      ],
      [
        103.7455088,
        1.3847213
      ],
      [
        103.7458494,
        1.3848395
      ],
      [
        103.7459496,
        1.3848784
      ],
      [
        103.7462079,
        1.3849767
      ],
      [
        103.7462874,
        1.385007
      ],
      [
        103.7463763,
        1.3850406
      ],
      [
        103.746417,
        1.3849556
      ],
      [
        103.7464432,
        1.3849093
      ],
      [
        103.7466498,
        1.3846012
      ],
      [
        103.7467356,
        1.3844751
      ],
      [
        103.7468015,
        1.38437
      ],
      [
        103.7468399,
        1.3843123
      ],
      [
        103.7469764,
        1.3840633
      ],
      [
        103.7470062,
        1.38402
      ],
      [
        103.7470435,
        1.3839658
      ],
      [
        103.7470769,
        1.3839172
      ],
      [
        103.7472285,
        1.3837078
      ],
      [
        103.747361,
        1.3835538
      ],
      [
        103.7474734,
        1.3834582
      ],
      [
        103.747601,
        1.3833778
      ],
      [
        103.7479581,
        1.3832173
      ],
      [
        103.7482102,
        1.3831005
      ],
      [
        103.7493362,
        1.3825726
      ],
      [
        103.7496678,
        1.382416
      ],
      [
        103.7499067,
        1.3823062
      ],
      [
        103.750116,
        1.3822108
      ],
      [
        103.7501479,
        1.3821963
      ],
      [
        103.7502371,
        1.3821552
      ],
      [
        103.7502701,
        1.3821407
      ],
      [
        103.7504984,
        1.3820402
      ],
      [
        103.7508568,
        1.3818663
      ],
      [
        103.7509915,
        1.3818105
      ],
      [
        103.7513889,
        1.3816677
      ],
      [
        103.7514912,
        1.3816449
      ],
      [
        103.7516001,
        1.3816388
      ],
      [
        103.7517302,
        1.3816409
      ],
      [
        103.7519133,
        1.3816697
      ],
      [
        103.7520317,
        1.3816913
      ],
      [
        103.7521224,
        1.3817079
      ],
      [
        103.7523283,
        1.3817428
      ],
      [
        103.7524883,
        1.3817447
      ],
      [
        103.752496,
        1.3817448
      ],
      [
        103.7526391,
        1.3817243
      ],
      [
        103.7527119,
        1.3817078
      ],
      [
        103.7531023,
        1.381568
      ],
      [
        103.7532014,
        1.3815328
      ],
      [
        103.7535257,
        1.3814224
      ],
      [
        103.7539524,
        1.3812742
      ],
      [
        103.7545114,
        1.3810827
      ],
      [
        103.7546037,
        1.381048
      ],
      [
        103.7546654,
        1.3810243
      ],
      [
        103.7548537,
        1.3809543
      ],
      [
        103.7553693,
        1.3807755
      ],
      [
        103.7554675,
        1.3807259
      ],
      [
        103.755553,
        1.3806588
      ],
      [
        103.7557357,
        1.3804946
      ],
      [
        103.7558239,
        1.3803746
      ],
      [
        103.7559527,
        1.3801695
      ],
      [
        103.7561566,
        1.3797431
      ],
      [
        103.7561994,
        1.3795835
      ],
      [
        103.7562558,
        1.3792926
      ],
      [
        103.7562742,
        1.3789347
      ],
      [
        103.7562755,
        1.3787329
      ],
      [
        103.7562722,
        1.3786558
      ],
      [
        103.7562514,
        1.3785157
      ],
      [
        103.7562038,
        1.3782416
      ],
      [
        103.7561729,
        1.3781193
      ],
      [
        103.7561655,
        1.3780687
      ],
      [
        103.7561596,
        1.3780209
      ],
      [
        103.7561564,
        1.3779724
      ],
      [
        103.7561554,
        1.3779214
      ],
      [
        103.756157,
        1.3778761
      ],
      [
        103.7561586,
        1.3778368
      ],
      [
        103.7561696,
        1.3777166
      ],
      [
        103.756195,
        1.3776172
      ],
      [
        103.7562126,
        1.3775734
      ],
      [
        103.7562885,
        1.3775472
      ],
      [
        103.756292,
        1.377546
      ],
      [
        103.756351,
        1.3775367
      ],
      [
        103.7563775,
        1.377536
      ],
      [
        103.756406,
        1.3775377
      ],
      [
        103.7564254,
        1.37754
      ],
      [
        103.75645,
        1.3775396
      ],
      [
        103.7571811,
        1.377962
      ],
      [
        103.7573326,
        1.3780489
      ],
      [
        103.7575434,
        1.3781733
      ],
      [
        103.7576153,
        1.3782104
      ],
      [
        103.7576759,
        1.3782391
      ],
      [
        103.7577655,
        1.3782804
      ],
      [
        103.7579828,
        1.3783883
      ],
      [
        103.7583689,
        1.3785177
      ],
      [
        103.7585078,
        1.3785674
      ],
      [
        103.758587,
        1.3785981
      ],
      [
        103.7591021,
        1.3787919
      ],
      [
        103.7593943,
        1.3789067
      ],
      [
        103.7601057,
        1.3791989
      ],
      [
        103.760353,
        1.3793265
      ],
      [
        103.7605258,
        1.3794297
      ],
      [
        103.7606974,
        1.3795166
      ],
      [
        103.7610015,
        1.3796588
      ],
      [
        103.7610695,
        1.379693
      ],
      [
        103.7614046,
        1.3798586
      ],
      [
        103.7614462,
        1.3798735
      ],
      [
        103.7616992,
        1.3799622
      ],
      [
        103.7619459,
        1.3800635
      ],
      [
        103.7624855,
        1.3803002
      ],
      [
        103.7629025,
        1.3804991
      ],
      [
        103.7631059,
        1.3806035
      ],
      [
        103.7633538,
        1.3807309
      ],
      [
        103.7634292,
        1.3807653
      ],
      [
        103.7635326,
        1.38081
      ],
      [
        103.7635864,
        1.3806992
      ],
      [
        103.7636192,
        1.3806402
      ],
      [
        103.7636952,
        1.3804754
      ],
      [
        103.763837,
        1.3802031
      ],
      [
        103.7639876,
        1.3798792
      ],
      [
        103.7640871,
        1.3796667
      ],
      [
        103.7641156,
        1.379603
      ],
      [
        103.7641357,
        1.3795611
      ],
      [
        103.7642877,
        1.3792282
      ],
      [
        103.7643196,
        1.3791584
      ],
      [
        103.7643342,
        1.3791264
      ],
      [
        103.7643655,
        1.3790608
      ],
      [
        103.764398,
        1.3789944
      ],
      [
        103.7645142,
        1.3787571
      ],
      [
        103.764583,
        1.3786109
      ],
      [
        103.7647387,
        1.3782832
      ],
      [
        103.7647516,
        1.3782362
      ],
      [
        103.7647886,
        1.3781067
      ],
      [
        103.7646934,
        1.3780795
      ],
      [
        103.7645993,
        1.3780579
      ],
      [
        103.7642465,
        1.3779644
      ],
      [
        103.7641363,
        1.3779352
      ],
      [
        103.7639889,
        1.3778997
      ],
      [
        103.763914,
        1.3779152
      ],
      [
        103.7636125,
        1.3778345
      ],
      [
        103.7635981,
        1.3778352
      ],
      [
        103.7635831,
        1.3778405
      ],
      [
        103.7635651,
        1.3778569
      ],
      [
        103.763553,
        1.3778789
      ],
      [
        103.7635405,
        1.3779248
      ],
      [
        103.7634627,
        1.3782105
      ],
      [
        103.7634436,
        1.3782723
      ],
      [
        103.7634179,
        1.3783105
      ],
      [
        103.7633905,
        1.378331
      ],
      [
        103.7633674,
        1.3783473
      ],
      [
        103.7633308,
        1.3783583
      ],
      [
        103.7632787,
        1.3783662
      ],
      [
        103.7631796,
        1.3783478
      ],
      [
        103.7630214,
        1.3783069
      ],
      [
        103.762847,
        1.3782645
      ]
    ]
  }
}