{
  "type": "Feature",
  "properties": {
    "relation": 12980641,
    "direction": "2",
    "fee": "yes",
    "from": "Choa Chu Kang Interchange",
    "name": "Svc 991 (Choa Chu Kang Interchange → Bukit Batok Interchange)",
    "name:en": "Svc 991 (Choa Chu Kang Interchange → Bukit Batok Interchange)",
    "network": "Land Transport Authority",
    "network:short": "LTA",
    "network:wikidata": "Q3299279",
    "network:wikipedia": "en:Land Transport Authority",
    "operator": "SMRT Buses",
    "operator:wikidata": "Q10852420",
    "operator:wikipedia": "en:SMRT Buses",
    "public_transport:version": "2",
    "ref": "991",
    "route": "bus",
    "to": "Bukit Batok Interchange",
    "type": "route",
    "website": "https://www.smrt.com.sg/"
  },
  "geometry": {
    "type": "LineString",
    "coordinates": [
      [
        103.7457448,
        1.3858397
      ],
      [
        103.7457618,
        1.3856968
      ],
      [
        103.7457551,
        1.3856544
      ],
      [
        103.7457468,
        1.3856259
      ],
      [
        103.7457297,
        1.3856041
      ],
      [
        103.7456963,
        1.3855811
      ],
      [
        103.7454416,
        1.3854939
      ],
      [
        103.7454206,
        1.3855002
      ],
      [
        103.7454074,
        1.3855093
      ],
      [
        103.7453905,
        1.3855297
      ],
      [
        103.7453765,
        1.3855549
      ],
      [
        103.7452374,
        1.385835
      ],
      [
        103.7451194,
        1.3859186
      ],
      [
        103.7449612,
        1.3859221
      ],
      [
        103.7449306,
        1.3859362
      ],
      [
        103.7449094,
        1.3859539
      ],
      [
        103.7448958,
        1.3859704
      ],
      [
        103.7448667,
        1.386125
      ],
      [
        103.7448475,
        1.3862563
      ],
      [
        103.744824,
        1.3863372
      ],
      [
        103.7446493,
        1.3863381
      ],
      [
        103.7444096,
        1.3863394
      ],
      [
        103.7438871,
        1.3863197
      ],
      [
        103.7438001,
        1.3863095
      ],
      [
        103.7436491,
        1.386303
      ],
      [
        103.7435249,
        1.3862599
      ],
      [
        103.7434768,
        1.3862202
      ],
      [
        103.7434279,
        1.3861709
      ],
      [
        103.7431007,
        1.385815
      ],
      [
        103.7430688,
        1.385764
      ],
      [
        103.7430393,
        1.3857067
      ],
      [
        103.7430348,
        1.3856454
      ],
      [
        103.7430409,
        1.3855943
      ],
      [
        103.7430577,
        1.3855376
      ],
      [
        103.7431993,
        1.3850524
      ],
      [
        103.7432601,
        1.3848392
      ],
      [
        103.7432892,
        1.3847447
      ],
      [
        103.7433201,
        1.3846453
      ],
      [
        103.7433557,
        1.3845323
      ],
      [
        103.7434092,
        1.3843709
      ],
      [
        103.7434572,
        1.3842286
      ],
      [
        103.7434975,
        1.3841043
      ],
      [
        103.7435352,
        1.3841163
      ],
      [
        103.743632,
        1.3841472
      ],
      [
        103.7440588,
        1.3842835
      ],
      [
        103.7441791,
        1.3843233
      ],
      [
        103.7442133,
        1.3843346
      ],
      [
        103.7442639,
        1.3843444
      ],
      [
        103.7444499,
        1.3843881
      ],
      [
        103.7447032,
        1.3844693
      ],
      [
        103.7447479,
        1.3844825
      ],
      [
        103.7453982,
        1.384687
      ],
      [
        103.7455088,
        1.3847213
      ],
      [
        103.7458494,
        1.3848395
      ],
      [
        103.7459496,
        1.3848784
      ],
      [
        103.7462079,
        1.3849767
      ],
      [
        103.7462874,
        1.385007
      ],
      [
        103.7463763,
        1.3850406
      ],
      [
        103.746417,
        1.3849556
      ],
      [
        103.7464432,
        1.3849093
      ],
      [
        103.7466498,
        1.3846012
      ],
      [
        103.7467356,
        1.3844751
      ],
      [
        103.7468015,
        1.38437
      ],
      [
        103.7468399,
        1.3843123
      ],
      [
        103.7469764,
        1.3840633
      ],
      [
        103.7470062,
        1.38402
      ],
      [
        103.7470435,
        1.3839658
      ],
      [
        103.7470769,
        1.3839172
      ],
      [
        103.7472285,
        1.3837078
      ],
      [
        103.747361,
        1.3835538
      ],
      [
        103.7474734,
        1.3834582
      ],
      [
        103.747601,
        1.3833778
      ],
      [
        103.7479581,
        1.3832173
      ],
      [
        103.7482102,
        1.3831005
      ],
      [
        103.7493362,
        1.3825726
      ],
      [
        103.7496678,
        1.382416
      ],
      [
        103.7499067,
        1.3823062
      ],
      [
        103.750116,
        1.3822108
      ],
      [
        103.7501479,
        1.3821963
      ],
      [
        103.7502371,
        1.3821552
      ],
      [
        103.7501923,
        1.3820586
      ],
      [
        103.7501794,
        1.3820309
      ],
      [
        103.7501204,
        1.3819047
      ],
      [
        103.74985,
        1.3813164
      ],
      [
        103.7496604,
        1.3808789
      ],
      [
        103.7495864,
        1.3807039
      ],
      [
        103.7495542,
        1.3806278
      ],
      [
        103.7493033,
        1.3800647
      ],
      [
        103.7492698,
        1.3799896
      ],
      [
        103.7492076,
        1.3798427
      ],
      [
        103.7491218,
        1.3796399
      ],
      [
        103.7491107,
        1.3796138
      ],
      [
        103.748986,
        1.3793294
      ],
      [
        103.7489122,
        1.3792023
      ],
      [
        103.7488296,
        1.3790275
      ],
      [
        103.7487632,
        1.3788702
      ],
      [
        103.7499436,
        1.3780616
      ],
      [
        103.7500911,
        1.3779944
      ],
      [
        103.7502886,
        1.3779095
      ],
      [
        103.7504146,
        1.3778529
      ],
      [
        103.7512076,
        1.3775054
      ],
      [
        103.7517319,
        1.3772677
      ],
      [
        103.7517708,
        1.3772499
      ],
      [
        103.7518306,
        1.3772227
      ],
      [
        103.7517898,
        1.3771174
      ],
      [
        103.7517725,
        1.3770726
      ],
      [
        103.7516884,
        1.3768843
      ],
      [
        103.7514285,
        1.3762773
      ],
      [
        103.7513973,
        1.376203
      ],
      [
        103.7512377,
        1.3758343
      ],
      [
        103.7511875,
        1.3757251
      ],
      [
        103.7510692,
        1.375468
      ],
      [
        103.7510519,
        1.3754314
      ],
      [
        103.7510174,
        1.3753626
      ],
      [
        103.7509649,
        1.3753913
      ],
      [
        103.7508903,
        1.3754238
      ],
      [
        103.750747,
        1.3754864
      ],
      [
        103.7501778,
        1.3757448
      ],
      [
        103.7500313,
        1.3758113
      ],
      [
        103.749837,
        1.3758629
      ],
      [
        103.7496426,
        1.3758775
      ],
      [
        103.7493683,
        1.375851
      ],
      [
        103.7491882,
        1.3758013
      ],
      [
        103.749103,
        1.3757778
      ],
      [
        103.7488173,
        1.375699
      ],
      [
        103.748803,
        1.375695
      ],
      [
        103.7474209,
        1.3753208
      ],
      [
        103.746867,
        1.3751694
      ],
      [
        103.7466342,
        1.3751056
      ],
      [
        103.74662,
        1.3751017
      ],
      [
        103.7465327,
        1.3750806
      ],
      [
        103.74651,
        1.3751592
      ],
      [
        103.7464937,
        1.3752167
      ],
      [
        103.746434,
        1.3754266
      ],
      [
        103.7463302,
        1.375792
      ],
      [
        103.7462632,
        1.376041
      ],
      [
        103.7462017,
        1.3762701
      ],
      [
        103.746142,
        1.3764883
      ],
      [
        103.7459872,
        1.3766311
      ],
      [
        103.7459508,
        1.3766528
      ],
      [
        103.7459098,
        1.3766771
      ],
      [
        103.7458223,
        1.3767038
      ],
      [
        103.7453357,
        1.3765697
      ],
      [
        103.7450977,
        1.3765051
      ],
      [
        103.7448826,
        1.376437
      ],
      [
        103.7447699,
        1.37641
      ],
      [
        103.7446646,
        1.3763848
      ],
      [
        103.7443764,
        1.376349
      ],
      [
        103.7438608,
        1.3763236
      ],
      [
        103.7434779,
        1.3762826
      ],
      [
        103.7433372,
        1.3762735
      ],
      [
        103.7431041,
        1.3762385
      ],
      [
        103.7430068,
        1.3762226
      ],
      [
        103.7428702,
        1.3761986
      ],
      [
        103.7427761,
        1.3761846
      ],
      [
        103.7426681,
        1.3761644
      ],
      [
        103.742457,
        1.3761251
      ],
      [
        103.7424119,
        1.3761241
      ],
      [
        103.7423448,
        1.376127
      ],
      [
        103.7422588,
        1.3761351
      ],
      [
        103.7422126,
        1.3761404
      ],
      [
        103.7420746,
        1.3761635
      ],
      [
        103.7415952,
        1.3763197
      ],
      [
        103.7407052,
        1.3766475
      ],
      [
        103.7405998,
        1.3766856
      ],
      [
        103.7404768,
        1.3767423
      ],
      [
        103.740385,
        1.3768092
      ],
      [
        103.7402883,
        1.3768948
      ],
      [
        103.7401962,
        1.377017
      ],
      [
        103.7400932,
        1.3771508
      ],
      [
        103.7400313,
        1.3772326
      ],
      [
        103.7399809,
        1.3773116
      ],
      [
        103.7397116,
        1.3777335
      ],
      [
        103.7396479,
        1.3778333
      ],
      [
        103.7395751,
        1.3779439
      ],
      [
        103.7394715,
        1.3781014
      ],
      [
        103.7393006,
        1.3783533
      ],
      [
        103.7387278,
        1.3782283
      ],
      [
        103.7386385,
        1.3781686
      ],
      [
        103.7384759,
        1.3780662
      ],
      [
        103.7383562,
        1.3779857
      ],
      [
        103.7382342,
        1.3779034
      ],
      [
        103.7379771,
        1.3777267
      ],
      [
        103.7376731,
        1.3775241
      ],
      [
        103.7374479,
        1.3773572
      ],
      [
        103.7372567,
        1.3772284
      ],
      [
        103.7372177,
        1.3772051
      ],
      [
        103.7371426,
        1.3771612
      ],
      [
        103.7370955,
        1.3771261
      ],
      [
        103.7369314,
        1.3770278
      ],
      [
        103.736492,
        1.3767879
      ],
      [
        103.736012,
        1.3764521
      ],
      [
        103.7359161,
        1.3762936
      ],
      [
        103.7358983,
        1.3762604
      ],
      [
        103.7358908,
        1.3761916
      ],
      [
        103.7358904,
        1.376143
      ],
      [
        103.7358888,
        1.3760477
      ],
      [
        103.7358887,
        1.3759418
      ],
      [
        103.7358892,
        1.3758927
      ],
      [
        103.7358857,
        1.3757259
      ],
      [
        103.735927,
        1.3756918
      ],
      [
        103.7373043,
        1.3746081
      ],
      [
        103.7379276,
        1.3741898
      ],
      [
        103.738458,
        1.3738671
      ],
      [
        103.7385969,
        1.3737986
      ],
      [
        103.7391884,
        1.373507
      ],
      [
        103.7404928,
        1.3730194
      ],
      [
        103.7406832,
        1.3729639
      ],
      [
        103.740911,
        1.3728921
      ],
      [
        103.7412421,
        1.3727882
      ],
      [
        103.7412976,
        1.3727694
      ],
      [
        103.7413745,
        1.372745
      ],
      [
        103.7414449,
        1.3727255
      ],
      [
        103.7417094,
        1.3726618
      ],
      [
        103.7419126,
        1.3726088
      ],
      [
        103.742178,
        1.3725461
      ],
      [
        103.7432528,
        1.3723169
      ],
      [
        103.7440107,
        1.3721679
      ],
      [
        103.7449076,
        1.3719751
      ],
      [
        103.7452558,
        1.3718822
      ],
      [
        103.7454693,
        1.3718033
      ],
      [
        103.7456855,
        1.3716692
      ],
      [
        103.7458698,
        1.371494
      ],
      [
        103.7460542,
        1.3713188
      ],
      [
        103.7461896,
        1.3712037
      ],
      [
        103.7462634,
        1.3711365
      ],
      [
        103.7463149,
        1.3710898
      ],
      [
        103.7463869,
        1.3710291
      ],
      [
        103.74642,
        1.3709989
      ],
      [
        103.746574,
        1.3708586
      ],
      [
        103.7466219,
        1.3708154
      ],
      [
        103.7468006,
        1.3706481
      ],
      [
        103.7475885,
        1.369966
      ],
      [
        103.7477162,
        1.3698547
      ],
      [
        103.7479031,
        1.3696993
      ],
      [
        103.7481821,
        1.3694638
      ],
      [
        103.7484611,
        1.3692277
      ],
      [
        103.7485329,
        1.3691678
      ],
      [
        103.7486422,
        1.3690773
      ],
      [
        103.7486928,
        1.3690267
      ],
      [
        103.7489241,
        1.3688173
      ],
      [
        103.7491423,
        1.3686329
      ],
      [
        103.7492691,
        1.368488
      ],
      [
        103.749376,
        1.3683869
      ],
      [
        103.7496095,
        1.3681834
      ],
      [
        103.7499726,
        1.367867
      ],
      [
        103.7504497,
        1.3674116
      ],
      [
        103.750563,
        1.3672632
      ],
      [
        103.7506585,
        1.3671415
      ],
      [
        103.7509017,
        1.3667816
      ],
      [
        103.7509653,
        1.3666739
      ],
      [
        103.7510123,
        1.3665722
      ],
      [
        103.751076,
        1.3664084
      ],
      [
        103.7511412,
        1.3662424
      ],
      [
        103.7512297,
        1.3659743
      ],
      [
        103.7513039,
        1.3657132
      ],
      [
        103.7513366,
        1.3655339
      ],
      [
        103.7513478,
        1.3654722
      ],
      [
        103.7513546,
        1.3654246
      ],
      [
        103.7513686,
        1.365248
      ],
      [
        103.7513864,
        1.3649432
      ],
      [
        103.751401,
        1.3646093
      ],
      [
        103.7514237,
        1.3639057
      ],
      [
        103.7514319,
        1.3637975
      ],
      [
        103.7514376,
        1.3635676
      ],
      [
        103.7514753,
        1.36265
      ],
      [
        103.7514992,
        1.3620731
      ],
      [
        103.7515065,
        1.3618301
      ],
      [
        103.7515505,
        1.3608614
      ],
      [
        103.7515874,
        1.3599137
      ],
      [
        103.7515928,
        1.3598268
      ],
      [
        103.7516031,
        1.3593643
      ],
      [
        103.7516147,
        1.359047
      ],
      [
        103.7516171,
        1.3590057
      ],
      [
        103.7516226,
        1.3587659
      ],
      [
        103.7516174,
        1.3586634
      ],
      [
        103.7515974,
        1.3585231
      ],
      [
        103.75157,
        1.3584105
      ],
      [
        103.7515209,
        1.3582214
      ],
      [
        103.7514728,
        1.3581058
      ],
      [
        103.7514412,
        1.3580632
      ],
      [
        103.7514088,
        1.3580259
      ],
      [
        103.7512751,
        1.3578432
      ],
      [
        103.7508537,
        1.3573619
      ],
      [
        103.7507811,
        1.3573025
      ],
      [
        103.7504541,
        1.3569472
      ],
      [
        103.7503574,
        1.3568491
      ],
      [
        103.7501559,
        1.3566963
      ],
      [
        103.7500713,
        1.3566426
      ],
      [
        103.7498683,
        1.3565621
      ],
      [
        103.7496829,
        1.3565154
      ],
      [
        103.749571,
        1.3565024
      ],
      [
        103.7492019,
        1.3564807
      ],
      [
        103.7491149,
        1.3564778
      ],
      [
        103.748502,
        1.3564564
      ],
      [
        103.7482173,
        1.3564434
      ],
      [
        103.7474683,
        1.3564037
      ],
      [
        103.7473565,
        1.3563967
      ],
      [
        103.7472662,
        1.356391
      ],
      [
        103.7471775,
        1.3563855
      ],
      [
        103.7464074,
        1.3563635
      ],
      [
        103.7458725,
        1.356359
      ],
      [
        103.745709,
        1.3563667
      ],
      [
        103.7455805,
        1.3563814
      ],
      [
        103.7454701,
        1.3564014
      ],
      [
        103.7453713,
        1.3564185
      ],
      [
        103.7452802,
        1.3564423
      ],
      [
        103.745045,
        1.3565094
      ],
      [
        103.7447634,
        1.3566366
      ],
      [
        103.7446967,
        1.3566809
      ],
      [
        103.7445346,
        1.3567871
      ],
      [
        103.7444584,
        1.3568334
      ],
      [
        103.7444064,
        1.35687
      ],
      [
        103.7442771,
        1.356967
      ],
      [
        103.7439742,
        1.357213
      ],
      [
        103.7434204,
        1.3576447
      ],
      [
        103.7433058,
        1.357733
      ],
      [
        103.7430178,
        1.3579546
      ],
      [
        103.7428748,
        1.3580646
      ],
      [
        103.7424069,
        1.3584309
      ],
      [
        103.7422684,
        1.3584784
      ],
      [
        103.7421937,
        1.3584859
      ],
      [
        103.7421597,
        1.3584853
      ],
      [
        103.7420979,
        1.3584696
      ],
      [
        103.7420228,
        1.3584351
      ],
      [
        103.7418223,
        1.3581746
      ],
      [
        103.7417194,
        1.3580422
      ],
      [
        103.7416442,
        1.3579454
      ],
      [
        103.7411796,
        1.3573475
      ],
      [
        103.7408921,
        1.3569787
      ],
      [
        103.7407582,
        1.3568059
      ],
      [
        103.7406048,
        1.3566141
      ],
      [
        103.7404924,
        1.3564775
      ],
      [
        103.7403531,
        1.356309
      ],
      [
        103.7402067,
        1.356107
      ],
      [
        103.7401641,
        1.3560482
      ],
      [
        103.740087,
        1.3559418
      ],
      [
        103.7400406,
        1.3558777
      ],
      [
        103.7399431,
        1.3557433
      ],
      [
        103.7398596,
        1.3556164
      ],
      [
        103.7396858,
        1.3553946
      ],
      [
        103.7396094,
        1.3552972
      ],
      [
        103.7394478,
        1.355084
      ],
      [
        103.73921,
        1.3547577
      ],
      [
        103.7390135,
        1.3544922
      ],
      [
        103.738951,
        1.3543844
      ],
      [
        103.7388974,
        1.354263
      ],
      [
        103.7388526,
        1.3541181
      ],
      [
        103.7388337,
        1.3540309
      ],
      [
        103.7388225,
        1.3538879
      ],
      [
        103.7388252,
        1.353758
      ],
      [
        103.7388533,
        1.3535943
      ],
      [
        103.7388903,
        1.3534614
      ],
      [
        103.7389426,
        1.3533403
      ],
      [
        103.7390824,
        1.3530395
      ],
      [
        103.7391609,
        1.3528717
      ],
      [
        103.7391909,
        1.3528139
      ],
      [
        103.739243,
        1.3527217
      ],
      [
        103.7392624,
        1.352683
      ],
      [
        103.7393412,
        1.3525246
      ],
      [
        103.7394377,
        1.3523167
      ],
      [
        103.7395603,
        1.3519572
      ],
      [
        103.7396104,
        1.3517866
      ],
      [
        103.7396288,
        1.3516112
      ],
      [
        103.7396144,
        1.351355
      ],
      [
        103.7396044,
        1.3512116
      ],
      [
        103.7396097,
        1.350718
      ],
      [
        103.7396072,
        1.3503877
      ],
      [
        103.7396115,
        1.3499149
      ],
      [
        103.7396113,
        1.3498373
      ],
      [
        103.7396784,
        1.3498361
      ],
      [
        103.7403144,
        1.3498242
      ],
      [
        103.7409373,
        1.3498127
      ],
      [
        103.7410226,
        1.3498151
      ],
      [
        103.7410664,
        1.3498177
      ],
      [
        103.7413693,
        1.3498293
      ],
      [
        103.7415769,
        1.3498516
      ],
      [
        103.7417953,
        1.3498791
      ],
      [
        103.7421269,
        1.3499812
      ],
      [
        103.7422842,
        1.350066
      ],
      [
        103.7423305,
        1.3499936
      ],
      [
        103.7424792,
        1.349748
      ],
      [
        103.7425846,
        1.3495842
      ],
      [
        103.74266,
        1.3494314
      ],
      [
        103.7427134,
        1.3493219
      ],
      [
        103.7427673,
        1.3492115
      ],
      [
        103.7427816,
        1.3491928
      ],
      [
        103.7428531,
        1.3490989
      ],
      [
        103.7428745,
        1.349085
      ],
      [
        103.7429443,
        1.3490399
      ],
      [
        103.7430516,
        1.3489943
      ],
      [
        103.7431803,
        1.3489783
      ],
      [
        103.743346,
        1.3489846
      ],
      [
        103.7434466,
        1.3489881
      ],
      [
        103.743553,
        1.3489914
      ],
      [
        103.7436827,
        1.3489963
      ],
      [
        103.7437729,
        1.3490008
      ],
      [
        103.7440376,
        1.349013
      ],
      [
        103.7441667,
        1.3490202
      ],
      [
        103.7443012,
        1.3490258
      ],
      [
        103.7444635,
        1.3490326
      ],
      [
        103.7445562,
        1.3490395
      ],
      [
        103.7445964,
        1.3491609
      ],
      [
        103.7446233,
        1.3492236
      ],
      [
        103.744727,
        1.3494652
      ],
      [
        103.7448063,
        1.3496174
      ],
      [
        103.7448136,
        1.3496314
      ],
      [
        103.744841,
        1.349684
      ],
      [
        103.745101,
        1.3502638
      ],
      [
        103.7451253,
        1.350324
      ],
      [
        103.7451701,
        1.3504347
      ],
      [
        103.7452188,
        1.3505505
      ],
      [
        103.7453191,
        1.3508468
      ],
      [
        103.745339,
        1.3510316
      ],
      [
        103.7453411,
        1.3510986
      ],
      [
        103.7453397,
        1.3511832
      ],
      [
        103.7453371,
        1.3512729
      ],
      [
        103.7453221,
        1.3514666
      ],
      [
        103.745295,
        1.3516941
      ],
      [
        103.7452695,
        1.3519665
      ],
      [
        103.7452607,
        1.3520525
      ],
      [
        103.7452435,
        1.3521527
      ],
      [
        103.7453775,
        1.3521689
      ],
      [
        103.7454237,
        1.3521753
      ],
      [
        103.745632,
        1.3522051
      ],
      [
        103.7458719,
        1.3522402
      ],
      [
        103.7461304,
        1.3522772
      ],
      [
        103.7466448,
        1.3523591
      ],
      [
        103.7469045,
        1.3523906
      ],
      [
        103.7471775,
        1.3524114
      ],
      [
        103.7474397,
        1.3524091
      ],
      [
        103.7482699,
        1.3524126
      ],
      [
        103.7483516,
        1.3524132
      ],
      [
        103.7484469,
        1.3524078
      ],
      [
        103.7485087,
        1.3524064
      ],
      [
        103.7487493,
        1.3523892
      ],
      [
        103.7490349,
        1.3523688
      ],
      [
        103.7492802,
        1.3523004
      ],
      [
        103.7496404,
        1.3521008
      ],
      [
        103.749792,
        1.3520083
      ],
      [
        103.7499382,
        1.3518675
      ],
      [
        103.7502104,
        1.3516058
      ],
      [
        103.7502898,
        1.3515227
      ],
      [
        103.7507726,
        1.351046
      ],
      [
        103.7508773,
        1.3509429
      ],
      [
        103.7511148,
        1.3507323
      ],
      [
        103.7514874,
        1.350452
      ],
      [
        103.7516159,
        1.3503508
      ],
      [
        103.7517144,
        1.3502803
      ],
      [
        103.7517144,
        1.3502803
      ],
      [
        103.7516047,
        1.350127
      ],
      [
        103.7516571,
        1.3501999
      ],
      [
        103.7513824,
        1.3498238
      ],
      [
        103.7509303,
        1.349425
      ],
      [
        103.7510084,
        1.3494005
      ],
      [
        103.751048,
        1.3494009
      ],
      [
        103.7510928,
        1.3494179
      ],
      [
        103.7511482,
        1.3494958
      ],
      [
        103.7392145,
        1.3784741
      ],
      [
        103.7391917,
        1.378513
      ],
      [
        103.739148,
        1.3784795
      ],
      [
        103.7390134,
        1.3783966
      ],
      [
        103.7486867,
        1.3786856
      ],
      [
        103.7486692,
        1.3786433
      ],
      [
        103.748707,
        1.3786258
      ],
      [
        103.7488418,
        1.3785597
      ]
    ]
  }
}