{
  "type": "Feature",
  "properties": {
    "relation": 16735802,
    "direction": "1",
    "fee": "yes",
    "from": "Simei Station",
    "name": "Svc 9B (Simei Station → 3rd Cargo Agents)",
    "name:en": "Svc 9B (Simei Station → 3rd Cargo Agents)",
    "network": "Land Transport Authority",
    "network:short": "LTA",
    "network:wikidata": "Q3299279",
    "network:wikipedia": "en:Land Transport Authority",
    "operator": "SBS Transit",
    "operator:wikidata": "Q2661305",
    "operator:wikipedia": "en:SBS Transit",
    "public_transport:version": "2",
    "ref": "9B",
    "roundtrip": "no",
    "route": "bus",
    "to": "3rd Cargo Agents",
    "type": "route",
    "website": "https://www.sbstransit.com.sg/"
  },
  "geometry": {
    "type": "LineString",
    "coordinates": [
      [
        103.9531624,
        1.341945
      ],
      [
        103.9531917,
        1.3419688
      ],
      [
        103.9536546,
        1.3423691
      ],
      [
        103.9537586,
        1.342456
      ],
      [
        103.9538839,
        1.3425627
      ],
      [
        103.9542152,
        1.3428457
      ],
      [
        103.9546731,
        1.3432458
      ],
      [
        103.9547627,
        1.3433222
      ],
      [
        103.9548401,
        1.3433765
      ],
      [
        103.954881,
        1.3434116
      ],
      [
        103.9556206,
        1.3440456
      ],
      [
        103.9557941,
        1.3441873
      ],
      [
        103.9560069,
        1.3443633
      ],
      [
        103.956141,
        1.3444464
      ],
      [
        103.956158,
        1.3444548
      ],
      [
        103.9562791,
        1.3445148
      ],
      [
        103.9564601,
        1.3445617
      ],
      [
        103.9566055,
        1.344564
      ],
      [
        103.956724,
        1.3445656
      ],
      [
        103.9569812,
        1.3445474
      ],
      [
        103.9576082,
        1.3445031
      ],
      [
        103.9576758,
        1.344497
      ],
      [
        103.9576807,
        1.3445503
      ],
      [
        103.9577235,
        1.3449689
      ],
      [
        103.9577516,
        1.3454963
      ],
      [
        103.9577627,
        1.3457055
      ],
      [
        103.9577704,
        1.3458502
      ],
      [
        103.9577879,
        1.3460715
      ],
      [
        103.9578033,
        1.3462654
      ],
      [
        103.9578067,
        1.3463077
      ],
      [
        103.9578106,
        1.346357
      ],
      [
        103.9578162,
        1.3464208
      ],
      [
        103.9578509,
        1.3468035
      ],
      [
        103.9578509,
        1.3469201
      ],
      [
        103.9578455,
        1.3471909
      ],
      [
        103.957808,
        1.3473411
      ],
      [
        103.9577677,
        1.3474644
      ],
      [
        103.9577041,
        1.3475754
      ],
      [
        103.957698,
        1.3475905
      ],
      [
        103.9575076,
        1.3479372
      ],
      [
        103.9573976,
        1.3481295
      ],
      [
        103.9573731,
        1.3481676
      ],
      [
        103.9572286,
        1.3483922
      ],
      [
        103.9570021,
        1.3488236
      ],
      [
        103.9566038,
        1.3495824
      ],
      [
        103.9561918,
        1.3503359
      ],
      [
        103.955956,
        1.3507672
      ],
      [
        103.9558952,
        1.3508826
      ],
      [
        103.9558178,
        1.3510295
      ],
      [
        103.9556614,
        1.3513084
      ],
      [
        103.955527,
        1.3515244
      ],
      [
        103.9553261,
        1.351768
      ],
      [
        103.955268,
        1.3518139
      ],
      [
        103.9552143,
        1.3518554
      ],
      [
        103.9551204,
        1.3519136
      ],
      [
        103.9548579,
        1.352099
      ],
      [
        103.954667,
        1.3522317
      ],
      [
        103.9546065,
        1.352276
      ],
      [
        103.9545022,
        1.3523366
      ],
      [
        103.9545506,
        1.3524091
      ],
      [
        103.9546725,
        1.3525982
      ],
      [
        103.9547961,
        1.352818
      ],
      [
        103.9548624,
        1.3529495
      ],
      [
        103.9549604,
        1.3531785
      ],
      [
        103.955026,
        1.3533527
      ],
      [
        103.9551291,
        1.3537004
      ],
      [
        103.955154,
        1.3537849
      ],
      [
        103.9551786,
        1.3538785
      ],
      [
        103.9552256,
        1.3540369
      ],
      [
        103.9552617,
        1.3541586
      ],
      [
        103.9552976,
        1.3543119
      ],
      [
        103.9553246,
        1.354458
      ],
      [
        103.9553306,
        1.3544904
      ],
      [
        103.9553618,
        1.3548654
      ],
      [
        103.9553818,
        1.3552416
      ],
      [
        103.9553836,
        1.3555177
      ],
      [
        103.9553873,
        1.3558324
      ],
      [
        103.9553988,
        1.3561251
      ],
      [
        103.9554046,
        1.3562134
      ],
      [
        103.9554027,
        1.3563141
      ],
      [
        103.955507,
        1.3563137
      ],
      [
        103.9555609,
        1.3563117
      ],
      [
        103.955869,
        1.3563001
      ],
      [
        103.9563155,
        1.3563026
      ],
      [
        103.9564418,
        1.3563053
      ],
      [
        103.9566537,
        1.3563251
      ],
      [
        103.9568226,
        1.3563559
      ],
      [
        103.9569974,
        1.3564069
      ],
      [
        103.9571264,
        1.3564553
      ],
      [
        103.9572339,
        1.3565081
      ],
      [
        103.9573701,
        1.3565825
      ],
      [
        103.9574768,
        1.3566524
      ],
      [
        103.9575664,
        1.3567205
      ],
      [
        103.9576694,
        1.3568074
      ],
      [
        103.9578177,
        1.3569406
      ],
      [
        103.9579593,
        1.3570819
      ],
      [
        103.9581836,
        1.3573057
      ],
      [
        103.9584037,
        1.3575307
      ],
      [
        103.9584666,
        1.3575996
      ],
      [
        103.9585264,
        1.3576631
      ],
      [
        103.9586756,
        1.3578232
      ],
      [
        103.9589748,
        1.3581139
      ],
      [
        103.9594679,
        1.3585917
      ],
      [
        103.9595549,
        1.3586761
      ],
      [
        103.9599373,
        1.3590326
      ],
      [
        103.960187,
        1.3592962
      ],
      [
        103.9604057,
        1.3595271
      ],
      [
        103.9604876,
        1.3596172
      ],
      [
        103.9608249,
        1.3599834
      ],
      [
        103.9609406,
        1.360109
      ],
      [
        103.9611106,
        1.3602828
      ],
      [
        103.9611525,
        1.3603249
      ],
      [
        103.9613723,
        1.3605353
      ],
      [
        103.9617726,
        1.3609413
      ],
      [
        103.9619896,
        1.3611614
      ],
      [
        103.9623079,
        1.361477
      ],
      [
        103.9624969,
        1.3616678
      ],
      [
        103.9631956,
        1.3623637
      ],
      [
        103.9636219,
        1.3627929
      ],
      [
        103.9640489,
        1.3632485
      ],
      [
        103.9642063,
        1.3633988
      ],
      [
        103.9642986,
        1.3634927
      ],
      [
        103.964316,
        1.363509
      ],
      [
        103.964458,
        1.3636423
      ],
      [
        103.964752,
        1.3639382
      ],
      [
        103.9651937,
        1.3643871
      ],
      [
        103.9658588,
        1.3650504
      ],
      [
        103.966188,
        1.3654903
      ],
      [
        103.9662511,
        1.3656202
      ],
      [
        103.9663437,
        1.3657337
      ],
      [
        103.9664706,
        1.36584
      ],
      [
        103.9665403,
        1.3658959
      ],
      [
        103.9665972,
        1.3659455
      ],
      [
        103.9667661,
        1.366049
      ],
      [
        103.9668347,
        1.3660784
      ],
      [
        103.96691,
        1.3661273
      ],
      [
        103.9693942,
        1.3686302
      ],
      [
        103.9695129,
        1.3689521
      ],
      [
        103.9695718,
        1.3691506
      ],
      [
        103.9695959,
        1.3692979
      ],
      [
        103.9695907,
        1.3694159
      ],
      [
        103.9695498,
        1.3695631
      ],
      [
        103.9694954,
        1.3696567
      ],
      [
        103.9694672,
        1.3697541
      ],
      [
        103.9689206,
        1.3703301
      ],
      [
        103.9688524,
        1.3704048
      ],
      [
        103.968814,
        1.3704439
      ],
      [
        103.9687594,
        1.3704979
      ],
      [
        103.9689938,
        1.3707317
      ],
      [
        103.9692135,
        1.3709508
      ],
      [
        103.9692928,
        1.3710299
      ],
      [
        103.969389,
        1.3711258
      ],
      [
        103.9696874,
        1.3714235
      ],
      [
        103.9697326,
        1.3714685
      ],
      [
        103.9698523,
        1.3715879
      ],
      [
        103.96993,
        1.3716659
      ],
      [
        103.9702378,
        1.3719751
      ],
      [
        103.9706091,
        1.3723479
      ],
      [
        103.9706972,
        1.3724364
      ],
      [
        103.9707603,
        1.3724997
      ],
      [
        103.9714904,
        1.3732328
      ],
      [
        103.9716911,
        1.3734343
      ],
      [
        103.9719741,
        1.3737185
      ],
      [
        103.9721267,
        1.3738717
      ],
      [
        103.9726155,
        1.3743625
      ],
      [
        103.9731557,
        1.3749049
      ],
      [
        103.9732848,
        1.3750346
      ],
      [
        103.9734592,
        1.3752097
      ],
      [
        103.9735302,
        1.375281
      ],
      [
        103.9735896,
        1.3753406
      ],
      [
        103.9736561,
        1.3754074
      ],
      [
        103.9737052,
        1.3753534
      ],
      [
        103.9737715,
        1.3752881
      ],
      [
        103.9743833,
        1.3746188
      ],
      [
        103.9745564,
        1.3744293
      ],
      [
        103.9745852,
        1.3743958
      ],
      [
        103.9746947,
        1.3743624
      ],
      [
        103.9747948,
        1.3743635
      ],
      [
        103.9748894,
        1.3743897
      ],
      [
        103.974995,
        1.3744277
      ],
      [
        103.9750522,
        1.374443
      ],
      [
        103.9754962,
        1.3749502
      ],
      [
        103.9763848,
        1.375836
      ],
      [
        103.9768778,
        1.3763687
      ],
      [
        103.9772521,
        1.3767412
      ],
      [
        103.9773167,
        1.3768055
      ],
      [
        103.9778658,
        1.377312
      ],
      [
        103.977989,
        1.3773962
      ],
      [
        103.9781314,
        1.3775081
      ],
      [
        103.9782464,
        1.377667
      ],
      [
        103.9783653,
        1.3779119
      ],
      [
        103.9784745,
        1.3783256
      ],
      [
        103.9785202,
        1.3787801
      ],
      [
        103.9785028,
        1.3793013
      ],
      [
        103.9784991,
        1.3794742
      ],
      [
        103.9784366,
        1.3804479
      ],
      [
        103.9783741,
        1.3815408
      ],
      [
        103.9783488,
        1.3819927
      ],
      [
        103.9783051,
        1.3827589
      ],
      [
        103.9782264,
        1.3841167
      ],
      [
        103.978222,
        1.3845661
      ],
      [
        103.978237,
        1.3847903
      ],
      [
        103.9782658,
        1.384984
      ],
      [
        103.978353,
        1.385284
      ],
      [
        103.9784318,
        1.3855022
      ],
      [
        103.9785383,
        1.3857331
      ],
      [
        103.9786246,
        1.3858876
      ],
      [
        103.9787064,
        1.386014
      ],
      [
        103.9788363,
        1.3861959
      ],
      [
        103.9789397,
        1.3863165
      ],
      [
        103.9790737,
        1.3864546
      ],
      [
        103.9791846,
        1.3865566
      ],
      [
        103.9794835,
        1.3867994
      ],
      [
        103.9797719,
        1.3869909
      ],
      [
        103.9799796,
        1.3871035
      ],
      [
        103.980023,
        1.3871262
      ],
      [
        103.9801152,
        1.3871681
      ],
      [
        103.9801773,
        1.3871986
      ],
      [
        103.9801871,
        1.3872031
      ],
      [
        103.9803622,
        1.387283
      ],
      [
        103.9811203,
        1.3875882
      ],
      [
        103.981223,
        1.3876235
      ],
      [
        103.9816055,
        1.3877551
      ],
      [
        103.9819653,
        1.3878746
      ],
      [
        103.9821846,
        1.3879282
      ],
      [
        103.9823516,
        1.387955
      ],
      [
        103.9824387,
        1.3879631
      ],
      [
        103.9825232,
        1.3879677
      ],
      [
        103.9826455,
        1.3879619
      ],
      [
        103.9829803,
        1.3879505
      ],
      [
        103.9839195,
        1.3878827
      ],
      [
        103.9842972,
        1.3878376
      ],
      [
        103.9851441,
        1.387746
      ],
      [
        103.9851625,
        1.3877425
      ],
      [
        103.9860566,
        1.3876518
      ],
      [
        103.9864086,
        1.387616
      ],
      [
        103.9865725,
        1.3875999
      ],
      [
        103.9869374,
        1.3875753
      ],
      [
        103.9872411,
        1.387566
      ],
      [
        103.9872886,
        1.3875645
      ],
      [
        103.9874022,
        1.3875608
      ],
      [
        103.9874488,
        1.387562
      ],
      [
        103.9877513,
        1.3875707
      ],
      [
        103.9878596,
        1.387578
      ],
      [
        103.9880023,
        1.3875877
      ],
      [
        103.9880539,
        1.3875983
      ],
      [
        103.9883208,
        1.3876668
      ],
      [
        103.9884381,
        1.3877056
      ],
      [
        103.9886443,
        1.3878067
      ],
      [
        103.9887248,
        1.3878488
      ],
      [
        103.9888706,
        1.3879418
      ],
      [
        103.9889914,
        1.3880123
      ],
      [
        103.9891523,
        1.3881338
      ],
      [
        103.9891963,
        1.3881664
      ],
      [
        103.9893572,
        1.3882937
      ],
      [
        103.9895049,
        1.3884504
      ],
      [
        103.9896614,
        1.3886506
      ],
      [
        103.9897892,
        1.3888723
      ],
      [
        103.9898735,
        1.3890653
      ],
      [
        103.9899266,
        1.3892257
      ],
      [
        103.9900806,
        1.3897
      ],
      [
        103.9901318,
        1.3898403
      ],
      [
        103.9901627,
        1.3901031
      ],
      [
        103.9902076,
        1.3902964
      ],
      [
        103.9902089,
        1.3903021
      ],
      [
        103.990307,
        1.3907658
      ],
      [
        103.9903358,
        1.3910434
      ],
      [
        103.9903326,
        1.3910452
      ],
      [
        103.9903295,
        1.3910472
      ],
      [
        103.9903264,
        1.3910494
      ],
      [
        103.9903235,
        1.3910516
      ],
      [
        103.9903206,
        1.391054
      ],
      [
        103.9903179,
        1.3910564
      ],
      [
        103.9903152,
        1.391059
      ],
      [
        103.9903127,
        1.3910617
      ],
      [
        103.9903102,
        1.3910644
      ],
      [
        103.9903079,
        1.3910673
      ],
      [
        103.9903057,
        1.3910702
      ],
      [
        103.9903036,
        1.3910733
      ],
      [
        103.9903016,
        1.3910764
      ],
      [
        103.9902997,
        1.3910796
      ],
      [
        103.990298,
        1.3910829
      ],
      [
        103.9902964,
        1.3910862
      ],
      [
        103.9902949,
        1.3910896
      ],
      [
        103.9902936,
        1.391093
      ],
      [
        103.9902924,
        1.3910965
      ],
      [
        103.9902913,
        1.3911001
      ],
      [
        103.9902904,
        1.3911037
      ],
      [
        103.9902896,
        1.3911076
      ],
      [
        103.9902889,
        1.3911117
      ],
      [
        103.9902884,
        1.3911157
      ],
      [
        103.9902881,
        1.3911197
      ],
      [
        103.9902879,
        1.3911238
      ],
      [
        103.9902879,
        1.3911279
      ],
      [
        103.9902881,
        1.3911319
      ],
      [
        103.9902885,
        1.391136
      ],
      [
        103.9902891,
        1.39114
      ],
      [
        103.9902898,
        1.391144
      ],
      [
        103.9902907,
        1.391148
      ],
      [
        103.9902918,
        1.3911519
      ],
      [
        103.990293,
        1.3911558
      ],
      [
        103.9902944,
        1.3911596
      ],
      [
        103.990296,
        1.3911633
      ],
      [
        103.9902977,
        1.391167
      ],
      [
        103.9902996,
        1.3911706
      ],
      [
        103.9903017,
        1.3911741
      ],
      [
        103.9903039,
        1.3911776
      ],
      [
        103.9903062,
        1.3911809
      ],
      [
        103.9903087,
        1.3911841
      ],
      [
        103.9903113,
        1.3911872
      ],
      [
        103.9903141,
        1.3911902
      ],
      [
        103.990317,
        1.3911931
      ],
      [
        103.99032,
        1.3911958
      ],
      [
        103.9903231,
        1.3911984
      ],
      [
        103.9903263,
        1.3912009
      ],
      [
        103.9903296,
        1.3912033
      ],
      [
        103.9903331,
        1.3912054
      ],
      [
        103.9903366,
        1.3912075
      ],
      [
        103.9903402,
        1.3912094
      ],
      [
        103.9903439,
        1.3912111
      ],
      [
        103.9903476,
        1.3912126
      ],
      [
        103.9903514,
        1.391214
      ],
      [
        103.9903553,
        1.3912153
      ],
      [
        103.9903593,
        1.3912163
      ],
      [
        103.9903632,
        1.3912172
      ],
      [
        103.9903672,
        1.391218
      ],
      [
        103.9903713,
        1.3912185
      ],
      [
        103.9903753,
        1.3912189
      ],
      [
        103.9903794,
        1.3912191
      ],
      [
        103.9903834,
        1.3912191
      ],
      [
        103.9903875,
        1.3912189
      ],
      [
        103.9903916,
        1.3912186
      ],
      [
        103.9903956,
        1.3912181
      ],
      [
        103.9903996,
        1.3912174
      ],
      [
        103.9904036,
        1.3912166
      ],
      [
        103.9904075,
        1.3912155
      ],
      [
        103.9904114,
        1.3912143
      ],
      [
        103.9904152,
        1.391213
      ],
      [
        103.990419,
        1.3912114
      ],
      [
        103.9904227,
        1.3912098
      ],
      [
        103.9904263,
        1.3912079
      ],
      [
        103.9904299,
        1.3912059
      ],
      [
        103.9904333,
        1.3912037
      ],
      [
        103.9904367,
        1.3912014
      ],
      [
        103.9904399,
        1.391199
      ],
      [
        103.9904431,
        1.3911964
      ],
      [
        103.9904461,
        1.3911937
      ],
      [
        103.990449,
        1.3911909
      ],
      [
        103.9904518,
        1.3911879
      ],
      [
        103.9907075,
        1.3911545
      ],
      [
        103.9908056,
        1.3911427
      ],
      [
        103.9909278,
        1.3911136
      ],
      [
        103.9911383,
        1.3910554
      ],
      [
        103.9913831,
        1.3909504
      ],
      [
        103.9915523,
        1.3908778
      ],
      [
        103.9916389,
        1.3908342
      ],
      [
        103.991693,
        1.3908214
      ],
      [
        103.9917587,
        1.390796
      ],
      [
        103.9917943,
        1.3907645
      ],
      [
        103.9918064,
        1.3907363
      ],
      [
        103.9918096,
        1.3907106
      ],
      [
        103.9918985,
        1.3906759
      ],
      [
        103.9920065,
        1.3906413
      ],
      [
        103.9921099,
        1.3905974
      ],
      [
        103.992213,
        1.3905453
      ],
      [
        103.9923422,
        1.3904808
      ],
      [
        103.9924973,
        1.3903988
      ],
      [
        103.9929426,
        1.3901883
      ],
      [
        103.993164,
        1.3901036
      ],
      [
        103.9935907,
        1.390006
      ],
      [
        103.9937764,
        1.3899876
      ],
      [
        103.994496,
        1.3899123
      ],
      [
        103.994569,
        1.3899057
      ],
      [
        103.994806,
        1.3898859
      ],
      [
        103.9953038,
        1.3898396
      ],
      [
        103.9953996,
        1.3898297
      ],
      [
        103.9957601,
        1.3897925
      ],
      [
        103.9959898,
        1.3897711
      ],
      [
        103.9962104,
        1.3897463
      ],
      [
        103.9964446,
        1.389721
      ],
      [
        103.9969764,
        1.3896538
      ],
      [
        103.9972492,
        1.3896195
      ],
      [
        103.9974292,
        1.3895767
      ],
      [
        103.9976665,
        1.3894976
      ],
      [
        103.997835,
        1.3894126
      ],
      [
        103.997878,
        1.3893909
      ],
      [
        103.9980757,
        1.3892684
      ],
      [
        103.9983322,
        1.3890732
      ],
      [
        103.9984039,
        1.3890108
      ],
      [
        103.9985763,
        1.3888124
      ],
      [
        103.9987727,
        1.3885436
      ],
      [
        103.9989126,
        1.3883271
      ],
      [
        103.9990725,
        1.388071
      ],
      [
        103.999226,
        1.387827
      ],
      [
        103.9992808,
        1.3877424
      ],
      [
        103.9994301,
        1.3875121
      ],
      [
        103.999594,
        1.3872486
      ],
      [
        103.9997833,
        1.3869403
      ],
      [
        103.9998306,
        1.3868584
      ],
      [
        104.0000522,
        1.3865201
      ],
      [
        104.0001219,
        1.3864137
      ],
      [
        104.00018,
        1.3863223
      ],
      [
        104.0000581,
        1.3862843
      ],
      [
        103.9999989,
        1.3862645
      ],
      [
        103.9998944,
        1.3862296
      ],
      [
        103.9997777,
        1.3861953
      ],
      [
        103.9997436,
        1.3861649
      ],
      [
        103.9997089,
        1.3861168
      ],
      [
        103.9996946,
        1.3860679
      ],
      [
        103.9996946,
        1.3859986
      ],
      [
        103.9997164,
        1.3859102
      ],
      [
        103.9997749,
        1.3857386
      ],
      [
        103.999857,
        1.3854928
      ],
      [
        103.9998585,
        1.3854665
      ],
      [
        103.9998556,
        1.3854391
      ],
      [
        103.9998303,
        1.3853365
      ],
      [
        103.999601,
        1.3847611
      ],
      [
        103.999506,
        1.384538
      ],
      [
        103.9991231,
        1.3836627
      ],
      [
        103.998709,
        1.3827591
      ],
      [
        103.9984751,
        1.3822222
      ],
      [
        103.9983542,
        1.3819654
      ],
      [
        103.9979741,
        1.3810778
      ],
      [
        103.997021,
        1.378754
      ],
      [
        103.9964961,
        1.3775213
      ],
      [
        103.9959517,
        1.3762428
      ],
      [
        103.9957589,
        1.3757899
      ],
      [
        103.9956712,
        1.3755839
      ],
      [
        103.9956494,
        1.3755205
      ],
      [
        103.9956555,
        1.3754407
      ],
      [
        103.9956795,
        1.3753744
      ],
      [
        103.9957485,
        1.3753122
      ],
      [
        103.996365,
        1.3750526
      ]
    ]
  }
}